{"type":"FeatureCollection","name":"Tỉnh lộ","metadata":{"source":"https://hatang.vinhlong.gov.vn/","downloaded_at":"2026-07-20T01:11:11+00:00","layer_id":156,"layer_name":"Tỉnh lộ","catalog_endpoints":["/map/publicLayers2?inputs=sgtvt"],"requested_bbox":[104.0,8.0,108.0,12.0],"tile_size":0.0,"tile_count":1,"tile_errors":[],"feature_count":14,"coordinate_order":"x,y (thường là longitude,latitude theo cấu hình EPSG:4326 của WebGIS)"},"features":[{"type":"Feature","geometry":{"type":"LineString","coordinates":[[105.989089966,10.228992462],[105.996643066,10.20873642],[106.016899109,10.189510345]]},"properties":{"Mã tỉnh lộ":"53","Tên tỉnh lộ":"Lộ 53","Điểm đầu":null,"Điểm cuối":null,"layer_id":156,"fid":25,"label":"Lộ 53"}},{"type":"Feature","geometry":{"type":"LineString","coordinates":[[105.989089966,10.228992462],[105.996643066,10.20873642],[106.016899109,10.189510345]]},"properties":{"Mã tỉnh lộ":"TL901","Tên tỉnh lộ":"Đường tỉnh 901","Điểm đầu":null,"Điểm cuối":null,"layer_id":156,"fid":26,"label":"Đường tỉnh 901"}},{"type":"Feature","geometry":{"type":"LineString","coordinates":[[105.989089966,10.228992462],[105.996643066,10.20873642],[106.016899109,10.189510345]]},"properties":{"Mã tỉnh lộ":"TL902","Tên tỉnh lộ":"Đường tỉnh 902","Điểm đầu":null,"Điểm cuối":null,"layer_id":156,"fid":27,"label":"Đường tỉnh 902"}},{"type":"Feature","geometry":{"type":"LineString","coordinates":[[105.989089966,10.228992462],[105.996643066,10.20873642],[106.016899109,10.189510345]]},"properties":{"Mã tỉnh lộ":"TL903","Tên tỉnh lộ":"Đường tỉnh 903","Điểm đầu":null,"Điểm cuối":null,"layer_id":156,"fid":28,"label":"Đường tỉnh 903"}},{"type":"Feature","geometry":{"type":"LineString","coordinates":[[105.989089966,10.228992462],[105.996643066,10.20873642],[106.016899109,10.189510345]]},"properties":{"Mã tỉnh lộ":"TL904","Tên tỉnh lộ":"Đường tỉnh 904","Điểm đầu":null,"Điểm cuối":null,"layer_id":156,"fid":29,"label":"Đường tỉnh 904"}},{"type":"Feature","geometry":{"type":"LineString","coordinates":[[105.989089966,10.228992462],[105.996643066,10.20873642],[106.016899109,10.189510345]]},"properties":{"Mã tỉnh lộ":"TL905","Tên tỉnh lộ":"Đường tỉnh 905","Điểm đầu":null,"Điểm cuối":null,"layer_id":156,"fid":30,"label":"Đường tỉnh 905"}},{"type":"Feature","geometry":{"type":"LineString","coordinates":[[105.989089966,10.228992462],[105.996643066,10.20873642],[106.016899109,10.189510345]]},"properties":{"Mã tỉnh lộ":"TLCK","Tên tỉnh lộ":"Đường 8/3","Điểm đầu":null,"Điểm cuối":null,"layer_id":156,"fid":38,"label":"Đường 8/3"}},{"type":"Feature","geometry":{"type":"LineString","coordinates":[[105.989089966,10.228992462],[105.996643066,10.20873642],[106.016899109,10.189510345]]},"properties":{"Mã tỉnh lộ":"TL906","Tên tỉnh lộ":"Đường tỉnh 906","Điểm đầu":null,"Điểm cuối":null,"layer_id":156,"fid":31,"label":"Đường tỉnh 906"}},{"type":"Feature","geometry":{"type":"LineString","coordinates":[[105.989089966,10.228992462],[105.996643066,10.20873642],[106.016899109,10.189510345]]},"properties":{"Mã tỉnh lộ":"TL907","Tên tỉnh lộ":"Đường tỉnh 907","Điểm đầu":null,"Điểm cuối":null,"layer_id":156,"fid":32,"label":"Đường tỉnh 907"}},{"type":"Feature","geometry":{"type":"LineString","coordinates":[[105.989089966,10.228992462],[105.996643066,10.20873642],[106.016899109,10.189510345]]},"properties":{"Mã tỉnh lộ":"TL908","Tên tỉnh lộ":"Đường tỉnh 908","Điểm đầu":null,"Điểm cuối":null,"layer_id":156,"fid":33,"label":"Đường tỉnh 908"}},{"type":"Feature","geometry":{"type":"LineString","coordinates":[[105.989089966,10.228992462],[105.996643066,10.20873642],[106.016899109,10.189510345]]},"properties":{"Mã tỉnh lộ":"TL909","Tên tỉnh lộ":"Đường tỉnh 909","Điểm đầu":null,"Điểm cuối":null,"layer_id":156,"fid":34,"label":"Đường tỉnh 909"}},{"type":"Feature","geometry":{"type":"LineString","coordinates":[[105.989089966,10.228992462],[105.996643066,10.20873642],[106.016899109,10.189510345]]},"properties":{"Mã tỉnh lộ":"TL910","Tên tỉnh lộ":"Đường tỉnh 910","Điểm đầu":null,"Điểm cuối":null,"layer_id":156,"fid":35,"label":"Đường tỉnh 910"}},{"type":"Feature","geometry":{"type":"LineString","coordinates":[[105.989089966,10.228992462],[105.996643066,10.20873642],[106.016899109,10.189510345]]},"properties":{"Mã tỉnh lộ":"TLCBL","Tên tỉnh lộ":"Đường Phạm Hùng","Điểm đầu":null,"Điểm cuối":null,"layer_id":156,"fid":36,"label":"Đường Phạm Hùng"}},{"type":"Feature","geometry":{"type":"LineString","coordinates":[[106.012229919,10.191896439],[106.000385284,10.187433243],[105.983905792,10.177476883],[105.974121094,10.156019211],[105.963993073,10.124605179],[105.968799591,10.114305496],[105.963993073,10.099714279],[105.959907532,10.09180069],[105.952697754,10.095920563],[105.946174622,10.092830658],[105.947547913,10.083560944],[105.938278198,10.072231293],[105.932441711,10.056438446],[105.933815002,10.048885345],[105.922828674,10.047512054],[105.924201965,10.042362213],[105.901885986,10.036869049],[105.893989563,10.02828598],[105.894744873,10.014347076],[105.884101868,9.993747711]]},"properties":{"Mã tỉnh lộ":"D909","Tên tỉnh lộ":"Đường 909","Điểm đầu":null,"Điểm cuối":null,"layer_id":156,"fid":51,"label":"Đường 909"}}]}
