{"type":"FeatureCollection","name":"Cơ sở chăn nuôi bò","metadata":{"source":"https://hatang.vinhlong.gov.vn/","downloaded_at":"2026-07-20T01:11:52+00:00","layer_id":219,"layer_name":"Cơ sở chăn nuôi bò","catalog_endpoints":["/map/publicLayers2?inputs=thu_y"],"requested_bbox":[104.0,8.0,108.0,12.0],"tile_size":0.0,"tile_count":1,"tile_errors":[],"feature_count":295,"coordinate_order":"x,y (thường là longitude,latitude theo cấu hình EPSG:4326 của WebGIS)"},"features":[{"type":"Feature","id":689,"geometry":{"type":"Point","coordinates":[105.803657,10.149914]},"properties":{"Tên cơ sở":"Nguyễn Văn Của","Địa chỉ":"Hòa An, Xã Nguyễn Văn Thảnh, Bình Tân","Tổng đàn":25,"Bò thịt":25,"Bò cái sinh sản":0,"layer_id":219,"fid":689,"label":"Nguyễn Văn Của"}},{"type":"Feature","id":690,"geometry":{"type":"Point","coordinates":[10.079661,10.079661]},"properties":{"Tên cơ sở":"Le Thanh Triều","Địa chỉ":"Mỹ Tân","Tổng đàn":29,"Bò thịt":15,"Bò cái sinh sản":14,"layer_id":219,"fid":690,"label":"Le Thanh Triều"}},{"type":"Feature","id":692,"geometry":{"type":"Point","coordinates":[105.774955,10.183582]},"properties":{"Tên cơ sở":"Trần Minh Tài","Địa chỉ":"Tân Lập, Xã Tân Thành, Bình Tân","Tổng đàn":15,"Bò thịt":10,"Bò cái sinh sản":5,"layer_id":219,"fid":692,"label":"Trần Minh Tài"}},{"type":"Feature","id":693,"geometry":{"type":"Point","coordinates":[105.978131,10.266407]},"properties":{"Tên cơ sở":"Nguyễn Trọng Hữu","Địa chỉ":"An Thạnh, Xã An Bình, Long Hồ","Tổng đàn":11,"Bò thịt":7,"Bò cái sinh sản":4,"layer_id":219,"fid":693,"label":"Nguyễn Trọng Hữu"}},{"type":"Feature","id":694,"geometry":{"type":"Point","coordinates":[105.948073,10.156581]},"properties":{"Tên cơ sở":"Trần Hoàng Lĩnh","Địa chỉ":"Hoà Hưng, Xã Hòa Phú, Long Hồ","Tổng đàn":13,"Bò thịt":6,"Bò cái sinh sản":7,"layer_id":219,"fid":694,"label":"Trần Hoàng Lĩnh"}},{"type":"Feature","id":695,"geometry":{"type":"Point","coordinates":[105.920822,10.144302]},"properties":{"Tên cơ sở":"Nguyễn Văn Vẹn","Địa chỉ":"Phú Hưng, Xã Phú Quới, Long Hồ","Tổng đàn":13,"Bò thịt":6,"Bò cái sinh sản":7,"layer_id":219,"fid":695,"label":"Nguyễn Văn Vẹn"}},{"type":"Feature","id":696,"geometry":{"type":"Point","coordinates":[105.928732,10.146752]},"properties":{"Tên cơ sở":"Dương Minh Tâm","Địa chỉ":"Phú Hưng, Xã Hòa Phú, Long Hồ","Tổng đàn":10,"Bò thịt":4,"Bò cái sinh sản":6,"layer_id":219,"fid":696,"label":"Dương Minh Tâm"}},{"type":"Feature","id":697,"geometry":{"type":"Point","coordinates":[105.92238,10.148384]},"properties":{"Tên cơ sở":"Nguyễn Văn Rồng","Địa chỉ":"Phú Hưng, Xã Hòa Phú, Long Hồ","Tổng đàn":12,"Bò thịt":3,"Bò cái sinh sản":9,"layer_id":219,"fid":697,"label":"Nguyễn Văn Rồng"}},{"type":"Feature","id":698,"geometry":{"type":"Point","coordinates":[105.928732,10.146752]},"properties":{"Tên cơ sở":"Dương Tấn Dô","Địa chỉ":"Phú Hưng, Xã Hòa Phú, Long Hồ","Tổng đàn":15,"Bò thịt":5,"Bò cái sinh sản":10,"layer_id":219,"fid":698,"label":"Dương Tấn Dô"}},{"type":"Feature","id":699,"geometry":{"type":"Point","coordinates":[105.94045,10.17817]},"properties":{"Tên cơ sở":"Nguyễn Hoàng Dân","Địa chỉ":"Phước Hoà, Xã Hòa Phú, Long Hồ","Tổng đàn":10,"Bò thịt":3,"Bò cái sinh sản":7,"layer_id":219,"fid":699,"label":"Nguyễn Hoàng Dân"}},{"type":"Feature","id":700,"geometry":{"type":"Point","coordinates":[105.948979,10.178003]},"properties":{"Tên cơ sở":"Võ Minh Tùng","Địa chỉ":"Phước Lộc, Xã Hòa Phú, Long Hồ","Tổng đàn":10,"Bò thịt":4,"Bò cái sinh sản":6,"layer_id":219,"fid":700,"label":"Võ Minh Tùng"}},{"type":"Feature","id":701,"geometry":{"type":"Point","coordinates":[105.952787,10.174984]},"properties":{"Tên cơ sở":"Lê Văn Hiệp","Địa chỉ":"Phước Lộc, Xã Hòa Phú, Long Hồ","Tổng đàn":10,"Bò thịt":10,"Bò cái sinh sản":0,"layer_id":219,"fid":701,"label":"Lê Văn Hiệp"}},{"type":"Feature","id":702,"geometry":{"type":"Point","coordinates":[105.953565,10.166554]},"properties":{"Tên cơ sở":"Nguyễn Trung Thành","Địa chỉ":"Thạnh Phú, Xã Hòa Phú, Long Hồ","Tổng đàn":10,"Bò thịt":6,"Bò cái sinh sản":4,"layer_id":219,"fid":702,"label":"Nguyễn Trung Thành"}},{"type":"Feature","id":703,"geometry":{"type":"Point","coordinates":[105.953565,10.166554]},"properties":{"Tên cơ sở":"Nguyễn Công Hà","Địa chỉ":"Thạnh Phú, Xã Hòa Phú, Long Hồ","Tổng đàn":13,"Bò thịt":7,"Bò cái sinh sản":6,"layer_id":219,"fid":703,"label":"Nguyễn Công Hà"}},{"type":"Feature","id":704,"geometry":{"type":"Point","coordinates":[105.922922,10.146559]},"properties":{"Tên cơ sở":"Võ Văn Tám","Địa chỉ":"Thạnh Phú, Xã Hòa Phú, Long Hồ","Tổng đàn":10,"Bò thịt":7,"Bò cái sinh sản":3,"layer_id":219,"fid":704,"label":"Võ Văn Tám"}},{"type":"Feature","id":705,"geometry":{"type":"Point","coordinates":[105.940778,10.184528]},"properties":{"Tên cơ sở":"Nguyễn Thanh Bình","Địa chỉ":"Long Hòa, Xã Lộc Hòa, Long Hồ","Tổng đàn":10,"Bò thịt":5,"Bò cái sinh sản":5,"layer_id":219,"fid":705,"label":"Nguyễn Thanh Bình"}},{"type":"Feature","id":706,"geometry":{"type":"Point","coordinates":[105.93342,10.196712]},"properties":{"Tên cơ sở":"Trần Bá Duy Quang","Địa chỉ":"Phước Bình, Xã Lộc Hòa, Long Hồ","Tổng đàn":20,"Bò thịt":8,"Bò cái sinh sản":12,"layer_id":219,"fid":706,"label":"Trần Bá Duy Quang"}},{"type":"Feature","id":707,"geometry":{"type":"Point","coordinates":[105.933085,10.196113]},"properties":{"Tên cơ sở":"Trần Bá Duy Tân","Địa chỉ":"Phước Bình, Xã Lộc Hòa, Long Hồ","Tổng đàn":11,"Bò thịt":6,"Bò cái sinh sản":5,"layer_id":219,"fid":707,"label":"Trần Bá Duy Tân"}},{"type":"Feature","id":708,"geometry":{"type":"Point","coordinates":[105.932777,10.188682]},"properties":{"Tên cơ sở":"Lê Văn Minh Hùng","Địa chỉ":"Phước Bình, Xã Lộc Hòa, Long Hồ","Tổng đàn":11,"Bò thịt":5,"Bò cái sinh sản":6,"layer_id":219,"fid":708,"label":"Lê Văn Minh Hùng"}},{"type":"Feature","id":709,"geometry":{"type":"Point","coordinates":[105.932752,10.19572]},"properties":{"Tên cơ sở":"Nguyễn Tấn Phúc","Địa chỉ":"Phước Hiệp, Xã Lộc Hòa, Long Hồ","Tổng đàn":20,"Bò thịt":12,"Bò cái sinh sản":8,"layer_id":219,"fid":709,"label":"Nguyễn Tấn Phúc"}},{"type":"Feature","id":710,"geometry":{"type":"Point","coordinates":[105.951236,10.192575]},"properties":{"Tên cơ sở":"Nguyễn Tuấn Hải","Địa chỉ":"Phước Long, Xã Lộc Hòa, Long Hồ","Tổng đàn":18,"Bò thịt":10,"Bò cái sinh sản":8,"layer_id":219,"fid":710,"label":"Nguyễn Tuấn Hải"}},{"type":"Feature","id":711,"geometry":{"type":"Point","coordinates":[105.962665,10.175861]},"properties":{"Tên cơ sở":"Biện Công Bình","Địa chỉ":"Phước Thạnh, Xã Lộc Hòa, Long Hồ","Tổng đàn":12,"Bò thịt":4,"Bò cái sinh sản":8,"layer_id":219,"fid":711,"label":"Biện Công Bình"}},{"type":"Feature","id":712,"geometry":{"type":"Point","coordinates":[106.031014,10.14704]},"properties":{"Tên cơ sở":"Trần Thanh Phú","Địa chỉ":"An Hiệp, Xã Long An, Long Hồ","Tổng đàn":13,"Bò thịt":3,"Bò cái sinh sản":10,"layer_id":219,"fid":712,"label":"Trần Thanh Phú"}},{"type":"Feature","id":713,"geometry":{"type":"Point","coordinates":[106.019697,10.168158]},"properties":{"Tên cơ sở":"Phạm Hồng Chính","Địa chỉ":"An Phú A, Xã Long An, Long Hồ","Tổng đàn":10,"Bò thịt":4,"Bò cái sinh sản":6,"layer_id":219,"fid":713,"label":"Phạm Hồng Chính"}},{"type":"Feature","id":714,"geometry":{"type":"Point","coordinates":[106.008588,10.158841]},"properties":{"Tên cơ sở":"Nguyễn Thanh Đông","Địa chỉ":"An Phú B, Xã Long An, Long Hồ","Tổng đàn":11,"Bò thịt":3,"Bò cái sinh sản":8,"layer_id":219,"fid":714,"label":"Nguyễn Thanh Đông"}},{"type":"Feature","id":715,"geometry":{"type":"Point","coordinates":[106.006142,10.139301]},"properties":{"Tên cơ sở":"Nguyễn Hoàng Thanh","Địa chỉ":"Hậu Thành, Xã Long An, Long Hồ","Tổng đàn":14,"Bò thịt":5,"Bò cái sinh sản":9,"layer_id":219,"fid":715,"label":"Nguyễn Hoàng Thanh"}},{"type":"Feature","id":716,"geometry":{"type":"Point","coordinates":[106.006664,10.15673]},"properties":{"Tên cơ sở":"Nguyên Văn Quí","Địa chỉ":"Hậu Thành, Xã Long An, Long Hồ","Tổng đàn":14,"Bò thịt":14,"Bò cái sinh sản":0,"layer_id":219,"fid":716,"label":"Nguyên Văn Quí"}},{"type":"Feature","id":717,"geometry":{"type":"Point","coordinates":[106.006971,10.145057]},"properties":{"Tên cơ sở":"Nguyễn Văn Nữa","Địa chỉ":"Long Tân, Xã Long An, Long Hồ","Tổng đàn":14,"Bò thịt":5,"Bò cái sinh sản":9,"layer_id":219,"fid":717,"label":"Nguyễn Văn Nữa"}},{"type":"Feature","id":718,"geometry":{"type":"Point","coordinates":[106.007309,10.134487]},"properties":{"Tên cơ sở":"Nguyễn Văn Thiện","Địa chỉ":"Long Tân, Xã Long An, Long Hồ","Tổng đàn":11,"Bò thịt":7,"Bò cái sinh sản":4,"layer_id":219,"fid":718,"label":"Nguyễn Văn Thiện"}},{"type":"Feature","id":719,"geometry":{"type":"Point","coordinates":[106.014996,10.151806]},"properties":{"Tên cơ sở":"Nguyễn Thanh Quân","Địa chỉ":"Long Tân, Xã Long An, Long Hồ","Tổng đàn":10,"Bò thịt":2,"Bò cái sinh sản":8,"layer_id":219,"fid":719,"label":"Nguyễn Thanh Quân"}},{"type":"Feature","id":720,"geometry":{"type":"Point","coordinates":[105.980314,10.208673]},"properties":{"Tên cơ sở":"Đặng Văn Thuận","Địa chỉ":"Phước Ngươn , Xã Long Phước, Long Hồ","Tổng đàn":14,"Bò thịt":7,"Bò cái sinh sản":7,"layer_id":219,"fid":720,"label":"Đặng Văn Thuận"}},{"type":"Feature","id":721,"geometry":{"type":"Point","coordinates":[105.983622,10.221357]},"properties":{"Tên cơ sở":"Trương Văn Ngọc","Địa chỉ":"Phước Ngươn , Xã Long Phước, Long Hồ","Tổng đàn":11,"Bò thịt":5,"Bò cái sinh sản":6,"layer_id":219,"fid":721,"label":"Trương Văn Ngọc"}},{"type":"Feature","id":722,"geometry":{"type":"Point","coordinates":[105.985223,10.214795]},"properties":{"Tên cơ sở":"Trần Văn Qui ","Địa chỉ":"Phước Ngươn , Xã Long Phước, Long Hồ","Tổng đàn":10,"Bò thịt":6,"Bò cái sinh sản":4,"layer_id":219,"fid":722,"label":"Trần Văn Qui "}},{"type":"Feature","id":723,"geometry":{"type":"Point","coordinates":[105.976149,10.215436]},"properties":{"Tên cơ sở":"Nguyễn Văn Thuận","Địa chỉ":"Phước Ngươn B, Xã Long Phước, Long Hồ","Tổng đàn":11,"Bò thịt":6,"Bò cái sinh sản":5,"layer_id":219,"fid":723,"label":"Nguyễn Văn Thuận"}},{"type":"Feature","id":724,"geometry":{"type":"Point","coordinates":[105.976157,10.214703]},"properties":{"Tên cơ sở":"Trần Hữu Đức","Địa chỉ":"Phước Trinh, Xã Long Phước, Long Hồ","Tổng đàn":15,"Bò thịt":7,"Bò cái sinh sản":8,"layer_id":219,"fid":724,"label":"Trần Hữu Đức"}},{"type":"Feature","id":725,"geometry":{"type":"Point","coordinates":[105.995235,10.20112]},"properties":{"Tên cơ sở":"Nguyễn Minh Trí","Địa chỉ":"An Thạnh, Thị trấn Long Hồ, Long Hồ","Tổng đàn":10,"Bò thịt":5,"Bò cái sinh sản":5,"layer_id":219,"fid":725,"label":"Nguyễn Minh Trí"}},{"type":"Feature","id":726,"geometry":{"type":"Point","coordinates":[105.986305,10.179861]},"properties":{"Tên cơ sở":"Nguyễn Phi Khanh","Địa chỉ":"An Thuận, Xã Phú Đức, Long Hồ","Tổng đàn":10,"Bò thịt":6,"Bò cái sinh sản":4,"layer_id":219,"fid":726,"label":"Nguyễn Phi Khanh"}},{"type":"Feature","id":727,"geometry":{"type":"Point","coordinates":[105.980682,10.15323]},"properties":{"Tên cơ sở":"Tiêu Như Sơn","Địa chỉ":"Thông Quan, Xã Phú Đức, Long Hồ","Tổng đàn":10,"Bò thịt":9,"Bò cái sinh sản":1,"layer_id":219,"fid":727,"label":"Tiêu Như Sơn"}},{"type":"Feature","id":728,"geometry":{"type":"Point","coordinates":[105.922561,10.149206]},"properties":{"Tên cơ sở":"Lê Thanh Tần","Địa chỉ":"Phú Long B, Xã Phú Quới, Long Hồ","Tổng đàn":12,"Bò thịt":4,"Bò cái sinh sản":8,"layer_id":219,"fid":728,"label":"Lê Thanh Tần"}},{"type":"Feature","id":729,"geometry":{"type":"Point","coordinates":[105.907015,10.171147]},"properties":{"Tên cơ sở":"Nguyễn Quan Toàn","Địa chỉ":"Phú Thạnh B, Xã Phú Quới, Long Hồ","Tổng đàn":10,"Bò thịt":6,"Bò cái sinh sản":4,"layer_id":219,"fid":729,"label":"Nguyễn Quan Toàn"}},{"type":"Feature","id":730,"geometry":{"type":"Point","coordinates":[105.926077,10.179765]},"properties":{"Tên cơ sở":"Nguyễn Phúc Trường","Địa chỉ":"Phước Bình A, Xã Phú Quới, Long Hồ","Tổng đàn":14,"Bò thịt":6,"Bò cái sinh sản":8,"layer_id":219,"fid":730,"label":"Nguyễn Phúc Trường"}},{"type":"Feature","id":731,"geometry":{"type":"Point","coordinates":[105.9278,10.178484]},"properties":{"Tên cơ sở":"Nguyễn Văn Mực","Địa chỉ":"Phước Yên B, Xã Phú Quới, Long Hồ","Tổng đàn":60,"Bò thịt":35,"Bò cái sinh sản":25,"layer_id":219,"fid":731,"label":"Nguyễn Văn Mực"}},{"type":"Feature","id":732,"geometry":{"type":"Point","coordinates":[105.924598,10.172665]},"properties":{"Tên cơ sở":"Phạm Văn Rồng","Địa chỉ":"Phước Yên B, Xã Phú Quới, Long Hồ","Tổng đàn":10,"Bò thịt":4,"Bò cái sinh sản":6,"layer_id":219,"fid":732,"label":"Phạm Văn Rồng"}},{"type":"Feature","id":733,"geometry":{"type":"Point","coordinates":[105.94084,10.232603]},"properties":{"Tên cơ sở":"Nguyễn Văn Sáu ","Địa chỉ":"Tân An , Xã Tân Hạnh, Long Hồ","Tổng đàn":10,"Bò thịt":6,"Bò cái sinh sản":4,"layer_id":219,"fid":733,"label":"Nguyễn Văn Sáu "}},{"type":"Feature","id":734,"geometry":{"type":"Point","coordinates":[105.935341,10.236238]},"properties":{"Tên cơ sở":"Lê Văn Nhựt ","Địa chỉ":"Tân An , Xã Tân Hạnh, Long Hồ","Tổng đàn":15,"Bò thịt":7,"Bò cái sinh sản":8,"layer_id":219,"fid":734,"label":"Lê Văn Nhựt "}},{"type":"Feature","id":735,"geometry":{"type":"Point","coordinates":[105.926041,10.214141]},"properties":{"Tên cơ sở":"Nguyễn Minh Thành ","Địa chỉ":"Tân Hoà , Xã Tân Hạnh, Long Hồ","Tổng đàn":10,"Bò thịt":3,"Bò cái sinh sản":7,"layer_id":219,"fid":735,"label":"Nguyễn Minh Thành "}},{"type":"Feature","id":736,"geometry":{"type":"Point","coordinates":[105.934252,10.217508]},"properties":{"Tên cơ sở":"Võ Tiến Đạt ","Địa chỉ":"Tân Hoà , Xã Tân Hạnh, Long Hồ","Tổng đàn":10,"Bò thịt":3,"Bò cái sinh sản":7,"layer_id":219,"fid":736,"label":"Võ Tiến Đạt "}},{"type":"Feature","id":737,"geometry":{"type":"Point","coordinates":[105.924681,10.235336]},"properties":{"Tên cơ sở":"Phạm Văn Thuận ","Địa chỉ":"Tân Nhơn, Xã Tân Hạnh, Long Hồ","Tổng đàn":11,"Bò thịt":4,"Bò cái sinh sản":7,"layer_id":219,"fid":737,"label":"Phạm Văn Thuận "}},{"type":"Feature","id":738,"geometry":{"type":"Point","coordinates":[105.916833,10.231729]},"properties":{"Tên cơ sở":"Võ Văn Tám","Địa chỉ":"Tân Nhơn, Xã Tân Hạnh, Long Hồ","Tổng đàn":11,"Bò thịt":6,"Bò cái sinh sản":5,"layer_id":219,"fid":738,"label":"Võ Văn Tám"}},{"type":"Feature","id":739,"geometry":{"type":"Point","coordinates":[105.923467,10.23243]},"properties":{"Tên cơ sở":"Phạm Hùng Vương","Địa chỉ":"Tân Nhơn, Xã Tân Hạnh, Long Hồ","Tổng đàn":11,"Bò thịt":5,"Bò cái sinh sản":6,"layer_id":219,"fid":739,"label":"Phạm Hùng Vương"}},{"type":"Feature","id":740,"geometry":{"type":"Point","coordinates":[106.008138,10.23685]},"properties":{"Tên cơ sở":"Huỳnh Tấn Lực","Địa chỉ":"Long Hưng, Xã Thanh Đức, Long Hồ","Tổng đàn":21,"Bò thịt":12,"Bò cái sinh sản":9,"layer_id":219,"fid":740,"label":"Huỳnh Tấn Lực"}},{"type":"Feature","id":741,"geometry":{"type":"Point","coordinates":[105.995404,10.245779]},"properties":{"Tên cơ sở":"Võ Văn Danh","Địa chỉ":"Long Hưng, Xã Thanh Đức, Long Hồ","Tổng đàn":25,"Bò thịt":15,"Bò cái sinh sản":10,"layer_id":219,"fid":741,"label":"Võ Văn Danh"}},{"type":"Feature","id":742,"geometry":{"type":"Point","coordinates":[106.005478,10.228932]},"properties":{"Tên cơ sở":"Huỳnh Thanh Hiếu","Địa chỉ":"Long Quới, Xã Thanh Đức, Long Hồ","Tổng đàn":10,"Bò thịt":0,"Bò cái sinh sản":10,"layer_id":219,"fid":742,"label":"Huỳnh Thanh Hiếu"}},{"type":"Feature","id":743,"geometry":{"type":"Point","coordinates":[106.001034,10.231282]},"properties":{"Tên cơ sở":"Huỳnh Văn Chí","Địa chỉ":"Long Quới, Xã Thanh Đức, Long Hồ","Tổng đàn":10,"Bò thịt":0,"Bò cái sinh sản":10,"layer_id":219,"fid":743,"label":"Huỳnh Văn Chí"}},{"type":"Feature","id":744,"geometry":{"type":"Point","coordinates":[106.003454,10.253339]},"properties":{"Tên cơ sở":"Nguyễn Thanh Trọng","Địa chỉ":"Thanh Mỹ 1, Xã Thanh Đức, Long Hồ","Tổng đàn":10,"Bò thịt":4,"Bò cái sinh sản":6,"layer_id":219,"fid":744,"label":"Nguyễn Thanh Trọng"}},{"type":"Feature","id":745,"geometry":{"type":"Point","coordinates":[105.999191,10.205526]},"properties":{"Tên cơ sở":"Nguyễn Văn Vinh","Địa chỉ":"Khóm 6, Thị trấn Long Hồ, Long Hồ","Tổng đàn":43,"Bò thịt":37,"Bò cái sinh sản":6,"layer_id":219,"fid":745,"label":"Nguyễn Văn Vinh"}},{"type":"Feature","id":746,"geometry":{"type":"Point","coordinates":[106.105618,10.228144]},"properties":{"Tên cơ sở":"Bạch Văn Khá","Địa chỉ":"Định Thới A, Xã An Phước, Mang Thít","Tổng đàn":10,"Bò thịt":7,"Bò cái sinh sản":3,"layer_id":219,"fid":746,"label":"Bạch Văn Khá"}},{"type":"Feature","id":747,"geometry":{"type":"Point","coordinates":[106.131204,10.187392]},"properties":{"Tên cơ sở":"Nguyễn Công Thành","Địa chỉ":"Phước Thủy, Xã An Phước, Mang Thít","Tổng đàn":12,"Bò thịt":6,"Bò cái sinh sản":6,"layer_id":219,"fid":747,"label":"Nguyễn Công Thành"}},{"type":"Feature","id":748,"geometry":{"type":"Point","coordinates":[106.123856,10.218745]},"properties":{"Tên cơ sở":"Nguyễn Văn Được","Địa chỉ":"Thủy Thuận, Xã An Phước, Mang Thít","Tổng đàn":12,"Bò thịt":8,"Bò cái sinh sản":4,"layer_id":219,"fid":748,"label":"Nguyễn Văn Được"}},{"type":"Feature","id":749,"geometry":{"type":"Point","coordinates":[106.127325,10.215564]},"properties":{"Tên cơ sở":"Lê Văn Chét","Địa chỉ":"Thủy Thuận, Xã An Phước, Mang Thít","Tổng đàn":12,"Bò thịt":7,"Bò cái sinh sản":5,"layer_id":219,"fid":749,"label":"Lê Văn Chét"}},{"type":"Feature","id":750,"geometry":{"type":"Point","coordinates":[106.057744,10.186968]},"properties":{"Tên cơ sở":"Hồ Văn Kiệt","Địa chỉ":"Phước Chí, Xã Bình Phước, Mang Thít","Tổng đàn":10,"Bò thịt":2,"Bò cái sinh sản":8,"layer_id":219,"fid":750,"label":"Hồ Văn Kiệt"}},{"type":"Feature","id":751,"geometry":{"type":"Point","coordinates":[106.057714,10.187372]},"properties":{"Tên cơ sở":"Hồ Tuấn Minh","Địa chỉ":"Phước Chí, Xã Bình Phước, Mang Thít","Tổng đàn":21,"Bò thịt":11,"Bò cái sinh sản":10,"layer_id":219,"fid":751,"label":"Hồ Tuấn Minh"}},{"type":"Feature","id":752,"geometry":{"type":"Point","coordinates":[106.055902,10.178369]},"properties":{"Tên cơ sở":"Huỳnh Tấn Lợi","Địa chỉ":"Phước Chí, Xã Bình Phước, Mang Thít","Tổng đàn":15,"Bò thịt":10,"Bò cái sinh sản":5,"layer_id":219,"fid":752,"label":"Huỳnh Tấn Lợi"}},{"type":"Feature","id":753,"geometry":{"type":"Point","coordinates":[106.054487,10.180252]},"properties":{"Tên cơ sở":"Nguyễn Văn Bé","Địa chỉ":"Phước Chí, Xã Bình Phước, Mang Thít","Tổng đàn":12,"Bò thịt":4,"Bò cái sinh sản":8,"layer_id":219,"fid":753,"label":"Nguyễn Văn Bé"}},{"type":"Feature","id":754,"geometry":{"type":"Point","coordinates":[106.070258,10.181411]},"properties":{"Tên cơ sở":"Ngô Ngọc Bình","Địa chỉ":"Phước Thới, Xã Bình Phước, Mang Thít","Tổng đàn":12,"Bò thịt":4,"Bò cái sinh sản":8,"layer_id":219,"fid":754,"label":"Ngô Ngọc Bình"}},{"type":"Feature","id":755,"geometry":{"type":"Point","coordinates":[106.055559,10.186531]},"properties":{"Tên cơ sở":"Thái Văn Hồng","Địa chỉ":"Phước Thượng, Xã Bình Phước, Mang Thít","Tổng đàn":11,"Bò thịt":10,"Bò cái sinh sản":1,"layer_id":219,"fid":755,"label":"Thái Văn Hồng"}},{"type":"Feature","id":756,"geometry":{"type":"Point","coordinates":[106.055499,10.186469]},"properties":{"Tên cơ sở":"Thái Văn Tâm","Địa chỉ":"Phước Thượng, Xã Bình Phước, Mang Thít","Tổng đàn":14,"Bò thịt":4,"Bò cái sinh sản":10,"layer_id":219,"fid":756,"label":"Thái Văn Tâm"}},{"type":"Feature","id":757,"geometry":{"type":"Point","coordinates":[106.047902,10.192535]},"properties":{"Tên cơ sở":"Nguyễn Văn Tùng","Địa chỉ":"Phước Thượng, Xã Bình Phước, Mang Thít","Tổng đàn":20,"Bò thịt":8,"Bò cái sinh sản":12,"layer_id":219,"fid":757,"label":"Nguyễn Văn Tùng"}},{"type":"Feature","id":758,"geometry":{"type":"Point","coordinates":[106.166465,10.169885]},"properties":{"Tên cơ sở":"Nguyễn Văn Điền","Địa chỉ":"Mỹ Long, Xã Chánh An, Mang Thít","Tổng đàn":10,"Bò thịt":7,"Bò cái sinh sản":3,"layer_id":219,"fid":758,"label":"Nguyễn Văn Điền"}},{"type":"Feature","id":759,"geometry":{"type":"Point","coordinates":[106.166462,10.169879]},"properties":{"Tên cơ sở":"Trương Diệp Phương","Địa chỉ":"Mỹ Long, Xã Chánh An, Mang Thít","Tổng đàn":11,"Bò thịt":8,"Bò cái sinh sản":3,"layer_id":219,"fid":759,"label":"Trương Diệp Phương"}},{"type":"Feature","id":760,"geometry":{"type":"Point","coordinates":[106.158064,10.173485]},"properties":{"Tên cơ sở":"Phan Văn Mười","Địa chỉ":"Tân An, Xã Chánh An, Mang Thít","Tổng đàn":10,"Bò thịt":6,"Bò cái sinh sản":4,"layer_id":219,"fid":760,"label":"Phan Văn Mười"}},{"type":"Feature","id":761,"geometry":{"type":"Point","coordinates":[106.154406,10.158543]},"properties":{"Tên cơ sở":"Trần Văn Cảnh","Địa chỉ":"Tân Mỹ, Xã Chánh An, Mang Thít","Tổng đàn":12,"Bò thịt":9,"Bò cái sinh sản":3,"layer_id":219,"fid":761,"label":"Trần Văn Cảnh"}},{"type":"Feature","id":762,"geometry":{"type":"Point","coordinates":[106.157626,10.161493]},"properties":{"Tên cơ sở":"Trương Văn Chương","Địa chỉ":"Tân Mỹ, Xã Chánh An, Mang Thít","Tổng đàn":10,"Bò thịt":7,"Bò cái sinh sản":3,"layer_id":219,"fid":762,"label":"Trương Văn Chương"}},{"type":"Feature","id":763,"geometry":{"type":"Point","coordinates":[106.052402,10.218156]},"properties":{"Tên cơ sở":"Lê Văn Chấm","Địa chỉ":"Bình Hòa 1, Xã Hòa Tịnh, Mang Thít","Tổng đàn":12,"Bò thịt":5,"Bò cái sinh sản":7,"layer_id":219,"fid":763,"label":"Lê Văn Chấm"}},{"type":"Feature","id":764,"geometry":{"type":"Point","coordinates":[106.036651,10.211751]},"properties":{"Tên cơ sở":"Nguyễn Nhựt An","Địa chỉ":"Bình Hòa 2, Xã Hòa Tịnh, Mang Thít","Tổng đàn":10,"Bò thịt":5,"Bò cái sinh sản":5,"layer_id":219,"fid":764,"label":"Nguyễn Nhựt An"}},{"type":"Feature","id":765,"geometry":{"type":"Point","coordinates":[106.031613,10.209384]},"properties":{"Tên cơ sở":"Võ Văn Minh","Địa chỉ":"Bình Hòa 2, Xã Hòa Tịnh, Mang Thít","Tổng đàn":12,"Bò thịt":6,"Bò cái sinh sản":6,"layer_id":219,"fid":765,"label":"Võ Văn Minh"}},{"type":"Feature","id":766,"geometry":{"type":"Point","coordinates":[106.025464,10.206537]},"properties":{"Tên cơ sở":"Nguyễn Văn Ba","Địa chỉ":"Bình Tịnh A, Xã Hòa Tịnh, Mang Thít","Tổng đàn":10,"Bò thịt":4,"Bò cái sinh sản":6,"layer_id":219,"fid":766,"label":"Nguyễn Văn Ba"}},{"type":"Feature","id":767,"geometry":{"type":"Point","coordinates":[106.007904,10.216889]},"properties":{"Tên cơ sở":"Lê Hoàng Quang Minh","Địa chỉ":"Long Hòa 2, Xã Long Mỹ, Mang Thít","Tổng đàn":11,"Bò thịt":6,"Bò cái sinh sản":5,"layer_id":219,"fid":767,"label":"Lê Hoàng Quang Minh"}},{"type":"Feature","id":768,"geometry":{"type":"Point","coordinates":[106.004761,10.222411]},"properties":{"Tên cơ sở":"Lê Văn Toàn","Địa chỉ":"Long Phước, Xã Long Mỹ, Mang Thít","Tổng đàn":13,"Bò thịt":6,"Bò cái sinh sản":7,"layer_id":219,"fid":768,"label":"Lê Văn Toàn"}},{"type":"Feature","id":769,"geometry":{"type":"Point","coordinates":[106.001602,10.223666]},"properties":{"Tên cơ sở":"Trần Văn Phước","Địa chỉ":"Long Phước, Xã Long Mỹ, Mang Thít","Tổng đàn":10,"Bò thịt":4,"Bò cái sinh sản":6,"layer_id":219,"fid":769,"label":"Trần Văn Phước"}},{"type":"Feature","id":770,"geometry":{"type":"Point","coordinates":[106.030127,10.247652]},"properties":{"Tên cơ sở":"Lê Văn Tám","Địa chỉ":"An Hương 1, Xã Mỹ An, Mang Thít","Tổng đàn":13,"Bò thịt":7,"Bò cái sinh sản":6,"layer_id":219,"fid":770,"label":"Lê Văn Tám"}},{"type":"Feature","id":771,"geometry":{"type":"Point","coordinates":[106.047547,10.226363]},"properties":{"Tên cơ sở":"Đăng Hoài An","Địa chỉ":"An Hương 1, Xã Mỹ An, Mang Thít","Tổng đàn":10,"Bò thịt":4,"Bò cái sinh sản":6,"layer_id":219,"fid":771,"label":"Đăng Hoài An"}},{"type":"Feature","id":772,"geometry":{"type":"Point","coordinates":[106.071478,10.231864]},"properties":{"Tên cơ sở":"Trịnh Văn Khá","Địa chỉ":"Mỹ Điền, Xã Mỹ Phước, Mang Thít","Tổng đàn":12,"Bò thịt":5,"Bò cái sinh sản":7,"layer_id":219,"fid":772,"label":"Trịnh Văn Khá"}},{"type":"Feature","id":773,"geometry":{"type":"Point","coordinates":[106.0808442,10.2210328]},"properties":{"Tên cơ sở":"Trương Văn Bắc","Địa chỉ":"Phú Hòa, Xã Nhơn Phú, Mang Thít","Tổng đàn":11,"Bò thịt":7,"Bò cái sinh sản":4,"layer_id":219,"fid":773,"label":"Trương Văn Bắc"}},{"type":"Feature","id":774,"geometry":{"type":"Point","coordinates":[106.0832397,10.2177003]},"properties":{"Tên cơ sở":"Lê Thị Thúy","Địa chỉ":"Phú Hòa, Xã Nhơn Phú, Mang Thít","Tổng đàn":12,"Bò thịt":6,"Bò cái sinh sản":6,"layer_id":219,"fid":774,"label":"Lê Thị Thúy"}},{"type":"Feature","id":775,"geometry":{"type":"Point","coordinates":[106.0747992,10.2209272]},"properties":{"Tên cơ sở":"Ngô Văn Nhàn","Địa chỉ":"Phú Hòa, Xã Nhơn Phú, Mang Thít","Tổng đàn":12,"Bò thịt":7,"Bò cái sinh sản":5,"layer_id":219,"fid":775,"label":"Ngô Văn Nhàn"}},{"type":"Feature","id":776,"geometry":{"type":"Point","coordinates":[106.0704033,10.2210282]},"properties":{"Tên cơ sở":"Trương Văn Kha","Địa chỉ":"Phú Hòa, Xã Nhơn Phú, Mang Thít","Tổng đàn":11,"Bò thịt":5,"Bò cái sinh sản":6,"layer_id":219,"fid":776,"label":"Trương Văn Kha"}},{"type":"Feature","id":777,"geometry":{"type":"Point","coordinates":[106.0734802,10.2264186]},"properties":{"Tên cơ sở":"Nguyễn Hoàng Lộc","Địa chỉ":"Phú Hòa, Xã Nhơn Phú, Mang Thít","Tổng đàn":11,"Bò thịt":7,"Bò cái sinh sản":4,"layer_id":219,"fid":777,"label":"Nguyễn Hoàng Lộc"}},{"type":"Feature","id":778,"geometry":{"type":"Point","coordinates":[106.0734802,10.2264186]},"properties":{"Tên cơ sở":"Trương Ngọc Lâm","Địa chỉ":"Phú Hòa, Xã Nhơn Phú, Mang Thít","Tổng đàn":12,"Bò thịt":8,"Bò cái sinh sản":4,"layer_id":219,"fid":778,"label":"Trương Ngọc Lâm"}},{"type":"Feature","id":779,"geometry":{"type":"Point","coordinates":[106.0687337,10.2226707]},"properties":{"Tên cơ sở":"Nguễn văn Bé Hai","Địa chỉ":"Phú Hòa, Xã Nhơn Phú, Mang Thít","Tổng đàn":10,"Bò thịt":5,"Bò cái sinh sản":5,"layer_id":219,"fid":779,"label":"Nguễn văn Bé Hai"}},{"type":"Feature","id":780,"geometry":{"type":"Point","coordinates":[106.0888566,10.2227314]},"properties":{"Tên cơ sở":"Cao Thanh Tùng","Địa chỉ":"Phú Hòa, Xã Nhơn Phú, Mang Thít","Tổng đàn":12,"Bò thịt":7,"Bò cái sinh sản":5,"layer_id":219,"fid":780,"label":"Cao Thanh Tùng"}},{"type":"Feature","id":781,"geometry":{"type":"Point","coordinates":[106.086213,10.22147]},"properties":{"Tên cơ sở":"Cao Minh Tuấn","Địa chỉ":"Phú Hòa, Xã Nhơn Phú, Mang Thít","Tổng đàn":10,"Bò thịt":5,"Bò cái sinh sản":5,"layer_id":219,"fid":781,"label":"Cao Minh Tuấn"}},{"type":"Feature","id":782,"geometry":{"type":"Point","coordinates":[106.0842331,10.2132593]},"properties":{"Tên cơ sở":"Phạm Hoàng Dũng","Địa chỉ":"Phú Quới, Xã Nhơn Phú, Mang Thít","Tổng đàn":10,"Bò thịt":5,"Bò cái sinh sản":5,"layer_id":219,"fid":782,"label":"Phạm Hoàng Dũng"}},{"type":"Feature","id":783,"geometry":{"type":"Point","coordinates":[106.0802276,10.2154192]},"properties":{"Tên cơ sở":"Hứa Văn Dức","Địa chỉ":"Phú Quới, Xã Nhơn Phú, Mang Thít","Tổng đàn":11,"Bò thịt":8,"Bò cái sinh sản":3,"layer_id":219,"fid":783,"label":"Hứa Văn Dức"}},{"type":"Feature","id":784,"geometry":{"type":"Point","coordinates":[106.0733256,10.2183852]},"properties":{"Tên cơ sở":"Nguyễn Thị Thu","Địa chỉ":"Phú Quới, Xã Nhơn Phú, Mang Thít","Tổng đàn":13,"Bò thịt":6,"Bò cái sinh sản":7,"layer_id":219,"fid":784,"label":"Nguyễn Thị Thu"}},{"type":"Feature","id":785,"geometry":{"type":"Point","coordinates":[106.0636291,10.1982671]},"properties":{"Tên cơ sở":"Võ Văn Phước","Địa chỉ":"Phú Thạnh C, Xã Nhơn Phú, Mang Thít","Tổng đàn":13,"Bò thịt":9,"Bò cái sinh sản":4,"layer_id":219,"fid":785,"label":"Võ Văn Phước"}},{"type":"Feature","id":786,"geometry":{"type":"Point","coordinates":[106.0732284,10.1922092]},"properties":{"Tên cơ sở":"Phạm Văn Lớn","Địa chỉ":"Phú Thạnh C, Xã Nhơn Phú, Mang Thít","Tổng đàn":13,"Bò thịt":10,"Bò cái sinh sản":3,"layer_id":219,"fid":786,"label":"Phạm Văn Lớn"}},{"type":"Feature","id":787,"geometry":{"type":"Point","coordinates":[106.0733025,10.1917486]},"properties":{"Tên cơ sở":"Đặng Văn Mười Một","Địa chỉ":"Phú Thạnh C, Xã Nhơn Phú, Mang Thít","Tổng đàn":11,"Bò thịt":5,"Bò cái sinh sản":6,"layer_id":219,"fid":787,"label":"Đặng Văn Mười Một"}},{"type":"Feature","id":788,"geometry":{"type":"Point","coordinates":[106.0868097,10.2156812]},"properties":{"Tên cơ sở":"Cao Xuân Báo","Địa chỉ":"Phú Thọ, Xã Nhơn Phú, Mang Thít","Tổng đàn":10,"Bò thịt":8,"Bò cái sinh sản":2,"layer_id":219,"fid":788,"label":"Cao Xuân Báo"}},{"type":"Feature","id":789,"geometry":{"type":"Point","coordinates":[106.039505,10.206326]},"properties":{"Tên cơ sở":"Trần Thị Ánh Nguyệt","Địa chỉ":"Phú Thọ, Xã Hòa Tịnh, Mang Thít","Tổng đàn":10,"Bò thịt":5,"Bò cái sinh sản":5,"layer_id":219,"fid":789,"label":"Trần Thị Ánh Nguyệt"}},{"type":"Feature","id":790,"geometry":{"type":"Point","coordinates":[106.0917172,10.2094159]},"properties":{"Tên cơ sở":"Nguyễn Hồng Sơn","Địa chỉ":"Phú Thọ, Xã Nhơn Phú, Mang Thít","Tổng đàn":12,"Bò thịt":6,"Bò cái sinh sản":6,"layer_id":219,"fid":790,"label":"Nguyễn Hồng Sơn"}},{"type":"Feature","id":791,"geometry":{"type":"Point","coordinates":[106.0894122,10.2195945]},"properties":{"Tên cơ sở":"Lê Thúy Phượng","Địa chỉ":"Phú Thọ, Xã Nhơn Phú, Mang Thít","Tổng đàn":13,"Bò thịt":6,"Bò cái sinh sản":7,"layer_id":219,"fid":791,"label":"Lê Thúy Phượng"}},{"type":"Feature","id":792,"geometry":{"type":"Point","coordinates":[106.0901468,10.2185796]},"properties":{"Tên cơ sở":"Nguyễn Văn Trường Em","Địa chỉ":"Phú Thọ, Xã Nhơn Phú, Mang Thít","Tổng đàn":10,"Bò thịt":5,"Bò cái sinh sản":5,"layer_id":219,"fid":792,"label":"Nguyễn Văn Trường Em"}},{"type":"Feature","id":793,"geometry":{"type":"Point","coordinates":[106.0904307,10.2183915]},"properties":{"Tên cơ sở":"Nguyễn Văn Móng","Địa chỉ":"Phú Thọ, Xã Nhơn Phú, Mang Thít","Tổng đàn":14,"Bò thịt":10,"Bò cái sinh sản":4,"layer_id":219,"fid":793,"label":"Nguyễn Văn Móng"}},{"type":"Feature","id":794,"geometry":{"type":"Point","coordinates":[106.0961697,10.214761]},"properties":{"Tên cơ sở":"Lê Thúy Thoa","Địa chỉ":"Phú Thọ, Xã Nhơn Phú, Mang Thít","Tổng đàn":15,"Bò thịt":13,"Bò cái sinh sản":2,"layer_id":219,"fid":794,"label":"Lê Thúy Thoa"}},{"type":"Feature","id":795,"geometry":{"type":"Point","coordinates":[106.1012947,10.2137295]},"properties":{"Tên cơ sở":"Nguyễn Ngọc Tuấn","Địa chỉ":"Phú Thọ, Xã An Phước, Mang Thít","Tổng đàn":13,"Bò thịt":9,"Bò cái sinh sản":4,"layer_id":219,"fid":795,"label":"Nguyễn Ngọc Tuấn"}},{"type":"Feature","id":796,"geometry":{"type":"Point","coordinates":[106.1024165,10.2131854]},"properties":{"Tên cơ sở":"Nguyễn Thành Tiếp","Địa chỉ":"Phú Thọ, Xã An Phước, Mang Thít","Tổng đàn":10,"Bò thịt":5,"Bò cái sinh sản":5,"layer_id":219,"fid":796,"label":"Nguyễn Thành Tiếp"}},{"type":"Feature","id":797,"geometry":{"type":"Point","coordinates":[106.0963822,10.2078383]},"properties":{"Tên cơ sở":"Phạm Văn Út","Địa chỉ":"Phú Thọ, Xã Nhơn Phú, Mang Thít","Tổng đàn":11,"Bò thịt":7,"Bò cái sinh sản":4,"layer_id":219,"fid":797,"label":"Phạm Văn Út"}},{"type":"Feature","id":798,"geometry":{"type":"Point","coordinates":[106.0937114,10.2154288]},"properties":{"Tên cơ sở":"Mai Hoàng Bửu","Địa chỉ":"Phú Thọ, Xã Nhơn Phú, Mang Thít","Tổng đàn":12,"Bò thịt":8,"Bò cái sinh sản":4,"layer_id":219,"fid":798,"label":"Mai Hoàng Bửu"}},{"type":"Feature","id":799,"geometry":{"type":"Point","coordinates":[106.0942361,10.2130518]},"properties":{"Tên cơ sở":"Thi Hoàng Tuấn","Địa chỉ":"Phú Thọ, Xã Nhơn Phú, Mang Thít","Tổng đàn":10,"Bò thịt":5,"Bò cái sinh sản":5,"layer_id":219,"fid":799,"label":"Thi Hoàng Tuấn"}},{"type":"Feature","id":800,"geometry":{"type":"Point","coordinates":[106.0890809,10.2192798]},"properties":{"Tên cơ sở":"Nguyễn Hữu Huy","Địa chỉ":"Phú Thọ, Xã Nhơn Phú, Mang Thít","Tổng đàn":10,"Bò thịt":7,"Bò cái sinh sản":3,"layer_id":219,"fid":800,"label":"Nguyễn Hữu Huy"}},{"type":"Feature","id":801,"geometry":{"type":"Point","coordinates":[106.0934697,10.2132586]},"properties":{"Tên cơ sở":"Lâm Trọng Phúc","Địa chỉ":"Phú Thọ, Xã Nhơn Phú, Mang Thít","Tổng đàn":12,"Bò thịt":8,"Bò cái sinh sản":4,"layer_id":219,"fid":801,"label":"Lâm Trọng Phúc"}},{"type":"Feature","id":802,"geometry":{"type":"Point","coordinates":[106.0648136,10.216292]},"properties":{"Tên cơ sở":"Trần Văn Thắng","Địa chỉ":"Phú Thuận A, Xã Nhơn Phú, Mang Thít","Tổng đàn":11,"Bò thịt":6,"Bò cái sinh sản":5,"layer_id":219,"fid":802,"label":"Trần Văn Thắng"}},{"type":"Feature","id":803,"geometry":{"type":"Point","coordinates":[106.0662959,10.2122351]},"properties":{"Tên cơ sở":"Lê Văn Phát","Địa chỉ":"Phú Thuận A, Xã Nhơn Phú, Mang Thít","Tổng đàn":11,"Bò thịt":7,"Bò cái sinh sản":4,"layer_id":219,"fid":803,"label":"Lê Văn Phát"}},{"type":"Feature","id":804,"geometry":{"type":"Point","coordinates":[106.0627621,10.2184813]},"properties":{"Tên cơ sở":"Mai Văn Bé Ba","Địa chỉ":"Phú Thuận A, Xã Nhơn Phú, Mang Thít","Tổng đàn":12,"Bò thịt":7,"Bò cái sinh sản":5,"layer_id":219,"fid":804,"label":"Mai Văn Bé Ba"}},{"type":"Feature","id":805,"geometry":{"type":"Point","coordinates":[106.064242,10.2219534]},"properties":{"Tên cơ sở":"Lê Hoàng Ca","Địa chỉ":"Phú Thuận A, Xã Nhơn Phú, Mang Thít","Tổng đàn":10,"Bò thịt":7,"Bò cái sinh sản":3,"layer_id":219,"fid":805,"label":"Lê Hoàng Ca"}},{"type":"Feature","id":806,"geometry":{"type":"Point","coordinates":[106.0662453,10.2273534]},"properties":{"Tên cơ sở":"Nguyễn Thanh Sơn","Địa chỉ":"Phú Thuận B, Xã Mỹ Phước, Mang Thít","Tổng đàn":11,"Bò thịt":6,"Bò cái sinh sản":5,"layer_id":219,"fid":806,"label":"Nguyễn Thanh Sơn"}},{"type":"Feature","id":807,"geometry":{"type":"Point","coordinates":[106.0803513,10.19975472]},"properties":{"Tên cơ sở":"Trần Hoàng Sơn","Địa chỉ":"Phú Thuận B, Xã Nhơn Phú, Mang Thít","Tổng đàn":10,"Bò thịt":7,"Bò cái sinh sản":3,"layer_id":219,"fid":807,"label":"Trần Hoàng Sơn"}},{"type":"Feature","id":808,"geometry":{"type":"Point","coordinates":[106.0833775,10.19917994]},"properties":{"Tên cơ sở":"Lương Văn Quang","Địa chỉ":"Phú Thuận B, Xã Nhơn Phú, Mang Thít","Tổng đàn":12,"Bò thịt":8,"Bò cái sinh sản":4,"layer_id":219,"fid":808,"label":"Lương Văn Quang"}},{"type":"Feature","id":809,"geometry":{"type":"Point","coordinates":[106.0913856,10.2029392]},"properties":{"Tên cơ sở":"Trương Văn Hùng","Địa chỉ":"Phú Thuận B, Xã Nhơn Phú, Mang Thít","Tổng đàn":10,"Bò thịt":6,"Bò cái sinh sản":4,"layer_id":219,"fid":809,"label":"Trương Văn Hùng"}},{"type":"Feature","id":810,"geometry":{"type":"Point","coordinates":[106.088011,10.1991422]},"properties":{"Tên cơ sở":"Nguyễn Văn Hiệp","Địa chỉ":"Phú Thuận B, Xã Nhơn Phú, Mang Thít","Tổng đàn":12,"Bò thịt":6,"Bò cái sinh sản":6,"layer_id":219,"fid":810,"label":"Nguyễn Văn Hiệp"}},{"type":"Feature","id":811,"geometry":{"type":"Point","coordinates":[106.0825608,10.1992204]},"properties":{"Tên cơ sở":"Huỳnh Văn Hải","Địa chỉ":"Phú Thuận B, Xã Nhơn Phú, Mang Thít","Tổng đàn":11,"Bò thịt":7,"Bò cái sinh sản":4,"layer_id":219,"fid":811,"label":"Huỳnh Văn Hải"}},{"type":"Feature","id":812,"geometry":{"type":"Point","coordinates":[106.0825615,10.1985112]},"properties":{"Tên cơ sở":"Nguyễn Bảo Nghi","Địa chỉ":"Phú Thuận B, Xã Nhơn Phú, Mang Thít","Tổng đàn":10,"Bò thịt":6,"Bò cái sinh sản":4,"layer_id":219,"fid":812,"label":"Nguyễn Bảo Nghi"}},{"type":"Feature","id":813,"geometry":{"type":"Point","coordinates":[106.0822101,10.1976464]},"properties":{"Tên cơ sở":"Trịnh Văn Khải","Địa chỉ":"Phú Thuận B, Xã Nhơn Phú, Mang Thít","Tổng đàn":11,"Bò thịt":7,"Bò cái sinh sản":4,"layer_id":219,"fid":813,"label":"Trịnh Văn Khải"}},{"type":"Feature","id":814,"geometry":{"type":"Point","coordinates":[106.0827405,10.1990696]},"properties":{"Tên cơ sở":"Nguyễn Văn Vĩnh","Địa chỉ":"Phú Thuận B, Xã Nhơn Phú, Mang Thít","Tổng đàn":11,"Bò thịt":8,"Bò cái sinh sản":3,"layer_id":219,"fid":814,"label":"Nguyễn Văn Vĩnh"}},{"type":"Feature","id":815,"geometry":{"type":"Point","coordinates":[106.091568,10.2031837]},"properties":{"Tên cơ sở":"Huuỳnh Văn Khải","Địa chỉ":"Phú Thuận B, Xã Nhơn Phú, Mang Thít","Tổng đàn":10,"Bò thịt":5,"Bò cái sinh sản":5,"layer_id":219,"fid":815,"label":"Huuỳnh Văn Khải"}},{"type":"Feature","id":816,"geometry":{"type":"Point","coordinates":[106.090365,10.164571]},"properties":{"Tên cơ sở":"Nguyễn Văn Nhẹ","Địa chỉ":"An Hội, Xã Tân An Hội, Mang Thít","Tổng đàn":15,"Bò thịt":9,"Bò cái sinh sản":6,"layer_id":219,"fid":816,"label":"Nguyễn Văn Nhẹ"}},{"type":"Feature","id":817,"geometry":{"type":"Point","coordinates":[106.094724,10.173223]},"properties":{"Tên cơ sở":"Võ Thanh Bình","Địa chỉ":"Tân Qui, Xã Chánh Hội, Mang Thít","Tổng đàn":10,"Bò thịt":8,"Bò cái sinh sản":2,"layer_id":219,"fid":817,"label":"Võ Thanh Bình"}},{"type":"Feature","id":818,"geometry":{"type":"Point","coordinates":[106.069091,10.162991]},"properties":{"Tên cơ sở":"Võ Văn Nô","Địa chỉ":"Tân Qui, Xã Tân An Hội, Mang Thít","Tổng đàn":10,"Bò thịt":4,"Bò cái sinh sản":6,"layer_id":219,"fid":818,"label":"Võ Văn Nô"}},{"type":"Feature","id":819,"geometry":{"type":"Point","coordinates":[106.062983,10.160768]},"properties":{"Tên cơ sở":"Phạm Văn Giao","Địa chỉ":"Tân Qui, Xã Tân An Hội, Mang Thít","Tổng đàn":10,"Bò thịt":7,"Bò cái sinh sản":3,"layer_id":219,"fid":819,"label":"Phạm Văn Giao"}},{"type":"Feature","id":820,"geometry":{"type":"Point","coordinates":[106.063644,10.160991]},"properties":{"Tên cơ sở":"Phạm Văn Xăng","Địa chỉ":"Tân Qui, Xã Tân An Hội, Mang Thít","Tổng đàn":14,"Bò thịt":8,"Bò cái sinh sản":6,"layer_id":219,"fid":820,"label":"Phạm Văn Xăng"}},{"type":"Feature","id":821,"geometry":{"type":"Point","coordinates":[106.070079,10.154805]},"properties":{"Tên cơ sở":"Bùi Hồng Nhựt","Địa chỉ":"Tân Qui, Xã Tân An Hội, Mang Thít","Tổng đàn":13,"Bò thịt":8,"Bò cái sinh sản":5,"layer_id":219,"fid":821,"label":"Bùi Hồng Nhựt"}},{"type":"Feature","id":822,"geometry":{"type":"Point","coordinates":[106.085037,10.150915]},"properties":{"Tên cơ sở":"Võ Thanh Hoàng Tỷ","Địa chỉ":"Tân Thắng, Xã Tân An Hội, Mang Thít","Tổng đàn":12,"Bò thịt":8,"Bò cái sinh sản":4,"layer_id":219,"fid":822,"label":"Võ Thanh Hoàng Tỷ"}},{"type":"Feature","id":823,"geometry":{"type":"Point","coordinates":[106.0373,10.152995]},"properties":{"Tên cơ sở":"Mai Hoàng Thiệu","Địa chỉ":"Tân Hiệp, Xã Tân Long, Mang Thít","Tổng đàn":12,"Bò thịt":4,"Bò cái sinh sản":8,"layer_id":219,"fid":823,"label":"Mai Hoàng Thiệu"}},{"type":"Feature","id":824,"geometry":{"type":"Point","coordinates":[106.040604,10.151995]},"properties":{"Tên cơ sở":"Lê Văn Hiệp","Địa chỉ":"Tân Hiệp, Xã Tân Long, Mang Thít","Tổng đàn":14,"Bò thịt":6,"Bò cái sinh sản":8,"layer_id":219,"fid":824,"label":"Lê Văn Hiệp"}},{"type":"Feature","id":825,"geometry":{"type":"Point","coordinates":[106.051178,10.158254]},"properties":{"Tên cơ sở":"Nguyễn Minh Châu","Địa chỉ":"Thanh bình, Xã Tân Long, Mang Thít","Tổng đàn":14,"Bò thịt":5,"Bò cái sinh sản":9,"layer_id":219,"fid":825,"label":"Nguyễn Minh Châu"}},{"type":"Feature","id":826,"geometry":{"type":"Point","coordinates":[106.063866,10.129672]},"properties":{"Tên cơ sở":"Phước Văn Nết","Địa chỉ":"Cầu Ván, Xã Tân Long Hội, Mang Thít","Tổng đàn":11,"Bò thịt":6,"Bò cái sinh sản":5,"layer_id":219,"fid":826,"label":"Phước Văn Nết"}},{"type":"Feature","id":827,"geometry":{"type":"Point","coordinates":[106.059807,10.126817]},"properties":{"Tên cơ sở":"Phước Văn Điểm","Địa chỉ":"Cầu Ván, Xã Tân Long Hội, Mang Thít","Tổng đàn":10,"Bò thịt":5,"Bò cái sinh sản":5,"layer_id":219,"fid":827,"label":"Phước Văn Điểm"}},{"type":"Feature","id":828,"geometry":{"type":"Point","coordinates":[106.066978,10.130954]},"properties":{"Tên cơ sở":"Nguyễn Văn Cà Ri","Địa chỉ":"Cầu Ván, Xã Tân Long Hội, Mang Thít","Tổng đàn":12,"Bò thịt":7,"Bò cái sinh sản":5,"layer_id":219,"fid":828,"label":"Nguyễn Văn Cà Ri"}},{"type":"Feature","id":829,"geometry":{"type":"Point","coordinates":[106.07859,10.134237]},"properties":{"Tên cơ sở":"Nguyễn Văn Chanh","Địa chỉ":"Tân Qui, Xã Tân Long Hội, Mang Thít","Tổng đàn":14,"Bò thịt":8,"Bò cái sinh sản":6,"layer_id":219,"fid":829,"label":"Nguyễn Văn Chanh"}},{"type":"Feature","id":830,"geometry":{"type":"Point","coordinates":[106.104299,10.184476]},"properties":{"Tên cơ sở":"Ngô Quan Huyện","Địa chỉ":"Khóm 2, Xã Chánh Hội, Mang Thít","Tổng đàn":10,"Bò thịt":5,"Bò cái sinh sản":5,"layer_id":219,"fid":830,"label":"Ngô Quan Huyện"}},{"type":"Feature","id":831,"geometry":{"type":"Point","coordinates":[106.091624,10.179345]},"properties":{"Tên cơ sở":"Võ Hồng Phượng","Địa chỉ":"Khóm 3, Xã Chánh Hội, Mang Thít","Tổng đàn":10,"Bò thịt":6,"Bò cái sinh sản":4,"layer_id":219,"fid":831,"label":"Võ Hồng Phượng"}},{"type":"Feature","id":832,"geometry":{"type":"Point","coordinates":[106.092687,10.170382]},"properties":{"Tên cơ sở":"Phạm Minh Cảnh","Địa chỉ":"Khóm 3, Xã Chánh Hội, Mang Thít","Tổng đàn":12,"Bò thịt":6,"Bò cái sinh sản":6,"layer_id":219,"fid":832,"label":"Phạm Minh Cảnh"}},{"type":"Feature","id":833,"geometry":{"type":"Point","coordinates":[106.112894,10.193857]},"properties":{"Tên cơ sở":"Trịnh Thanh Phương","Địa chỉ":"Khóm 4, Xã Chánh Hội, Mang Thít","Tổng đàn":11,"Bò thịt":6,"Bò cái sinh sản":5,"layer_id":219,"fid":833,"label":"Trịnh Thanh Phương"}},{"type":"Feature","id":834,"geometry":{"type":"Point","coordinates":[106.099181,10.192926]},"properties":{"Tên cơ sở":"Trần Thanh Phong","Địa chỉ":"Khóm 5, Xã Chánh Hội, Mang Thít","Tổng đàn":11,"Bò thịt":6,"Bò cái sinh sản":5,"layer_id":219,"fid":834,"label":"Trần Thanh Phong"}},{"type":"Feature","id":835,"geometry":{"type":"Point","coordinates":[106.078964,10.179313]},"properties":{"Tên cơ sở":"Lê Thanh Việt","Địa chỉ":"Khóm 6, Xã Chánh Hội, Mang Thít","Tổng đàn":12,"Bò thịt":8,"Bò cái sinh sản":4,"layer_id":219,"fid":835,"label":"Lê Thanh Việt"}},{"type":"Feature","id":836,"geometry":{"type":"Point","coordinates":[106.084102,10.191209]},"properties":{"Tên cơ sở":"Nguyễn Văn Lâm","Địa chỉ":"Khóm 6, Xã Chánh Hội, Mang Thít","Tổng đàn":11,"Bò thịt":6,"Bò cái sinh sản":5,"layer_id":219,"fid":836,"label":"Nguyễn Văn Lâm"}},{"type":"Feature","id":837,"geometry":{"type":"Point","coordinates":[105.905769,10.149271]},"properties":{"Tên cơ sở":"Nguyễn Ngọc Mãi","Địa chỉ":"Phú Long B, Xã Phú Thịnh, Tam Bình","Tổng đàn":23,"Bò thịt":11,"Bò cái sinh sản":12,"layer_id":219,"fid":837,"label":"Nguyễn Ngọc Mãi"}},{"type":"Feature","id":838,"geometry":{"type":"Point","coordinates":[105.906899,10.148909]},"properties":{"Tên cơ sở":"Hồng Thành Phúc","Địa chỉ":"Phú Long B, Xã Phú Thịnh, Tam Bình","Tổng đàn":24,"Bò thịt":11,"Bò cái sinh sản":13,"layer_id":219,"fid":838,"label":"Hồng Thành Phúc"}},{"type":"Feature","id":839,"geometry":{"type":"Point","coordinates":[105.929762,9.992624]},"properties":{"Tên cơ sở":"Huỳnh Văn Vũ","Địa chỉ":"An Phú Tân, Xã Bình Ninh, Tam Bình","Tổng đàn":10,"Bò thịt":5,"Bò cái sinh sản":5,"layer_id":219,"fid":839,"label":"Huỳnh Văn Vũ"}},{"type":"Feature","id":840,"geometry":{"type":"Point","coordinates":[105.924274,10.006905]},"properties":{"Tên cơ sở":"Lê Văn Nhẫn","Địa chỉ":"An Phú Tân, Xã Bình Ninh, Tam Bình","Tổng đàn":15,"Bò thịt":10,"Bò cái sinh sản":5,"layer_id":219,"fid":840,"label":"Lê Văn Nhẫn"}},{"type":"Feature","id":841,"geometry":{"type":"Point","coordinates":[105.942905,10.030935]},"properties":{"Tên cơ sở":"Nguyễn Văn Lùng","Địa chỉ":"Bình An, Xã Bình Ninh, Tam Bình","Tổng đàn":10,"Bò thịt":5,"Bò cái sinh sản":5,"layer_id":219,"fid":841,"label":"Nguyễn Văn Lùng"}},{"type":"Feature","id":842,"geometry":{"type":"Point","coordinates":[105.959542,10.018095]},"properties":{"Tên cơ sở":"Nguyễn Văn Bảy","Địa chỉ":"Bình Điền, Xã Loan Mỹ, Tam Bình","Tổng đàn":10,"Bò thịt":5,"Bò cái sinh sản":5,"layer_id":219,"fid":842,"label":"Nguyễn Văn Bảy"}},{"type":"Feature","id":843,"geometry":{"type":"Point","coordinates":[105.998883,10.127287]},"properties":{"Tên cơ sở":"Nguyễn Văn Tuấn","Địa chỉ":"Ấp 4, Xã Hậu Lộc, Tam Bình","Tổng đàn":16,"Bò thịt":8,"Bò cái sinh sản":8,"layer_id":219,"fid":843,"label":"Nguyễn Văn Tuấn"}},{"type":"Feature","id":844,"geometry":{"type":"Point","coordinates":[105.985431,10.129112]},"properties":{"Tên cơ sở":"Nguyễn Văn Kha","Địa chỉ":"Ấp 5, Xã Hậu Lộc, Tam Bình","Tổng đàn":12,"Bò thịt":6,"Bò cái sinh sản":6,"layer_id":219,"fid":844,"label":"Nguyễn Văn Kha"}},{"type":"Feature","id":845,"geometry":{"type":"Point","coordinates":[106.001126,10.099409]},"properties":{"Tên cơ sở":"Nguyễn Hoàng Cương","Địa chỉ":"Ấp 2, Xã Hòa Lộc, Tam Bình","Tổng đàn":14,"Bò thịt":4,"Bò cái sinh sản":10,"layer_id":219,"fid":845,"label":"Nguyễn Hoàng Cương"}},{"type":"Feature","id":846,"geometry":{"type":"Point","coordinates":[106.011025,10.100215]},"properties":{"Tên cơ sở":"Hồ Phúc Hiền","Địa chỉ":"Ấp 2, Xã Hòa Lộc, Tam Bình","Tổng đàn":15,"Bò thịt":6,"Bò cái sinh sản":9,"layer_id":219,"fid":846,"label":"Hồ Phúc Hiền"}},{"type":"Feature","id":847,"geometry":{"type":"Point","coordinates":[106.006634,10.090433]},"properties":{"Tên cơ sở":"Mai Phước Đầy","Địa chỉ":"Ấp 7, Xã Hòa Lộc, Tam Bình","Tổng đàn":13,"Bò thịt":4,"Bò cái sinh sản":9,"layer_id":219,"fid":847,"label":"Mai Phước Đầy"}},{"type":"Feature","id":848,"geometry":{"type":"Point","coordinates":[106.009766,10.130225]},"properties":{"Tên cơ sở":"Lê Thị Thảo","Địa chỉ":"Hòa An, Xã Hòa Lộc, Tam Bình","Tổng đàn":14,"Bò thịt":4,"Bò cái sinh sản":10,"layer_id":219,"fid":848,"label":"Lê Thị Thảo"}},{"type":"Feature","id":849,"geometry":{"type":"Point","coordinates":[106.001904,10.082788]},"properties":{"Tên cơ sở":"Lê Văn Tâm","Địa chỉ":"Mỹ Hòa, Xã Hòa Lộc, Tam Bình","Tổng đàn":11,"Bò thịt":3,"Bò cái sinh sản":8,"layer_id":219,"fid":849,"label":"Lê Văn Tâm"}},{"type":"Feature","id":850,"geometry":{"type":"Point","coordinates":[106.050421,10.111778]},"properties":{"Tên cơ sở":"Nguyễn Văn Được","Địa chỉ":"Ấp 2, Xã Hòa Thạnh, Tam Bình","Tổng đàn":14,"Bò thịt":7,"Bò cái sinh sản":7,"layer_id":219,"fid":850,"label":"Nguyễn Văn Được"}},{"type":"Feature","id":851,"geometry":{"type":"Point","coordinates":[106.050979,10.115465]},"properties":{"Tên cơ sở":"Nguyễn Văn Trúc","Địa chỉ":"Ấp 2, Xã Hòa Thạnh, Tam Bình","Tổng đàn":11,"Bò thịt":6,"Bò cái sinh sản":5,"layer_id":219,"fid":851,"label":"Nguyễn Văn Trúc"}},{"type":"Feature","id":852,"geometry":{"type":"Point","coordinates":[105.95677,10.030186]},"properties":{"Tên cơ sở":"Lâm Văn Thạch","Địa chỉ":"Ấp Giữa, Xã Loan Mỹ, Tam Bình","Tổng đàn":10,"Bò thịt":5,"Bò cái sinh sản":5,"layer_id":219,"fid":852,"label":"Lâm Văn Thạch"}},{"type":"Feature","id":853,"geometry":{"type":"Point","coordinates":[105.922034,10.046615]},"properties":{"Tên cơ sở":"Nguyễn Văn Tùng","Địa chỉ":"Bình Hòa, Xã Loan Mỹ, Tam Bình","Tổng đàn":14,"Bò thịt":8,"Bò cái sinh sản":6,"layer_id":219,"fid":853,"label":"Nguyễn Văn Tùng"}},{"type":"Feature","id":854,"geometry":{"type":"Point","coordinates":[105.940277,10.063921]},"properties":{"Tên cơ sở":"Nguyễn Văn Ri","Địa chỉ":"Mỹ Phú Tân, Xã Mỹ Thạnh Trung, Tam Bình","Tổng đàn":15,"Bò thịt":7,"Bò cái sinh sản":8,"layer_id":219,"fid":854,"label":"Nguyễn Văn Ri"}},{"type":"Feature","id":855,"geometry":{"type":"Point","coordinates":[105.994052,10.062235]},"properties":{"Tên cơ sở":"Phaqn Hoàng Minh","Địa chỉ":"Mỹ Trung 1, Xã Mỹ Thạnh Trung, Tam Bình","Tổng đàn":12,"Bò thịt":8,"Bò cái sinh sản":4,"layer_id":219,"fid":855,"label":"Phaqn Hoàng Minh"}},{"type":"Feature","id":856,"geometry":{"type":"Point","coordinates":[105.936917,10.056219]},"properties":{"Tên cơ sở":"Huỳnh Văn Thuận","Địa chỉ":"Tổng Hưng, Xã Loan Mỹ, Tam Bình","Tổng đàn":10,"Bò thịt":4,"Bò cái sinh sản":6,"layer_id":219,"fid":856,"label":"Huỳnh Văn Thuận"}},{"type":"Feature","id":857,"geometry":{"type":"Point","coordinates":[105.94179,10.039136]},"properties":{"Tên cơ sở":"Nguyễn Văn Đặng","Địa chỉ":"Tổng Hưng, Xã Loan Mỹ, Tam Bình","Tổng đàn":14,"Bò thịt":7,"Bò cái sinh sản":7,"layer_id":219,"fid":857,"label":"Nguyễn Văn Đặng"}},{"type":"Feature","id":858,"geometry":{"type":"Point","coordinates":[105.91876,10.079767]},"properties":{"Tên cơ sở":"Nguyễn Thị Ngọc Duyên","Địa chỉ":"Ấp 6 B, Xã Long Phú, Tam Bình","Tổng đàn":10,"Bò thịt":3,"Bò cái sinh sản":7,"layer_id":219,"fid":858,"label":"Nguyễn Thị Ngọc Duyên"}},{"type":"Feature","id":859,"geometry":{"type":"Point","coordinates":[105.917321,10.074769]},"properties":{"Tên cơ sở":"Nguyễn Minh Triệu","Địa chỉ":"Ấp 6 B, Xã Long Phú, Tam Bình","Tổng đàn":11,"Bò thịt":7,"Bò cái sinh sản":4,"layer_id":219,"fid":859,"label":"Nguyễn Minh Triệu"}},{"type":"Feature","id":860,"geometry":{"type":"Point","coordinates":[105.918506,10.088164]},"properties":{"Tên cơ sở":"Nguyễn Hữu Nghĩa","Địa chỉ":"Phú Sơn A, Xã Long Phú, Tam Bình","Tổng đàn":10,"Bò thịt":3,"Bò cái sinh sản":7,"layer_id":219,"fid":860,"label":"Nguyễn Hữu Nghĩa"}},{"type":"Feature","id":861,"geometry":{"type":"Point","coordinates":[105.892789,10.066979]},"properties":{"Tên cơ sở":"Phan Văn Tặng","Địa chỉ":"Phú Thạnh, Xã Long Phú, Tam Bình","Tổng đàn":10,"Bò thịt":6,"Bò cái sinh sản":4,"layer_id":219,"fid":861,"label":"Phan Văn Tặng"}},{"type":"Feature","id":862,"geometry":{"type":"Point","coordinates":[105.944827,10.084978]},"properties":{"Tên cơ sở":"Nguyễn Văn Bo","Địa chỉ":"Ấp 6 A, Xã Mỹ Lộc, Tam Bình","Tổng đàn":14,"Bò thịt":7,"Bò cái sinh sản":7,"layer_id":219,"fid":862,"label":"Nguyễn Văn Bo"}},{"type":"Feature","id":863,"geometry":{"type":"Point","coordinates":[105.944895,10.082404]},"properties":{"Tên cơ sở":"Nguyễn Văn Long","Địa chỉ":"Ấp 6 A, Xã Mỹ Lộc, Tam Bình","Tổng đàn":15,"Bò thịt":7,"Bò cái sinh sản":8,"layer_id":219,"fid":863,"label":"Nguyễn Văn Long"}},{"type":"Feature","id":864,"geometry":{"type":"Point","coordinates":[105.966866,10.093516]},"properties":{"Tên cơ sở":"Phan Văn Nhi ","Địa chỉ":"Ấp 9, Xã Mỹ Lộc, Tam Bình","Tổng đàn":12,"Bò thịt":6,"Bò cái sinh sản":6,"layer_id":219,"fid":864,"label":"Phan Văn Nhi "}},{"type":"Feature","id":865,"geometry":{"type":"Point","coordinates":[105.905326,9.997733]},"properties":{"Tên cơ sở":"Cao Văn Năm","Địa chỉ":"Ngã Cái, Xã Ngãi Tứ, Tam Bình","Tổng đàn":14,"Bò thịt":8,"Bò cái sinh sản":6,"layer_id":219,"fid":865,"label":"Cao Văn Năm"}},{"type":"Feature","id":866,"geometry":{"type":"Point","coordinates":[105.91113,9.987308]},"properties":{"Tên cơ sở":"Bùi Văn Tự","Địa chỉ":"Ngã Cái, Xã Ngãi Tứ, Tam Bình","Tổng đàn":12,"Bò thịt":6,"Bò cái sinh sản":6,"layer_id":219,"fid":866,"label":"Bùi Văn Tự"}},{"type":"Feature","id":867,"geometry":{"type":"Point","coordinates":[105.93703,10.12402]},"properties":{"Tên cơ sở":"Nguyễn Văn Nề","Địa chỉ":"Lung Đồng, Xã Phú Lộc, Tam Bình","Tổng đàn":12,"Bò thịt":7,"Bò cái sinh sản":5,"layer_id":219,"fid":867,"label":"Nguyễn Văn Nề"}},{"type":"Feature","id":868,"geometry":{"type":"Point","coordinates":[105.905919,10.122272]},"properties":{"Tên cơ sở":"Võ Trí Nhãn","Địa chỉ":"Phú An, Xã Phú Thịnh, Tam Bình","Tổng đàn":10,"Bò thịt":6,"Bò cái sinh sản":4,"layer_id":219,"fid":868,"label":"Võ Trí Nhãn"}},{"type":"Feature","id":869,"geometry":{"type":"Point","coordinates":[105.893621,10.10585]},"properties":{"Tên cơ sở":"Ngô Văn Bảnh","Địa chỉ":"Hòa Yên, Xã Song Phú, Tam Bình","Tổng đàn":15,"Bò thịt":5,"Bò cái sinh sản":10,"layer_id":219,"fid":869,"label":"Ngô Văn Bảnh"}},{"type":"Feature","id":870,"geometry":{"type":"Point","coordinates":[105.916715,10.132632]},"properties":{"Tên cơ sở":"Trần Văn Tám","Địa chỉ":"Phú Điền, Xã Song Phú, Tam Bình","Tổng đàn":11,"Bò thịt":11,"Bò cái sinh sản":0,"layer_id":219,"fid":870,"label":"Trần Văn Tám"}},{"type":"Feature","id":871,"geometry":{"type":"Point","coordinates":[105.918223,10.137522]},"properties":{"Tên cơ sở":"Tàu Chí Trung","Địa chỉ":"Phú Điền, Xã Phú Thịnh, Tam Bình","Tổng đàn":11,"Bò thịt":11,"Bò cái sinh sản":0,"layer_id":219,"fid":871,"label":"Tàu Chí Trung"}},{"type":"Feature","id":872,"geometry":{"type":"Point","coordinates":[105.893578,10.105681]},"properties":{"Tên cơ sở":"Trần Vă Dẽo","Địa chỉ":"Phú Hòa Yên, Xã Song Phú, Tam Bình","Tổng đàn":18,"Bò thịt":10,"Bò cái sinh sản":8,"layer_id":219,"fid":872,"label":"Trần Vă Dẽo"}},{"type":"Feature","id":873,"geometry":{"type":"Point","coordinates":[105.902921,10.109752]},"properties":{"Tên cơ sở":"Phạm Văn Đức","Địa chỉ":"Phú Hữu Yên, Xã Song Phú, Tam Bình","Tổng đàn":10,"Bò thịt":5,"Bò cái sinh sản":5,"layer_id":219,"fid":873,"label":"Phạm Văn Đức"}},{"type":"Feature","id":874,"geometry":{"type":"Point","coordinates":[105.898066,10.085044]},"properties":{"Tên cơ sở":"Phan Văn Nhựt","Địa chỉ":"Phú Thọ, Xã Tân Phú, Tam Bình","Tổng đàn":10,"Bò thịt":5,"Bò cái sinh sản":5,"layer_id":219,"fid":874,"label":"Phan Văn Nhựt"}},{"type":"Feature","id":875,"geometry":{"type":"Point","coordinates":[106.016014,10.078155]},"properties":{"Tên cơ sở":"Nguyễn Văn Đô","Địa chỉ":"Tường Nhơn , Xã Tường Lộc, Tam Bình","Tổng đàn":10,"Bò thịt":4,"Bò cái sinh sản":6,"layer_id":219,"fid":875,"label":"Nguyễn Văn Đô"}},{"type":"Feature","id":876,"geometry":{"type":"Point","coordinates":[106.001754,10.07994]},"properties":{"Tên cơ sở":"Lưu Hoàng Mai","Địa chỉ":"Tường Nhơn A, Xã Tường Lộc, Tam Bình","Tổng đàn":10,"Bò thịt":6,"Bò cái sinh sản":4,"layer_id":219,"fid":876,"label":"Lưu Hoàng Mai"}},{"type":"Feature","id":878,"geometry":{"type":"Point","coordinates":[105.842648,10.028004]},"properties":{"Tên cơ sở":"Nguyễn Văn Tới","Địa chỉ":"Ấp Đông Hưng 1, Xã Đông Thành, Thị xã Bình Minh","Tổng đàn":15,"Bò thịt":11,"Bò cái sinh sản":4,"layer_id":219,"fid":878,"label":"Nguyễn Văn Tới"}},{"type":"Feature","id":879,"geometry":{"type":"Point","coordinates":[105.85391,10.035668]},"properties":{"Tên cơ sở":"Nguyễn Văn Quý","Địa chỉ":"Ấp Đông Hưng 1, Xã Đông Thành, Thị xã Bình Minh","Tổng đàn":31,"Bò thịt":31,"Bò cái sinh sản":0,"layer_id":219,"fid":879,"label":"Nguyễn Văn Quý"}},{"type":"Feature","id":880,"geometry":{"type":"Point","coordinates":[105.863591,10.027825]},"properties":{"Tên cơ sở":"Trần Văn Tùng","Địa chỉ":"Ấp Hóa Thành 2, Xã Đông Thành, Thị xã Bình Minh","Tổng đàn":15,"Bò thịt":15,"Bò cái sinh sản":0,"layer_id":219,"fid":880,"label":"Trần Văn Tùng"}},{"type":"Feature","id":882,"geometry":{"type":"Point","coordinates":[105.83108,10.02134]},"properties":{"Tên cơ sở":"Nguyễn Thanh Phong","Địa chỉ":"Ấp Mỹ Hưng 2, Xã Mỹ Hòa, Thị xã Bình Minh","Tổng đàn":50,"Bò thịt":50,"Bò cái sinh sản":0,"layer_id":219,"fid":882,"label":"Nguyễn Thanh Phong"}},{"type":"Feature","id":883,"geometry":{"type":"Point","coordinates":[105.810065,10.060174]},"properties":{"Tên cơ sở":"Nguyễn Hữu Trung","Địa chỉ":"Ấp Mỹ Khánh 1, Xã Mỹ Hòa, Thị xã Bình Minh","Tổng đàn":12,"Bò thịt":12,"Bò cái sinh sản":0,"layer_id":219,"fid":883,"label":"Nguyễn Hữu Trung"}},{"type":"Feature","id":884,"geometry":{"type":"Point","coordinates":[105.989071,10.247401]},"properties":{"Tên cơ sở":"Võ Văn Tư","Địa chỉ":"239/1 khóm 4, Phường 5, TPVL","Tổng đàn":10,"Bò thịt":5,"Bò cái sinh sản":5,"layer_id":219,"fid":884,"label":"Võ Văn Tư"}},{"type":"Feature","id":886,"geometry":{"type":"Point","coordinates":[105.952718,10.10236415]},"properties":{"Tên cơ sở":"Lê Tấn Út","Địa chỉ":"130B khóm 4, Phường 8, TPVL","Tổng đàn":22,"Bò thịt":22,"Bò cái sinh sản":0,"layer_id":219,"fid":886,"label":"Lê Tấn Út"}},{"type":"Feature","id":887,"geometry":{"type":"Point","coordinates":[105.951709,10.23631]},"properties":{"Tên cơ sở":"Nguyễn Cao Cần","Địa chỉ":"130D, khóm 5, Phường 8, TPVL","Tổng đàn":10,"Bò thịt":10,"Bò cái sinh sản":0,"layer_id":219,"fid":887,"label":"Nguyễn Cao Cần"}},{"type":"Feature","id":890,"geometry":{"type":"Point","coordinates":[105.94462,10.25067]},"properties":{"Tên cơ sở":"Vũ Văn Nghi","Địa chỉ":"167/2B, khóm 5, Phường 9, TPVL","Tổng đàn":30,"Bò thịt":30,"Bò cái sinh sản":0,"layer_id":219,"fid":890,"label":"Vũ Văn Nghi"}},{"type":"Feature","id":891,"geometry":{"type":"Point","coordinates":[105.930844,10.255178]},"properties":{"Tên cơ sở":"Ngô Văn Tây","Địa chỉ":"115B Tân Quới Đông, Trường An, TPVL","Tổng đàn":11,"Bò thịt":11,"Bò cái sinh sản":0,"layer_id":219,"fid":891,"label":"Ngô Văn Tây"}},{"type":"Feature","id":893,"geometry":{"type":"Point","coordinates":[105.923451,10.261601]},"properties":{"Tên cơ sở":"Phạm Văn Công","Địa chỉ":"880 Vĩnh Hòa, Tân Ngãi, TPVL","Tổng đàn":21,"Bò thịt":21,"Bò cái sinh sản":0,"layer_id":219,"fid":893,"label":"Phạm Văn Công"}},{"type":"Feature","id":894,"geometry":{"type":"Point","coordinates":[105.917611,10.24581]},"properties":{"Tên cơ sở":"Nguyễn Thới Khương","Địa chỉ":"46 Vĩnh Phú, Tân Ngãi, TPVL","Tổng đàn":10,"Bò thịt":10,"Bò cái sinh sản":0,"layer_id":219,"fid":894,"label":"Nguyễn Thới Khương"}},{"type":"Feature","id":895,"geometry":{"type":"Point","coordinates":[105.982508,9.974542]},"properties":{"Tên cơ sở":"Nguyễn Văn Trường","Địa chỉ":"Gia Kiết, Xã Tân Mỹ, Trà Ôn","Tổng đàn":13,"Bò thịt":10,"Bò cái sinh sản":3,"layer_id":219,"fid":895,"label":"Nguyễn Văn Trường"}},{"type":"Feature","id":896,"geometry":{"type":"Point","coordinates":[105.979256,9.974927]},"properties":{"Tên cơ sở":"Nguyễn Văn Triều","Địa chỉ":"Mỹ Thuận, Xã Tân Mỹ, Trà Ôn","Tổng đàn":12,"Bò thịt":8,"Bò cái sinh sản":4,"layer_id":219,"fid":896,"label":"Nguyễn Văn Triều"}},{"type":"Feature","id":897,"geometry":{"type":"Point","coordinates":[105.963061,9.974073]},"properties":{"Tên cơ sở":"Thạch Tha Ra","Địa chỉ":"Sóc Ruộng, Xã Tân Mỹ, Trà Ôn","Tổng đàn":28,"Bò thịt":25,"Bò cái sinh sản":3,"layer_id":219,"fid":897,"label":"Thạch Tha Ra"}},{"type":"Feature","id":898,"geometry":{"type":"Point","coordinates":[105.986366,9.992684]},"properties":{"Tên cơ sở":"Nguyễn Thanh Bình","Địa chỉ":"Trà Mòn, Xã Tân Mỹ, Trà Ôn","Tổng đàn":36,"Bò thịt":24,"Bò cái sinh sản":12,"layer_id":219,"fid":898,"label":"Nguyễn Thanh Bình"}},{"type":"Feature","id":899,"geometry":{"type":"Point","coordinates":[105.950435,9.969224]},"properties":{"Tên cơ sở":"Huỳnh Chí Hiệp","Địa chỉ":"Mỹ Trung, Xã Thiện Mỹ, Trà Ôn","Tổng đàn":16,"Bò thịt":16,"Bò cái sinh sản":0,"layer_id":219,"fid":899,"label":"Huỳnh Chí Hiệp"}},{"type":"Feature","id":900,"geometry":{"type":"Point","coordinates":[106.05439,10.003566]},"properties":{"Tên cơ sở":"Võ Thành Liêm","Địa chỉ":"Tường Tín, Xã Thới Hòa, Trà Ôn","Tổng đàn":10,"Bò thịt":10,"Bò cái sinh sản":0,"layer_id":219,"fid":900,"label":"Võ Thành Liêm"}},{"type":"Feature","id":901,"geometry":{"type":"Point","coordinates":[106.007358,9.99338]},"properties":{"Tên cơ sở":"Nguyễn Văn Nhật","Địa chỉ":"Phạm Thị Mến, Xã Trà Côn, Trà Ôn","Tổng đàn":14,"Bò thịt":10,"Bò cái sinh sản":4,"layer_id":219,"fid":901,"label":"Nguyễn Văn Nhật"}},{"type":"Feature","id":902,"geometry":{"type":"Point","coordinates":[105.98871,9.998123]},"properties":{"Tên cơ sở":"Nguyễn Hoàng Phú","Địa chỉ":"Tầm Vu , Xã Trà Côn, Trà Ôn","Tổng đàn":35,"Bò thịt":30,"Bò cái sinh sản":5,"layer_id":219,"fid":902,"label":"Nguyễn Hoàng Phú"}},{"type":"Feature","id":903,"geometry":{"type":"Point","coordinates":[105.990368,10.012159]},"properties":{"Tên cơ sở":"Võ Quang Khải","Địa chỉ":"Trà Ngoa, Xã Trà Côn, Trà Ôn","Tổng đàn":14,"Bò thịt":10,"Bò cái sinh sản":4,"layer_id":219,"fid":903,"label":"Võ Quang Khải"}},{"type":"Feature","id":904,"geometry":{"type":"Point","coordinates":[105.989879,10.013635]},"properties":{"Tên cơ sở":"Nguyễn Thanh Long","Địa chỉ":"Trà Ngoa, Xã Trà Côn, Trà Ôn","Tổng đàn":16,"Bò thịt":10,"Bò cái sinh sản":6,"layer_id":219,"fid":904,"label":"Nguyễn Thanh Long"}},{"type":"Feature","id":905,"geometry":{"type":"Point","coordinates":[105.985239,9.948546]},"properties":{"Tên cơ sở":"Trần Văn Tâm","Địa chỉ":"Vĩnh Khánh I, Xã Vĩnh Xuân, Trà Ôn","Tổng đàn":29,"Bò thịt":17,"Bò cái sinh sản":12,"layer_id":219,"fid":905,"label":"Trần Văn Tâm"}},{"type":"Feature","id":906,"geometry":{"type":"Point","coordinates":[105.985764,9.957426]},"properties":{"Tên cơ sở":"Nguyễn Văn Danh","Địa chỉ":"Vĩnh Khánh I, Xã Vĩnh Xuân, Trà Ôn","Tổng đàn":20,"Bò thịt":7,"Bò cái sinh sản":13,"layer_id":219,"fid":906,"label":"Nguyễn Văn Danh"}},{"type":"Feature","id":907,"geometry":{"type":"Point","coordinates":[105.979926,9.959678]},"properties":{"Tên cơ sở":"Lê Thị Hồng","Địa chỉ":"Vĩnh Khánh I, Xã Vĩnh Xuân, Trà Ôn","Tổng đàn":39,"Bò thịt":17,"Bò cái sinh sản":22,"layer_id":219,"fid":907,"label":"Lê Thị Hồng"}},{"type":"Feature","id":908,"geometry":{"type":"Point","coordinates":[106.109676,9.945339]},"properties":{"Tên cơ sở":"Lê Văn Nguyên","Địa chỉ":"Hiếu Hậu, Xã Hiếu Nghĩa, Vũng Liêm","Tổng đàn":12,"Bò thịt":10,"Bò cái sinh sản":2,"layer_id":219,"fid":908,"label":"Lê Văn Nguyên"}},{"type":"Feature","id":909,"geometry":{"type":"Point","coordinates":[106.122143,9.950333]},"properties":{"Tên cơ sở":"Nguyễn Văn Tùng Nhu","Địa chỉ":"Hiếu Hậu, Xã Hiếu Nghĩa, Vũng Liêm","Tổng đàn":15,"Bò thịt":8,"Bò cái sinh sản":7,"layer_id":219,"fid":909,"label":"Nguyễn Văn Tùng Nhu"}},{"type":"Feature","id":910,"geometry":{"type":"Point","coordinates":[106.118216,10.003466]},"properties":{"Tên cơ sở":"Nguyễn Đức Lợi","Địa chỉ":"Hiếu Hòa A, Xã Hiếu Nhơn, Vũng Liêm","Tổng đàn":12,"Bò thịt":8,"Bò cái sinh sản":4,"layer_id":219,"fid":910,"label":"Nguyễn Đức Lợi"}},{"type":"Feature","id":911,"geometry":{"type":"Point","coordinates":[106.106607,10.035181]},"properties":{"Tên cơ sở":"Phạm Minh Hùng","Địa chỉ":"Hiếu Thủ, Xã Hiếu Nhơn, Vũng Liêm","Tổng đàn":11,"Bò thịt":6,"Bò cái sinh sản":5,"layer_id":219,"fid":911,"label":"Phạm Minh Hùng"}},{"type":"Feature","id":912,"geometry":{"type":"Point","coordinates":[106.108661,10.027273]},"properties":{"Tên cơ sở":"Nguyễn Minh Tâm","Địa chỉ":"Hiếu Thủ, Xã Hiếu Nhơn, Vũng Liêm","Tổng đàn":11,"Bò thịt":5,"Bò cái sinh sản":6,"layer_id":219,"fid":912,"label":"Nguyễn Minh Tâm"}},{"type":"Feature","id":913,"geometry":{"type":"Point","coordinates":[106.084693,10.079672]},"properties":{"Tên cơ sở":"Lê Thị Mười","Địa chỉ":"Quang Phú, Xã Hiếu Phụng, Vũng Liêm","Tổng đàn":11,"Bò thịt":6,"Bò cái sinh sản":5,"layer_id":219,"fid":913,"label":"Lê Thị Mười"}},{"type":"Feature","id":914,"geometry":{"type":"Point","coordinates":[106.093501,10.090218]},"properties":{"Tên cơ sở":"Nguyễn Văn Mười","Địa chỉ":"Quang Phú, Xã Hiếu Phụng, Vũng Liêm","Tổng đàn":12,"Bò thịt":12,"Bò cái sinh sản":0,"layer_id":219,"fid":914,"label":"Nguyễn Văn Mười"}},{"type":"Feature","id":915,"geometry":{"type":"Point","coordinates":[106.093501,10.090218]},"properties":{"Tên cơ sở":"Lê Văn Sớm","Địa chỉ":"Quang Phú, Xã Hiếu Phụng, Vũng Liêm","Tổng đàn":10,"Bò thịt":8,"Bò cái sinh sản":2,"layer_id":219,"fid":915,"label":"Lê Văn Sớm"}},{"type":"Feature","id":916,"geometry":{"type":"Point","coordinates":[106.100198,10.088282]},"properties":{"Tên cơ sở":"Đinh Văn Đực","Địa chỉ":"Quang Phú, Xã Hiếu Phụng, Vũng Liêm","Tổng đàn":22,"Bò thịt":22,"Bò cái sinh sản":0,"layer_id":219,"fid":916,"label":"Đinh Văn Đực"}},{"type":"Feature","id":917,"geometry":{"type":"Point","coordinates":[106.106007,10.088185]},"properties":{"Tên cơ sở":"Đinh Văn Điều","Địa chỉ":"Quang Phú, Xã Hiếu Phụng, Vũng Liêm","Tổng đàn":70,"Bò thịt":70,"Bò cái sinh sản":0,"layer_id":219,"fid":917,"label":"Đinh Văn Điều"}},{"type":"Feature","id":918,"geometry":{"type":"Point","coordinates":[106.110851,10.086535]},"properties":{"Tên cơ sở":"Nguyễn Văn Dũng","Địa chỉ":"Tân Huy, Xã Hiếu Phụng, Vũng Liêm","Tổng đàn":100,"Bò thịt":60,"Bò cái sinh sản":40,"layer_id":219,"fid":918,"label":"Nguyễn Văn Dũng"}},{"type":"Feature","id":919,"geometry":{"type":"Point","coordinates":[106.110068,10.040349]},"properties":{"Tên cơ sở":"Trần Văn Lộc","Địa chỉ":"Phú Cường, Xã Hiếu Thuận, Vũng Liêm","Tổng đàn":12,"Bò thịt":12,"Bò cái sinh sản":0,"layer_id":219,"fid":919,"label":"Trần Văn Lộc"}},{"type":"Feature","id":920,"geometry":{"type":"Point","coordinates":[106.114442,10.051041]},"properties":{"Tên cơ sở":"Nguyễn Thế Phương","Địa chỉ":"Phú Điền, Xã Hiếu Thuận, Vũng Liêm","Tổng đàn":32,"Bò thịt":8,"Bò cái sinh sản":24,"layer_id":219,"fid":920,"label":"Nguyễn Thế Phương"}},{"type":"Feature","id":921,"geometry":{"type":"Point","coordinates":[106.114667,10.05286]},"properties":{"Tên cơ sở":"Mai Hữu Thuận","Địa chỉ":"Quang Trường, Xã Hiếu Thuận, Vũng Liêm","Tổng đàn":14,"Bò thịt":7,"Bò cái sinh sản":7,"layer_id":219,"fid":921,"label":"Mai Hữu Thuận"}},{"type":"Feature","id":922,"geometry":{"type":"Point","coordinates":[106.116011,10.067506]},"properties":{"Tên cơ sở":"Lê Quang Sa","Địa chỉ":"Quang Trường, Xã Hiếu Phụng, Vũng Liêm","Tổng đàn":12,"Bò thịt":7,"Bò cái sinh sản":5,"layer_id":219,"fid":922,"label":"Lê Quang Sa"}},{"type":"Feature","id":923,"geometry":{"type":"Point","coordinates":[106.115075,10.05729]},"properties":{"Tên cơ sở":"Nguyễn Văn  Coi","Địa chỉ":"Quang Trường, Xã Hiếu Thuận, Vũng Liêm","Tổng đàn":16,"Bò thịt":8,"Bò cái sinh sản":8,"layer_id":219,"fid":923,"label":"Nguyễn Văn  Coi"}},{"type":"Feature","id":924,"geometry":{"type":"Point","coordinates":[106.15782,10.12486]},"properties":{"Tên cơ sở":"Đặng Văn Nha","Địa chỉ":"Quang Hòa, Xã Quới An, Vũng Liêm","Tổng đàn":12,"Bò thịt":8,"Bò cái sinh sản":4,"layer_id":219,"fid":924,"label":"Đặng Văn Nha"}},{"type":"Feature","id":925,"geometry":{"type":"Point","coordinates":[106.16295,10.121095]},"properties":{"Tên cơ sở":"Đoàn Văn Lập","Địa chỉ":"Quang Hòa, Xã Quới An, Vũng Liêm","Tổng đàn":14,"Bò thịt":0,"Bò cái sinh sản":14,"layer_id":219,"fid":925,"label":"Đoàn Văn Lập"}},{"type":"Feature","id":926,"geometry":{"type":"Point","coordinates":[106.155684,10.114679]},"properties":{"Tên cơ sở":"Trần Thị Nữa","Địa chỉ":"Quang Minh, Xã Quới An, Vũng Liêm","Tổng đàn":11,"Bò thịt":7,"Bò cái sinh sản":4,"layer_id":219,"fid":926,"label":"Trần Thị Nữa"}},{"type":"Feature","id":927,"geometry":{"type":"Point","coordinates":[106.083699,10.106411]},"properties":{"Tên cơ sở":"Võ Thanh Hiền","Địa chỉ":"Ấp 5, Xã Tân An Luông, Vũng Liêm","Tổng đàn":25,"Bò thịt":0,"Bò cái sinh sản":25,"layer_id":219,"fid":927,"label":"Võ Thanh Hiền"}},{"type":"Feature","id":928,"geometry":{"type":"Point","coordinates":[106.083699,10.106411]},"properties":{"Tên cơ sở":"Nguyễn Thanh Nhã","Địa chỉ":"Ấp 7, Xã Tân An Luông, Vũng Liêm","Tổng đàn":15,"Bò thịt":15,"Bò cái sinh sản":0,"layer_id":219,"fid":928,"label":"Nguyễn Thanh Nhã"}},{"type":"Feature","id":929,"geometry":{"type":"Point","coordinates":[106.079104,10.082694]},"properties":{"Tên cơ sở":"Nguyễn Tấn Hòa","Địa chỉ":"Đập Sậy, Xã Tân An Luông, Vũng Liêm","Tổng đàn":15,"Bò thịt":4,"Bò cái sinh sản":11,"layer_id":219,"fid":929,"label":"Nguyễn Tấn Hòa"}},{"type":"Feature","id":930,"geometry":{"type":"Point","coordinates":[106.113977,10.160762]},"properties":{"Tên cơ sở":"Nguyễn Văn Thái","Địa chỉ":"Ấp 1, Xã Tân Quới Trung, Vũng Liêm","Tổng đàn":22,"Bò thịt":10,"Bò cái sinh sản":12,"layer_id":219,"fid":930,"label":"Nguyễn Văn Thái"}},{"type":"Feature","id":931,"geometry":{"type":"Point","coordinates":[106.107387,10.168396]},"properties":{"Tên cơ sở":"Trần Văn Dũng","Địa chỉ":"Quang Diệu, Xã Tân Quới Trung, Vũng Liêm","Tổng đàn":12,"Bò thịt":8,"Bò cái sinh sản":4,"layer_id":219,"fid":931,"label":"Trần Văn Dũng"}},{"type":"Feature","id":932,"geometry":{"type":"Point","coordinates":[106.190624,10.090826]},"properties":{"Tên cơ sở":"Sơn Ngọc Lợi","Địa chỉ":"Phong Thới, Thị trấn Vũng Liêm, Vũng Liêm","Tổng đàn":15,"Bò thịt":7,"Bò cái sinh sản":8,"layer_id":219,"fid":932,"label":"Sơn Ngọc Lợi"}},{"type":"Feature","id":933,"geometry":{"type":"Point","coordinates":[106.128873,10.046905]},"properties":{"Tên cơ sở":"Nguyễn Văn Điển","Địa chỉ":"An Hậu, Xã Trung An, Vũng Liêm","Tổng đàn":10,"Bò thịt":6,"Bò cái sinh sản":4,"layer_id":219,"fid":933,"label":"Nguyễn Văn Điển"}},{"type":"Feature","id":934,"geometry":{"type":"Point","coordinates":[106.131241,10.04518]},"properties":{"Tên cơ sở":"Nguyễn Văn Mến","Địa chỉ":"An Hậu, Xã Trung An, Vũng Liêm","Tổng đàn":18,"Bò thịt":11,"Bò cái sinh sản":7,"layer_id":219,"fid":934,"label":"Nguyễn Văn Mến"}},{"type":"Feature","id":935,"geometry":{"type":"Point","coordinates":[106.143775,10.048168]},"properties":{"Tên cơ sở":"Lê Văn Thổ","Địa chỉ":"An Lạc 2, Xã Trung An, Vũng Liêm","Tổng đàn":14,"Bò thịt":8,"Bò cái sinh sản":6,"layer_id":219,"fid":935,"label":"Lê Văn Thổ"}},{"type":"Feature","id":936,"geometry":{"type":"Point","coordinates":[106.151875,10.02039]},"properties":{"Tên cơ sở":"Hà Văn Một","Địa chỉ":"Trung Hòa 2, Xã Trung An, Vũng Liêm","Tổng đàn":10,"Bò thịt":10,"Bò cái sinh sản":0,"layer_id":219,"fid":936,"label":"Hà Văn Một"}},{"type":"Feature","id":937,"geometry":{"type":"Point","coordinates":[106.151981,10.019576]},"properties":{"Tên cơ sở":"Hà Văn Trung","Địa chỉ":"Trung Hòa 2, Xã Trung An, Vũng Liêm","Tổng đàn":23,"Bò thịt":23,"Bò cái sinh sản":0,"layer_id":219,"fid":937,"label":"Hà Văn Trung"}},{"type":"Feature","id":938,"geometry":{"type":"Point","coordinates":[106.127216,10.113868]},"properties":{"Tên cơ sở":"Trần Văn Gọn","Địa chỉ":"Bà Phận, Xã Trung Chánh, Vũng Liêm","Tổng đàn":10,"Bò thịt":0,"Bò cái sinh sản":10,"layer_id":219,"fid":938,"label":"Trần Văn Gọn"}},{"type":"Feature","id":939,"geometry":{"type":"Point","coordinates":[106.138097,10.119519]},"properties":{"Tên cơ sở":"Lâm Văn Minh","Địa chỉ":"Quang Đức, Xã Trung Chánh, Vũng Liêm","Tổng đàn":12,"Bò thịt":8,"Bò cái sinh sản":4,"layer_id":219,"fid":939,"label":"Lâm Văn Minh"}},{"type":"Feature","id":940,"geometry":{"type":"Point","coordinates":[106.137011,10.117011]},"properties":{"Tên cơ sở":"Lê Văn Rí","Địa chỉ":"Quang Đức, Xã Trung Chánh, Vũng Liêm","Tổng đàn":14,"Bò thịt":5,"Bò cái sinh sản":9,"layer_id":219,"fid":940,"label":"Lê Văn Rí"}},{"type":"Feature","id":941,"geometry":{"type":"Point","coordinates":[106.124853,10.121542]},"properties":{"Tên cơ sở":"Nguyễn Văn Luyến","Địa chỉ":"Rạch Chim, Xã Trung Chánh, Vũng Liêm","Tổng đàn":11,"Bò thịt":11,"Bò cái sinh sản":0,"layer_id":219,"fid":941,"label":"Nguyễn Văn Luyến"}},{"type":"Feature","id":942,"geometry":{"type":"Point","coordinates":[106.129351,10.120326]},"properties":{"Tên cơ sở":"Trần Thanh Nguyên","Địa chỉ":"Rạch Chim, Xã Trung Chánh, Vũng Liêm","Tổng đàn":10,"Bò thịt":5,"Bò cái sinh sản":5,"layer_id":219,"fid":942,"label":"Trần Thanh Nguyên"}},{"type":"Feature","id":943,"geometry":{"type":"Point","coordinates":[106.126586,10.113631]},"properties":{"Tên cơ sở":"Nguyễn Văn Vũ","Địa chỉ":"Rạch Chim, Xã Trung Chánh, Vũng Liêm","Tổng đàn":12,"Bò thịt":6,"Bò cái sinh sản":6,"layer_id":219,"fid":943,"label":"Nguyễn Văn Vũ"}},{"type":"Feature","id":944,"geometry":{"type":"Point","coordinates":[106.123488,10.125727]},"properties":{"Tên cơ sở":"Nguyễn Thanh Nữ","Địa chỉ":"Rạch Chim, Xã Trung Chánh, Vũng Liêm","Tổng đàn":11,"Bò thịt":4,"Bò cái sinh sản":7,"layer_id":219,"fid":944,"label":"Nguyễn Thanh Nữ"}},{"type":"Feature","id":945,"geometry":{"type":"Point","coordinates":[106.149823,10.101017]},"properties":{"Tên cơ sở":"Lê Văn Cuộc","Địa chỉ":"Bình Phụng, Xã Trung Hiệp, Vũng Liêm","Tổng đàn":11,"Bò thịt":6,"Bò cái sinh sản":5,"layer_id":219,"fid":945,"label":"Lê Văn Cuộc"}},{"type":"Feature","id":946,"geometry":{"type":"Point","coordinates":[106.147154,10.090601]},"properties":{"Tên cơ sở":"Hồ Văn Sẵn","Địa chỉ":"Bình Phụng, Xã Trung Hiệp, Vũng Liêm","Tổng đàn":10,"Bò thịt":4,"Bò cái sinh sản":6,"layer_id":219,"fid":946,"label":"Hồ Văn Sẵn"}},{"type":"Feature","id":947,"geometry":{"type":"Point","coordinates":[106.149088,10.074318]},"properties":{"Tên cơ sở":"Ngô Văn Việt","Địa chỉ":"Bình Phụng, Xã Trung Hiếu, Vũng Liêm","Tổng đàn":11,"Bò thịt":4,"Bò cái sinh sản":7,"layer_id":219,"fid":947,"label":"Ngô Văn Việt"}},{"type":"Feature","id":948,"geometry":{"type":"Point","coordinates":[106.156072,10.106797]},"properties":{"Tên cơ sở":"Cao Văn Dũng","Địa chỉ":"Bình Phụng, Xã Trung Hiệp, Vũng Liêm","Tổng đàn":11,"Bò thịt":5,"Bò cái sinh sản":6,"layer_id":219,"fid":948,"label":"Cao Văn Dũng"}},{"type":"Feature","id":949,"geometry":{"type":"Point","coordinates":[106.134019,10.109593]},"properties":{"Tên cơ sở":"Đặng Văn Hữu","Địa chỉ":"Mướp Sát, Xã Trung Hiệp, Vũng Liêm","Tổng đàn":12,"Bò thịt":6,"Bò cái sinh sản":6,"layer_id":219,"fid":949,"label":"Đặng Văn Hữu"}},{"type":"Feature","id":950,"geometry":{"type":"Point","coordinates":[106.135489,10.087179]},"properties":{"Tên cơ sở":"Nguyễn Văn Nhu","Địa chỉ":"Mướp Sát, Xã Trung Hiệp, Vũng Liêm","Tổng đàn":12,"Bò thịt":11,"Bò cái sinh sản":1,"layer_id":219,"fid":950,"label":"Nguyễn Văn Nhu"}},{"type":"Feature","id":951,"geometry":{"type":"Point","coordinates":[106.137326,10.102318]},"properties":{"Tên cơ sở":"Đồng Thanh Việt","Địa chỉ":"Mướp Sát, Xã Trung Hiệp, Vũng Liêm","Tổng đàn":10,"Bò thịt":4,"Bò cái sinh sản":6,"layer_id":219,"fid":951,"label":"Đồng Thanh Việt"}},{"type":"Feature","id":952,"geometry":{"type":"Point","coordinates":[106.147618,10.103158]},"properties":{"Tên cơ sở":"Phạm Văn Hòa","Địa chỉ":"Rạch Ngay, Xã Trung Hiệp, Vũng Liêm","Tổng đàn":25,"Bò thịt":25,"Bò cái sinh sản":0,"layer_id":219,"fid":952,"label":"Phạm Văn Hòa"}},{"type":"Feature","id":953,"geometry":{"type":"Point","coordinates":[106.118583,10.108333]},"properties":{"Tên cơ sở":"Phạm Ngọc Khối","Địa chỉ":"Rạch Ngay, Xã Trung Chánh, Vũng Liêm","Tổng đàn":10,"Bò thịt":7,"Bò cái sinh sản":3,"layer_id":219,"fid":953,"label":"Phạm Ngọc Khối"}},{"type":"Feature","id":954,"geometry":{"type":"Point","coordinates":[106.157269,10.110047]},"properties":{"Tên cơ sở":"Lê Tấn Phong","Địa chỉ":"Trung Hưng, Xã Trung Hiệp, Vũng Liêm","Tổng đàn":10,"Bò thịt":10,"Bò cái sinh sản":0,"layer_id":219,"fid":954,"label":"Lê Tấn Phong"}},{"type":"Feature","id":955,"geometry":{"type":"Point","coordinates":[106.157517,10.110096]},"properties":{"Tên cơ sở":"Nguyễn Văn Châu","Địa chỉ":"Trung Hưng, Xã Trung Hiệp, Vũng Liêm","Tổng đàn":11,"Bò thịt":5,"Bò cái sinh sản":6,"layer_id":219,"fid":955,"label":"Nguyễn Văn Châu"}},{"type":"Feature","id":956,"geometry":{"type":"Point","coordinates":[106.139088,10.103422]},"properties":{"Tên cơ sở":"Đồng Văn Thuộc","Địa chỉ":"Trung Hưng, Xã Trung Hiệp, Vũng Liêm","Tổng đàn":12,"Bò thịt":7,"Bò cái sinh sản":5,"layer_id":219,"fid":956,"label":"Đồng Văn Thuộc"}},{"type":"Feature","id":957,"geometry":{"type":"Point","coordinates":[106.165467,10.099936]},"properties":{"Tên cơ sở":"Lê Thanh Hải","Địa chỉ":"Trung Trị, Xã Trung Hiệp, Vũng Liêm","Tổng đàn":11,"Bò thịt":5,"Bò cái sinh sản":6,"layer_id":219,"fid":957,"label":"Lê Thanh Hải"}},{"type":"Feature","id":958,"geometry":{"type":"Point","coordinates":[106.17038,10.075651]},"properties":{"Tên cơ sở":"Trần Minh Định","Địa chỉ":"An Điền 1, Xã Trung Hiếu, Vũng Liêm","Tổng đàn":20,"Bò thịt":8,"Bò cái sinh sản":12,"layer_id":219,"fid":958,"label":"Trần Minh Định"}},{"type":"Feature","id":959,"geometry":{"type":"Point","coordinates":[106.138892,10.078219]},"properties":{"Tên cơ sở":"Đinh Quang Hiếu","Địa chỉ":"An Thành Đông, Xã Trung Hiếu, Vũng Liêm","Tổng đàn":30,"Bò thịt":30,"Bò cái sinh sản":0,"layer_id":219,"fid":959,"label":"Đinh Quang Hiếu"}},{"type":"Feature","id":960,"geometry":{"type":"Point","coordinates":[106.134209,10.059509]},"properties":{"Tên cơ sở":"Tạ Thị Thơm","Địa chỉ":"An Thành Tây, Xã Trung Hiếu, Vũng Liêm","Tổng đàn":16,"Bò thịt":7,"Bò cái sinh sản":9,"layer_id":219,"fid":960,"label":"Tạ Thị Thơm"}},{"type":"Feature","id":961,"geometry":{"type":"Point","coordinates":[106.118583,10.06704]},"properties":{"Tên cơ sở":"Trần Hữu Thông","Địa chỉ":"An Thành Tây, Xã Hiếu Thuận, Vũng Liêm","Tổng đàn":11,"Bò thịt":8,"Bò cái sinh sản":3,"layer_id":219,"fid":961,"label":"Trần Hữu Thông"}},{"type":"Feature","id":962,"geometry":{"type":"Point","coordinates":[106.134209,10.059509]},"properties":{"Tên cơ sở":"Nguyễn Huy Hào","Địa chỉ":"An Thành Tây, Xã Trung Hiếu, Vũng Liêm","Tổng đàn":11,"Bò thịt":3,"Bò cái sinh sản":8,"layer_id":219,"fid":962,"label":"Nguyễn Huy Hào"}},{"type":"Feature","id":963,"geometry":{"type":"Point","coordinates":[106.199545,10.051417]},"properties":{"Tên cơ sở":"Nguyễn Văn Sửu","Địa chỉ":"Ấp 1, Xã Trung Ngãi, Vũng Liêm","Tổng đàn":12,"Bò thịt":8,"Bò cái sinh sản":4,"layer_id":219,"fid":963,"label":"Nguyễn Văn Sửu"}},{"type":"Feature","id":964,"geometry":{"type":"Point","coordinates":[106.195927,10.048027]},"properties":{"Tên cơ sở":"Huỳnh Văn Cường","Địa chỉ":"Ấp 2, Xã Trung Ngãi, Vũng Liêm","Tổng đàn":14,"Bò thịt":10,"Bò cái sinh sản":4,"layer_id":219,"fid":964,"label":"Huỳnh Văn Cường"}},{"type":"Feature","id":965,"geometry":{"type":"Point","coordinates":[106.21702,10.051612]},"properties":{"Tên cơ sở":"Huỳnh Chí Thanh","Địa chỉ":"Ấp 7, Xã Trung Ngãi, Vũng Liêm","Tổng đàn":10,"Bò thịt":10,"Bò cái sinh sản":0,"layer_id":219,"fid":965,"label":"Huỳnh Chí Thanh"}},{"type":"Feature","id":966,"geometry":{"type":"Point","coordinates":[106.223134,10.059731]},"properties":{"Tên cơ sở":"Trang Thành Chiểu","Địa chỉ":"Ấp 8, Xã Trung Ngãi, Vũng Liêm","Tổng đàn":12,"Bò thịt":5,"Bò cái sinh sản":7,"layer_id":219,"fid":966,"label":"Trang Thành Chiểu"}},{"type":"Feature","id":967,"geometry":{"type":"Point","coordinates":[106.223249,10.059246]},"properties":{"Tên cơ sở":"Trang Thành Ri","Địa chỉ":"Ấp 8, Xã Trung Ngãi, Vũng Liêm","Tổng đàn":12,"Bò thịt":6,"Bò cái sinh sản":6,"layer_id":219,"fid":967,"label":"Trang Thành Ri"}},{"type":"Feature","id":968,"geometry":{"type":"Point","coordinates":[106.188441,10.028271]},"properties":{"Tên cơ sở":"Đoàn Văn Minh","Địa chỉ":"Ấp Kinh, Xã Trung Ngãi, Vũng Liêm","Tổng đàn":12,"Bò thịt":6,"Bò cái sinh sản":6,"layer_id":219,"fid":968,"label":"Đoàn Văn Minh"}},{"type":"Feature","id":969,"geometry":{"type":"Point","coordinates":[106.175752,10.031162]},"properties":{"Tên cơ sở":"Trần Văn Tổng","Địa chỉ":"Ấp Kinh, Xã Trung Ngãi, Vũng Liêm","Tổng đàn":11,"Bò thịt":5,"Bò cái sinh sản":6,"layer_id":219,"fid":969,"label":"Trần Văn Tổng"}},{"type":"Feature","id":970,"geometry":{"type":"Point","coordinates":[106.201144,10.046027]},"properties":{"Tên cơ sở":"Trần Văn Mười","Địa chỉ":"Phú Nhuận, Xã Trung Ngãi, Vũng Liêm","Tổng đàn":18,"Bò thịt":10,"Bò cái sinh sản":8,"layer_id":219,"fid":970,"label":"Trần Văn Mười"}},{"type":"Feature","id":971,"geometry":{"type":"Point","coordinates":[106.215563,10.042187]},"properties":{"Tên cơ sở":"Nguyễn Văn Bé Tư ","Địa chỉ":"Ấp 6, Xã Trung Nghĩa, Vũng Liêm","Tổng đàn":12,"Bò thịt":4,"Bò cái sinh sản":8,"layer_id":219,"fid":971,"label":"Nguyễn Văn Bé Tư "}},{"type":"Feature","id":972,"geometry":{"type":"Point","coordinates":[106.205555,10.039552]},"properties":{"Tên cơ sở":"Trương Minh Hiếu ","Địa chỉ":"Phú Tân, Xã Trung Nghĩa, Vũng Liêm","Tổng đàn":100,"Bò thịt":60,"Bò cái sinh sản":40,"layer_id":219,"fid":972,"label":"Trương Minh Hiếu "}},{"type":"Feature","id":973,"geometry":{"type":"Point","coordinates":[106.208483,10.045582]},"properties":{"Tên cơ sở":"Trương Tiến Út","Địa chỉ":"Phú Tân, Xã Trung Nghĩa, Vũng Liêm","Tổng đàn":14,"Bò thịt":14,"Bò cái sinh sản":0,"layer_id":219,"fid":973,"label":"Trương Tiến Út"}},{"type":"Feature","id":974,"geometry":{"type":"Point","coordinates":[106.203006,10.036145]},"properties":{"Tên cơ sở":"Nguyễn Văn Chiến","Địa chỉ":"Phú Tiên, Xã Trung Nghĩa, Vũng Liêm","Tổng đàn":12,"Bò thịt":12,"Bò cái sinh sản":0,"layer_id":219,"fid":974,"label":"Nguyễn Văn Chiến"}},{"type":"Feature","id":975,"geometry":{"type":"Point","coordinates":[106.17326,10.059541]},"properties":{"Tên cơ sở":"Phạm Phú Hào","Địa chỉ":"Phước Lộc, Xã Trung Thành, Vũng Liêm","Tổng đàn":17,"Bò thịt":7,"Bò cái sinh sản":10,"layer_id":219,"fid":975,"label":"Phạm Phú Hào"}},{"type":"Feature","id":976,"geometry":{"type":"Point","coordinates":[106.173148,10.058582]},"properties":{"Tên cơ sở":"Trần Văn Danh","Địa chỉ":"Phước Lộc, Xã Trung Thành, Vũng Liêm","Tổng đàn":10,"Bò thịt":6,"Bò cái sinh sản":4,"layer_id":219,"fid":976,"label":"Trần Văn Danh"}},{"type":"Feature","id":977,"geometry":{"type":"Point","coordinates":[106.175503,10.038768]},"properties":{"Tên cơ sở":"Lê Văn Bình","Địa chỉ":"Xuân Lộc, Xã Trung Thành, Vũng Liêm","Tổng đàn":10,"Bò thịt":5,"Bò cái sinh sản":5,"layer_id":219,"fid":977,"label":"Lê Văn Bình"}},{"type":"Feature","id":978,"geometry":{"type":"Point","coordinates":[106.174752,10.045244]},"properties":{"Tên cơ sở":"Võ Thành Hùng","Địa chỉ":"Xuân Lộc, Xã Trung Thành, Vũng Liêm","Tổng đàn":10,"Bò thịt":7,"Bò cái sinh sản":3,"layer_id":219,"fid":978,"label":"Võ Thành Hùng"}},{"type":"Feature","id":979,"geometry":{"type":"Point","coordinates":[106.175503,10.038768]},"properties":{"Tên cơ sở":"Lê Văn Chiến","Địa chỉ":"Xuân Lộc, Xã Trung Thành, Vũng Liêm","Tổng đàn":13,"Bò thịt":8,"Bò cái sinh sản":5,"layer_id":219,"fid":979,"label":"Lê Văn Chiến"}},{"type":"Feature","id":980,"geometry":{"type":"Point","coordinates":[106.172259,10.063765]},"properties":{"Tên cơ sở":"Trần Anh Thông","Địa chỉ":"Xuân Minh 1, Xã Trung Thành, Vũng Liêm","Tổng đàn":12,"Bò thịt":12,"Bò cái sinh sản":0,"layer_id":219,"fid":980,"label":"Trần Anh Thông"}},{"type":"Feature","id":981,"geometry":{"type":"Point","coordinates":[106.19614,10.063173]},"properties":{"Tên cơ sở":"Nguyễn Thành Tấn","Địa chỉ":"Xuân Minh 2, Xã Trung Thành, Vũng Liêm","Tổng đàn":13,"Bò thịt":7,"Bò cái sinh sản":6,"layer_id":219,"fid":981,"label":"Nguyễn Thành Tấn"}},{"type":"Feature","id":982,"geometry":{"type":"Point","coordinates":[106.189417,10.067699]},"properties":{"Tên cơ sở":"Nguyễn Minh Hùng","Địa chỉ":"Xuân Minh 2, Xã Trung Thành, Vũng Liêm","Tổng đàn":10,"Bò thịt":8,"Bò cái sinh sản":2,"layer_id":219,"fid":982,"label":"Nguyễn Minh Hùng"}},{"type":"Feature","id":983,"geometry":{"type":"Point","coordinates":[106.221454,10.087112]},"properties":{"Tên cơ sở":"Trần Văn Công ","Địa chỉ":"Đại Nghĩa, Xã Trung Thành Đông, Vũng Liêm","Tổng đàn":13,"Bò thịt":7,"Bò cái sinh sản":6,"layer_id":219,"fid":983,"label":"Trần Văn Công "}},{"type":"Feature","id":984,"geometry":{"type":"Point","coordinates":[106.215825,10.078066]},"properties":{"Tên cơ sở":"Biện Văn Thủ","Địa chỉ":"Đức Hòa, Xã Trung Thành Đông, Vũng Liêm","Tổng đàn":20,"Bò thịt":15,"Bò cái sinh sản":5,"layer_id":219,"fid":984,"label":"Biện Văn Thủ"}},{"type":"Feature","id":985,"geometry":{"type":"Point","coordinates":[106.206787,10.078157]},"properties":{"Tên cơ sở":"Nguyễn Hữu Tài","Địa chỉ":"Đức Hòa, Xã Trung Thành Đông, Vũng Liêm","Tổng đàn":11,"Bò thịt":4,"Bò cái sinh sản":7,"layer_id":219,"fid":985,"label":"Nguyễn Hữu Tài"}},{"type":"Feature","id":986,"geometry":{"type":"Point","coordinates":[106.212414,10.071538]},"properties":{"Tên cơ sở":"Lê Trí Dũng","Địa chỉ":"Hòa Thuận, Xã Trung Thành Đông, Vũng Liêm","Tổng đàn":12,"Bò thịt":2,"Bò cái sinh sản":10,"layer_id":219,"fid":986,"label":"Lê Trí Dũng"}},{"type":"Feature","id":987,"geometry":{"type":"Point","coordinates":[106.173642,10.117528]},"properties":{"Tên cơ sở":"Nguyễn Hoàng Khương","Địa chỉ":"Quới Hiệp, Xã Trung Thành Tây, Vũng Liêm","Tổng đàn":16,"Bò thịt":7,"Bò cái sinh sản":9,"layer_id":219,"fid":987,"label":"Nguyễn Hoàng Khương"}},{"type":"Feature","id":988,"geometry":{"type":"Point","coordinates":[106.208251,10.100608]},"properties":{"Tên cơ sở":"Tạ Tấn Phê","Địa chỉ":"Tân Trung, Xã Trung Thành Tây, Vũng Liêm","Tổng đàn":12,"Bò thịt":5,"Bò cái sinh sản":7,"layer_id":219,"fid":988,"label":"Tạ Tấn Phê"}},{"type":"Feature","id":989,"geometry":{"type":"Point","coordinates":[106.178977,10.119496]},"properties":{"Tên cơ sở":"Nguyễn Văn Bé Ba","Địa chỉ":"Trường Thọ, Xã Trung Thành Tây, Vũng Liêm","Tổng đàn":17,"Bò thịt":9,"Bò cái sinh sản":8,"layer_id":219,"fid":989,"label":"Nguyễn Văn Bé Ba"}},{"type":"Feature","id":990,"geometry":{"type":"Point","coordinates":[106.18695,10.115742]},"properties":{"Tên cơ sở":"Trần Tấn Đạt","Địa chỉ":"Trường Thọ, Xã Trung Thành Tây, Vũng Liêm","Tổng đàn":15,"Bò thịt":8,"Bò cái sinh sản":7,"layer_id":219,"fid":990,"label":"Trần Tấn Đạt"}}]}
