{"type":"FeatureCollection","name":"Trạm cấp nước","metadata":{"source":"https://hatang.vinhlong.gov.vn/","downloaded_at":"2026-07-20T01:11:57+00:00","layer_id":243,"layer_name":"Trạm cấp nước","catalog_endpoints":["/map/publicLayers2?inputs=nuoc_sach"],"requested_bbox":[104.0,8.0,108.0,12.0],"tile_size":0.0,"tile_count":1,"tile_errors":[],"feature_count":95,"coordinate_order":"x,y (thường là longitude,latitude theo cấu hình EPSG:4326 của WebGIS)"},"features":[{"type":"Feature","geometry":{"type":"Point","coordinates":[106.042581797,10.149379671]},"properties":{"Mã trạm":null,"Tên trạm":"Tân Long 2","Ngày hoạt động":null,"Ngày cải tạo":null,"Công suất thiết kế":null,"Người quản lý":null,"Tên dự án":null,"Công nghệ":null,"Tổng chiều dài tuyến ống (km)":null,"Tổng số đồng hồ":null,"Trạng thái":null,"layer_id":243,"fid":157,"label":"Tân Long 2"}},{"type":"Feature","geometry":{"type":"Point","coordinates":[105.918061826,10.086218581]},"properties":{"Mã trạm":null,"Tên trạm":"Long Phú 2","Ngày hoạt động":"2011","Ngày cải tạo":"2021","Công suất thiết kế":null,"Người quản lý":null,"Tên dự án":"Hệ thống cấp nước ấp 6B, xã Long Phú, huyện Tam Bình, tỉnh Vĩnh Long","Công nghệ":"Lắng ngang","Tổng chiều dài tuyến ống (km)":"28","Tổng số đồng hồ":"2000","Trạng thái":"Bình thường","layer_id":243,"fid":91,"label":"Long Phú 2"}},{"type":"Feature","geometry":{"type":"Point","coordinates":[105.906158137,10.110455894]},"properties":{"Mã trạm":null,"Tên trạm":"Song Phú","Ngày hoạt động":"2007","Ngày cải tạo":"2021","Công suất thiết kế":null,"Người quản lý":null,"Tên dự án":"Hệ thống cấp nước tập trung liên xã Song Phú 2, huyện Tam Bình, tỉnh Vĩnh Long (Trạm cấp nước xã Song Phú)","Công nghệ":"Lắng ngang","Tổng chiều dài tuyến ống (km)":"59.1","Tổng số đồng hồ":"3000","Trạng thái":"Bình thường","layer_id":243,"fid":98,"label":"Song Phú"}},{"type":"Feature","geometry":{"type":"Point","coordinates":[106.112296119,9.93909255]},"properties":{"Mã trạm":null,"Tên trạm":"Hiếu Nghĩa","Ngày hoạt động":"2014","Ngày cải tạo":"2016","Công suất thiết kế":null,"Người quản lý":null,"Tên dự án":"Trạm cấp nước xã Hiếu Nghĩa, huyện Vũng Liêm, tỉnh Vĩnh Long","Công nghệ":"Lắng ngang","Tổng chiều dài tuyến ống (km)":"40.1","Tổng số đồng hồ":"3000","Trạng thái":"Bình thường","layer_id":243,"fid":115,"label":"Hiếu Nghĩa"}},{"type":"Feature","geometry":{"type":"Point","coordinates":[10.214175551,10.214175551]},"properties":{"Mã trạm":null,"Tên trạm":"Long Phước 2","Ngày hoạt động":"2004","Ngày cải tạo":"2021","Công suất thiết kế":null,"Người quản lý":null,"Tên dự án":"Nhà máy nước xã Long Phước","Công nghệ":"Lắng ngang","Tổng chiều dài tuyến ống (km)":"10.2","Tổng số đồng hồ":"1500","Trạng thái":"Bình thường","layer_id":243,"fid":61,"label":"Long Phước 2"}},{"type":"Feature","geometry":{"type":"Point","coordinates":[106.177431989,10.026152589]},"properties":{"Mã trạm":null,"Tên trạm":"Trung Ngãi 2","Ngày hoạt động":"2005","Ngày cải tạo":"2017","Công suất thiết kế":null,"Người quản lý":null,"Tên dự án":"Nhà máy nước xã Trung Ngãi","Công nghệ":"Lắng ngang","Tổng chiều dài tuyến ống (km)":"19","Tổng số đồng hồ":"1500","Trạng thái":"Bình thường","layer_id":243,"fid":126,"label":"Trung Ngãi 2"}},{"type":"Feature","geometry":{"type":"Point","coordinates":[105.976441658,10.015027713]},"properties":{"Mã trạm":null,"Tên trạm":"Thiện Mỹ","Ngày hoạt động":"2013","Ngày cải tạo":"2021","Công suất thiết kế":null,"Người quản lý":null,"Tên dự án":"Hệ thống cấp nước tập trung liên xã Tân Mỹ 2, huyện Trà Ôn, tỉnh Vĩnh Long (Trạm cấp nước xã Tân Mỹ)","Công nghệ":"Lắng ngang","Tổng chiều dài tuyến ống (km)":"73.5","Tổng số đồng hồ":"3000","Trạng thái":"Bình thường","layer_id":243,"fid":107,"label":"Thiện Mỹ"}},{"type":"Feature","geometry":{"type":"Point","coordinates":[105.729604145,10.122932125]},"properties":{"Mã trạm":null,"Tên trạm":"Tân Bình","Ngày hoạt động":"2010","Ngày cải tạo":"2016","Công suất thiết kế":null,"Người quản lý":null,"Tên dự án":"Trạm cấp nước xã Tân Bình","Công nghệ":"Lắng ngang","Tổng chiều dài tuyến ống (km)":"34","Tổng số đồng hồ":"2000","Trạng thái":"Bình thường","layer_id":243,"fid":46,"label":"Tân Bình"}},{"type":"Feature","geometry":{"type":"Point","coordinates":[105.833277944,10.081114651]},"properties":{"Mã trạm":null,"Tên trạm":"Thuận An ","Ngày hoạt động":"2006","Ngày cải tạo":"2018","Công suất thiết kế":null,"Người quản lý":null,"Tên dự án":"Trạm cấp nước xã Thuận An, thị xã Bình Minh, tỉnh Vĩnh Long","Công nghệ":"Lắng ngang","Tổng chiều dài tuyến ống (km)":"27.4","Tổng số đồng hồ":"1500","Trạng thái":"Bình thường","layer_id":243,"fid":41,"label":"Thuận An "}},{"type":"Feature","geometry":{"type":"Point","coordinates":[105.97352162,10.216190815]},"properties":{"Mã trạm":null,"Tên trạm":"TCN Long phước","Ngày hoạt động":null,"Ngày cải tạo":null,"Công suất thiết kế":null,"Người quản lý":null,"Tên dự án":null,"Công nghệ":null,"Tổng chiều dài tuyến ống (km)":null,"Tổng số đồng hồ":null,"Trạng thái":null,"layer_id":243,"fid":174,"label":"TCN Long phước"}},{"type":"Feature","geometry":{"type":"Point","coordinates":[106.049804986,10.118314326]},"properties":{"Mã trạm":null,"Tên trạm":"TCN Hoà Thạnh","Ngày hoạt động":null,"Ngày cải tạo":null,"Công suất thiết kế":null,"Người quản lý":null,"Tên dự án":null,"Công nghệ":null,"Tổng chiều dài tuyến ống (km)":null,"Tổng số đồng hồ":null,"Trạng thái":null,"layer_id":243,"fid":175,"label":"TCN Hoà Thạnh"}},{"type":"Feature","geometry":{"type":"Point","coordinates":[106.097104682,10.195642972]},"properties":{"Mã trạm":null,"Tên trạm":"Chánh Hội 1","Ngày hoạt động":"2006","Ngày cải tạo":"2017","Công suất thiết kế":null,"Người quản lý":null,"Tên dự án":"Trạm cấp nước Chánh Hội 1, xã Chánh Hội, huyện Mang Thít, tỉnh Vĩnh Long","Công nghệ":"Lắng ngang","Tổng chiều dài tuyến ống (km)":"39.6","Tổng số đồng hồ":"2500","Trạng thái":"Bình thường","layer_id":243,"fid":73,"label":"Chánh Hội 1"}},{"type":"Feature","geometry":{"type":"Point","coordinates":[105.970323961,10.149249004]},"properties":{"Mã trạm":null,"Tên trạm":"Tân Lộc 2","Ngày hoạt động":"2007","Ngày cải tạo":"2018","Công suất thiết kế":null,"Người quản lý":null,"Tên dự án":"Nhà máy nước xã Tân Lộc, huyện Tam Bình","Công nghệ":"Lắng ngang","Tổng chiều dài tuyến ống (km)":"56.5","Tổng số đồng hồ":"2000","Trạng thái":"Bình thường","layer_id":243,"fid":99,"label":"Tân Lộc 2"}},{"type":"Feature","geometry":{"type":"Point","coordinates":[106.02787556,10.207392333]},"properties":{"Mã trạm":null,"Tên trạm":"Hòa Tịnh","Ngày hoạt động":"2007","Ngày cải tạo":"2015","Công suất thiết kế":null,"Người quản lý":null,"Tên dự án":"Trạm cấp nước xã Hòa Tịnh, huyện Mang Thít, tỉnh Vĩnh Long","Công nghệ":"Lắng ngang","Tổng chiều dài tuyến ống (km)":"48.3","Tổng số đồng hồ":"2000","Trạng thái":"Bình thường","layer_id":243,"fid":75,"label":"Hòa Tịnh"}},{"type":"Feature","geometry":{"type":"Point","coordinates":[106.104593615,10.18740429]},"properties":{"Mã trạm":null,"Tên trạm":"Chánh Hội 2","Ngày hoạt động":"2012","Ngày cải tạo":"2015","Công suất thiết kế":null,"Người quản lý":null,"Tên dự án":"Hệ thống cấp nước tập trung Chánh Hội 2, xã Chánh Hội, huyện Mang Thít","Công nghệ":"Lắng ngang","Tổng chiều dài tuyến ống (km)":"18","Tổng số đồng hồ":"1500","Trạng thái":"Bình thường","layer_id":243,"fid":74,"label":"Chánh Hội 2"}},{"type":"Feature","geometry":{"type":"Point","coordinates":[106.0536002,10.241468413]},"properties":{"Mã trạm":null,"Tên trạm":"Mỹ An 1","Ngày hoạt động":"1999","Ngày cải tạo":"2016","Công suất thiết kế":null,"Người quản lý":null,"Tên dự án":"Nhà máy nước xã Mỹ An, huyện Mang Thít","Công nghệ":"Lắng ngang","Tổng chiều dài tuyến ống (km)":"41.7","Tổng số đồng hồ":"2000","Trạng thái":"Bình thường","layer_id":243,"fid":77,"label":"Mỹ An 1"}},{"type":"Feature","geometry":{"type":"Point","coordinates":[105.995231069,10.190450601]},"properties":{"Mã trạm":null,"Tên trạm":"Phú Đức 2","Ngày hoạt động":"2012","Ngày cải tạo":"2023","Công suất thiết kế":null,"Người quản lý":null,"Tên dự án":"Hệ thống cấp nước tập trung Phú Đức 2, xã Phú Đức","Công nghệ":"Lắng ngang","Tổng chiều dài tuyến ống (km)":"16","Tổng số đồng hồ":"3000","Trạng thái":"Bình thường","layer_id":243,"fid":63,"label":"Phú Đức 2"}},{"type":"Feature","geometry":{"type":"Point","coordinates":[105.936396359,10.234970045]},"properties":{"Mã trạm":null,"Tên trạm":"Tân Hạnh 1","Ngày hoạt động":"2005","Ngày cải tạo":"2023","Công suất thiết kế":null,"Người quản lý":null,"Tên dự án":"Hệ thống cấp nước tập trung xã Tân Hạnh, huyện Long Hồ","Công nghệ":"Lắng ngang","Tổng chiều dài tuyến ống (km)":"17.9","Tổng số đồng hồ":"2000","Trạng thái":"Bình thường","layer_id":243,"fid":66,"label":"Tân Hạnh 1"}},{"type":"Feature","geometry":{"type":"Point","coordinates":[105.912995979,9.951550993]},"properties":{"Mã trạm":null,"Tên trạm":"Lục Sỹ Thành 2","Ngày hoạt động":"2017","Ngày cải tạo":null,"Công suất thiết kế":null,"Người quản lý":null,"Tên dự án":"Hệ thống cấp nước tập trung xã Lục Sỹ Thành 2","Công nghệ":"Lắng ngang","Tổng chiều dài tuyến ống (km)":"51","Tổng số đồng hồ":"2500","Trạng thái":"Bình thường","layer_id":243,"fid":105,"label":"Lục Sỹ Thành 2"}},{"type":"Feature","geometry":{"type":"Point","coordinates":[105.964535354,10.310448468]},"properties":{"Mã trạm":null,"Tên trạm":"Đồng Phú","Ngày hoạt động":"2017","Ngày cải tạo":"2019","Công suất thiết kế":null,"Người quản lý":null,"Tên dự án":"Hệ thống cấp nước tập trung xã Đồng Phú, huyện Long Hồ, tỉnh Vĩnh Long","Công nghệ":"Lắng ngang","Tổng chiều dài tuyến ống (km)":"34.7","Tổng số đồng hồ":"3000","Trạng thái":"Bình thường","layer_id":243,"fid":54,"label":"Đồng Phú"}},{"type":"Feature","geometry":{"type":"Point","coordinates":[105.710205803,10.153479041]},"properties":{"Mã trạm":null,"Tên trạm":"Tân An Thạnh","Ngày hoạt động":"2005","Ngày cải tạo":"2018","Công suất thiết kế":null,"Người quản lý":null,"Tên dự án":"Hệ thống cấp nước tập trung xã Tân An Thạnh","Công nghệ":"Lắng ngang","Tổng chiều dài tuyến ống (km)":"27","Tổng số đồng hồ":"1500","Trạng thái":"Bình thường","layer_id":243,"fid":45,"label":"Tân An Thạnh"}},{"type":"Feature","geometry":{"type":"Point","coordinates":[105.884836726,10.089821393]},"properties":{"Mã trạm":null,"Tên trạm":"Tân Phú 2","Ngày hoạt động":"2015","Ngày cải tạo":"2019","Công suất thiết kế":null,"Người quản lý":null,"Tên dự án":"Hệ thống cấp nước tập trung xã Tân Phú, huyện Tam Bình","Công nghệ":"Lắng ngang","Tổng chiều dài tuyến ống (km)":"46.4","Tổng số đồng hồ":"3000","Trạng thái":"Bình thường","layer_id":243,"fid":100,"label":"Tân Phú 2"}},{"type":"Feature","geometry":{"type":"Point","coordinates":[106.155359796,10.15940087]},"properties":{"Mã trạm":null,"Tên trạm":"Chánh An","Ngày hoạt động":"2011","Ngày cải tạo":"2013","Công suất thiết kế":null,"Người quản lý":null,"Tên dự án":"Hệ thống cấp nước tập trung ấp Tân An B, xã Chánh An, huyện Mang Thít, tỉnh Vĩnh Long","Công nghệ":"Lắng ngang","Tổng chiều dài tuyến ống (km)":"57","Tổng số đồng hồ":"2000","Trạng thái":"Bình thường","layer_id":243,"fid":72,"label":"Chánh An"}},{"type":"Feature","geometry":{"type":"Point","coordinates":[105.918179659,10.206091495]},"properties":{"Mã trạm":null,"Tên trạm":"Tân Hạnh 2","Ngày hoạt động":"2007","Ngày cải tạo":"2021","Công suất thiết kế":null,"Người quản lý":null,"Tên dự án":"Hệ thống cấp nước tập trung xã Tân Hạnh","Công nghệ":"Lắng ngang","Tổng chiều dài tuyến ống (km)":"45.5","Tổng số đồng hồ":"2000","Trạng thái":"Bình thường","layer_id":243,"fid":67,"label":"Tân Hạnh 2"}},{"type":"Feature","geometry":{"type":"Point","coordinates":[106.131404489,9.986054599]},"properties":{"Mã trạm":null,"Tên trạm":"TCN Hiếu Liên","Ngày hoạt động":null,"Ngày cải tạo":null,"Công suất thiết kế":null,"Người quản lý":null,"Tên dự án":null,"Công nghệ":null,"Tổng chiều dài tuyến ống (km)":null,"Tổng số đồng hồ":null,"Trạng thái":null,"layer_id":243,"fid":173,"label":"TCN Hiếu Liên"}},{"type":"Feature","geometry":{"type":"Point","coordinates":[106.014580323,10.1531789]},"properties":{"Mã trạm":null,"Tên trạm":"Long An 2","Ngày hoạt động":"2012","Ngày cải tạo":"2018","Công suất thiết kế":null,"Người quản lý":null,"Tên dự án":"Hệ thống cấp nước tập trung ấp Long Tân, xã Long An, huyện Long Hồ, tỉnh Vĩnh Long","Công nghệ":"Lắng ngang","Tổng chiều dài tuyến ống (km)":"37","Tổng số đồng hồ":"2500","Trạng thái":"Bình thường","layer_id":243,"fid":59,"label":"Long An 2"}},{"type":"Feature","geometry":{"type":"Point","coordinates":[105.883471602,10.145015666]},"properties":{"Mã trạm":null,"Tên trạm":"Phú Thịnh","Ngày hoạt động":"2004","Ngày cải tạo":"2018","Công suất thiết kế":null,"Người quản lý":null,"Tên dự án":"Trạm cấp nước Phú Thịnh 3, xã Phú Thịnh, huyện Tam Bình, tỉnh Vĩnh Long","Công nghệ":"Lắng ngang","Tổng chiều dài tuyến ống (km)":"39.4","Tổng số đồng hồ":"2000","Trạng thái":"Bình thường","layer_id":243,"fid":97,"label":"Phú Thịnh"}},{"type":"Feature","geometry":{"type":"Point","coordinates":[105.898563266,10.168023705]},"properties":{"Mã trạm":null,"Tên trạm":"TCN Thạnh Quới","Ngày hoạt động":null,"Ngày cải tạo":null,"Công suất thiết kế":null,"Người quản lý":null,"Tên dự án":null,"Công nghệ":null,"Tổng chiều dài tuyến ống (km)":null,"Tổng số đồng hồ":null,"Trạng thái":null,"layer_id":243,"fid":176,"label":"TCN Thạnh Quới"}},{"type":"Feature","geometry":{"type":"Point","coordinates":[105.861924653,10.044742374]},"properties":{"Mã trạm":null,"Tên trạm":"Đông Thạnh","Ngày hoạt động":"2008","Ngày cải tạo":"2018","Công suất thiết kế":null,"Người quản lý":null,"Tên dự án":"Nhà máy nước xã Đông Thạnh","Công nghệ":"Lắng ngang","Tổng chiều dài tuyến ống (km)":"53","Tổng số đồng hồ":"2500","Trạng thái":"Bình thường","layer_id":243,"fid":39,"label":"Đông Thạnh"}},{"type":"Feature","geometry":{"type":"Point","coordinates":[106.029438862,10.170984927]},"properties":{"Mã trạm":null,"Tên trạm":"Bình Phước 1","Ngày hoạt động":"2004","Ngày cải tạo":null,"Công suất thiết kế":null,"Người quản lý":null,"Tên dự án":"Trạm cấp nước xã Bình Phước, huyện Mang Thít, tỉnh Vĩnh Long","Công nghệ":"Lắng ngang","Tổng chiều dài tuyến ống (km)":"14","Tổng số đồng hồ":"1500","Trạng thái":"Bình thường","layer_id":243,"fid":70,"label":"Bình Phước 1"}},{"type":"Feature","geometry":{"type":"Point","coordinates":[106.054666186,10.185549401]},"properties":{"Mã trạm":null,"Tên trạm":"Bình Phước 2","Ngày hoạt động":"2010","Ngày cải tạo":"2018","Công suất thiết kế":null,"Người quản lý":null,"Tên dự án":"Hệ thống cấp nước tập trung ấp Phước Chí B, xã Bình Phước, huyện Mang Thít, tỉnh Vĩnh Long","Công nghệ":"Lắng ngang","Tổng chiều dài tuyến ống (km)":"38.6","Tổng số đồng hồ":"2000","Trạng thái":"Bình thường","layer_id":243,"fid":71,"label":"Bình Phước 2"}},{"type":"Feature","geometry":{"type":"Point","coordinates":[105.953376517,10.128206194]},"properties":{"Mã trạm":null,"Tên trạm":"Phú Lộc","Ngày hoạt động":"2004","Ngày cải tạo":"2015","Công suất thiết kế":null,"Người quản lý":null,"Tên dự án":"Nhà máy nước xã Phú Lộc","Công nghệ":"Lắng ngang","Tổng chiều dài tuyến ống (km)":"37","Tổng số đồng hồ":"1500","Trạng thái":"Bình thường","layer_id":243,"fid":96,"label":"Phú Lộc"}},{"type":"Feature","geometry":{"type":"Point","coordinates":[105.985274795,10.271684616]},"properties":{"Mã trạm":null,"Tên trạm":"Hòa Ninh 2","Ngày hoạt động":"2003","Ngày cải tạo":"2016","Công suất thiết kế":null,"Người quản lý":null,"Tên dự án":"Hệ thống cấp nước Hòa Ninh 2, xã Hòa Ninh, huyện Long Hồ, tỉnh Vĩnh Long","Công nghệ":"Lắng ngang","Tổng chiều dài tuyến ống (km)":"65.4","Tổng số đồng hồ":"2500","Trạng thái":"Bình thường","layer_id":243,"fid":55,"label":"Hòa Ninh 2"}},{"type":"Feature","geometry":{"type":"Point","coordinates":[105.965208122,10.100779318]},"properties":{"Mã trạm":null,"Tên trạm":"Mỹ Lộc 1","Ngày hoạt động":"2006","Ngày cải tạo":"2018","Công suất thiết kế":null,"Người quản lý":null,"Tên dự án":"Hệ thống cấp nước tập trung ấp 9, xã Mỹ Lộc, huyện Tam Bình","Công nghệ":"Lắng ngang","Tổng chiều dài tuyến ống (km)":"17","Tổng số đồng hồ":"750","Trạng thái":"Bình thường","layer_id":243,"fid":92,"label":"Mỹ Lộc 1"}},{"type":"Feature","geometry":{"type":"Point","coordinates":[1.0,10.148835381]},"properties":{"Mã trạm":null,"Tên trạm":"Tân Long 2","Ngày hoạt động":"2012","Ngày cải tạo":"2015","Công suất thiết kế":null,"Người quản lý":null,"Tên dự án":"Hệ thống cấp nước tập trung Tân Long 2, xã Tân Long, huyện Mang Thít","Công nghệ":"Lắng ngang","Tổng chiều dài tuyến ống (km)":"56","Tổng số đồng hồ":"2500","Trạng thái":"Bình thường","layer_id":243,"fid":82,"label":"Tân Long 2"}},{"type":"Feature","geometry":{"type":"Point","coordinates":[105.922309884,10.166027271]},"properties":{"Mã trạm":null,"Tên trạm":"Phú Quới","Ngày hoạt động":"2001","Ngày cải tạo":"2022","Công suất thiết kế":null,"Người quản lý":null,"Tên dự án":"Nhà máy nước xã Phú Quới","Công nghệ":"Lắng ngang","Tổng chiều dài tuyến ống (km)":"28.1","Tổng số đồng hồ":"3000","Trạng thái":"Bình thường","layer_id":243,"fid":64,"label":"Phú Quới"}},{"type":"Feature","geometry":{"type":"Point","coordinates":[106.00213717,10.21441389]},"properties":{"Mã trạm":null,"Tên trạm":"Long Phước 2","Ngày hoạt động":"2004","Ngày cải tạo":"2021","Công suất thiết kế":null,"Người quản lý":null,"Tên dự án":"Nhà máy nước xã Long Phước","Công nghệ":"Lắng ngang","Tổng chiều dài tuyến ống (km)":"10,2","Tổng số đồng hồ":"1500","Trạng thái":"Bình thường","layer_id":243,"fid":169,"label":"Long Phước 2"}},{"type":"Feature","geometry":{"type":"Point","coordinates":[106.127574884,10.163180718]},"properties":{"Mã trạm":null,"Tên trạm":"Tân Quới Trung","Ngày hoạt động":"2014","Ngày cải tạo":"2016","Công suất thiết kế":null,"Người quản lý":null,"Tên dự án":"Trạm cấp nước xã Tân Quới Trung, huyện Vũng Liêm, tỉnh Vĩnh Long","Công nghệ":"Lắng ngang","Tổng chiều dài tuyến ống (km)":"62","Tổng số đồng hồ":"2000","Trạng thái":"Bình thường","layer_id":243,"fid":120,"label":"Tân Quới Trung"}},{"type":"Feature","geometry":{"type":"Point","coordinates":[105.7861615,10.13155503]},"properties":{"Mã trạm":null,"Tên trạm":"Thành Trung","Ngày hoạt động":"2004","Ngày cải tạo":"2020","Công suất thiết kế":null,"Người quản lý":null,"Tên dự án":"Trạm cấp nước xã Thành Trung","Công nghệ":"Lắng ngang","Tổng chiều dài tuyến ống (km)":"40.7","Tổng số đồng hồ":"2500","Trạng thái":"Bình thường","layer_id":243,"fid":52,"label":"Thành Trung"}},{"type":"Feature","geometry":{"type":"Point","coordinates":[105.874645597,9.995413467]},"properties":{"Mã trạm":null,"Tên trạm":"Đông Thành","Ngày hoạt động":"2007","Ngày cải tạo":"2018","Công suất thiết kế":null,"Người quản lý":null,"Tên dự án":"Nhà máy nước xã Đông Thành","Công nghệ":"Lắng ngang","Tổng chiều dài tuyến ống (km)":"34","Tổng số đồng hồ":"2500","Trạng thái":"Bình thường","layer_id":243,"fid":38,"label":"Đông Thành"}},{"type":"Feature","geometry":{"type":"Point","coordinates":[106.139439026,10.204765237]},"properties":{"Mã trạm":null,"Tên trạm":"An Phước","Ngày hoạt động":"2010","Ngày cải tạo":"2017","Công suất thiết kế":null,"Người quản lý":null,"Tên dự án":"Trạm cấp nước xã An Phước, huyện Mang Thít","Công nghệ":"Lắng ngang","Tổng chiều dài tuyến ống (km)":"59.4","Tổng số đồng hồ":"2500","Trạng thái":"Bình thường","layer_id":243,"fid":69,"label":"An Phước"}},{"type":"Feature","geometry":{"type":"Point","coordinates":[105.749285329,10.156924082]},"properties":{"Mã trạm":null,"Tên trạm":"Tân Thành 2","Ngày hoạt động":"2017","Ngày cải tạo":null,"Công suất thiết kế":null,"Người quản lý":null,"Tên dự án":"Hệ thống cấp nước tập trung Tân Thành 2, xã Tân Thành, huyện Bình Tân, Tỉnh Vĩnh Long","Công nghệ":"Lắng ngang","Tổng chiều dài tuyến ống (km)":"46","Tổng số đồng hồ":"2500","Trạng thái":"Bình thường","layer_id":243,"fid":50,"label":"Tân Thành 2"}},{"type":"Feature","geometry":{"type":"Point","coordinates":[105.974178712,10.268862018]},"properties":{"Mã trạm":null,"Tên trạm":"An Bình","Ngày hoạt động":"2004","Ngày cải tạo":"2019","Công suất thiết kế":null,"Người quản lý":null,"Tên dự án":"Trạm cấp nước xã An Bình, huyện Long Hồ, tỉnh Vĩnh Long","Công nghệ":"Lắng ngang","Tổng chiều dài tuyến ống (km)":"57.3","Tổng số đồng hồ":"2500","Trạng thái":"Bình thường","layer_id":243,"fid":53,"label":"An Bình"}},{"type":"Feature","geometry":{"type":"Point","coordinates":[106.030861337,9.952450314]},"properties":{"Mã trạm":null,"Tên trạm":"Thuận Thới 2","Ngày hoạt động":"2017","Ngày cải tạo":"2019","Công suất thiết kế":null,"Người quản lý":null,"Tên dự án":"Hệ thống cấp nước Thuận Thới 2, xã Thuận Thới, huyện Trà Ôn, tỉnh Vĩnh Long","Công nghệ":"Lắng ngang","Tổng chiều dài tuyến ống (km)":"67","Tổng số đồng hồ":"2500","Trạng thái":"Bình thường","layer_id":243,"fid":109,"label":"Thuận Thới 2"}},{"type":"Feature","geometry":{"type":"Point","coordinates":[105.773472188,10.144303555]},"properties":{"Mã trạm":null,"Tên trạm":"Thành Đông","Ngày hoạt động":"2012","Ngày cải tạo":"2018","Công suất thiết kế":null,"Người quản lý":null,"Tên dự án":"Hệ thống cấp nước tập trung Thành Đông 2, xã Thành Đông","Công nghệ":"Lắng ngang","Tổng chiều dài tuyến ống (km)":"27","Tổng số đồng hồ":"1500","Trạng thái":"Bình thường","layer_id":243,"fid":51,"label":"Thành Đông"}},{"type":"Feature","geometry":{"type":"Point","coordinates":[105.848208144,10.0430262]},"properties":{"Mã trạm":null,"Tên trạm":"Đông Bình","Ngày hoạt động":"2009","Ngày cải tạo":"2018","Công suất thiết kế":null,"Người quản lý":null,"Tên dự án":"Hệ thống cấp nước xã Đông Bình","Công nghệ":"Lắng ngang","Tổng chiều dài tuyến ống (km)":"33","Tổng số đồng hồ":"2000","Trạng thái":"Bình thường","layer_id":243,"fid":37,"label":"Đông Bình"}},{"type":"Feature","geometry":{"type":"Point","coordinates":[105.966237971,10.207409699]},"properties":{"Mã trạm":null,"Tên trạm":"Long Phước 3","Ngày hoạt động":"2007","Ngày cải tạo":"2021","Công suất thiết kế":null,"Người quản lý":null,"Tên dự án":"Nhà máy nước ấp Phước Trinh A, xã Long Phước","Công nghệ":"Lắng ngang","Tổng chiều dài tuyến ống (km)":"32.7","Tổng số đồng hồ":"2500","Trạng thái":"Bình thường","layer_id":243,"fid":62,"label":"Long Phước 3"}},{"type":"Feature","geometry":{"type":"Point","coordinates":[105.850822967,10.107382039]},"properties":{"Mã trạm":null,"Tên trạm":"Thuận Phú B","Ngày hoạt động":"2013","Ngày cải tạo":null,"Công suất thiết kế":null,"Người quản lý":null,"Tên dự án":"Hệ thống cấp nước tập trung ấp Thuận Phú B, xã Thuận An, huyện Bình Minh","Công nghệ":"Lắng ngang","Tổng chiều dài tuyến ống (km)":"20","Tổng số đồng hồ":"1500","Trạng thái":"Bình thường","layer_id":243,"fid":42,"label":"Thuận Phú B"}},{"type":"Feature","geometry":{"type":"Point","coordinates":[105.998413496,10.043114646]},"properties":{"Mã trạm":null,"Tên trạm":"Tường Lộc","Ngày hoạt động":"2004","Ngày cải tạo":null,"Công suất thiết kế":null,"Người quản lý":null,"Tên dự án":"Nhà máy nước ấp Tường Trí, xã Tường Lộc","Công nghệ":"Lắng ngang","Tổng chiều dài tuyến ống (km)":"15","Tổng số đồng hồ":"750","Trạng thái":"Bình thường","layer_id":243,"fid":101,"label":"Tường Lộc"}},{"type":"Feature","geometry":{"type":"Point","coordinates":[105.950523312,10.164325876]},"properties":{"Mã trạm":null,"Tên trạm":"Hòa Phú 2","Ngày hoạt động":"2004","Ngày cải tạo":"2019","Công suất thiết kế":null,"Người quản lý":null,"Tên dự án":"Nhà máy nước xã Hòa Phú","Công nghệ":"Lắng ngang","Tổng chiều dài tuyến ống (km)":"31","Tổng số đồng hồ":"2000","Trạng thái":"Bình thường","layer_id":243,"fid":56,"label":"Hòa Phú 2"}},{"type":"Feature","geometry":{"type":"Point","coordinates":[105.841810053,10.019124888]},"properties":{"Mã trạm":null,"Tên trạm":"Mỹ Hòa","Ngày hoạt động":"2007","Ngày cải tạo":"2023","Công suất thiết kế":null,"Người quản lý":null,"Tên dự án":"Nhà máy nước xã Mỹ Hòa","Công nghệ":"Lắng ngang","Tổng chiều dài tuyến ống (km)":"50","Tổng số đồng hồ":"3000","Trạng thái":"Bình thường","layer_id":243,"fid":40,"label":"Mỹ Hòa"}},{"type":"Feature","geometry":{"type":"Point","coordinates":[106.002957102,10.210315888]},"properties":{"Mã trạm":null,"Tên trạm":"Long Mỹ","Ngày hoạt động":"2013","Ngày cải tạo":"2018","Công suất thiết kế":null,"Người quản lý":null,"Tên dự án":"Hệ thống cấp nước tập trung xã Long Mỹ, huyện Mang Thít","Công nghệ":"Lắng ngang","Tổng chiều dài tuyến ống (km)":"29.2","Tổng số đồng hồ":"2000","Trạng thái":"Bình thường","layer_id":243,"fid":76,"label":"Long Mỹ"}},{"type":"Feature","geometry":{"type":"Point","coordinates":[105.913405539,10.076640347]},"properties":{"Mã trạm":null,"Tên trạm":"Long Phú 1","Ngày hoạt động":"2003","Ngày cải tạo":"2018","Công suất thiết kế":null,"Người quản lý":null,"Tên dự án":"Trạm cấp nước Long Phú 1, xã Long Phú, huyện Tam Bình, tỉnh Vĩnh Long","Công nghệ":"Lắng ngang","Tổng chiều dài tuyến ống (km)":"22","Tổng số đồng hồ":"2000","Trạng thái":"Bình thường","layer_id":243,"fid":90,"label":"Long Phú 1"}},{"type":"Feature","geometry":{"type":"Point","coordinates":[105.826430874,10.104951671]},"properties":{"Mã trạm":null,"Tên trạm":"Mỹ Thuận","Ngày hoạt động":"2003","Ngày cải tạo":"2018","Công suất thiết kế":null,"Người quản lý":null,"Tên dự án":"Trạm cấp nước xã Mỹ Thuận, huyện Bình Tân, tỉnh Vĩnh Long","Công nghệ":"Lắng ngang","Tổng chiều dài tuyến ống (km)":"27.6","Tổng số đồng hồ":"2000","Trạng thái":"Bình thường","layer_id":243,"fid":43,"label":"Mỹ Thuận"}},{"type":"Feature","geometry":{"type":"Point","coordinates":[105.933667929,10.098961503]},"properties":{"Mã trạm":null,"Tên trạm":"Mỹ Lộc 2","Ngày hoạt động":"2013","Ngày cải tạo":"2021","Công suất thiết kế":null,"Người quản lý":null,"Tên dự án":"Trạm cấp nước xã Mỹ Lộc","Công nghệ":"Lắng ngang","Tổng chiều dài tuyến ống (km)":"36.3","Tổng số đồng hồ":"2000","Trạng thái":"Bình thường","layer_id":243,"fid":93,"label":"Mỹ Lộc 2"}},{"type":"Feature","geometry":{"type":"Point","coordinates":[105.905000122,10.030656001]},"properties":{"Mã trạm":null,"Tên trạm":"Ngãi Tứ","Ngày hoạt động":"2011","Ngày cải tạo":"2021","Công suất thiết kế":null,"Người quản lý":null,"Tên dự án":"Hệ thống cấp nước tập trung xã Ngãi Tứ, huyện Tam Bình, tỉnh Vĩnh Long","Công nghệ":"Lắng ngang","Tổng chiều dài tuyến ống (km)":"67.4","Tổng số đồng hồ":"3000","Trạng thái":"Bình thường","layer_id":243,"fid":94,"label":"Ngãi Tứ"}},{"type":"Feature","geometry":{"type":"Point","coordinates":[105.882028939,10.107338285]},"properties":{"Mã trạm":null,"Tên trạm":"Phú Hưng","Ngày hoạt động":"2003","Ngày cải tạo":null,"Công suất thiết kế":null,"Người quản lý":null,"Tên dự án":"Trạm cấp nước Phú Thịnh 1, xã Phú Thịnh, huyện Tam Bình, tỉnh Vĩnh Long","Công nghệ":"Lắng ngang","Tổng chiều dài tuyến ống (km)":"21","Tổng số đồng hồ":"1500","Trạng thái":"Bình thường","layer_id":243,"fid":95,"label":"Phú Hưng"}},{"type":"Feature","geometry":{"type":"Point","coordinates":[106.101029538,10.235631081]},"properties":{"Mã trạm":null,"Tên trạm":"Mỹ Phước","Ngày hoạt động":"2003","Ngày cải tạo":"2017","Công suất thiết kế":null,"Người quản lý":null,"Tên dự án":"Nhà máy nước Mỹ Phước, xã Mỹ Phước, huyện Mang Thít","Công nghệ":"Lắng ngang","Tổng chiều dài tuyến ống (km)":"34.7","Tổng số đồng hồ":"1500","Trạng thái":"Bình thường","layer_id":243,"fid":79,"label":"Mỹ Phước"}},{"type":"Feature","geometry":{"type":"Point","coordinates":[106.03618585,10.242861363]},"properties":{"Mã trạm":null,"Tên trạm":"Mỹ An 2","Ngày hoạt động":"2009","Ngày cải tạo":"2015","Công suất thiết kế":null,"Người quản lý":null,"Tên dự án":"Hệ thống cấp nước xã Mỹ An, huyện Mang Thít","Công nghệ":"Lắng ngang","Tổng chiều dài tuyến ống (km)":"23","Tổng số đồng hồ":"1500","Trạng thái":"Bình thường","layer_id":243,"fid":78,"label":"Mỹ An 2"}},{"type":"Feature","geometry":{"type":"Point","coordinates":[106.089705622,10.206987273]},"properties":{"Mã trạm":null,"Tên trạm":"Nhơn Phú","Ngày hoạt động":"2006","Ngày cải tạo":"2017","Công suất thiết kế":null,"Người quản lý":null,"Tên dự án":"Trạm cấp nước xã Nhơn Phú, huyện Mang Thít, tỉnh Vĩnh Long","Công nghệ":"Lắng ngang","Tổng chiều dài tuyến ống (km)":"33.2","Tổng số đồng hồ":"2000","Trạng thái":"Bình thường","layer_id":243,"fid":80,"label":"Nhơn Phú"}},{"type":"Feature","geometry":{"type":"Point","coordinates":[106.097190113,10.158470737]},"properties":{"Mã trạm":null,"Tên trạm":"Tân An Hội","Ngày hoạt động":"2003","Ngày cải tạo":"2016","Công suất thiết kế":null,"Người quản lý":null,"Tên dự án":"Nhà máy nước xã Tân An Hội, huyện Mang Thít","Công nghệ":"Lắng ngang","Tổng chiều dài tuyến ống (km)":"34","Tổng số đồng hồ":"1000","Trạng thái":"Bình thường","layer_id":243,"fid":81,"label":"Tân An Hội"}},{"type":"Feature","geometry":{"type":"Point","coordinates":[106.076558028,10.124253574]},"properties":{"Mã trạm":null,"Tên trạm":"Tân Long Hội","Ngày hoạt động":"2007","Ngày cải tạo":"2021","Công suất thiết kế":null,"Người quản lý":null,"Tên dự án":"Trạm cấp nước xã Tân Long Hội","Công nghệ":"Lắng ngang","Tổng chiều dài tuyến ống (km)":"54.4","Tổng số đồng hồ":"3000","Trạng thái":"Bình thường","layer_id":243,"fid":83,"label":"Tân Long Hội"}},{"type":"Feature","geometry":{"type":"Point","coordinates":[105.990115801,10.110970828]},"properties":{"Mã trạm":null,"Tên trạm":"Hậu Lộc","Ngày hoạt động":"2004","Ngày cải tạo":"2017","Công suất thiết kế":null,"Người quản lý":null,"Tên dự án":"Nhà máy nước xã Hậu Lộc","Công nghệ":"Lắng ngang","Tổng chiều dài tuyến ống (km)":"22","Tổng số đồng hồ":"2000","Trạng thái":"Bình thường","layer_id":243,"fid":85,"label":"Hậu Lộc"}},{"type":"Feature","geometry":{"type":"Point","coordinates":[105.943966337,10.000533779]},"properties":{"Mã trạm":null,"Tên trạm":"Bình Ninh","Ngày hoạt động":"2011","Ngày cải tạo":"2017","Công suất thiết kế":null,"Người quản lý":null,"Tên dự án":"Hệ thống cấp nước xã Bình Ninh, huyện Tam Bình, tỉnh Vĩnh Long","Công nghệ":"Lắng ngang","Tổng chiều dài tuyến ống (km)":"83","Tổng số đồng hồ":"2500","Trạng thái":"Bình thường","layer_id":243,"fid":84,"label":"Bình Ninh"}},{"type":"Feature","geometry":{"type":"Point","coordinates":[105.96960924,10.184737884]},"properties":{"Mã trạm":null,"Tên trạm":"Lộc Hòa","Ngày hoạt động":"2003","Ngày cải tạo":"2018","Công suất thiết kế":null,"Người quản lý":null,"Tên dự án":"Nhà máy nước xã Lộc Hòa","Công nghệ":"Lắng ngang","Tổng chiều dài tuyến ống (km)":"25","Tổng số đồng hồ":"2000","Trạng thái":"Bình thường","layer_id":243,"fid":57,"label":"Lộc Hòa"}},{"type":"Feature","geometry":{"type":"Point","coordinates":[106.00822307,10.16685948]},"properties":{"Mã trạm":null,"Tên trạm":"Long An 1","Ngày hoạt động":"2007","Ngày cải tạo":"2017","Công suất thiết kế":null,"Người quản lý":null,"Tên dự án":"Trạm cấp nước Long An 1, xã Long An, huyện Long Hồ, tỉnh Vĩnh Long","Công nghệ":"Lắng ngang","Tổng chiều dài tuyến ống (km)":"44.9","Tổng số đồng hồ":"750","Trạng thái":"Bình thường","layer_id":243,"fid":58,"label":"Long An 1"}},{"type":"Feature","geometry":{"type":"Point","coordinates":[105.984975163,10.224732926]},"properties":{"Mã trạm":null,"Tên trạm":"Long Phước 1","Ngày hoạt động":"2013","Ngày cải tạo":"2019","Công suất thiết kế":null,"Người quản lý":null,"Tên dự án":"Nhà máy nước xã Long Phước","Công nghệ":"Lắng ngang","Tổng chiều dài tuyến ống (km)":"16","Tổng số đồng hồ":"2000","Trạng thái":"Bình thường","layer_id":243,"fid":60,"label":"Long Phước 1"}},{"type":"Feature","geometry":{"type":"Point","coordinates":[105.824707739,10.143042016]},"properties":{"Mã trạm":null,"Tên trạm":"Nguyễn Văn Thảnh","Ngày hoạt động":"2004","Ngày cải tạo":"2018","Công suất thiết kế":null,"Người quản lý":null,"Tên dự án":"Trạm cấp nước xã Nguyễn Văn Thảnh, huyện Bình Tân, tỉnh Vĩnh Long","Công nghệ":"Lắng ngang","Tổng chiều dài tuyến ống (km)":"28","Tổng số đồng hồ":"2500","Trạng thái":"Bình thường","layer_id":243,"fid":44,"label":"Nguyễn Văn Thảnh"}},{"type":"Feature","geometry":{"type":"Point","coordinates":[105.758399166,10.182983653]},"properties":{"Mã trạm":null,"Tên trạm":"Tân Hưng","Ngày hoạt động":"2007","Ngày cải tạo":"2018","Công suất thiết kế":null,"Người quản lý":null,"Tên dự án":"Hệ thống cấp nước tập trung xã Tân Hưng","Công nghệ":"Lắng ngang","Tổng chiều dài tuyến ống (km)":"18.3","Tổng số đồng hồ":"2000","Trạng thái":"Bình thường","layer_id":243,"fid":47,"label":"Tân Hưng"}},{"type":"Feature","geometry":{"type":"Point","coordinates":[105.715445898,10.140986128]},"properties":{"Mã trạm":null,"Tên trạm":"Tân Lược","Ngày hoạt động":"2001","Ngày cải tạo":"2018","Công suất thiết kế":null,"Người quản lý":null,"Tên dự án":"Trạm cấp nước xã Tân Lược, huyện Bình Tân, tỉnh Vĩnh Long","Công nghệ":"Lắng ngang","Tổng chiều dài tuyến ống (km)":"21.1","Tổng số đồng hồ":"2500","Trạng thái":"Bình thường","layer_id":243,"fid":48,"label":"Tân Lược"}},{"type":"Feature","geometry":{"type":"Point","coordinates":[106.002677552,10.083118914]},"properties":{"Mã trạm":null,"Tên trạm":"Hòa Lộc","Ngày hoạt động":"2007","Ngày cải tạo":"2017","Công suất thiết kế":null,"Người quản lý":null,"Tên dự án":"Trạm cấp nước xã Hòa Lộc, huyện Tam Bình","Công nghệ":"Lắng ngang","Tổng chiều dài tuyến ống (km)":"54.4","Tổng số đồng hồ":"2500","Trạng thái":"Bình thường","layer_id":243,"fid":87,"label":"Hòa Lộc"}},{"type":"Feature","geometry":{"type":"Point","coordinates":[105.774805442,10.171207224]},"properties":{"Mã trạm":null,"Tên trạm":"Tân Thành 1","Ngày hoạt động":"2007","Ngày cải tạo":"2014","Công suất thiết kế":null,"Người quản lý":null,"Tên dự án":"Trạm cấp nước Tân Thành, xã Tân Thành, huyện Bình Tân, tỉnh Vĩnh Long","Công nghệ":"Lắng ngang","Tổng chiều dài tuyến ống (km)":"27","Tổng số đồng hồ":"2000","Trạng thái":"Bình thường","layer_id":243,"fid":49,"label":"Tân Thành 1"}},{"type":"Feature","geometry":{"type":"Point","coordinates":[106.030797661,10.08715056]},"properties":{"Mã trạm":null,"Tên trạm":"Hòa Hiệp","Ngày hoạt động":"2006","Ngày cải tạo":"2021","Công suất thiết kế":null,"Người quản lý":null,"Tên dự án":"Hệ thống cấp nước tập trung liên xã Hòa Hiệp 2, huyện Tam Bình, tỉnh Vĩnh Long (Trạm cấp nước xã Hòa Hiệp)","Công nghệ":"Lắng ngang","Tổng chiều dài tuyến ống (km)":"43.6","Tổng số đồng hồ":"3000","Trạng thái":"Bình thường","layer_id":243,"fid":86,"label":"Hòa Hiệp"}},{"type":"Feature","geometry":{"type":"Point","coordinates":[106.070323761,10.098594323]},"properties":{"Mã trạm":null,"Tên trạm":"Hòa Thạnh 2","Ngày hoạt động":"2007","Ngày cải tạo":"2021","Công suất thiết kế":null,"Người quản lý":null,"Tên dự án":"Nhà máy nước xã Hòa Thạnh","Công nghệ":"Lắng ngang","Tổng chiều dài tuyến ống (km)":"48","Tổng số đồng hồ":"3000","Trạng thái":"Bình thường","layer_id":243,"fid":88,"label":"Hòa Thạnh 2"}},{"type":"Feature","geometry":{"type":"Point","coordinates":[105.979137243,10.018188384]},"properties":{"Mã trạm":null,"Tên trạm":"Loan Mỹ","Ngày hoạt động":"2009","Ngày cải tạo":"2016","Công suất thiết kế":null,"Người quản lý":null,"Tên dự án":"Trạm cấp nước xã Loan Mỹ, huyện Tam Bình","Công nghệ":"Lắng ngang","Tổng chiều dài tuyến ống (km)":"58","Tổng số đồng hồ":"2000","Trạng thái":"Bình thường","layer_id":243,"fid":89,"label":"Loan Mỹ"}},{"type":"Feature","geometry":{"type":"Point","coordinates":[106.230856567,10.114637841]},"properties":{"Mã trạm":null,"Tên trạm":"Thanh Bình","Ngày hoạt động":"2012","Ngày cải tạo":"2017","Công suất thiết kế":null,"Người quản lý":null,"Tên dự án":"Hệ thống cấp nước tập trung xã Thanh Bình","Công nghệ":"Lắng ngang","Tổng chiều dài tuyến ống (km)":"63.6","Tổng số đồng hồ":"2500","Trạng thái":"Bình thường","layer_id":243,"fid":121,"label":"Thanh Bình"}},{"type":"Feature","geometry":{"type":"Point","coordinates":[105.912876302,9.954831371]},"properties":{"Mã trạm":null,"Tên trạm":"Lục Sỹ Thành 1","Ngày hoạt động":"2009","Ngày cải tạo":"2014","Công suất thiết kế":null,"Người quản lý":null,"Tên dự án":"Hệ thống cấp nước tập trung xã Lục Sỹ Thành","Công nghệ":"Lắng ngang","Tổng chiều dài tuyến ống (km)":"39.5","Tổng số đồng hồ":"1500","Trạng thái":"Bình thường","layer_id":243,"fid":104,"label":"Lục Sỹ Thành 1"}},{"type":"Feature","geometry":{"type":"Point","coordinates":[105.978582997,9.913015251]},"properties":{"Mã trạm":null,"Tên trạm":"Tích Thiện","Ngày hoạt động":"2011","Ngày cải tạo":"2017","Công suất thiết kế":null,"Người quản lý":null,"Tên dự án":"Hệ thống cấp nước xã Tích Thiện, huyện Trà Ôn, tỉnh Vĩnh Long","Công nghệ":"Lắng ngang","Tổng chiều dài tuyến ống (km)":"72","Tổng số đồng hồ":"1500","Trạng thái":"Bình thường","layer_id":243,"fid":110,"label":"Tích Thiện"}},{"type":"Feature","geometry":{"type":"Point","coordinates":[106.041316485,10.042803232]},"properties":{"Mã trạm":null,"Tên trạm":"Hòa Bình","Ngày hoạt động":"2013","Ngày cải tạo":"2018","Công suất thiết kế":null,"Người quản lý":null,"Tên dự án":"Hệ thống cấp nước Hòa Bình 2, xã Hòa Bình","Công nghệ":"Lắng ngang","Tổng chiều dài tuyến ống (km)":"83.2","Tổng số đồng hồ":"2500","Trạng thái":"Bình thường","layer_id":243,"fid":102,"label":"Hòa Bình"}},{"type":"Feature","geometry":{"type":"Point","coordinates":[105.880705406,9.982130957]},"properties":{"Mã trạm":null,"Tên trạm":"Phú Thành 2","Ngày hoạt động":"2012","Ngày cải tạo":"2018","Công suất thiết kế":null,"Người quản lý":null,"Tên dự án":"Trạm cấp nước xã Phú Thành, huyện Trà Ôn, tỉnh Vĩnh Long","Công nghệ":"Lắng ngang","Tổng chiều dài tuyến ống (km)":"113.5","Tổng số đồng hồ":"2500","Trạng thái":"Bình thường","layer_id":243,"fid":106,"label":"Phú Thành 2"}},{"type":"Feature","geometry":{"type":"Point","coordinates":[106.051462101,9.984188765]},"properties":{"Mã trạm":null,"Tên trạm":"Thới Hòa","Ngày hoạt động":"2007","Ngày cải tạo":"2016","Công suất thiết kế":null,"Người quản lý":null,"Tên dự án":"Trạm cấp nước xã Thới Hòa, huyện Trà Ôn, tỉnh Vĩnh Long","Công nghệ":"Lắng ngang","Tổng chiều dài tuyến ống (km)":"18.5","Tổng số đồng hồ":"2500","Trạng thái":"Bình thường","layer_id":243,"fid":108,"label":"Thới Hòa"}},{"type":"Feature","geometry":{"type":"Point","coordinates":[106.009603666,9.953126409]},"properties":{"Mã trạm":null,"Tên trạm":"Vĩnh Xuân 2","Ngày hoạt động":"1999","Ngày cải tạo":"2016","Công suất thiết kế":null,"Người quản lý":null,"Tên dự án":"Hệ thống cấp nước xã Vĩnh Xuân, huyện Trà Ôn","Công nghệ":"Lắng ngang","Tổng chiều dài tuyến ống (km)":"107.2","Tổng số đồng hồ":"2500","Trạng thái":"Bình thường","layer_id":243,"fid":112,"label":"Vĩnh Xuân 2"}},{"type":"Feature","geometry":{"type":"Point","coordinates":[106.011854617,10.010490462]},"properties":{"Mã trạm":null,"Tên trạm":"Trà Côn","Ngày hoạt động":"2009","Ngày cải tạo":"2021","Công suất thiết kế":null,"Người quản lý":null,"Tên dự án":"Trạm cấp nước xã Trà Côn","Công nghệ":"Lắng ngang","Tổng chiều dài tuyến ống (km)":"23","Tổng số đồng hồ":"3000","Trạng thái":"Bình thường","layer_id":243,"fid":111,"label":"Trà Côn"}},{"type":"Feature","geometry":{"type":"Point","coordinates":[106.109864124,10.031639932]},"properties":{"Mã trạm":null,"Tên trạm":"Hiếu Nhơn","Ngày hoạt động":"2001","Ngày cải tạo":"2018","Công suất thiết kế":null,"Người quản lý":null,"Tên dự án":"Nhà máy nước xã Hiếu Nhơn","Công nghệ":"Lắng ngang","Tổng chiều dài tuyến ống (km)":"31","Tổng số đồng hồ":"2500","Trạng thái":"Bình thường","layer_id":243,"fid":116,"label":"Hiếu Nhơn"}},{"type":"Feature","geometry":{"type":"Point","coordinates":[106.040537876,10.079277737]},"properties":{"Mã trạm":null,"Tên trạm":"Xuân Hiệp","Ngày hoạt động":"2005","Ngày cải tạo":"2021","Công suất thiết kế":null,"Người quản lý":null,"Tên dự án":"Hệ thống cấp nước tập trung liên xã Xuân Hiệp 2, huyện Trà Ôn, tỉnh Vĩnh Long (Trạm cấp nước xã Xuân Hiệp)","Công nghệ":"Lắng ngang","Tổng chiều dài tuyến ống (km)":"51.6","Tổng số đồng hồ":"3000","Trạng thái":"Bình thường","layer_id":243,"fid":113,"label":"Xuân Hiệp"}},{"type":"Feature","geometry":{"type":"Point","coordinates":[106.094884271,9.986909387]},"properties":{"Mã trạm":null,"Tên trạm":"Hiếu Thành","Ngày hoạt động":"2011","Ngày cải tạo":"2018","Công suất thiết kế":null,"Người quản lý":null,"Tên dự án":"Hệ thống cấp nước ấp Hiếu Xuân, xã Hiếu Thành, huyện Vũng Liêm, tỉnh Vĩnh Long","Công nghệ":"Lắng ngang","Tổng chiều dài tuyến ống (km)":"26","Tổng số đồng hồ":"1500","Trạng thái":"Bình thường","layer_id":243,"fid":117,"label":"Hiếu Thành"}},{"type":"Feature","geometry":{"type":"Point","coordinates":[106.084918714,10.111948266]},"properties":{"Mã trạm":null,"Tên trạm":"Tân An Luông","Ngày hoạt động":"2005","Ngày cải tạo":"2022","Công suất thiết kế":null,"Người quản lý":null,"Tên dự án":"Nhà máy nước xã Tân An Luông ","Công nghệ":"Lắng ngang","Tổng chiều dài tuyến ống (km)":"82","Tổng số đồng hồ":"3000","Trạng thái":"Bình thường","layer_id":243,"fid":119,"label":"Tân An Luông"}},{"type":"Feature","geometry":{"type":"Point","coordinates":[106.182624267,10.158832714]},"properties":{"Mã trạm":null,"Tên trạm":"Quới Thiện","Ngày hoạt động":"2018","Ngày cải tạo":null,"Công suất thiết kế":null,"Người quản lý":null,"Tên dự án":"Hệ thống cấp nước tập trung xã Quới Thiện, huyện Vũng Liêm, tỉnh Vĩnh Long","Công nghệ":"Lắng ngang","Tổng chiều dài tuyến ống (km)":"68.6","Tổng số đồng hồ":"2500","Trạng thái":"Bình thường","layer_id":243,"fid":118,"label":"Quới Thiện"}},{"type":"Feature","geometry":{"type":"Point","coordinates":[106.136221824,10.026031877]},"properties":{"Mã trạm":null,"Tên trạm":"Trung An 2","Ngày hoạt động":"2004","Ngày cải tạo":"2017","Công suất thiết kế":null,"Người quản lý":null,"Tên dự án":"Nhà máy nước ấp An Hậu, xã Trung An ","Công nghệ":"Lắng ngang","Tổng chiều dài tuyến ống (km)":"53","Tổng số đồng hồ":"2500","Trạng thái":"Bình thường","layer_id":243,"fid":122,"label":"Trung An 2"}},{"type":"Feature","geometry":{"type":"Point","coordinates":[106.197938586,10.055204292]},"properties":{"Mã trạm":null,"Tên trạm":"Trung Ngãi 1","Ngày hoạt động":"2001","Ngày cải tạo":"2017","Công suất thiết kế":null,"Người quản lý":null,"Tên dự án":"Nhà máy nước ấp Giồng Ké, xã Trung Ngãi","Công nghệ":"Lắng ngang","Tổng chiều dài tuyến ống (km)":"34","Tổng số đồng hồ":"2500","Trạng thái":"Bình thường","layer_id":243,"fid":125,"label":"Trung Ngãi 1"}},{"type":"Feature","geometry":{"type":"Point","coordinates":[106.156793233,10.110956287]},"properties":{"Mã trạm":null,"Tên trạm":"Trung Hiệp 2","Ngày hoạt động":"2012","Ngày cải tạo":"2017","Công suất thiết kế":null,"Người quản lý":null,"Tên dự án":"Hệ thống cấp nước Trung Hiệp 2","Công nghệ":"Lắng ngang","Tổng chiều dài tuyến ống (km)":"38.5","Tổng số đồng hồ":"3000","Trạng thái":"Bình thường","layer_id":243,"fid":124,"label":"Trung Hiệp 2"}},{"type":"Feature","geometry":{"type":"Point","coordinates":[106.12865789,10.12423786]},"properties":{"Mã trạm":null,"Tên trạm":"Trung Chánh","Ngày hoạt động":"2005","Ngày cải tạo":"2015","Công suất thiết kế":null,"Người quản lý":null,"Tên dự án":"Trạm cấp nước xã Trung Chánh,  huyện Vũng Liêm, tỉnh Vĩnh Long","Công nghệ":"Lắng ngang","Tổng chiều dài tuyến ống (km)":"33.5","Tổng số đồng hồ":"1500","Trạng thái":"Bình thường","layer_id":243,"fid":123,"label":"Trung Chánh"}},{"type":"Feature","geometry":{"type":"Point","coordinates":[106.21440867,10.048605264]},"properties":{"Mã trạm":null,"Tên trạm":"Trung Nghĩa","Ngày hoạt động":"2007","Ngày cải tạo":"2022","Công suất thiết kế":null,"Người quản lý":null,"Tên dự án":"Nhà máy nước xã Trung Nghĩa","Công nghệ":"Lắng ngang","Tổng chiều dài tuyến ống (km)":"38","Tổng số đồng hồ":"2500","Trạng thái":"Bình thường","layer_id":243,"fid":127,"label":"Trung Nghĩa"}},{"type":"Feature","geometry":{"type":"Point","coordinates":[106.185628925,10.129846125]},"properties":{"Mã trạm":null,"Tên trạm":"Trung Thành Tây","Ngày hoạt động":"2014","Ngày cải tạo":"2016","Công suất thiết kế":null,"Người quản lý":null,"Tên dự án":"Trạm cấp nước xã Trung Thành Tây, huyện Vũng Liêm","Công nghệ":"Lắng ngang","Tổng chiều dài tuyến ống (km)":"37.6","Tổng số đồng hồ":"2000","Trạng thái":"Bình thường","layer_id":243,"fid":128,"label":"Trung Thành Tây"}},{"type":"Feature","geometry":{"type":"Point","coordinates":[106.104080613,10.231132546]},"properties":{"Mã trạm":null,"Tên trạm":"Mỹ An 3","Ngày hoạt động":"2024","Ngày cải tạo":null,"Công suất thiết kế":null,"Người quản lý":null,"Tên dự án":"Hệ thống cấp nước tập trung liên xã Mỹ An 3","Công nghệ":"Lắng ngang","Tổng chiều dài tuyến ống (km)":null,"Tổng số đồng hồ":null,"Trạng thái":"Bình thường","layer_id":243,"fid":129,"label":"Mỹ An 3"}}]}
