{"type":"FeatureCollection","name":"Trạm cấp nước tư nhân ","metadata":{"source":"https://hatang.vinhlong.gov.vn/","downloaded_at":"2026-07-20T01:12:18+00:00","layer_id":245,"layer_name":"Trạm cấp nước tư nhân ","catalog_endpoints":["/map/publicLayers2?inputs=thuy_loi"],"requested_bbox":[104.0,8.0,108.0,12.0],"tile_size":0.0,"tile_count":1,"tile_errors":[],"feature_count":11,"coordinate_order":"x,y (thường là longitude,latitude theo cấu hình EPSG:4326 của WebGIS)"},"features":[{"type":"Feature","id":3,"geometry":{"type":"Point","coordinates":[106.100315,10.003751]},"properties":{"Tên trạm":"Đình Đôi ","Địa điểm":"ấp Ngã Phú , \nxã Hiếu Nhơn, huyện Vũng Liêm","Số điện thoại":"0776566681","Công suất":"1000 m3/ngày","Tỷ lệ hộ sử dụng":"960 hộ","Người quản lý":"Phan Sol","Tình trạng hoạt động":"Bền vững","Nguồn nước":"Nước mặt","layer_id":245,"fid":3,"label":"Đình Đôi "}},{"type":"Feature","id":4,"geometry":{"type":"Point","coordinates":[106.15465,10.07499]},"properties":{"Tên trạm":"Mai Phốp","Địa điểm":"Ấp Bình Trung, \nxã Trung Hiếu huyện Vũng Liêm","Số điện thoại":"0939618460","Công suất":"250 m3/ngày","Tỷ lệ hộ sử dụng":"750 hộ","Người quản lý":"Phạm Văn Don","Tình trạng hoạt động":"Bền vững","Nguồn nước":"Nước mặt","layer_id":245,"fid":4,"label":"Mai Phốp"}},{"type":"Feature","id":2,"geometry":{"type":"Point","coordinates":[106.015391,10.250433]},"properties":{"Tên trạm":"DNTN Thăng Long","Địa điểm":"Số 230/125 ấp \nSơn Đông, xã Thanh Đức, huyện Long Hồ","Số điện thoại":"0931772333","Công suất":"900 m3/ngày","Tỷ lệ hộ sử dụng":"1687 hộ","Người quản lý":"Lê Thái Bình","Tình trạng hoạt động":"Bền vững","Nguồn nước":"Nước mặt","layer_id":245,"fid":2,"label":"DNTN Thăng Long"}},{"type":"Feature","id":1,"geometry":{"type":"Point","coordinates":[106.0167851,10.2738325]},"properties":{"Tên trạm":"Cty TNHH NS Long Hồ","Địa điểm":"215A/16 ấp Bình Hòa 1, xã Bình Hòa Phước, huyện Long Hồ","Số điện thoại":"0943002902","Công suất":"950 m3/ngày","Tỷ lệ hộ sử dụng":"1629 hộ","Người quản lý":"Nguyễn Gia Hiệp","Tình trạng hoạt động":"Bình thường","Nguồn nước":"Nước ngầm","layer_id":245,"fid":1,"label":"Cty TNHH NS Long Hồ"}},{"type":"Feature","id":6,"geometry":{"type":"Point","coordinates":[106.1137663,10.0565224]},"properties":{"Tên trạm":"HKD Đặng Thanh Trà","Địa điểm":"Tổ 3, ấp Quang \nTrường, xã Hiếu Thuận, huyện Vũng Liêm","Số điện thoại":"0377704187","Công suất":"150","Tỷ lệ hộ sử dụng":"200","Người quản lý":"Đặng Thanh Trà","Tình trạng hoạt động":"Bền vững","Nguồn nước":"Nước mặt","layer_id":245,"fid":6,"label":"HKD Đặng Thanh Trà"}},{"type":"Feature","id":5,"geometry":{"type":"Point","coordinates":[106.081459,10.105401]},"properties":{"Tên trạm":"Cty TNHH MTV Mai An Bình","Địa điểm":"Tổ 7, ấp 7, xã Tân An Luông huyện Vũng Liêm","Số điện thoại":"0937168683","Công suất":"500 m3/ngày","Tỷ lệ hộ sử dụng":"600 hộ","Người quản lý":"Võ Thị Liễu Nhi","Tình trạng hoạt động":"Bền vững","Nguồn nước":"Nước mặt","layer_id":245,"fid":5,"label":"Cty TNHH MTV Mai An Bình"}},{"type":"Feature","id":8,"geometry":{"type":"Point","coordinates":[105.918593,10.13423]},"properties":{"Tên trạm":"HKD Trần Thị Xuân","Địa điểm":"Số 61K, Tổ 8, ấp\n Phú Điền, xã Song Phú, huyện Tam Bình","Số điện thoại":"0932005377","Công suất":"100 m3/ngày","Tỷ lệ hộ sử dụng":"200 hộ","Người quản lý":"Trần Thị Xuân","Tình trạng hoạt động":"Bình thường","Nguồn nước":"Nước mặt","layer_id":245,"fid":8,"label":"HKD Trần Thị Xuân"}},{"type":"Feature","id":7,"geometry":{"type":"Point","coordinates":[105.86945,10.0850533]},"properties":{"Tên trạm":"HKD Trần Thị Lan Hà","Địa điểm":"Tổ 17, ấp Phú \nThạnh, xã Tân Phú, huyện Tam Bình","Số điện thoại":"\n0919462349","Công suất":"120 m3/ngày","Tỷ lệ hộ sử dụng":"750 hộ","Người quản lý":"Vũ Xuân Huynh","Tình trạng hoạt động":"Bền vững","Nguồn nước":"Nước mặt","layer_id":245,"fid":7,"label":"HKD Trần Thị Lan Hà"}},{"type":"Feature","id":11,"geometry":{"type":"Point","coordinates":[106.11716,10.08714]},"properties":{"Tên trạm":"Hiếu Phụng","Địa điểm":"Ấp Nhơn Ngãi, xã Hiếu Phụng","Số điện thoại":"02703874767","Công suất":"1200 m3/ngày","Tỷ lệ hộ sử dụng":"2200 hộ","Người quản lý":"Nguyễn Trí Vinh","Tình trạng hoạt động":"Bền vững","Nguồn nước":"Nước mặt","layer_id":245,"fid":11,"label":"Hiếu Phụng"}},{"type":"Feature","id":10,"geometry":{"type":"Point","coordinates":[106.064711,10.241042]},"properties":{"Tên trạm":"Cái Cạn 2","Địa điểm":"Tổ 2, Ấp Cái Cạn, xã Mỹ Phước","Số điện thoại":"0933783541","Công suất":"400 m3/ngày","Tỷ lệ hộ sử dụng":"1300 hộ","Người quản lý":"Nguyễn Thị Trúc Hiền","Tình trạng hoạt động":"Bền vững","Nguồn nước":"Nước mặt","layer_id":245,"fid":10,"label":"Cái Cạn 2"}},{"type":"Feature","id":9,"geometry":{"type":"Point","coordinates":[105.688343,10.147426]},"properties":{"Tên trạm":"Tân An Thạnh","Địa điểm":"ấp An Thạnh, xã Tân An Thạnh, huyện Bình Tân","Số điện thoại":"0907774454","Công suất":"800 m3/ngày","Tỷ lệ hộ sử dụng":"1490 hộ","Người quản lý":"Đoàn Quốc Tuyển","Tình trạng hoạt động":"Bền vững","Nguồn nước":"Nước mặt","layer_id":245,"fid":9,"label":"Tân An Thạnh"}}]}
