{"type":"FeatureCollection","name":"Vị trí sạt lở ","metadata":{"source":"https://hatang.vinhlong.gov.vn/","downloaded_at":"2026-07-20T01:12:22+00:00","layer_id":247,"layer_name":"Vị trí sạt lở ","catalog_endpoints":["/map/publicLayers2?inputs=thuy_loi"],"requested_bbox":[104.0,8.0,108.0,12.0],"tile_size":0.0,"tile_count":1,"tile_errors":[],"feature_count":37,"coordinate_order":"x,y (thường là longitude,latitude theo cấu hình EPSG:4326 của WebGIS)"},"features":[{"type":"Feature","id":1,"geometry":{"type":"LineString","coordinates":[[105.973964,10.257067],[105.974772,10.256303]]},"properties":{"Địa danh":"Phường 1, thành phố Vĩnh Long","Thuộc tuyến sông rạch":"Phường 1","Chiều rộng":null,"Chiều dài":"140","Chiều sâu":null,"Diện tích sạt lở":null,"Năm sạt lỡ":"2016","Mức độ":"Nguy hiểm","Điểm đầu":" Chợ cá ","Điểm cuối":"Bến tàu khách P1  TPVL","Ghi chú":null,"layer_id":247,"fid":1,"label":"Phường 1, thành phố Vĩnh Long"}},{"type":"Feature","id":2,"geometry":{"type":"LineString","coordinates":[[105.973964,10.257067],[105.974772,10.256303]]},"properties":{"Địa danh":"Phường 1, thành phố Vĩnh Long","Thuộc tuyến sông rạch":"Phường 1","Chiều rộng":"","Chiều dài":"140","Chiều sâu":"","Diện tích sạt lở":"","Năm sạt lỡ":"2016","Mức độ":"Nguy hiểm","Điểm đầu":" Chợ cá ","Điểm cuối":"Bến tàu khách P1  TPVL","Ghi chú":"","layer_id":247,"fid":2,"label":"Phường 1, thành phố Vĩnh Long"}},{"type":"Feature","id":3,"geometry":{"type":"LineString","coordinates":[[105.799342,10.057047],[105.800769,10.055286]]},"properties":{"Địa danh":"Phường Thành Phước,\n thị xã Bình Minh","Thuộc tuyến sông rạch":"Sạt lở bờ sông Hậu","Chiều rộng":"4","Chiều dài":"250","Chiều sâu":null,"Diện tích sạt lở":null,"Năm sạt lỡ":"2017","Mức độ":"Nguy hiểm","Điểm đầu":"Tổ 6, khóm 3, phường Thành Phước, \nthị xã Bình Minh","Điểm cuối":null,"Ghi chú":null,"layer_id":247,"fid":3,"label":"Phường Thành Phước,\n thị xã Bình Minh"}},{"type":"Feature","id":36,"geometry":{"type":"LineString","coordinates":[[105.991812944,10.267563164],[105.991705656,10.267525613],[105.991603732,10.267595351],[105.99152863,10.267541707],[105.991512537,10.267477334],[105.991421342,10.26746124],[105.991217494,10.267445147],[105.990997553,10.267412961],[105.990890265,10.267380774],[105.99075079,10.267321765],[105.990622044,10.267337859],[105.99052012,10.267311037],[105.990402102,10.267257392],[105.990171432,10.26723057],[105.989849567,10.267160833],[105.989688635,10.267075002],[105.989393592,10.267032087],[105.989334583,10.267117918],[105.989259481,10.267107189],[105.989146829,10.267021358],[105.989023447,10.267026722],[105.988932252,10.267058909],[105.988819599,10.266989172],[105.988765955,10.267075002],[105.988631845,10.267112553],[105.988546014,10.267128646],[105.988465548,10.267128646],[105.988433361,10.267337859],[105.988342166,10.267396867],[105.988191962,10.267386138],[105.988052487,10.267391503],[105.987955928,10.267482698],[105.987988114,10.267729461],[105.988020301,10.267965496],[105.98798275,10.268062055],[105.987875462,10.268147886],[105.987789631,10.26824981],[105.98761797,10.268459022],[105.987542868,10.268550217],[105.987510681,10.268732607],[105.987392664,10.268764794],[105.987349749,10.268877447],[105.987285376,10.269070566],[105.987172723,10.269451439],[105.98706007,10.269601643]]},"properties":{"Địa danh":"Tổ 9, tổ 10, ấp Bình Thuận 1, xã Hòa Ninh, huyện Long Hồ","Thuộc tuyến sông rạch":"Tuyến sông Cổ Chiên","Chiều rộng":"200","Chiều dài":"700","Chiều sâu":null,"Diện tích sạt lở":"41,516","Năm sạt lỡ":"2022","Mức độ":"Nguy hiểm","Điểm đầu":"Vàm sông Mương Lộ","Điểm cuối":"rạch Bà Bóng","Ghi chú":null,"layer_id":247,"fid":36,"label":"Tổ 9, tổ 10, ấp Bình Thuận 1, xã Hòa Ninh, huyện Long Hồ"}},{"type":"Feature","id":4,"geometry":{"type":"LineString","coordinates":[[105.973964,10.257067],[105.974772,10.256303]]},"properties":{"Địa danh":"Phường 1, thành phố Vĩnh Long","Thuộc tuyến sông rạch":"Phường 1","Chiều rộng":null,"Chiều dài":null,"Chiều sâu":null,"Diện tích sạt lở":null,"Năm sạt lỡ":"2018","Mức độ":"Nguy hiểm","Điểm đầu":"Nhà lồng chợ cá Vĩnh Long","Điểm cuối":"giáp Bến tàu khách \nthành phố Vĩnh Long","Ghi chú":"Lún sụt nền nhà khoảng 5cm, \nrọ đá phía ngoài và hàng cọc \ncó hiện tượng tiếp tục \nnghiên về phía sông","layer_id":247,"fid":4,"label":"Phường 1, thành phố Vĩnh Long"}},{"type":"Feature","id":5,"geometry":{"type":"LineString","coordinates":[[106.187486,10.098344],[106.187525,10.098811]]},"properties":{"Địa danh":"Thị trấn Vũng Liêm, \nhuyện Vũng Liêm","Thuộc tuyến sông rạch":"Sạt lở bờ sông\n tại ấp Phong Thới","Chiều rộng":"10-15m","Chiều dài":"50","Chiều sâu":null,"Diện tích sạt lở":null,"Năm sạt lỡ":"2018","Mức độ":"Nguy hiểm","Điểm đầu":"ấp Phong Thới, thị trấn\n Vũng Liêm, huyện Vũng Liêm","Điểm cuối":null,"Ghi chú":null,"layer_id":247,"fid":5,"label":"Thị trấn Vũng Liêm, \nhuyện Vũng Liêm"}},{"type":"Feature","id":37,"geometry":{"type":"LineString","coordinates":[[105.969432592,10.262147784],[105.967217088,10.261856765],[105.966342688,10.261762887],[105.965489745,10.261850059],[105.964411497,10.262102187],[105.962014849,10.262919723],[105.961392789,10.263316555],[105.961306987,10.263434531],[105.961124659,10.263466707],[105.960234469,10.263852814],[105.959558783,10.264303271],[105.958317518,10.265452266],[105.957330465,10.266546607],[105.955796242,10.268493891],[105.956161022,10.270210505],[105.955694318,10.270449221],[105.955747962,10.270604789],[105.955313444,10.270728171],[105.955329537,10.270953476],[105.954309207,10.271272745],[105.954379269,10.271673099],[105.954048977,10.271733152],[105.953868818,10.271112604],[105.952637731,10.271693117],[105.95247759,10.271332798],[105.951676369,10.271970034],[105.951611996,10.272189975],[105.951300859,10.272479653],[105.950474739,10.272983909],[105.950474739,10.273198485],[105.951236486,10.274153352],[105.951440334,10.274603963],[105.951815844,10.275086761],[105.951418877,10.275472999],[105.951687098,10.275816321],[105.95138669,10.276191831],[105.949594975,10.274625421],[105.949026346,10.275033116],[105.948502472,10.274813154],[105.947807358,10.275192307],[105.947491397,10.274939538],[105.944821525,10.276629931],[105.944300189,10.276945892],[105.943936833,10.277072277],[105.941172838,10.27905643],[105.940829515,10.279303193],[105.940829515,10.279507041],[105.940550566,10.279582143],[105.940260887,10.279871821],[105.939724445,10.28025806],[105.937042236,10.282291174],[105.937085152,10.282591581],[105.936806202,10.282827616],[105.936698914,10.283685923]]},"properties":{"Địa danh":"xã An Bình, huyện Long Hồ ","Thuộc tuyến sông rạch":" Sạt lở  bờ sông Cổ Chiên","Chiều rộng":null,"Chiều dài":"4440m","Chiều sâu":null,"Diện tích sạt lở":"5","Năm sạt lỡ":"2019","Mức độ":"Nguy hiểm","Điểm đầu":"Đầu cù lao An Bình","Điểm cuối":"Bến phà An Bình","Ghi chú":null,"layer_id":247,"fid":37,"label":"xã An Bình, huyện Long Hồ "}},{"type":"Feature","id":38,"geometry":{"type":"LineString","coordinates":[[105.970300287,10.25765039],[105.97042501,10.257729515],[105.970463902,10.257754996],[105.970492065,10.257769749],[105.970603377,10.257809982],[105.970720053,10.257855579]]},"properties":{"Địa danh":"Phường 1, thành phố Vĩnh Long","Thuộc tuyến sông rạch":"Thuộc kè sông Cổ Chiên","Chiều rộng":" 3m","Chiều dài":"10m","Chiều sâu":"0.1m","Diện tích sạt lở":null,"Năm sạt lỡ":"2022","Mức độ":"Ngăn chặn hậu quả  có thể xảy ra do thiên tai","Điểm đầu":"cầu dẫn nhà máy  nước Vĩnh Long","Điểm cuối":"Bến phà An Bình","Ghi chú":null,"layer_id":247,"fid":38,"label":"Phường 1, thành phố Vĩnh Long"}},{"type":"Feature","id":6,"geometry":{"type":"LineString","coordinates":[[105.795822,10.064233],[105.796019,10.068481]]},"properties":{"Địa danh":"Phường Thành Phước,\n thị xã Bình Minh","Thuộc tuyến sông rạch":"Sạt lở bờ kênh Hai Qúy tại khóm 1","Chiều rộng":"4-6m","Chiều dài":"40","Chiều sâu":null,"Diện tích sạt lở":null,"Năm sạt lỡ":"2018","Mức độ":"Nguy hiểm","Điểm đầu":"Gần cầu Thành Lợi thuộc \ntổ 1-2, khóm 1, phường Thành Phước, Thị xã Bình Minh","Điểm cuối":null,"Ghi chú":null,"layer_id":247,"fid":6,"label":"Phường Thành Phước,\n thị xã Bình Minh"}},{"type":"Feature","id":40,"geometry":{"type":"LineString","coordinates":[[105.974115729,10.257740915],[105.974641442,10.257284939],[105.975226164,10.256769955],[105.975939631,10.256153047],[105.976454616,10.255691707],[105.977007151,10.255187452],[105.977833271,10.254200399],[105.978675485,10.253143609],[105.979882479,10.251502097],[105.98069787,10.250386298],[105.981153846,10.249742568],[105.981604457,10.24921149],[105.981829762,10.248970091],[105.982602239,10.248261988],[105.983871705,10.247007495],[105.984178475,10.246700725],[105.984717646,10.246012817],[105.98572162,10.244358119],[105.986483896,10.242536093],[105.986976587,10.241476343],[105.988045633,10.239840237],[105.988984534,10.238771191],[105.990490495,10.236977053],[105.991150515,10.236038151]]},"properties":{"Địa danh":"Khu vực thành phố Vĩnh Long, tỉnh Vĩnh Long","Thuộc tuyến sông rạch":"Hai bên bờ sông Long Hồ","Chiều rộng":null,"Chiều dài":"6000m","Chiều sâu":null,"Diện tích sạt lở":null,"Năm sạt lỡ":"2019","Mức độ":"Nguy hiểm","Điểm đầu":"cầu Bạch Đằng","Điểm cuối":"cầu Chợ Cua","Ghi chú":null,"layer_id":247,"fid":40,"label":"Khu vực thành phố Vĩnh Long, tỉnh Vĩnh Long"}},{"type":"Feature","id":39,"geometry":{"type":"LineString","coordinates":[[105.97077772,10.257874355],[105.970952064,10.257933363],[105.9710446,10.257964209],[105.971262529,10.258036802],[105.971384063,10.258076534],[105.971547667,10.258123278],[105.971774161,10.25818482],[105.972012877,10.258230418],[105.972366929,10.25820896],[105.97263515,10.258160681],[105.972900689,10.257956833],[105.973147452,10.2577959],[105.973466635,10.257542431],[105.973927975,10.257113278]]},"properties":{"Địa danh":"phường 1, thành phố Vĩnh Long, tỉnh Vĩnh Long","Thuộc tuyến sông rạch":"sạt lở bờ sông Cổ Chiên và sông Long Hồ","Chiều rộng":null,"Chiều dài":"400","Chiều sâu":null,"Diện tích sạt lở":null,"Năm sạt lỡ":"2023","Mức độ":"Có nguy cơ sụt lún,  sạt lở nguy hiểm.","Điểm đầu":"từ bến phà An Bình","Điểm cuối":"giáp tuyến kè sông Long Hồ do UBND thành phố Vĩnh Long đầu tư","Ghi chú":null,"layer_id":247,"fid":39,"label":"phường 1, thành phố Vĩnh Long, tỉnh Vĩnh Long"}},{"type":"Feature","id":41,"geometry":{"type":"LineString","coordinates":[[105.9900105,10.227453411],[105.990037322,10.227566063],[105.990450382,10.227807462],[105.990766883,10.228102505],[105.991094112,10.228419006],[105.991474986,10.22865504],[105.991898775,10.228950083],[105.992097259,10.229105651],[105.992263556,10.229341686],[105.992419124,10.229642093],[105.99245131,10.230157077],[105.992526412,10.230629146],[105.992585421,10.230934918],[105.992644429,10.231042206]]},"properties":{"Địa danh":"Xã Long Phước,  huyện Long Hồ","Thuộc tuyến sông rạch":"Bờ sông Ông Me","Chiều rộng":"2-4m","Chiều dài":"500","Chiều sâu":"> 3m","Diện tích sạt lở":"10","Năm sạt lỡ":"2021","Mức độ":"Nguy hiểm","Điểm đầu":"Bãi vật liệu xây dựng  Đức Phú","Điểm cuối":"giáp sông Long Hồ","Ghi chú":null,"layer_id":247,"fid":41,"label":"Xã Long Phước,  huyện Long Hồ"}},{"type":"Feature","id":42,"geometry":{"type":"LineString","coordinates":[[105.911003351,10.269612372],[105.910713673,10.270111263],[105.910338163,10.27064234],[105.909935832,10.271087587],[105.90972662,10.271425545],[105.909426212,10.271967351],[105.909297466,10.272289217],[105.909125805,10.272514522],[105.908653736,10.272675455],[105.908069015,10.272890031],[105.907731056,10.273061693],[105.907543302,10.273217261],[105.907537937,10.273383558]]},"properties":{"Địa danh":"Khóm Tân Thuận,  phường Tân Hòa, TPVL","Thuộc tuyến sông rạch":"Bờ sông Cái Đôi Lớn","Chiều rộng":"2-4m","Chiều dài":"600","Chiều sâu":"> 3m","Diện tích sạt lở":"10","Năm sạt lỡ":"2021","Mức độ":"Nguy hiểm","Điểm đầu":"Cầu Cái Đôi","Điểm cuối":"giáp sông Tiền","Ghi chú":null,"layer_id":247,"fid":42,"label":"Khóm Tân Thuận,  phường Tân Hòa, TPVL"}},{"type":"Feature","id":11,"geometry":{"type":"LineString","coordinates":[[105.882881,9.985417],[105.8852,9.984108]]},"properties":{"Địa danh":"Xã Ngãi Tứ, huyện Tam Bình","Thuộc tuyến sông rạch":"Sạt lở bờ sông Hậu- \nkhu vực Cồn Đông Hậu","Chiều rộng":" 2-5m","Chiều dài":"290","Chiều sâu":"> 3m","Diện tích sạt lở":"140","Năm sạt lỡ":"2020","Mức độ":"Nguy hiểm","Điểm đầu":"Bến phà Tư Phú","Điểm cuối":"Giáp ranh huyện Tam Bình\n và thị xã Bình Minh","Ghi chú":null,"layer_id":247,"fid":11,"label":"Xã Ngãi Tứ, huyện Tam Bình"}},{"type":"Feature","id":12,"geometry":{"type":"LineString","coordinates":[[105.814467,10.057267],[105.812039,10.059822]]},"properties":{"Địa danh":"Xã Mỹ Hòa,\n thị xã Bình Minh","Thuộc tuyến sông rạch":" Sạt lở \nbờ sông Vàm Tắt","Chiều rộng":"2-4m","Chiều dài":"370","Chiều sâu":"> 2,5m","Diện tích sạt lở":"200","Năm sạt lỡ":"2020","Mức độ":"Nguy hiểm","Điểm đầu":"Cống Đập Đình","Điểm cuối":"Bến phà xóm Tàu Hủ","Ghi chú":null,"layer_id":247,"fid":12,"label":"Xã Mỹ Hòa,\n thị xã Bình Minh"}},{"type":"Feature","id":13,"geometry":{"type":"LineString","coordinates":[[105.732811,10.126069],[105.734492,10.128769]]},"properties":{"Địa danh":"Xã Tân Bình, \nhuyện Bình Tân","Thuộc tuyến sông rạch":"Sạt lở bờ kênh\n Huyện Hàm","Chiều rộng":"2-4m","Chiều dài":"350","Chiều sâu":" > 3m","Diện tích sạt lở":"60","Năm sạt lỡ":"2020","Mức độ":"Nguy hiểm","Điểm đầu":"Cầu Tân Qui Nhỏ","Điểm cuối":"Cầu Tân Qui Lớn","Ghi chú":null,"layer_id":247,"fid":13,"label":"Xã Tân Bình, \nhuyện Bình Tân"}},{"type":"Feature","id":43,"geometry":{"type":"LineString","coordinates":[[105.910810232,10.274603963],[105.909608603,10.274325013],[105.908052921,10.273724198],[105.907661319,10.273565948],[105.906652808,10.273324549],[105.90636313,10.273260176],[105.905692577,10.272991955],[105.904351473,10.272541344],[105.903938413,10.272466242],[105.90326786,10.272375047],[105.902669728,10.272175223],[105.90230763,10.272027701],[105.902055502,10.271979421],[105.901175737,10.271869451],[105.900633931,10.271818489],[105.900011659,10.271762162],[105.899754167,10.27164951],[105.899276733,10.271265954],[105.899180174,10.271480531],[105.898970962,10.271499306],[105.898788571,10.271484554],[105.898455977,10.271355808],[105.898032188,10.271189511],[105.897179246,10.271221697],[105.896916389,10.27120024],[105.896438956,10.271071494],[105.896084905,10.270974934],[105.895795226,10.270974934],[105.894249213,10.271466071],[105.892904191,10.271786314],[105.893064313,10.270964356],[105.891089479,10.270441292],[105.890833285,10.27032387],[105.890929357,10.270174423],[105.890747886,10.269245717],[105.890694512,10.269000198],[105.887876372,10.267100088],[105.887289259,10.267495054],[105.886392578,10.266801194],[105.886766195,10.266171382],[105.886243131,10.265883163],[105.885463873,10.266587698],[105.883719921,10.265259147],[105.883226395,10.264797807],[105.88290453,10.264207721]]},"properties":{"Địa danh":"xã Tân Hòa và Tân Hội, TPVL","Thuộc tuyến sông rạch":"Khu vực bờ sông Tiền","Chiều rộng":"10m","Chiều dài":"3410m","Chiều sâu":null,"Diện tích sạt lở":null,"Năm sạt lỡ":"2019","Mức độ":"Nguy hiểm","Điểm đầu":"cầu Mỹ Thuận","Điểm cuối":"sông Cái Đôi Lớn","Ghi chú":null,"layer_id":247,"fid":43,"label":"xã Tân Hòa và Tân Hội, TPVL"}},{"type":"Feature","id":14,"geometry":{"type":"LineString","coordinates":[[105.692719,10.153719],[105.685653,10.143836]]},"properties":{"Địa danh":"Xã Tân An Thạnh, \nhuyện Bình Tân","Thuộc tuyến sông rạch":"Sạt lở bờ kênh\nXã Hời","Chiều rộng":"2-5m","Chiều dài":"115","Chiều sâu":"> 3m","Diện tích sạt lở":"40","Năm sạt lỡ":"2020","Mức độ":"Nguy hiểm","Điểm đầu":"Cầu Nhà máy nước","Điểm cuối":"Cầu Cây me","Ghi chú":null,"layer_id":247,"fid":14,"label":"Xã Tân An Thạnh, \nhuyện Bình Tân"}},{"type":"Feature","id":15,"geometry":{"type":"LineString","coordinates":[[106.175469,10.165731],[106.176209,10.165546],[106.176424,10.164785],[106.176583,10.163456]]},"properties":{"Địa danh":"Xã Quới Thiện, huyện Vũng Liêm","Thuộc tuyến sông rạch":"Cồn Thanh Long","Chiều rộng":null,"Chiều dài":"260","Chiều sâu":null,"Diện tích sạt lở":"11","Năm sạt lỡ":"2020","Mức độ":"Nguy hiểm","Điểm đầu":"xã Quới Thiện","Điểm cuối":null,"Ghi chú":null,"layer_id":247,"fid":15,"label":"Xã Quới Thiện, huyện Vũng Liêm"}},{"type":"Feature","id":44,"geometry":{"type":"LineString","coordinates":[[105.986582637,10.182853639],[105.986582637,10.183207691],[105.986566544,10.183540285],[105.986797214,10.183883607],[105.987237096,10.18427521],[105.987419486,10.184436142],[105.987821817,10.184597075],[105.988143682,10.184693635],[105.988572836,10.18473655]]},"properties":{"Địa danh":"xã Phú Đức, huyện Long Hồ,  tỉnh Vĩnh Long","Thuộc tuyến sông rạch":"sạt lở bờ sông Cái Cao","Chiều rộng":"2-4m","Chiều dài":"340","Chiều sâu":"0.8-1m","Diện tích sạt lở":"50","Năm sạt lỡ":"2023","Mức độ":"Nguy hiểm","Điểm đầu":"từ hộ ông Bùi Văn Phước ","Điểm cuối":"hộ ông Nguyễn Văn Nho","Ghi chú":null,"layer_id":247,"fid":44,"label":"xã Phú Đức, huyện Long Hồ,  tỉnh Vĩnh Long"}},{"type":"Feature","id":45,"geometry":{"type":"LineString","coordinates":[[105.917349458,9.966318905],[105.917875171,9.966957271],[105.918379426,9.967649281],[105.918787122,9.968174994],[105.919108987,9.96866852],[105.919339657,9.969124496],[105.919366479,9.969333708],[105.919245567,9.971035401]]},"properties":{"Địa danh":"Thị trấn Trà Ôn,  huyện Trà Ôn","Thuộc tuyến sông rạch":" Sạt lở  bờ sông Măng Thít-Khu vực 10B","Chiều rộng":null,"Chiều dài":"530m","Chiều sâu":"Sâu:5-10m","Diện tích sạt lở":null,"Năm sạt lỡ":"2019","Mức độ":"Nguy hiểm","Điểm đầu":"Bến phà An Thới","Điểm cuối":"Chân cầu Trà Ôn","Ghi chú":null,"layer_id":247,"fid":45,"label":"Thị trấn Trà Ôn,  huyện Trà Ôn"}},{"type":"Feature","id":16,"geometry":{"type":"LineString","coordinates":[[105.911108,9.946103],[105.912944,9.940889]]},"properties":{"Địa danh":"Xã Lục Sỹ Thành, \nhuyện Trà Ôn","Thuộc tuyến sông rạch":"Bờ kênh Xáng Xéo","Chiều rộng":" 2-4m","Chiều dài":"115","Chiều sâu":" 3,5m","Diện tích sạt lở":"50","Năm sạt lỡ":"2021","Mức độ":"Nguy hiểm","Điểm đầu":"Ngã ba kênh Xáng","Điểm cuối":"giáp sông Hậu","Ghi chú":null,"layer_id":247,"fid":16,"label":"Xã Lục Sỹ Thành, \nhuyện Trà Ôn"}},{"type":"Feature","id":17,"geometry":{"type":"LineString","coordinates":[[105.831586,10.111203],[105.83132,10.112338],[105.830698,10.113457],[105.830977,10.114471],[105.8319,10.11538],[105.831906,10.116336]]},"properties":{"Địa danh":"Xã Mỹ Thuận, \nhuyện Bình Tân","Thuộc tuyến sông rạch":"Bờ sông Cái Vồn Lớn","Chiều rộng":"3-5m","Chiều dài":"650","Chiều sâu":" > 4m","Diện tích sạt lở":"30","Năm sạt lỡ":"2021","Mức độ":"Nguy hiểm","Điểm đầu":"rạch Niềng","Điểm cuối":"rạch Ranh xã Mỹ Thuận\n và Nguyễn Văn Thảnh","Ghi chú":null,"layer_id":247,"fid":17,"label":"Xã Mỹ Thuận, \nhuyện Bình Tân"}},{"type":"Feature","id":19,"geometry":{"type":"LineString","coordinates":[[106.009514,10.193356],[106.006544,10.192644],[106.003275,10.192133]]},"properties":{"Địa danh":"Khóm 4 thị trấn\n Long Hồ, huyện Long Hồ","Thuộc tuyến sông rạch":"Bờ sông Cái Cao","Chiều rộng":"2-3m","Chiều dài":"700","Chiều sâu":"> 3,5m","Diện tích sạt lở":"35","Năm sạt lỡ":"2021","Mức độ":"Nguy hiểm","Điểm đầu":"Tiếp giáp kè bảo vệ bờ sông\n khu vực thị trấn Long Hồ","Điểm cuối":"giáp ranh khóm 4, \nthị trấn Long Hồ","Ghi chú":null,"layer_id":247,"fid":19,"label":"Khóm 4 thị trấn\n Long Hồ, huyện Long Hồ"}},{"type":"Feature","id":20,"geometry":{"type":"LineString","coordinates":[[105.796231,10.068447],[105.796258,10.081778]]},"properties":{"Địa danh":"Khóm 4, phường Thành Phước,\n thị xã Bình Minh","Thuộc tuyến sông rạch":"Bờ kênh Hai Qúy","Chiều rộng":null,"Chiều dài":"1600","Chiều sâu":null,"Diện tích sạt lở":"20","Năm sạt lỡ":"2021","Mức độ":"Nguy hiểm","Điểm đầu":"Tiếp giáp kè chống sạt\n lở bờ kênh Hai Qúy","Điểm cuối":"giáp rạch Cái Vồn Nhỏ","Ghi chú":null,"layer_id":247,"fid":20,"label":"Khóm 4, phường Thành Phước,\n thị xã Bình Minh"}},{"type":"Feature","id":46,"geometry":{"type":"LineString","coordinates":[[106.085577607,10.117013454],[106.085743904,10.116831064],[106.085808277,10.116439462],[106.08587265,10.116047859],[106.085947752,10.115586519],[106.086017489,10.115194917],[106.08596921,10.114915967],[106.085910201,10.114696026]]},"properties":{"Địa danh":"xã Tân An Luông, huyện Vũng Liêm, tỉnh Vĩnh Long","Thuộc tuyến sông rạch":"sạt lở bờ sông Măng Thít","Chiều rộng":null,"Chiều dài":"265m","Chiều sâu":"6-8m","Diện tích sạt lở":null,"Năm sạt lỡ":"2024","Mức độ":"Sạt lở  nguy hiểm","Điểm đầu":"Từ Vàm rạch Gò Ân","Điểm cuối":"giáp DNTN VLXD Phước Hùng","Ghi chú":"","layer_id":247,"fid":46,"label":"xã Tân An Luông, huyện Vũng Liêm, tỉnh Vĩnh Long"}},{"type":"Feature","id":47,"geometry":{"type":"LineString","coordinates":[[106.182362437,10.171993375],[106.182448268,10.172325969],[106.182587743,10.172647834],[106.182898879,10.172744393],[106.183328032,10.172840953],[106.183714271,10.173044801],[106.183832288,10.173109174]]},"properties":{"Địa danh":"sạt lở bờ sông Cổ Chiên (khu vực từ hộ ông Bạch Văn Thắng đến hộ ông Lê Văn Diễn), ấp Rạch Sâu, xã Quới Thiện, huyện Vũng Liêm, tỉnh Vĩnh Long.","Thuộc tuyến sông rạch":"sông Cổ Chiên","Chiều rộng":"6-8m","Chiều dài":"200m","Chiều sâu":"3,5m","Diện tích sạt lở":null,"Năm sạt lỡ":"2024","Mức độ":"Sạt lở nguy hiểm","Điểm đầu":null,"Điểm cuối":null,"Ghi chú":null,"layer_id":247,"fid":47,"label":"sạt lở bờ sông Cổ Chiên (khu vực từ hộ ông Bạch Văn Thắng đến hộ ông Lê Văn Diễn), ấp Rạch Sâu, xã Quới Thiện, huyện Vũng Liêm, tỉnh Vĩnh Long."}},{"type":"Feature","id":22,"geometry":{"type":"LineString","coordinates":[[105.820714,10.066758],[105.818993,10.069453],[105.816417,10.072125]]},"properties":{"Địa danh":"Phường Cái Vồn và phường Thành Phước,Thị xã Bình Minh, tỉnh Vĩnh Long","Thuộc tuyến sông rạch":"Bờ sông\n Rạch Vồn (02 bờ)","Chiều rộng":null,"Chiều dài":null,"Chiều sâu":null,"Diện tích sạt lở":null,"Năm sạt lỡ":"2021","Mức độ":"Nguy hiểm","Điểm đầu":"Cầu Huyện Đội","Điểm cuối":"Rạch Chùa","Ghi chú":null,"layer_id":247,"fid":22,"label":"Phường Cái Vồn và phường Thành Phước,Thị xã Bình Minh, tỉnh Vĩnh Long"}},{"type":"Feature","id":23,"geometry":{"type":"LineString","coordinates":[[105.873417,9.991975],[105.872251,9.992012],[105.870319,9.991489]]},"properties":{"Địa danh":"Xã Mỹ Hòa,\n thị xã Bình Minh","Thuộc tuyến sông rạch":"Bờ bao Cồn Sừng","Chiều rộng":"2-4m","Chiều dài":"350","Chiều sâu":null,"Diện tích sạt lở":"60","Năm sạt lỡ":"2022","Mức độ":"Nguy hiểm","Điểm đầu":"Cầu Rạch Chanh","Điểm cuối":"vàm sông Hậu","Ghi chú":null,"layer_id":247,"fid":23,"label":"Xã Mỹ Hòa,\n thị xã Bình Minh"}},{"type":"Feature","id":24,"geometry":{"type":"LineString","coordinates":[[105.878333,9.990142],[105.874236,9.991822],[105.872433,9.99197],[105.870448,9.991526],[105.872734,9.989941],[105.882786,9.985422]]},"properties":{"Địa danh":"Xã Mỹ Hòa,\n thị xã Bình Minh","Thuộc tuyến sông rạch":"Bờ bao Cồn Sừng","Chiều rộng":"2-4m","Chiều dài":"550","Chiều sâu":null,"Diện tích sạt lở":"60","Năm sạt lỡ":"2022","Mức độ":"Nguy hiểm","Điểm đầu":"Hộ Lê Hoàng Ân","Điểm cuối":"Đập Đuôi Cá","Ghi chú":null,"layer_id":247,"fid":24,"label":"Xã Mỹ Hòa,\n thị xã Bình Minh"}},{"type":"Feature","id":25,"geometry":{"type":"LineString","coordinates":[[105.795417,10.068006],[105.7956,10.069081]]},"properties":{"Địa danh":"Xã Thành Lợi,\n huyện Bình Tân","Thuộc tuyến sông rạch":"Bờ bao kênh Hai Qúy","Chiều rộng":"2-5m","Chiều dài":"120","Chiều sâu":null,"Diện tích sạt lở":null,"Năm sạt lỡ":"2022","Mức độ":"Nguy hiểm","Điểm đầu":"giáp kè Thành Lợi","Điểm cuối":"Hộ Nguyễn Thanh Dũ","Ghi chú":null,"layer_id":247,"fid":25,"label":"Xã Thành Lợi,\n huyện Bình Tân"}},{"type":"Feature","id":28,"geometry":{"type":"LineString","coordinates":[[106.009292,10.192708],[106.00987,10.192864],[106.010258,10.192369]]},"properties":{"Địa danh":"ấp Phú An, xã Phú Đức, huyện Long Hồ","Thuộc tuyến sông rạch":"Bờ sông Cái Cao - vàm Kênh Mới","Chiều rộng":null,"Chiều dài":"150","Chiều sâu":null,"Diện tích sạt lở":null,"Năm sạt lỡ":"2023","Mức độ":"Nguy hiểm","Điểm đầu":"Nhà hộ Nguyễn Hồng Quang","Điểm cuối":"Nhà hộ Nguyễn Hồng Hải","Ghi chú":null,"layer_id":247,"fid":28,"label":"ấp Phú An, xã Phú Đức, huyện Long Hồ"}},{"type":"Feature","id":29,"geometry":{"type":"LineString","coordinates":[[105.910756,9.948892],[105.910433,9.9477]]},"properties":{"Địa danh":"ấp Long Thạnh, xã Lục Sĩ Thành, huyện Trà Ôn","Thuộc tuyến sông rạch":"Bờ Kênh Xáng","Chiều rộng":null,"Chiều dài":"160","Chiều sâu":null,"Diện tích sạt lở":null,"Năm sạt lỡ":"2023","Mức độ":"Nguy hiểm","Điểm đầu":"Nhà hộ Huỳnh Văn Qúi","Điểm cuối":"đập Ông Thông","Ghi chú":null,"layer_id":247,"fid":29,"label":"ấp Long Thạnh, xã Lục Sĩ Thành, huyện Trà Ôn"}},{"type":"Feature","id":30,"geometry":{"type":"LineString","coordinates":[[106.008242,10.192536],[106.006565,10.192051],[106.004119,10.191625]]},"properties":{"Địa danh":"ấp Phú An, xã\nPhú Đức, huyện Long Hồ, tỉnh Vĩnh Long","Thuộc tuyến sông rạch":"sạt lở bờ sông Cái Cao ","Chiều rộng":"4-7m","Chiều dài":"460","Chiều sâu":null,"Diện tích sạt lở":null,"Năm sạt lỡ":"2023","Mức độ":"Nguy hiểm","Điểm đầu":"nhà máy Vinh Quang","Điểm cuối":"hộ ông Đặng Thanh Sơn","Ghi chú":null,"layer_id":247,"fid":30,"label":"ấp Phú An, xã\nPhú Đức, huyện Long Hồ, tỉnh Vĩnh Long"}},{"type":"Feature","id":31,"geometry":{"type":"LineString","coordinates":[[105.97525,9.915511],[105.977411,9.913242]]},"properties":{"Địa danh":"ấp Tích Lộc, xã Tích Thiện, huyện Trà Ôn, tỉnh Vĩnh Long","Thuộc tuyến sông rạch":"sạt lở bờ sông Trà Ôn","Chiều rộng":null,"Chiều dài":"360","Chiều sâu":null,"Diện tích sạt lở":null,"Năm sạt lỡ":"2023","Mức độ":"Nguy hiểm","Điểm đầu":"từ trường Trung học cơ sở Tích Thiện","Điểm cuối":"Rạch Chiếc","Ghi chú":null,"layer_id":247,"fid":31,"label":"ấp Tích Lộc, xã Tích Thiện, huyện Trà Ôn, tỉnh Vĩnh Long"}},{"type":"Feature","id":33,"geometry":{"type":"LineString","coordinates":[[106.004119,10.191625],[106.002038,10.191333],[106.000493,10.191629],[105.99869,10.190911],[105.99663,10.190911],[105.992333,10.184564]]},"properties":{"Địa danh":"xã Phú Đức, huyện Long Hồ,\n tỉnh Vĩnh Long","Thuộc tuyến sông rạch":"sạt lở bờ sông Cái Cao","Chiều rộng":null,"Chiều dài":"2000","Chiều sâu":null,"Diện tích sạt lở":"70","Năm sạt lỡ":"2023","Mức độ":"Nguy hiểm","Điểm đầu":"từ hộ\nông Đặng Thanh Sơn ","Điểm cuối":"cầu Cả Nguyên","Ghi chú":null,"layer_id":247,"fid":33,"label":"xã Phú Đức, huyện Long Hồ,\n tỉnh Vĩnh Long"}},{"type":"Feature","id":34,"geometry":{"type":"LineString","coordinates":[[105.998214,10.191669],[105.996662,10.191639],[105.995947,10.191244]]},"properties":{"Địa danh":"xã Phú Đức, huyện Long Hồ,\n tỉnh Vĩnh Long","Thuộc tuyến sông rạch":"sạt lở bờ sông Cái Cao","Chiều rộng":"3-5m","Chiều dài":"270","Chiều sâu":"2.5","Diện tích sạt lở":"48","Năm sạt lỡ":"2023","Mức độ":"Nguy hiểm","Điểm đầu":"từ cầu Đình Kỳ Hà","Điểm cuối":"hộ\nông Phạm Văn Nỏn","Ghi chú":null,"layer_id":247,"fid":34,"label":"xã Phú Đức, huyện Long Hồ,\n tỉnh Vĩnh Long"}}]}
