{"type":"FeatureCollection","name":"Hệ thống trạm bơm ","metadata":{"source":"https://hatang.vinhlong.gov.vn/","downloaded_at":"2026-07-20T01:12:26+00:00","layer_id":248,"layer_name":"Hệ thống trạm bơm ","catalog_endpoints":["/map/publicLayers2?inputs=thuy_loi"],"requested_bbox":[104.0,8.0,108.0,12.0],"tile_size":0.0,"tile_count":1,"tile_errors":[],"feature_count":3,"coordinate_order":"x,y (thường là longitude,latitude theo cấu hình EPSG:4326 của WebGIS)"},"features":[{"type":"Feature","id":1,"geometry":{"type":"Point","coordinates":[106.205825,10.040025]},"properties":{"Tên trạm":"Đập Giông","Vị trí":"xã Trung Ngãi, Vũng Liêm","Số máy bơm":"4","Công suất bơm thiết kế":"1000 m3/h","Công suất bơm thực tế":null,"Diện tích phục vụ":"60 ha","Năm xây dựng":null,"Hiện trạng":null,"Ghi chú":"bơm chìm Hướng đặt: trục ngang","layer_id":248,"fid":1,"label":"Đập Giông"}},{"type":"Feature","id":2,"geometry":{"type":"Point","coordinates":[106.196808815,10.074355602]},"properties":{"Tên trạm":"Trạm bơm Trung Trạch","Vị trí":" xã Trung Thành, huyện Vũng Liêm","Số máy bơm":"2","Công suất bơm thiết kế":"2000 m3/h","Công suất bơm thực tế":"1000 m3/h","Diện tích phục vụ":null,"Năm xây dựng":null,"Hiện trạng":null,"Ghi chú":null,"layer_id":248,"fid":2,"label":"Trạm bơm Trung Trạch"}},{"type":"Feature","id":3,"geometry":{"type":"Point","coordinates":[106.205649376,10.011613369]},"properties":{"Tên trạm":"Trạm bơm Hai Ro","Vị trí":"xã Trung Nghĩa, huyện Vũng Liêm","Số máy bơm":"3","Công suất bơm thiết kế":"1000 m3/h","Công suất bơm thực tế":"3000 m3/h","Diện tích phục vụ":null,"Năm xây dựng":null,"Hiện trạng":null,"Ghi chú":null,"layer_id":248,"fid":3,"label":"Trạm bơm Hai Ro"}}]}
