{"type":"FeatureCollection","name":"Kênh ","metadata":{"source":"https://hatang.vinhlong.gov.vn/","downloaded_at":"2026-07-20T01:12:30+00:00","layer_id":249,"layer_name":"Kênh ","catalog_endpoints":["/map/publicLayers2?inputs=thuy_loi"],"requested_bbox":[104.0,8.0,108.0,12.0],"tile_size":0.0,"tile_count":1,"tile_errors":[],"feature_count":59,"coordinate_order":"x,y (thường là longitude,latitude theo cấu hình EPSG:4326 của WebGIS)"},"features":[{"type":"Feature","id":30,"geometry":{"type":"LineString","coordinates":[[105.827093124,10.06911993],[105.836405754,10.072510242],[105.843958855,10.075128078],[105.850782394,10.077745914],[105.859622955,10.08092165]]},"properties":{"Tên kênh":"kênh Chà Và","Địa chỉ":"kênh Cái Vồn - ranh Tam Bình","Chiều dài":"3750m","Chiều rộng mặt":"61m","Bề rộng đáy":"54m","Phân cấp":"Cấp tỉnh quản lý","Năm xây dựng":null,"Tình trạng hoạt động":"Bình thường","Ghi chú":"F(tưới tiêu):3000ha","layer_id":249,"fid":30,"label":"kênh Chà Và"}},{"type":"Feature","id":32,"geometry":{"type":"LineString","coordinates":[[105.724718571,10.122324228],[105.725748539,10.122689009],[105.727508068,10.122710466],[105.729546547,10.122710466],[105.730447769,10.12286067],[105.730941296,10.12286067],[105.731434822,10.122646093],[105.732014179,10.122774839],[105.732035637,10.123289824],[105.731413364,10.123633146],[105.730962753,10.124083757],[105.731048584,10.124577284],[105.732593536,10.125972033],[105.734331608,10.128675699],[105.735490322,10.130435228],[105.736134052,10.131229162],[105.736777782,10.132023096],[105.737893581,10.132752657],[105.738515854,10.133310556],[105.739524364,10.134555101],[105.740168095,10.135370493],[105.74113369,10.138181448],[105.742120743,10.14092803],[105.744287968,10.14775157],[105.746068954,10.153759718],[105.746262074,10.154258609],[105.7467556,10.154977441],[105.749845505,10.159016848],[105.752162933,10.161978006],[105.752463341,10.162943602],[105.752763748,10.16397357],[105.753557682,10.16646266],[105.754458904,10.168887377],[105.759093761,10.182212591]]},"properties":{"Tên kênh":"kênh Huyện Hàm","Địa chỉ":"kênh Trà Mơn - kênh 30/4","Chiều dài":"8875m","Chiều rộng mặt":"26m","Bề rộng đáy":"20m","Phân cấp":"Cấp tỉnh quản lý","Năm xây dựng":null,"Tình trạng hoạt động":"Bình thường","Ghi chú":"F(tưới tiêu):3000ha","layer_id":249,"fid":32,"label":"kênh Huyện Hàm"}},{"type":"Feature","id":31,"geometry":{"type":"LineString","coordinates":[[105.859665871,10.080878735],[105.866446495,10.08341074],[105.875887871,10.086758137],[105.886316299,10.090652704]]},"properties":{"Tên kênh":"kênh Chà Và","Địa chỉ":"Từ ranh Bình Minh - UBND xã Tân Phú","Chiều dài":"3125m","Chiều rộng mặt":"45m","Bề rộng đáy":"20m","Phân cấp":"Cấp tỉnh quản lý","Năm xây dựng":null,"Tình trạng hoạt động":"Bình thường","Ghi chú":"F(tưới tiêu):2000ha","layer_id":249,"fid":31,"label":"kênh Chà Và"}},{"type":"Feature","id":33,"geometry":{"type":"LineString","coordinates":[[105.782804489,10.073668957],[105.782589912,10.074784756],[105.779886246,10.077831745],[105.778083801,10.080792904],[105.775766373,10.084741116],[105.77357769,10.08783102],[105.769457817,10.091993809],[105.765810013,10.094912052],[105.762848854,10.096843243],[105.759801865,10.099160671],[105.758213997,10.100491047],[105.756926537,10.101145506],[105.755681992,10.101596117],[105.754609108,10.101102591],[105.752892494,10.100566149],[105.750896931,10.100845098],[105.748450756,10.10138154],[105.746648312,10.102690458],[105.744073391,10.105265379],[105.741627216,10.107346773],[105.739502907,10.108290911],[105.736563206,10.110028982],[105.735425949,10.111080408],[105.732593536,10.114277601],[105.730061531,10.117281675],[105.728344917,10.119041204],[105.727078915,10.120028257],[105.725061893,10.121423006],[105.722615719,10.123804808],[105.72085619,10.12590766],[105.719890594,10.127613544],[105.719547272,10.130360126],[105.719246864,10.133836269],[105.718302727,10.135295391],[105.715684891,10.137655735],[105.712981224,10.139801502],[105.711650848,10.141603947],[105.71062088,10.142762661],[105.70499897,10.146410465],[105.702949762,10.147714019],[105.70186615,10.148100257],[105.701243877,10.148046613],[105.700908533,10.148229519],[105.69937426,10.149785102],[105.697456418,10.151660325],[105.696694851,10.152407885],[105.693283081,10.154510736]]},"properties":{"Tên kênh":"kênh Trà Mơn","Địa chỉ":"Sông Hậu - kênh Xã Hời","Chiều dài":"13750m","Chiều rộng mặt":"36m","Bề rộng đáy":"32m","Phân cấp":"Cấp tỉnh quản lý","Năm xây dựng":null,"Tình trạng hoạt động":"Bình thường","Ghi chú":"F (tưới tiêu): 2000ha","layer_id":249,"fid":33,"label":"kênh Trà Mơn"}},{"type":"Feature","id":60,"geometry":{"type":"LineString","coordinates":[[105.916442871,9.962496758],[105.914812088,9.958720207],[105.912494659,9.952454567],[105.910778046,9.946875572],[105.908932686,9.942820072],[105.906658173,9.94127512]]},"properties":{"Tên kênh":"Kênh Xáng","Địa chỉ":"Từ sông Hậu","Chiều dài":"1700m","Chiều rộng mặt":"80m","Bề rộng đáy":"50m","Phân cấp":null,"Năm xây dựng":null,"Tình trạng hoạt động":null,"Ghi chú":"F(tưới tiêu): 1400ha","layer_id":249,"fid":60,"label":"Kênh Xáng"}},{"type":"Feature","id":48,"geometry":{"type":"LineString","coordinates":[[106.084113121,10.13023138],[106.084241867,10.132033825],[106.083812714,10.133492947],[106.08402729,10.134737492],[106.084456444,10.13576746],[106.083726883,10.136539936],[106.082653999,10.136711597],[106.08145237,10.137827396],[106.08080864,10.139844418],[106.079864502,10.141346455],[106.07831955,10.142376423],[106.076688766,10.143449306],[106.076002121,10.144178867],[106.076002121,10.146110058],[106.076130867,10.148041248],[106.075186729,10.148985386],[106.072740555,10.150830746],[106.071195602,10.151517391],[106.069951057,10.153148174],[106.068577766,10.15392065],[106.067290306,10.153748989],[106.067118645,10.154349804],[106.067891121,10.155036449],[106.066861153,10.156023502],[106.066088676,10.15696764],[106.064929962,10.158469677],[106.063642502,10.159585476],[106.062483788,10.160486698],[106.06218338,10.161516666],[106.060938835,10.162632465],[106.060380936,10.163276196],[106.061367989,10.164520741]]},"properties":{"Tên kênh":"Rạch Tân Quy","Địa chỉ":"Từ Sông Măng Thít - Tỉnh lộ 32","Chiều dài":"10200m","Chiều rộng mặt":"60m","Bề rộng đáy":"45m","Phân cấp":null,"Năm xây dựng":null,"Tình trạng hoạt động":null,"Ghi chú":"F(tưới tiêu): 5500ha","layer_id":249,"fid":48,"label":"Rạch Tân Quy"}},{"type":"Feature","id":61,"geometry":{"type":"LineString","coordinates":[[105.987682343,9.902501106],[105.990171432,9.903702736],[105.991373062,9.905762672],[105.992574692,9.906363487],[105.995149612,9.90550518],[105.99738121,9.905676842],[105.999183655,9.907307625],[106.000213623,9.908509254],[106.002874374,9.909882545],[106.006736755,9.911599159],[106.010255814,9.913229942],[106.011371613,9.913401604],[106.012058258,9.914689064],[106.013946533,9.915719032],[106.015663147,9.917349815],[106.015233994,9.918808937],[106.015663147,9.920096397],[106.014719009,9.921126366],[106.014032364,9.922842979],[106.013002396,9.923958778],[106.014547348,9.924988747],[106.017122269,9.92661953],[106.01600647,9.929966927],[106.013946533,9.93601799],[106.012058258,9.946146011],[106.011285782,9.95159626],[106.011071205,9.952347279],[106.010255814,9.952476025],[106.010084152,9.953677654],[106.00918293,9.953420162],[106.009054184,9.954493046],[106.009397507,9.955823421],[106.009140015,9.95685339],[106.009054184,9.958870411],[106.00918293,9.960072041],[106.01038456,9.960801601],[106.010899544,9.962861538],[106.010770798,9.964578152],[106.010041237,9.966552258],[106.010041237,9.967668056],[106.01047039,9.968826771],[106.011972427,9.969642162],[106.013259888,9.971272945],[106.01416111,9.97243166],[106.015276909,9.973118305],[106.016221046,9.973247051],[106.016263962,9.974534512],[106.0166502,9.975864887],[106.016993523,9.976894855],[106.016349792,9.977924824],[106.016221046,9.978482723],[106.016221046,9.979512691],[106.015191078,9.981143475],[106.014676094,9.982055426],[106.014375687,9.982720613],[106.014225483,9.984008074],[106.014118195,9.984565973],[106.013753414,9.984973669],[106.013560295,9.985338449],[106.013710499,9.985789061],[106.014182568,9.986389875],[106.014225483,9.987097979],[106.014418602,9.988149405],[106.01452589,9.989029169]]},"properties":{"Tên kênh":"Kênh Tân Dinh - La Ghì","Địa chỉ":"Từ Sông Hậu - kênh Trà Côn","Chiều dài":"17625m","Chiều rộng mặt":"14m","Bề rộng đáy":"8m","Phân cấp":null,"Năm xây dựng":null,"Tình trạng hoạt động":null,"Ghi chú":"F(tưới tiêu): 2700ha","layer_id":249,"fid":61,"label":"Kênh Tân Dinh - La Ghì"}},{"type":"Feature","id":9,"geometry":{"type":"LineString","coordinates":[[106.014311314,10.194357634],[106.013023853,10.194615126],[106.011993885,10.194979906],[106.010363102,10.197318792],[106.00890398,10.200601816],[106.00789547,10.202575922],[106.006286144,10.205987692],[106.005384922,10.207403898],[106.004011631,10.208734274],[106.00300312,10.209335089],[106.001737118,10.21006465],[106.000878811,10.211094618],[106.000857353,10.212017298],[106.001865864,10.2132833],[106.003110409,10.214549303],[106.003303528,10.215471983],[106.002488136,10.217124224],[106.00014925,10.221206546],[105.999280214,10.222848058],[105.997949839,10.224307179],[105.995256901,10.227659941],[105.993840694,10.22978425],[105.991158485,10.235159397],[105.988454819,10.238721371],[105.986351967,10.241553783],[105.985150337,10.244429111],[105.983819962,10.246703625],[105.982017517,10.248463154],[105.979571342,10.251295567],[105.977425575,10.254170895],[105.974678993,10.256659985],[105.973284245,10.258151293]]},"properties":{"Tên kênh":"Sông Long Hồ","Địa chỉ":"Từ bến chợ Phường 1 đến sông Cái Cao  với sông Hòa Tịnh TT.Long Hồ (TPVL, huyện Long Hồ)","Chiều dài":"8500m","Chiều rộng mặt":"75m","Bề rộng đáy":"40m","Phân cấp":"Cấp tỉnh quản lý","Năm xây dựng":null,"Tình trạng hoạt động":"Bình thường","Ghi chú":null,"layer_id":249,"fid":9,"label":"Sông Long Hồ"}},{"type":"Feature","id":12,"geometry":{"type":"LineString","coordinates":[[105.991078019,10.034151971],[105.99111557,10.034629405],[105.991142392,10.035198033],[105.99111557,10.035509169],[105.991008282,10.035745203],[105.990986824,10.035910159],[105.990984142,10.036116689],[105.990994871,10.036277622],[105.99104315,10.036486834],[105.991061926,10.036779195],[105.991053879,10.036977679],[105.991061926,10.037122518],[105.991008282,10.038664788],[105.990922451,10.039677322],[105.990868807,10.040144026],[105.990788341,10.040455163],[105.990729332,10.041037202],[105.990632772,10.041562915],[105.990632772,10.042120814],[105.990675688,10.042839646],[105.99065423,10.043225884],[105.989398956,10.043215156],[105.986872315,10.043056905],[105.985220075,10.042853057],[105.984587073,10.042751133],[105.984318852,10.042751133],[105.983476639,10.043019354],[105.98038137,10.04453212],[105.977174308,10.046108962],[105.972747803,10.048204064],[105.965420008,10.051798224],[105.959272385,10.054909587],[105.930347443,10.069130659],[105.913310051,10.077273846],[105.886380672,10.090652704]]},"properties":{"Tên kênh":"Kênh Xáng","Địa chỉ":"Từ sông Măng đến Tân Phú  (huyện Tam Bình)","Chiều dài":"13375m","Chiều rộng mặt":"35m","Bề rộng đáy":null,"Phân cấp":"Cấp tỉnh quản lý","Năm xây dựng":null,"Tình trạng hoạt động":"Bình thường","Ghi chú":null,"layer_id":249,"fid":12,"label":"Kênh Xáng"}},{"type":"Feature","id":13,"geometry":{"type":"LineString","coordinates":[[105.986909866,10.269867182],[105.987467766,10.270832777],[105.988240242,10.272806883],[105.988841057,10.274823904],[105.989592075,10.277055502],[105.990428925,10.279608965],[105.991373062,10.283042192],[105.992166996,10.285681486],[105.992724895,10.287784338],[105.992918015,10.288771391],[105.993776321,10.2908957],[105.994226933,10.292633772],[105.995106697,10.2955091],[105.995578766,10.297783613],[105.996007919,10.300229788],[105.996308327,10.301903486],[105.996608734,10.303705931],[105.997145176,10.306774378],[105.99738121,10.30804038],[105.997595787,10.30887723],[105.998432636,10.310035944],[105.999526978,10.3117311],[106.00051403,10.313211679],[106.001393795,10.314434767],[106.00235939,10.31550765],[106.004354954,10.316194296]]},"properties":{"Tên kênh":"Kênh Mương lộ","Địa chỉ":"Từ sông Cổ Chiên đến sông Tiền","Chiều dài":"5750m","Chiều rộng mặt":"50m","Bề rộng đáy":"40m","Phân cấp":"Cấp tỉnh quản lý","Năm xây dựng":null,"Tình trạng hoạt động":"Bình thường","Ghi chú":"F (tưới tiêu): 3400ha","layer_id":249,"fid":13,"label":"Kênh Mương lộ"}},{"type":"Feature","id":49,"geometry":{"type":"LineString","coordinates":[[106.027464867,10.08654356],[106.026563644,10.088002682],[106.025919914,10.089204311],[106.026005745,10.09023428],[106.026563644,10.090835094],[106.027421951,10.092251301],[106.027550697,10.093581676],[106.027979851,10.094611645],[106.027936935,10.095469952],[106.028623581,10.096328259],[106.029438972,10.096757412],[106.03038311,10.098559856],[106.031370163,10.100104809],[106.032528877,10.101735592],[106.033644676,10.103666782],[106.034417152,10.105168819],[106.03536129,10.108258724],[106.037378311,10.114223957]]},"properties":{"Tên kênh":"Kênh Ông Đệ","Địa chỉ":"Từ sông Măng đến kênh Ông Cớ","Chiều dài":"4000m","Chiều rộng mặt":"50m","Bề rộng đáy":"15m","Phân cấp":null,"Năm xây dựng":null,"Tình trạng hoạt động":null,"Ghi chú":"F(tưới tiêu): 6000ha","layer_id":249,"fid":49,"label":"Kênh Ông Đệ"}},{"type":"Feature","id":50,"geometry":{"type":"LineString","coordinates":[[106.083812714,10.013394356],[106.069908142,10.014595985],[106.064414978,10.015711784],[106.062526703,10.017428398],[106.062612534,10.024809837],[106.062011719,10.027041435],[106.059780121,10.028500557],[106.056776047,10.030045509],[106.056089401,10.031590462],[106.054286957,10.032105446],[106.052827835,10.032792091],[106.051540375,10.034766197],[106.050252914,10.035538673],[106.050252914,10.038199425],[106.049051285,10.039916039],[106.046905518,10.03880024],[106.045618057,10.03888607],[106.044330597,10.040602684],[106.041755676,10.042490959],[106.040725708,10.044894218],[106.03849411,10.046439171],[106.036949158,10.046095848],[106.035318375,10.044980049],[106.033000946,10.044293404],[106.031541824,10.043263435],[106.028795242,10.042233467],[106.026563644,10.042834282],[106.025276184,10.043606758],[106.022357941,10.043263435],[106.019697189,10.043606758],[106.017637253,10.044980049],[106.017637253,10.04755497],[106.016607285,10.049786568],[106.014890671,10.050988197],[106.011714935,10.05133152],[106.012058258,10.053648949],[106.012058258,10.055279732],[106.01102829,10.057168007],[106.009483337,10.058283806]]},"properties":{"Tên kênh":"Kênh Sa Rày - rạch Bần","Địa chỉ":"Từ sông Măng - kênh ranh Tổng","Chiều dài":"11750m","Chiều rộng mặt":"15m","Bề rộng đáy":"5m","Phân cấp":null,"Năm xây dựng":null,"Tình trạng hoạt động":null,"Ghi chú":"F(tưới tiêu): 4600ha","layer_id":249,"fid":50,"label":"Kênh Sa Rày - rạch Bần"}},{"type":"Feature","id":51,"geometry":{"type":"LineString","coordinates":[[106.066217422,9.974598885],[106.069478989,9.979662895],[106.072998047,9.985671043],[106.076774597,9.993138313],[106.080636978,10.003523827],[106.08707428,10.019788742],[106.090164185,10.026655197],[106.093597412,10.034379959],[106.093597412,10.041589737]]},"properties":{"Tên kênh":"kênh Cái cá - Ranh Tổng","Địa chỉ":"Từ sông Măng - Kênh Trà Ngoa","Chiều dài":"15500m","Chiều rộng mặt":"45m","Bề rộng đáy":"25m","Phân cấp":null,"Năm xây dựng":null,"Tình trạng hoạt động":null,"Ghi chú":"F(tưới tiêu): 5000ha","layer_id":249,"fid":51,"label":"kênh Cái cá - Ranh Tổng"}},{"type":"Feature","id":36,"geometry":{"type":"LineString","coordinates":[[106.003496647,10.214804113],[106.003888249,10.214648545],[106.004376411,10.214648545],[106.004912853,10.214793384],[106.005460024,10.214959681],[106.005924046,10.214985162],[106.006318331,10.215020031],[106.0066697,10.215156823],[106.006916463,10.215384811],[106.007144451,10.215679854],[106.007466316,10.215909183],[106.007820368,10.215909183],[106.00821197,10.215775073],[106.008555293,10.215469301],[106.008925438,10.215345919],[106.009252667,10.215372741],[106.009574533,10.215608776],[106.009740829,10.215914547],[106.009985842,10.216404545],[106.010327488,10.216798752],[106.010698698,10.217202813],[106.010921001,10.217684805],[106.011108756,10.21823734],[106.011409163,10.218607485],[106.011838317,10.218768418],[106.012503505,10.218773782],[106.012970209,10.2187711],[106.013453007,10.218513608],[106.014053822,10.218213201],[106.014837027,10.21812737],[106.015620232,10.218245387],[106.016178131,10.218170285],[106.016768217,10.217998624],[106.017411947,10.217912793],[106.018044949,10.217987895],[106.018742323,10.218105912],[106.019407511,10.217912793],[106.020072699,10.217548013],[106.020630598,10.217354894],[106.021306515,10.217419267],[106.021960974,10.217784047],[106.022315025,10.218060315],[106.022878289,10.218231976],[106.023677588,10.218607485],[106.024133563,10.218945444],[106.025136709,10.219546258],[106.025909185,10.220015645],[106.02678895,10.220702291],[106.027411222,10.221431851],[106.027464867,10.222097039],[106.027282476,10.222676396],[106.027261019,10.223695636],[106.027582884,10.224511027],[106.028344631,10.225369334],[106.029224396,10.226184726],[106.030468941,10.227032304],[106.030597687,10.227718949],[106.03010416,10.228695273],[106.028988361,10.22973597],[106.0288167,10.230336785],[106.029106379,10.231227279],[106.030265093,10.231989026],[106.031091213,10.23241818],[106.031633019,10.232748091],[106.031981707,10.233161151],[106.032153368,10.233697593],[106.032700539,10.235132575],[106.033086777,10.236184001],[106.033269167,10.237063766],[106.033473015,10.23845315],[106.033322811,10.239762068],[106.033387184,10.241070986],[106.033923626,10.241929293],[106.035339832,10.243109465],[106.036262512,10.243989229],[106.037936211,10.245147943]]},"properties":{"Tên kênh":"Rạch Cái Lóc - Cái Nứa","Địa chỉ":"Từ sông Long Hồ - sông Cổ Chiên","Chiều dài":"6300m","Chiều rộng mặt":"46m","Bề rộng đáy":"43","Phân cấp":"Cấp tỉnh quản lý","Năm xây dựng":null,"Tình trạng hoạt động":"Bình thường","Ghi chú":"F(tưới tiêu): 2570ha","layer_id":249,"fid":36,"label":"Rạch Cái Lóc - Cái Nứa"}},{"type":"Feature","id":43,"geometry":{"type":"LineString","coordinates":[[105.714569092,10.139136314],[105.71624279,10.141861439],[105.71873188,10.145637989],[105.720663071,10.148384571],[105.725212097,10.154156685],[105.728473663,10.159993172],[105.730361938,10.164456367],[105.739459991,10.180807114],[105.748386383,10.197973251]]},"properties":{"Tên kênh":"Xã Khánh","Địa chỉ":"Kênh Trà Mơn - kênh Tuổi Trẻ","Chiều dài":"7375m","Chiều rộng mặt":"22m","Bề rộng đáy":"16m","Phân cấp":null,"Năm xây dựng":null,"Tình trạng hoạt động":null,"Ghi chú":"F(tưới tiêu): 6000ha","layer_id":249,"fid":43,"label":"Xã Khánh"}},{"type":"Feature","id":53,"geometry":{"type":"LineString","coordinates":[[105.706586838,10.145455599],[105.707337856,10.146700144],[105.707466602,10.147687197],[105.708303452,10.149854422],[105.708882809,10.151592493],[105.712423325,10.157471895],[105.713732243,10.15936017],[105.719676018,10.169456005],[105.727014542,10.180249214],[105.739202499,10.200762749]]},"properties":{"Tên kênh":"Đòn Dong","Địa chỉ":"Kênh Trà Mơn - kênh Tuổi Trẻ","Chiều dài":"7125m","Chiều rộng mặt":"10m","Bề rộng đáy":"8m","Phân cấp":null,"Năm xây dựng":null,"Tình trạng hoạt động":null,"Ghi chú":"F(tưới tiêu): 5000ha","layer_id":249,"fid":53,"label":"Đòn Dong"}},{"type":"Feature","id":16,"geometry":{"type":"LineString","coordinates":[[106.098146439,9.998631477],[106.100292206,10.004725456],[106.103897095,10.015990734],[106.106128693,10.022256374],[106.108531952,10.029423237],[106.109519005,10.032384396],[106.110033989,10.035259724],[106.111235619,10.039980412],[106.111879349,10.04478693],[106.11269474,10.051739216],[106.113595963,10.057489872],[106.114239693,10.063626766],[106.115012169,10.068089962],[106.114583015,10.071780682],[106.114711761,10.075342655],[106.115398407,10.077359676],[106.116557121,10.078046322],[106.117157936,10.078475475],[106.116728783,10.080406666],[106.116364002,10.08451581],[106.116535664,10.087133646],[106.116382787,10.089251829],[106.11619962,10.090570635],[106.116529321,10.09229241],[106.116492688,10.093940918],[106.116492688,10.09584586],[106.115870476,10.099332333],[106.115355492,10.101392269],[106.114025116,10.102894306],[106.112780571,10.10461092]]},"properties":{"Tên kênh":"Rạch Bưng Trường","Địa chỉ":"Từ sông Vũng Liêm","Chiều dài":"8000m","Chiều rộng mặt":"22.5","Bề rộng đáy":"18.5m","Phân cấp":"Cấp tỉnh quản lý","Năm xây dựng":null,"Tình trạng hoạt động":"Bình thường","Ghi chú":"F (tưới tiêu): 2000 ha","layer_id":249,"fid":16,"label":"Rạch Bưng Trường"}},{"type":"Feature","id":37,"geometry":{"type":"LineString","coordinates":[[105.919811726,9.974931479],[105.919446945,9.976283312],[105.919339657,9.977334738],[105.919532776,9.978471994],[105.919425488,9.979265928],[105.918159485,9.98008132],[105.91635704,9.980982542],[105.915434361,9.982162714],[105.914382935,9.98293519],[105.912752151,9.98349309],[105.911829472,9.984351397],[105.911829472,9.985445738],[105.911765099,9.987119436],[105.911636353,9.988750219],[105.912001133,9.99104619],[105.912344456,9.993835688],[105.912601948,9.996389151],[105.912623405,9.99851346],[105.912537575,10.001324415],[105.912451744,10.005143881],[105.912258625,10.007697344],[105.911808014,10.009778738],[105.91073513,10.013040304],[105.909662247,10.015507936],[105.908911228,10.017589331],[105.908331871,10.019048452],[105.907280445,10.022181273],[105.906443596,10.024820566],[105.905284882,10.028854609],[105.90446949,10.032223463],[105.902581215,10.039025545],[105.901744366,10.04211545],[105.900971889,10.044840574],[105.900499821,10.047179461],[105.899856091,10.049196482],[105.899330378,10.051133037]]},"properties":{"Tên kênh":"Kênh Sóc Tro - Đường Trâu","Địa chỉ":"Giao sông Măng Thít với kênh Cái Sơn và kênh Còng Cọc (ngã 3 Còng Cọc)","Chiều dài":"9000m","Chiều rộng mặt":"30m","Bề rộng đáy":"6m","Phân cấp":"Cấp tỉnh quản lý","Năm xây dựng":null,"Tình trạng hoạt động":"Bình thường ","Ghi chú":"F(tưới tiêu): 6000ha","layer_id":249,"fid":37,"label":"Kênh Sóc Tro - Đường Trâu"}},{"type":"Feature","id":14,"geometry":{"type":"LineString","coordinates":[[105.992574692,10.285268426],[105.992939472,10.284903646],[105.993116498,10.28470248],[105.993379354,10.28452009],[105.993567109,10.284418166],[105.993792415,10.284348428],[105.993974805,10.284353793],[105.994259119,10.284418166],[105.994495153,10.284546912],[105.994682908,10.284686387],[105.994902849,10.284841955],[105.995101333,10.284986794],[105.995272994,10.285083354],[105.995551944,10.285196006],[105.995761156,10.285287201],[105.995873809,10.285324752],[105.996147394,10.285308659],[105.996340513,10.28524965],[105.996565819,10.285099447],[105.997043252,10.284734666],[105.997386575,10.284493268],[105.997847915,10.28428942],[105.998384356,10.283989012],[105.998829603,10.283726156],[105.999333858,10.283382833],[105.999564528,10.28299123],[105.9995538,10.282637179],[105.999516249,10.282320678],[105.999543071,10.281805694],[105.999666452,10.281263888],[105.99991858,10.280995667],[106.000208259,10.280775726],[106.000578403,10.280496776],[106.001356244,10.279981792],[106.001737118,10.279799402],[106.002107263,10.279638469],[106.002745628,10.279466808],[106.003131866,10.27954191],[106.003443003,10.279681385],[106.005234718,10.280655026],[106.005685329,10.280848145],[106.006350517,10.280837417],[106.007198095,10.28062284],[106.008034945,10.280418992],[106.00900054,10.280279517],[106.01000905,10.280300975],[106.011350155,10.280537009],[106.012154818,10.280826688],[106.013088226,10.281438231],[106.014364958,10.282339454],[106.015405655,10.282854438],[106.016317606,10.283508897],[106.016800404,10.284013152],[106.017175913,10.284560323],[106.018688679,10.288084745],[106.02006197,10.290917158],[106.021049023,10.29302001],[106.021714211,10.294929743],[106.022379398,10.296394229],[106.02337718,10.297370553]]},"properties":{"Tên kênh":"Sông Cái Múi","Địa chỉ":"Từ kênh Mương lộ-sông Cổ Chiên","Chiều dài":"4750m","Chiều rộng mặt":"32m","Bề rộng đáy":"17m","Phân cấp":"Cấp tỉnh quản lý","Năm xây dựng":null,"Tình trạng hoạt động":"Bình thường","Ghi chú":"F (tưới tiêu): 1229 ha","layer_id":249,"fid":14,"label":"Sông Cái Múi"}},{"type":"Feature","id":23,"geometry":{"type":"LineString","coordinates":[[105.90151906,10.234537125],[105.901958942,10.234773159],[105.902516842,10.235030651],[105.903450251,10.235309601],[105.904169083,10.235513449],[105.904555321,10.235792398],[105.904726982,10.236114264],[105.904630423,10.236747265],[105.904630423,10.237734318],[105.904963017,10.238785744],[105.905263424,10.239719152],[105.906025171,10.241049528],[105.906894207,10.24232626],[105.907452106,10.243442059],[105.907902718,10.244472027],[105.908074379,10.245609283],[105.907967091,10.246789455],[105.907623768,10.24766922],[105.907709599,10.248763561],[105.908181667,10.249729156],[105.908932686,10.250394344],[105.909962654,10.250973701],[105.910713673,10.25144577],[105.910842419,10.252261162],[105.910584927,10.253162384],[105.910434723,10.253956318],[105.910445452,10.25457859],[105.910863876,10.255404711],[105.911067724,10.256069899],[105.910928249,10.25660634],[105.9106493,10.257475376],[105.910563469,10.258462429],[105.910724401,10.25965333],[105.910778046,10.260404348],[105.910477638,10.261090994],[105.910145044,10.261804461],[105.909919739,10.262485743],[105.909962654,10.263022184],[105.910359825,10.263508226],[105.91066506,10.264118696],[105.910707161,10.26469759],[105.910549281,10.265392263],[105.910574198,10.266090631],[105.910745859,10.266648531],[105.911056995,10.267238617],[105.911132097,10.267893076],[105.911035538,10.26859045],[105.910847783,10.269502401],[105.910547376,10.270060301],[105.91027379,10.270398259],[105.909640789,10.2711761],[105.909318924,10.271894932],[105.909007788,10.272345543],[105.907988548,10.272710323],[105.906969309,10.27356863]]},"properties":{"Tên kênh":"Rạch Cái Đôi Lớn","Địa chỉ":"Từ sông Tiền đến rạch Đường Cày","Chiều dài":"5100m","Chiều rộng mặt":"40m","Bề rộng đáy":"20m","Phân cấp":"Cấp tỉnh quản lý","Năm xây dựng":null,"Tình trạng hoạt động":"Bình thường","Ghi chú":"F (tưới tiêu):1200 ha","layer_id":249,"fid":23,"label":"Rạch Cái Đôi Lớn"}},{"type":"Feature","id":8,"geometry":{"type":"LineString","coordinates":[[105.947020054,10.260747671],[105.945153236,10.261069536],[105.94244957,10.261949301],[105.940690041,10.262614489],[105.939295292,10.262635946],[105.938866138,10.261713266],[105.938909054,10.260039568],[105.939595699,10.25836587],[105.94032526,10.256906748],[105.940797329,10.255533457],[105.94042182,10.254884362],[105.939273834,10.253736377],[105.938715935,10.252674222],[105.938715935,10.251966119],[105.938458443,10.249847174],[105.938265324,10.248581171],[105.937707424,10.247400999],[105.937256813,10.246349573],[105.937235355,10.245126486],[105.937428474,10.243474245],[105.93755722,10.241800547],[105.938222408,10.24001956],[105.938093662,10.238946676],[105.937514305,10.237659216],[105.937063694,10.236929655],[105.936977863,10.236028433],[105.937449932,10.235298872],[105.938715935,10.234075785],[105.939509869,10.233582258],[105.940368176,10.232745409],[105.940732956,10.231608152],[105.940496922,10.230106115],[105.939509869,10.226973295],[105.93875885,10.225213766],[105.938200951,10.224033594],[105.937664509,10.223411322],[105.936870575,10.222188234],[105.936398506,10.220879316],[105.93599081,10.219634771],[105.934209824,10.216115713],[105.93350172,10.214914083],[105.933158398,10.213776827],[105.932793617,10.211867094],[105.932192802,10.208669901],[105.93129158,10.206416845],[105.929853916,10.203112364],[105.928995609,10.201288462]]},"properties":{"Tên kênh":"Sông Cái Cam","Địa chỉ":"Từ sông Cổ Chiên đến  ranh xã Tân Hạnh, từ rạch Bà Điểu đến kênh Ông Me Nhỏ (TPVL)","Chiều dài":"8920m","Chiều rộng mặt":"60m","Bề rộng đáy":null,"Phân cấp":"Cấp tỉnh quản lý","Năm xây dựng":null,"Tình trạng hoạt động":"Bình Thường","Ghi chú":null,"layer_id":249,"fid":8,"label":"Sông Cái Cam"}},{"type":"Feature","id":63,"geometry":{"type":"LineString","coordinates":[[106.102480888,10.190312862],[106.109218597,10.195891857],[106.114668846,10.20121336],[106.114025116,10.20250082],[106.113939285,10.203015804],[106.11325264,10.203015804],[106.112523079,10.20314455],[106.111578941,10.204217434],[106.111063957,10.20498991],[106.111621857,10.205504894],[106.110827923,10.205880404],[106.109819412,10.205515623],[106.109240055,10.205322504],[106.108746529,10.205622911],[106.108767986,10.206438303],[106.108210087,10.206717253],[106.107115746,10.206974745],[106.106450558,10.207704306],[106.105742455,10.208090544],[106.104755402,10.208069086],[106.103446484,10.208112001],[106.102824211,10.208648443],[106.102309227,10.210558176],[106.102287769,10.211673975],[106.102287769,10.21255374],[106.10209465,10.212982893],[106.101043224,10.213326216],[106.099927425,10.213755369],[106.099176407,10.214055777],[106.098940372,10.21448493],[106.099369526,10.215085745],[106.100485325,10.216223001],[106.101107597,10.217167139],[106.101794243,10.218068361],[106.102395058,10.218626261],[106.102566719,10.219382644],[106.102502346,10.220595002],[106.102695465,10.221453309],[106.103339195,10.222150683],[106.10421896,10.222429633],[106.105002165,10.222526193],[106.105431318,10.222687125],[106.105560064,10.223309398],[106.105399132,10.223770738],[106.10550642,10.224763155],[106.105034351,10.225321054],[106.104948521,10.225836039],[106.105399132,10.226329565],[106.105656624,10.22693038],[106.105334759,10.227702856],[106.105248928,10.228260756],[106.105592251,10.229119062],[106.106021404,10.230020285],[106.105828285,10.231007338],[106.104240417,10.231930017],[106.103231907,10.232659578],[106.102845669,10.233582258],[106.102877855,10.234403014],[106.103231907,10.235127211]]},"properties":{"Tên kênh":"Kênh Cái Kè - rạch Phú Hội","Địa chỉ":"Từ Sông Cổ Chiên - Rạch Cái Nhum","Chiều dài":"7500m","Chiều rộng mặt":"40m","Bề rộng đáy":"38m","Phân cấp":null,"Năm xây dựng":null,"Tình trạng hoạt động":null,"Ghi chú":"F(tưới tiêu): 3596ha","layer_id":249,"fid":63,"label":"Kênh Cái Kè - rạch Phú Hội"}},{"type":"Feature","id":78,"geometry":{"type":"LineString","coordinates":[[106.071581841,10.09945035],[106.070916653,10.101081133],[106.070702076,10.102690458],[106.07057333,10.104085207],[106.070659161,10.10535121],[106.070144176,10.106939077],[106.06965065,10.107861757],[106.069307327,10.109320879],[106.068985462,10.110608339],[106.068105698,10.112282038],[106.067419052,10.113397837],[106.066389084,10.11447072],[106.065638065,10.114942789],[106.064994335,10.11511445],[106.064093113,10.114620924],[106.06347084,10.113612413],[106.062848568,10.113075972],[106.062569618,10.113440752],[106.062505245,10.114299059],[106.061925888,10.114535093],[106.060874462,10.114835501],[106.059951782,10.115500689],[106.059114933,10.116616488],[106.058707237,10.117710829],[106.05812788,10.118075609],[106.056990623,10.118097067],[106.055982113,10.118225813],[106.054694653,10.118225813],[106.054050922,10.117775202],[106.053171158,10.117796659],[106.052548885,10.117710829],[106.052098274,10.117281675],[106.05186224,10.117067099],[106.051282883,10.117152929],[106.050617695,10.117646456],[106.049888134,10.117946863],[106.049308777,10.118418932],[106.048707962,10.11908412],[106.047399044,10.1194489],[106.046090126,10.119577646],[106.045296192,10.119599104],[106.044695377,10.119341612],[106.044566631,10.119684935],[106.04475975,10.120135546],[106.044373512,10.120457411],[106.043665409,10.120543242],[106.043365002,10.121530294],[106.043128967,10.122689009],[106.042871475,10.123922825],[106.042399406,10.125038624],[106.041026115,10.125768185],[106.040468216,10.126497746],[106.039996147,10.128042698],[106.038708687,10.129544735],[106.038537025,10.131132603],[106.038579941,10.133750439],[106.038579941,10.135810375],[106.032786369,10.14516592]]},"properties":{"Tên kênh":"Kênh Ông Nam","Địa chỉ":"Từ sông Măng đến cầu Cống","Chiều dài":"7500m","Chiều rộng mặt":"9m","Bề rộng đáy":"3.5m","Phân cấp":null,"Năm xây dựng":null,"Tình trạng hoạt động":null,"Ghi chú":"F(tưới tiêu): 3000ha","layer_id":249,"fid":78,"label":"Kênh Ông Nam"}},{"type":"Feature","id":11,"geometry":{"type":"LineString","coordinates":[[106.014729738,10.194116235],[106.015244722,10.193451047],[106.01554513,10.19323647],[106.015802622,10.193408132],[106.016113758,10.194277167],[106.016585827,10.195307136],[106.017175913,10.196272731],[106.017519236,10.197045207],[106.018077135,10.197871327],[106.018710136,10.198751092],[106.01941824,10.199512839],[106.019976139,10.200371146],[106.020652056,10.201368928],[106.021478176,10.202602744],[106.02167666,10.203227699],[106.021971703,10.203876793],[106.022738697,10.204284913],[106.023635056,10.204342743],[106.024492861,10.204680082],[106.024984413,10.205547526],[106.025736197,10.206106545],[106.026456356,10.206668973],[106.027303934,10.207741857],[106.028269529,10.208707452],[106.029074192,10.209351182],[106.030404568,10.210037827],[106.031799316,10.211035609],[106.033022404,10.211722255],[106.033762693,10.212097764],[106.035113481,10.212292153],[106.036042722,10.212820131],[106.036655177,10.213348109],[106.037647776,10.213622658],[106.038365826,10.213770492],[106.039464021,10.214192874],[106.040414382,10.214361828],[106.041174671,10.214382947],[106.041892721,10.214573019],[106.043117631,10.215248831],[106.044617089,10.215924643],[106.046133041,10.216630697],[106.046369076,10.216888189],[106.046411991,10.218046904],[106.046476364,10.220407248],[106.046454906,10.22259593],[106.046197414,10.224076509],[106.046283245,10.225492716],[106.047141552,10.226608515],[106.04817152,10.228024721],[106.048536301,10.229247808],[106.048922539,10.230664015],[106.049630642,10.23255229],[106.049995422,10.234333277],[106.050231457,10.235899687],[106.050789356,10.237036943],[106.051819324,10.237981081],[106.052269936,10.238989592],[106.051969528,10.240234137],[106.052312851,10.241457224],[106.053514481,10.242272615]]},"properties":{"Tên kênh":"Rạch Cái Ngay - Vòi Voi","Địa chỉ":"Từ Sông Cổ Chiên - Sông Long Hồ  (huyện Mang Thít)","Chiều dài":"6500m","Chiều rộng mặt":"43m","Bề rộng đáy":null,"Phân cấp":"Cấp tỉnh quản lý","Năm xây dựng":null,"Tình trạng hoạt động":"Bình thường","Ghi chú":null,"layer_id":249,"fid":11,"label":"Rạch Cái Ngay - Vòi Voi"}},{"type":"Feature","id":22,"geometry":{"type":"LineString","coordinates":[[105.890564919,10.245051384],[105.890522003,10.245062113],[105.890876055,10.24554491],[105.891369581,10.246070623],[105.892270803,10.247046947],[105.892742872,10.247722864],[105.89266777,10.248135924],[105.89230299,10.248709917],[105.891868472,10.249058604],[105.890843868,10.250265598],[105.889985561,10.251563787],[105.889599323,10.252561569],[105.889341831,10.253548622],[105.888494253,10.255308151],[105.888086557,10.256005526],[105.888022184,10.257142782],[105.888043642,10.258687735],[105.888140202,10.259953737],[105.887904167,10.26039362],[105.887281895,10.260511637],[105.886659622,10.260490179],[105.886112452,10.260618925],[105.885618925,10.261262655],[105.885318518,10.261552334],[105.884824991,10.261670351],[105.883955956,10.261745453],[105.883247852,10.262067318],[105.882947445,10.26260376],[105.882775784,10.263515711],[105.882679224,10.264567137]]},"properties":{"Tên kênh":"Rạch Cái Da Lớn","Địa chỉ":"Từ QL1A đến ranh tỉnh Đồng Tháp","Chiều dài":"2600m","Chiều rộng mặt":"23.5m","Bề rộng đáy":"9m","Phân cấp":"Cấp tỉnh quản lý","Năm xây dựng":null,"Tình trạng hoạt động":"Bình thường","Ghi chú":"F (tưới tiêu): 1400 ha","layer_id":249,"fid":22,"label":"Rạch Cái Da Lớn"}},{"type":"Feature","id":10,"geometry":{"type":"LineString","coordinates":[[106.112823486,10.104696751],[106.113359928,10.105823278],[106.114561558,10.106316805],[106.116557121,10.106788874],[106.118295193,10.107625723],[106.119947433,10.108290911],[106.121449471,10.108934641],[106.122221947,10.109213591],[106.124238968,10.110028982],[106.125054359,10.110479593],[106.126019955,10.111144781],[106.126663685,10.111874342],[106.127758026,10.113161802],[106.128787994,10.114320517],[106.129667759,10.11511445],[106.130504608,10.1159513],[106.130826473,10.117110014],[106.131341457,10.117646456],[106.132349968,10.117367506],[106.132929325,10.117110014],[106.134785414,10.116214156],[106.135450602,10.115677714],[106.135890484,10.11534512],[106.136265993,10.115227103],[106.136684418,10.115248561],[106.137102842,10.115484595],[106.13748908,10.116117597],[106.137800217,10.117040277],[106.138089895,10.117630363],[106.138604879,10.118241906],[106.139237881,10.118681788],[106.139924526,10.118864179],[106.141029596,10.118789077],[106.141898632,10.118435025],[106.143701077,10.117539167],[106.144859791,10.116831064],[106.146211624,10.116273165],[106.147348881,10.116294622],[106.148293018,10.116788149],[106.149044037,10.117431879],[106.14975214,10.117925406],[106.150417328,10.118032694],[106.15095377,10.117367506],[106.151232719,10.116273165],[106.151404381,10.115506053],[106.15205884,10.11461556],[106.154129505,10.113360286],[106.155127287,10.112877488],[106.156350374,10.112105012],[106.157755852,10.11120379],[106.159236431,10.110903382],[106.160159111,10.111128688],[106.160674095,10.111340582],[106.161162257,10.111539066],[106.161559224,10.111539066],[106.161956191,10.111431777],[106.162691116,10.111182332],[106.163238287,10.110860467],[106.164354086,10.109959245],[106.164922714,10.109251142],[106.166059971,10.107899308],[106.166810989,10.107405782],[106.167508364,10.107169747],[106.168527603,10.107083917],[106.169418097,10.107169747],[106.170351505,10.107083917],[106.170812845,10.106813014],[106.171199083,10.106330216],[106.17151022,10.105648935],[106.171848178,10.104420483],[106.171832085,10.103873312],[106.17141366,10.102955997],[106.171150804,10.102596581],[106.1710006,10.102296174],[106.171040901,10.101985057],[106.171318464,10.101724317],[106.17162967,10.101530864],[106.172109095,10.101539275],[106.172571698,10.101598152],[106.173118412,10.101631796],[106.173480083,10.101614974],[106.174346413,10.101228069],[106.174911261,10.100882649],[106.175619364,10.100839734],[106.176359653,10.101268888],[106.176992655,10.101783872],[106.177604198,10.102084279],[106.178344488,10.102105737],[106.179546118,10.101901889],[106.180994511,10.101687312],[106.182174683,10.10152638],[106.182893515,10.10096848],[106.183183193,10.100260377],[106.183290482,10.099337697],[106.183623075,10.098565221],[106.184170246,10.098050237],[106.185361147,10.097814202],[106.1863482,10.097814202],[106.186863184,10.097857118],[106.187142134,10.09857595],[106.18717432,10.099412799],[106.186884642,10.100410581],[106.186830997,10.101022124],[106.187195778,10.101558566],[106.187925339,10.101719499],[106.18892312,10.101816058],[106.189427376,10.102137923],[106.190114021,10.102331042],[106.190736294,10.102277398],[106.191498041,10.101901889],[106.192313433,10.101075768],[106.193139553,10.100539327],[106.193976402,10.100120902],[106.195081472,10.09921968],[106.195725203,10.098693967],[106.196744442,10.098286271],[106.197752953,10.098339915],[106.198686361,10.098597407],[106.19943738,10.098854899],[106.200220585,10.098951459],[106.201821507,10.098988392],[106.203358675,10.099223237],[106.205130687,10.099714277],[106.206667855,10.09958618],[106.208738761,10.099265936],[106.211941194,10.098945693]]},"properties":{"Tên kênh":"Sông Vũng Liêm","Địa chỉ":"Từ sông Cổ Chiên  (huyện Vũng Liêm)","Chiều dài":"14750m","Chiều rộng mặt":"70m","Bề rộng đáy":null,"Phân cấp":"Cấp tỉnh quản lý","Năm xây dựng":null,"Tình trạng hoạt động":"Bình thường","Ghi chú":null,"layer_id":249,"fid":10,"label":"Sông Vũng Liêm"}},{"type":"Feature","id":19,"geometry":{"type":"LineString","coordinates":[[105.917987823,9.966155291],[105.919339657,9.967957735],[105.920004845,9.969588518],[105.919854641,9.971648455],[105.920069218,9.973386526],[105.920476913,9.974244833],[105.922064781,9.974931479],[105.923888683,9.975317717],[105.926163197,9.976004362],[105.928072929,9.976969957],[105.929918289,9.978214502],[105.930948257,9.979351759],[105.932235718,9.980274439],[105.933351517,9.980832338],[105.934081078,9.982227087],[105.935218334,9.984265566],[105.93682766,9.985789061],[105.938844681,9.987784624],[105.940239429,9.989243746],[105.943908691,9.991829395],[105.950989723,9.996850491],[105.955109596,10.000069141],[105.961761475,10.004886389],[105.965516567,10.007568598],[105.967748165,10.009177923],[105.980558395,10.018565655],[105.983133316,10.020582676],[105.984463692,10.023672581],[105.989742279,10.031096935],[105.996608734,10.041053295],[106.007509232,10.056846142],[106.016693115,10.070879459],[106.020812988,10.07723093],[106.024031639,10.080020428],[106.026563644,10.083067417],[106.028022766,10.08534193],[106.029138565,10.086371899],[106.030812263,10.086414814],[106.031713486,10.085427761],[106.032443047,10.083024502],[106.032743454,10.080192089],[106.03351593,10.077702999],[106.034889221,10.076243877],[106.036391258,10.076029301],[106.037635803,10.076758862],[106.038815975,10.078207254],[106.040661335,10.079709291],[106.042356491,10.080074072],[106.044802666,10.079666376],[106.046626568,10.079795122],[106.047742367,10.080524683],[106.049695015,10.082552433],[106.051797867,10.086457729],[106.052484512,10.089504719],[106.053214073,10.091650486],[106.054415703,10.092680454],[106.056647301,10.093023777],[106.059608459,10.092680454],[106.062569618,10.091907978],[106.065917015,10.091049671],[106.068320274,10.090738535],[106.069779396,10.091124773],[106.070702076,10.091811419],[106.071023941,10.093356371],[106.070530415,10.095051527],[106.070421145,10.096810894],[106.070515915,10.097900757],[106.071937476,10.098753693],[106.073809197,10.099535552],[106.075751996,10.100957112],[106.078362465,10.104224682],[106.081366539,10.108172894],[106.083898544,10.112807751],[106.08522892,10.114953518],[106.085014343,10.116670132],[106.083469391,10.117485523],[106.080508232,10.118172169],[106.078491211,10.119717121],[106.077804565,10.121948719],[106.077675819,10.124781132],[106.079349518,10.127398968],[106.082267761,10.128557682],[106.086688042,10.128257275],[106.090979576,10.127141476],[106.093597412,10.125296116],[106.095871925,10.123407841],[106.097974777,10.12267828],[106.100077629,10.123622417],[106.101579666,10.126111507],[106.103210449,10.130274296],[106.104240417,10.134394169],[106.104068756,10.137484074],[106.102910042,10.139629841],[106.099991798,10.141646862],[106.098704338,10.144307613],[106.09896183,10.147182941],[106.100243659,10.154655569],[106.101015325,10.161171862],[106.102387176,10.166745006],[106.104669571,10.170099735],[106.107802391,10.171387196],[106.11140728,10.171430111],[106.114583015,10.173318386],[106.117715836,10.175335407],[106.119604111,10.175764561],[106.122694016,10.173919201],[106.124839783,10.169026852],[106.126127243,10.165593624],[106.128444672,10.164005756],[106.133122444,10.162932873],[106.137371063,10.16194582],[106.141963005,10.161602497],[106.146383286,10.160443783],[106.148529053,10.158523321],[106.150567532,10.157107115],[106.152146748,10.156391733],[106.155414959,10.157622618],[106.158555838,10.160466386],[106.161866494,10.163267711],[106.165049816,10.165474815],[106.167851141,10.165389926],[106.169930912,10.162249047],[106.170652465,10.160975718]]},"properties":{"Tên kênh":"Sông Măng Thít ","Địa chỉ":"Từ sông Cổ Chiên - sông Hậu","Chiều dài":"40000m","Chiều rộng mặt":null,"Bề rộng đáy":null,"Phân cấp":"Cấp tỉnh quản lý","Năm xây dựng":null,"Tình trạng hoạt động":null,"Ghi chú":"","layer_id":249,"fid":19,"label":"Sông Măng Thít "}},{"type":"Feature","id":18,"geometry":{"type":"LineString","coordinates":[[106.112802029,9.938431978],[106.110677719,9.940427542],[106.107780933,9.943474531],[106.105678082,9.945620298],[106.102395058,9.948785305],[106.097245216,9.952347279],[106.086902618,9.959299564],[106.077976227,9.965350628],[106.070680618,9.970543385],[106.062097549,9.976905584],[106.060209274,9.978300333],[106.058020592,9.979351759],[106.057462692,9.980016947],[106.056518555,9.981132746],[106.055445671,9.981755018],[106.054501534,9.982607961],[106.053578854,9.98316586],[106.051926613,9.983831048],[106.050687432,9.984434545],[106.049829125,9.984831512],[106.049448252,9.985174835],[106.049319506,9.985636175],[106.049287319,9.986086786],[106.049319506,9.986456931],[106.049308777,9.987095296],[106.049153209,9.987545907],[106.048691869,9.98839885],[106.048434377,9.98876363],[106.047704816,9.989418089],[106.047222018,9.989927709],[106.046991348,9.990332723],[106.046444178,9.990761876],[106.045789719,9.991287589],[106.045360565,9.99155581],[106.044695377,9.991748929],[106.044083834,9.991942048],[106.043740511,9.992349744],[106.043504477,9.992800355],[106.043354273,9.993830323],[106.043204069,9.994366765],[106.042989492,9.994549155],[106.042689085,9.994613528],[106.042377949,9.994516969],[106.041820049,9.994334579],[106.041219234,9.994388223],[106.040650606,9.994774461],[106.039459705,9.996051192],[106.039073467,9.996458888],[106.038740873,9.997231364],[106.038601398,9.997971654],[106.038504839,9.998261333],[106.037882566,9.998626113],[106.037464142,9.998969436],[106.037142277,9.999559522],[106.036895514,10.000160336],[106.036627293,10.000471473],[106.036144495,10.000600219],[106.035779715,10.000385642],[106.03545785,10.000138879],[106.034932137,9.999827743],[106.034170389,9.999913573],[106.033526659,10.000203252],[106.031852961,10.001297593],[106.030490398,10.002209544],[106.029599905,10.002595782],[106.029235125,10.002745986],[106.028848886,10.002960563],[106.028709412,10.00326097],[106.02872014,10.003582835],[106.02886498,10.004100502],[106.02886498,10.004459918],[106.028693318,10.004653037],[106.028376818,10.004771054],[106.027379036,10.004813969],[106.025447845,10.004848838],[106.02439642,10.004687905],[106.023731232,10.004451871],[106.023312807,10.004333854],[106.022894382,10.004516244],[106.022701263,10.004988313],[106.022593975,10.005760789],[106.022400856,10.006243587],[106.021842957,10.006458163],[106.020866632,10.006619096],[106.020571532,10.006979868],[106.020298023,10.007825259],[106.020136404,10.008459303],[106.019564522,10.008732812],[106.018756427,10.008633354],[106.018308867,10.008148497],[106.017836442,10.007265809],[106.017475908,10.006830681],[106.016580787,10.006681494],[106.014633179,10.007139444],[106.014075279,10.007568598],[106.014053822,10.008555651],[106.014032364,10.009263754],[106.013302803,10.010014772],[106.011350155,10.011066198],[106.009043455,10.011919141],[106.005738974,10.01229465],[106.004017875,10.012659655],[106.002019411,10.01299982],[106.001041438,10.013892751],[106.000127247,10.015210887],[105.999340617,10.016465243],[105.998362645,10.016890448],[105.997209549,10.017095804],[105.995128155,10.016559362],[105.994119644,10.016473532],[105.99203825,10.017160177],[105.990407467,10.0175035],[105.989162922,10.017267466],[105.988433361,10.017283559],[105.988122225,10.018796325],[105.987961292,10.019885302],[105.986459255,10.020292997],[105.985236168,10.020142794],[105.984549522,10.01999259],[105.983862877,10.020250082]]},"properties":{"Tên kênh":"Kênh Trà Ngoa","Địa chỉ":"Từ sông Măng đến Ngã Chánh","Chiều dài":"14900m","Chiều rộng mặt":"40m","Bề rộng đáy":"16m","Phân cấp":"Cấp tỉnh quản lý","Năm xây dựng":null,"Tình trạng hoạt động":"Bình thường","Ghi chú":"F (tưới tiêu):4000ha","layer_id":249,"fid":18,"label":"Kênh Trà Ngoa"}},{"type":"Feature","id":24,"geometry":{"type":"LineString","coordinates":[[105.917580128,10.205397606],[105.918159485,10.205376148],[105.918931961,10.204968452],[105.920197964,10.204496384],[105.922086239,10.203831196],[105.923953056,10.203187466],[105.925648212,10.202565193],[105.927386284,10.201835632],[105.930991173,10.200462341],[105.932471752,10.199840069],[105.933930874,10.199368],[105.934832096,10.198981762],[105.936248302,10.198466778],[105.93839407,10.197694302],[105.940089226,10.197093487],[105.941655636,10.19659996],[105.943028927,10.196170807],[105.944638252,10.195752382],[105.947095156,10.19513011],[105.949144363,10.19457221],[105.953242779,10.193531513],[105.955109596,10.193016529],[105.956118107,10.192866325],[105.958092213,10.192415714],[105.959422588,10.192093849],[105.96060276,10.191922188],[105.960715413,10.192297697],[105.960999727,10.192753673],[105.961219668,10.193075538],[105.961310863,10.193252563],[105.961509347,10.193676353],[105.961662233,10.194046497],[105.961769521,10.194287896],[105.961984178,10.194814166],[105.962099296,10.195145129],[105.962287188,10.196095705],[105.962394476,10.196664333],[105.962394476,10.197383165],[105.962233543,10.198338032],[105.961997509,10.199271441],[105.962061882,10.199786425],[105.962330103,10.200580359],[105.962512493,10.201481581],[105.962576866,10.202050209],[105.962340832,10.202693939],[105.962212086,10.203219652],[105.962222815,10.204056501],[105.962147713,10.204764605],[105.962158442,10.205579996],[105.962147713,10.206266642],[105.962276459,10.20655632],[105.96254468,10.206674337],[105.963027477,10.206545591],[105.963821411,10.206352472],[105.964357853,10.20637393],[105.964722633,10.206491947],[105.964958668,10.206964016],[105.965269804,10.207242966],[105.966020823,10.207607746],[105.966331959,10.207961798],[105.966514349,10.20876646],[105.966696739,10.20968914],[105.967040062,10.210440159],[105.967952013,10.211040974],[105.968831778,10.211663246],[105.969400406,10.212317705],[105.969668627,10.212661028],[105.969958305,10.213476419],[105.969936848,10.214281082],[105.969872475,10.214678049],[105.970290899,10.214989185],[105.971170664,10.215300322],[105.972758532,10.215847492],[105.973166227,10.216072798],[105.973262787,10.216416121],[105.972973108,10.216856003],[105.972790718,10.217424631],[105.972876549,10.218003988],[105.973037481,10.218669176],[105.973069668,10.219613314],[105.973305702,10.220514536],[105.97380152,10.221515164],[105.974472356,10.222501686],[105.975182652,10.22398147],[105.975892948,10.225204758],[105.976481438,10.226082802],[105.976974964,10.226597786],[105.977779627,10.226994753],[105.978680849,10.22739172],[105.979217291,10.227735043],[105.979721546,10.227692127],[105.980290174,10.227166414],[105.981094837,10.225889683],[105.982393026,10.22379756],[105.982945561,10.222987533],[105.983321071,10.222848058],[105.983589292,10.223137736],[105.983884335,10.223733187],[105.984688997,10.224559307],[105.9853971,10.225535631],[105.986019373,10.226383209],[105.986942053,10.227091312],[105.987778902,10.227627754],[105.988701582,10.227831602],[105.989559889,10.227681398],[105.990246534,10.227928162],[105.990911722,10.228561163],[105.991748571,10.229119062],[105.992177725,10.229634047],[105.992252827,10.230202675],[105.992553234,10.231425762]]},"properties":{"Tên kênh":"R.Ông Me Lớn-R.Ông Me Nhỏ","Địa chỉ":"Từ sông Long Hồ đến giáp ranh Đồng Tháp","Chiều dài":"11800m","Chiều rộng mặt":"32.5m","Bề rộng đáy":"15m","Phân cấp":"Cấp tỉnh quản lý","Năm xây dựng":null,"Tình trạng hoạt động":"Bình thường","Ghi chú":"F (tưới tiêu):7000ha","layer_id":249,"fid":24,"label":"R.Ông Me Lớn-R.Ông Me Nhỏ"}},{"type":"Feature","id":45,"geometry":{"type":"LineString","coordinates":[[106.015577316,10.192887783],[106.015663147,10.192700028],[106.015995741,10.192678571],[106.016757488,10.192893147],[106.017680168,10.193107724],[106.019386053,10.193354487],[106.020845175,10.19315064],[106.021757126,10.192839503],[106.023066044,10.192678571],[106.023409367,10.192292333],[106.023269892,10.191755891],[106.023033857,10.191262364],[106.0230124,10.190736651],[106.023548841,10.190114379],[106.024471521,10.189492106],[106.025844812,10.18918097],[106.026799679,10.18899858],[106.027861834,10.188440681],[106.029052734,10.188204646],[106.030093431,10.18779695],[106.030930281,10.187078118],[106.03194952,10.186182261],[106.03250742,10.185431242],[106.033129692,10.18461585],[106.03323698,10.183950663],[106.032743454,10.183285475],[106.032550335,10.182555914],[106.032679081,10.181525946],[106.032668352,10.180748105],[106.032196283,10.1799649],[106.031810045,10.179149508],[106.031574011,10.178194642],[106.031101942,10.177271962],[106.030426025,10.176520944],[106.030361652,10.175238848],[106.030683517,10.174123049],[106.030426025,10.173157454],[106.029868126,10.171891451],[106.029632092,10.170904398],[106.02909565,10.169702768],[106.028580666,10.168458223],[106.028065681,10.16747117],[106.027443409,10.166033506],[106.026585102,10.164681673],[106.02604866,10.163834095],[106.027679443,10.16258955],[106.028752327,10.161913633],[106.032850742,10.158544779],[106.036777496,10.155411959],[106.037957668,10.154167414],[106.0409832,10.151635408],[106.044437885,10.148802996],[106.048021317,10.14580965],[106.05038166,10.14332056],[106.053385735,10.141131878],[106.055188179,10.139071941],[106.054973602,10.138041973],[106.054973602,10.137269497],[106.055960655,10.136497021],[106.059222221,10.13456583],[106.062097549,10.132849216],[106.06347084,10.132205486],[106.064372063,10.132033825],[106.065187454,10.132505894],[106.066174507,10.132248402],[106.06780529,10.130960941],[106.069350243,10.129544735],[106.071195602,10.128557682],[106.072568893,10.127484798],[106.0734272,10.126755238],[106.074929237,10.126669407],[106.076753139,10.124877691]]},"properties":{"Tên kênh":"Rạch Lung - Rạch Bà Phong","Địa chỉ":"Từ Sông Măng Thít - rạch Cái Sao","Chiều dài":"7250m","Chiều rộng mặt":"65m","Bề rộng đáy":"40m","Phân cấp":null,"Năm xây dựng":null,"Tình trạng hoạt động":null,"Ghi chú":"F(tưới tiêu): 5300ha","layer_id":249,"fid":45,"label":"Rạch Lung - Rạch Bà Phong"}},{"type":"Feature","id":25,"geometry":{"type":"LineString","coordinates":[[106.108446121,10.172610283],[106.108167171,10.17411232],[106.107888222,10.175421238],[106.107738018,10.17724514],[106.107845306,10.178768635],[106.108231544,10.179755688],[106.108467579,10.180399418],[106.108371019,10.180828571],[106.107695103,10.181525946],[106.106954813,10.182459354],[106.106536388,10.183221102],[106.105720997,10.184755325],[106.105055809,10.18591404],[106.103907824,10.187340975],[106.102212667,10.189830065],[106.100313663,10.191965103],[106.099777222,10.192855597],[106.099165678,10.194196701],[106.098543406,10.195065737],[106.09767437,10.196439028],[106.0960114,10.199142694],[106.095217466,10.200558901],[106.094005108,10.202243328],[106.092460155,10.204582214],[106.091065407,10.20619154],[106.089949608,10.207736492],[106.089756489,10.20812273],[106.089906693,10.208852291],[106.089788675,10.209120512],[106.089155674,10.209302902],[106.088726521,10.209656954],[106.088393927,10.210343599],[106.088114977,10.210922956],[106.087685823,10.211373568],[106.08707428,10.21171689],[106.08643055,10.212317705],[106.086092591,10.212585926],[106.085792184,10.21268785],[106.085577607,10.212762952],[106.085304022,10.213181376],[106.085073352,10.213750005],[106.084992886,10.213945806],[106.08476758,10.214104056],[106.084571779,10.214104056],[106.084311604,10.214039683],[106.084059477,10.214109421],[106.083823442,10.214602947],[106.083608866,10.214935541],[106.083394289,10.215107203],[106.082986593,10.21512866],[106.082659364,10.215117931],[106.08246088,10.215364695],[106.082015634,10.215713382],[106.081345081,10.215826035],[106.080787182,10.216040611],[106.080261469,10.21669507],[106.080079079,10.217317343],[106.079864502,10.217607021],[106.079413891,10.217961073],[106.078362465,10.218036175],[106.077075005,10.218100548],[106.07619524,10.218218565],[106.075819731,10.218422413],[106.075465679,10.218958855],[106.074982882,10.21909833],[106.074188948,10.219044685],[106.073566675,10.219012499],[106.072010994,10.219109058],[106.070653796,10.219071507],[106.06918931,10.219205618],[106.067966223,10.219441652],[106.067333221,10.219838619],[106.067247391,10.220353603],[106.067698002,10.22223115],[106.068620682,10.227541924],[106.069715023,10.232992172],[106.07020855,10.236103535],[106.070787907,10.238292217],[106.071259975,10.241017342]]},"properties":{"Tên kênh":"Kênh Thầy Cai-rạch Cái Nhum","Địa chỉ":"Từ sông Cổ Chiên - sông Măng Thít","Chiều dài":"10000m","Chiều rộng mặt":"46m","Bề rộng đáy":"40m","Phân cấp":"Cấp tỉnh quản lý","Năm xây dựng":null,"Tình trạng hoạt động":"Bình thường","Ghi chú":"F (tưới tiêu):5300ha","layer_id":249,"fid":25,"label":"Kênh Thầy Cai-rạch Cái Nhum"}},{"type":"Feature","id":38,"geometry":{"type":"LineString","coordinates":[[105.986609459,10.269191265],[105.985364914,10.271251202],[105.982918739,10.273010731],[105.980858803,10.274856091],[105.979571342,10.275928974],[105.97858429,10.276401043],[105.975794792,10.279448032],[105.972576141,10.282666683],[105.97055912,10.284769535],[105.967769623,10.286872387],[105.965108871,10.288374424],[105.963349342,10.289618969],[105.962104797,10.290262699],[105.960087776,10.291721821],[105.958714485,10.292708874],[105.956611633,10.293095112],[105.954165459,10.293352604],[105.952062607,10.293438435],[105.950474739,10.29292345],[105.949616432,10.292333364],[105.948629379,10.29181838],[105.94815731,10.291775465],[105.947685242,10.291517973],[105.946547985,10.29117465],[105.945925713,10.290766954],[105.944423676,10.289565325],[105.943157673,10.288277864],[105.942513943,10.287655592],[105.942277908,10.287054777],[105.941977501,10.286604166],[105.940979719,10.285751224],[105.939874649,10.284764171],[105.938286781,10.283583999],[105.93701005,10.28255403]]},"properties":{"Tên kênh":"sông Tức Nở + sông Hòa Ninh","Địa chỉ":"Từ Vàm Giang đến sông Tiền","Chiều dài":"5250m","Chiều rộng mặt":"60m","Bề rộng đáy":"30m","Phân cấp":null,"Năm xây dựng":null,"Tình trạng hoạt động":null,"Ghi chú":"F(tưới  tiêu): 1500ha","layer_id":249,"fid":38,"label":"sông Tức Nở + sông Hòa Ninh"}},{"type":"Feature","id":27,"geometry":{"type":"LineString","coordinates":[[106.112952232,9.938592911],[106.11582756,9.941725731],[106.119604111,9.946017265],[106.123123169,9.949879646],[106.123981476,9.950737953],[106.125226021,9.952626228],[106.127114296,9.95537281],[106.128530502,9.957261086],[106.129989624,9.958977699],[106.131792068,9.961724281],[106.132736206,9.969921112],[106.133594513,9.981164932],[106.132221222,9.983997345],[106.132478714,9.985284805],[106.13067627,9.991035461],[106.131298542,9.992451668],[106.131234169,9.993095398],[106.131813526,9.994060993],[106.134739247,10.003081889],[106.134739247,10.014663473],[106.134909564,10.023605137]]},"properties":{"Tên kênh":"Kênh Ngã Hậu","Địa chỉ":"Từ rạch Mây Tức - Kênh Trà Ngoa","Chiều dài":"10250m","Chiều rộng mặt":"25m","Bề rộng đáy":"16m","Phân cấp":"Cấp tỉnh quản lý","Năm xây dựng":null,"Tình trạng hoạt động":"Bình thường","Ghi chú":"F (tưới tiêu):3000ha","layer_id":249,"fid":27,"label":"Kênh Ngã Hậu"}},{"type":"Feature","id":28,"geometry":{"type":"LineString","coordinates":[[105.895371437,10.113515854],[105.895264149,10.112507343],[105.895414352,10.112013817],[105.896186829,10.112421513],[105.897667408,10.11272192],[105.899512768,10.113022327],[105.901229382,10.112936497],[105.902988911,10.112335682],[105.90474844,10.111219883],[105.906422138,10.10986805],[105.907924175,10.108194351],[105.908675194,10.107142925],[105.909490585,10.106391907],[105.910305977,10.106027126],[105.911250114,10.106048584],[105.913331509,10.106434822],[105.915734768,10.107250214],[105.917236805,10.107786655],[105.918223858,10.107808113],[105.91940403,10.107164383],[105.920906067,10.105769634],[105.922644138,10.103902817],[105.92410326,10.102980137],[105.926914215,10.102314949],[105.930132866,10.101499557],[105.932815075,10.100533962],[105.934789181,10.09963274],[105.937643051,10.097723007],[105.940089226,10.096049309],[105.942320824,10.094590187],[105.944509506,10.093688965],[105.945796967,10.093860626],[105.94686985,10.094590187],[105.949444771,10.09677887],[105.950946808,10.097379684],[105.953392982,10.097036362],[105.955367088,10.096092224],[105.957169533,10.094718933],[105.95811367,10.093860626],[105.958886147,10.093388557],[105.960087776,10.093345642],[105.96051693,10.09493351],[105.961675644,10.0974226],[105.963864326,10.100812912],[105.964593887,10.102958679],[105.964336395,10.106048584],[105.963606834,10.109825134],[105.963606834,10.111756325],[105.964765549,10.113859177],[105.966053009,10.114717484],[105.968885422,10.114202499],[105.97176075,10.112915039],[105.974164009,10.111713409],[105.975580215,10.111284256],[105.976996422,10.111327171],[105.980730057,10.11235714],[105.984334946,10.112743378],[105.986652374,10.112013817],[105.98991394,10.110340118],[105.991930962,10.108580589],[105.994634628,10.106735229],[105.999355316,10.104460716],[106.002960205,10.10184288],[106.006479263,10.099525452],[106.009011269,10.097208023],[106.010727882,10.094161034],[106.010084152,10.092186928],[106.008024216,10.090041161],[106.004805565,10.08682251],[106.003088951,10.08497715],[106.003260612,10.083603859],[106.003904343,10.082659721],[106.00549221,10.082230568],[106.007680893,10.082702637],[106.009998322,10.08368969],[106.011543274,10.084676743],[106.013646126,10.084547997],[106.015663147,10.08313179],[106.017336845,10.079698563],[106.01821661,10.078196526],[106.020448208,10.077295303]]},"properties":{"Tên kênh":"Sông Cái Ngang","Địa chỉ":"Từ Sông Măng đến cầu Ba Càng","Chiều dài":"20000m","Chiều rộng mặt":"45m","Bề rộng đáy":"11m","Phân cấp":"Cấp tỉnh quản lý","Năm xây dựng":null,"Tình trạng hoạt động":"Bình thường","Ghi chú":"F(tưới tiêu):13000ha","layer_id":249,"fid":28,"label":"Sông Cái Ngang"}},{"type":"Feature","id":40,"geometry":{"type":"LineString","coordinates":[[105.980257988,10.264459848],[105.979485512,10.265167952],[105.978133678,10.266047716],[105.97682476,10.267142057],[105.975880623,10.268536806],[105.975365639,10.268944502],[105.974743366,10.268837214],[105.974271297,10.268644094],[105.973756313,10.268386602],[105.973112583,10.268536806],[105.972640514,10.269159079],[105.972168446,10.269588232],[105.971353054,10.269759893],[105.970902443,10.26997447],[105.969979763,10.270489454],[105.969185829,10.270725489],[105.968434811,10.270746946],[105.9674263,10.270854235],[105.966396332,10.271347761],[105.965795517,10.27181983],[105.965023041,10.271905661],[105.964465141,10.272141695],[105.963917971,10.272715688],[105.963660479,10.273026824],[105.963177681,10.273295045],[105.962834358,10.273509622],[105.962566137,10.27361691],[105.962126255,10.274024606],[105.961718559,10.274174809],[105.961192846,10.274507403],[105.960570574,10.27490437],[105.960087776,10.275054574],[105.959562063,10.275333524],[105.958907604,10.275912881],[105.958510637,10.276116729],[105.958156586,10.276245475],[105.957823992,10.276524425],[105.957502127,10.276438594],[105.957330465,10.276320577],[105.956965685,10.276342034],[105.956246853,10.276374221],[105.955463648,10.276513696],[105.954487324,10.276739001],[105.953865051,10.27702868],[105.953425169,10.277221799],[105.95267415,10.277436376],[105.95194459,10.277736783],[105.951118469,10.27808547],[105.950431824,10.278514624],[105.949766636,10.2787292],[105.948543549,10.278879404],[105.94751358,10.279051065],[105.946569443,10.279394388],[105.945711136,10.279630423],[105.945239067,10.279802084],[105.944595337,10.279952288],[105.94373703,10.279759169],[105.943286419,10.279501677],[105.942127705,10.279394388],[105.94096899,10.279523134]]},"properties":{"Tên kênh":"Rạch Bà Vú - Ngã Tắc  Rạch Chùa","Địa chỉ":"Từ cầu Bà Vú đến sông Cổ Chiên","Chiều dài":"4361m","Chiều rộng mặt":"34m","Bề rộng đáy":"10m","Phân cấp":null,"Năm xây dựng":null,"Tình trạng hoạt động":null,"Ghi chú":"F(tưới tiêu): 1400ha","layer_id":249,"fid":40,"label":"Rạch Bà Vú - Ngã Tắc  Rạch Chùa"}},{"type":"Feature","id":29,"geometry":{"type":"LineString","coordinates":[[105.883376598,10.150369406],[105.883569717,10.151613951],[105.884106159,10.152772665],[105.884921551,10.154124498],[105.885286331,10.155154467],[105.88539362,10.156399012],[105.885457993,10.157965422],[105.885329247,10.159209967],[105.885608196,10.159982443],[105.886638165,10.160390139],[105.888676643,10.161999464],[105.889298916,10.162729025],[105.889663696,10.164381266],[105.889792442,10.166784525],[105.889728069,10.167578459],[105.889427662,10.168608427],[105.890049934,10.169187784],[105.890779495,10.16895175],[105.891551971,10.168415308],[105.892367363,10.168436766],[105.893526077,10.168887377],[105.894641876,10.168994665],[105.895349979,10.169337988],[105.89571476,10.169702768],[105.895779133,10.170475245],[105.895199776,10.171633959],[105.894255638,10.172985792],[105.89322567,10.173457861],[105.89165926,10.173887014],[105.890114307,10.173908472],[105.888333321,10.174509287],[105.887110233,10.175153017],[105.885844231,10.176161528],[105.885286331,10.176719427],[105.884513855,10.177170038],[105.884363651,10.178006887],[105.884535313,10.178521872],[105.885779858,10.179187059],[105.886895657,10.180066824],[105.887367725,10.18056035],[105.887131691,10.181311369],[105.886509418,10.182019472],[105.885264874,10.18268466],[105.884342194,10.183092356],[105.883934498,10.183800459],[105.884342194,10.184508562],[105.8852005,10.18517375],[105.885801315,10.185753107],[105.886058807,10.186954737]]},"properties":{"Tên kênh":"kênh Xã Tào Sóc Tro","Địa chỉ":"Từ rành Đồng Tháp- kênh Cườm Nga","Chiều dài":"6810m","Chiều rộng mặt":"32.5m","Bề rộng đáy":"20m","Phân cấp":"Cấp tỉnh quản lý","Năm xây dựng":null,"Tình trạng hoạt động":"Bình thường","Ghi chú":"F(tưới tiêu): 4400ha","layer_id":249,"fid":29,"label":"kênh Xã Tào Sóc Tro"}},{"type":"Feature","id":64,"geometry":{"type":"LineString","coordinates":[[106.093597412,10.041600466],[106.093404293,10.04211545],[106.092996597,10.042630434],[106.092717648,10.043896437],[106.092352867,10.04460454],[106.092224121,10.045398474],[106.091516018,10.047158003],[106.088833809,10.055129528],[106.085958481,10.063583851],[106.084971428,10.066373348],[106.084241867,10.067102909],[106.081194878,10.067489147],[106.077203751,10.068433285],[106.075143814,10.068819523],[106.074414253,10.069849491],[106.072053909,10.070664883],[106.068577766,10.071780682],[106.067461967,10.072510242],[106.06523037,10.073196888],[106.063771248,10.073711872],[106.062698364,10.075385571],[106.061882973,10.076458454],[106.059265137,10.076973438],[106.057806015,10.076673031],[106.054801941,10.077059269],[106.052913666,10.078389645],[106.050853729,10.078732967],[106.049180031,10.078904629],[106.048278809,10.079548359]]},"properties":{"Tên kênh":"kênh Cái cá - Ranh Tổng","Địa chỉ":"Từ sông Măng - Kênh Trà Ngoa","Chiều dài":"15500m","Chiều rộng mặt":"45m","Bề rộng đáy":"25m","Phân cấp":null,"Năm xây dựng":null,"Tình trạng hoạt động":null,"Ghi chú":"F(tưới tiêu): 5000ha","layer_id":249,"fid":64,"label":"kênh Cái cá - Ranh Tổng"}},{"type":"Feature","id":42,"geometry":{"type":"LineString","coordinates":[[105.69319725,10.155100822],[105.695471764,10.158040524],[105.698304176,10.161988735],[105.701093674,10.1663661],[105.704569817,10.171301365],[105.708904266,10.177438259],[105.713925362,10.184819698],[105.717487335,10.189840794],[105.721993446,10.196578503],[105.726263523,10.20259738],[105.727787018,10.204861164]]},"properties":{"Tên kênh":"Kênh Xã Hời","Địa chỉ":"Kênh Trà Mơn - ranh Đồng Tháp","Chiều dài":"8375m","Chiều rộng mặt":"15.5m","Bề rộng đáy":"13.5m","Phân cấp":null,"Năm xây dựng":null,"Tình trạng hoạt động":null,"Ghi chú":"F(tưới tiêu): 3000ha","layer_id":249,"fid":42,"label":"Kênh Xã Hời"}},{"type":"Feature","id":41,"geometry":{"type":"LineString","coordinates":[[105.975301266,10.269309282],[105.973198414,10.271755457],[105.970580578,10.274266005],[105.968027115,10.276755095],[105.964508057,10.279673338],[105.962512493,10.281153917],[105.960474014,10.282205343],[105.957684517,10.284329653],[105.956311226,10.284565687],[105.955216885,10.28435111],[105.953671932,10.28426528],[105.952920914,10.283943415],[105.953199863,10.283149481],[105.953156948,10.282527208],[105.952041149,10.281647444],[105.951890945,10.281089544],[105.952105522,10.280016661],[105.952513218,10.279115438],[105.953114033,10.278428793],[105.953543186,10.277833343],[105.953478813,10.277425647],[105.952663422,10.277103782],[105.952438116,10.276084542],[105.951826572,10.27527988]]},"properties":{"Tên kênh":"Rạch Cái Tài - Tức Nở","Địa chỉ":"Từ cầu Bà Vú đến cầu Tất Cát- Cầu Ngang","Chiều dài":"3900m","Chiều rộng mặt":"30m","Bề rộng đáy":null,"Phân cấp":null,"Năm xây dựng":null,"Tình trạng hoạt động":null,"Ghi chú":"F(tưới tiêu): 1000ha","layer_id":249,"fid":41,"label":"Rạch Cái Tài - Tức Nở"}},{"type":"Feature","id":44,"geometry":{"type":"LineString","coordinates":[[105.830183029,10.096478462],[105.831041336,10.096993446],[105.832328796,10.096628666],[105.834903717,10.095727444],[105.836491585,10.094997883],[105.837950706,10.094268322],[105.83902359,10.094139576],[105.839753151,10.094783306],[105.84031105,10.095641613],[105.841684341,10.096328259],[105.843315125,10.097572803],[105.845718384,10.10027647],[105.850439072,10.107035637],[105.854301453,10.11244297],[105.85773468,10.117592812],[105.858850479,10.119824409],[105.861167908,10.128321648],[105.862283707,10.136647224],[105.863142014,10.146861076],[105.863828659,10.15484333]]},"properties":{"Tên kênh":"Kênh Khoáng Tiết - kênh Mới","Địa chỉ":"Kênh Cái Vồn - ranh Đồng Tháp","Chiều dài":"8570m","Chiều rộng mặt":"27m","Bề rộng đáy":"20m","Phân cấp":null,"Năm xây dựng":null,"Tình trạng hoạt động":null,"Ghi chú":"F(tưới tiêu): 1400ha","layer_id":249,"fid":44,"label":"Kênh Khoáng Tiết - kênh Mới"}},{"type":"Feature","id":47,"geometry":{"type":"LineString","coordinates":[[105.937256813,10.242573023],[105.936012268,10.242830515],[105.934960842,10.242465734],[105.934188366,10.241822004],[105.932042599,10.241521597],[105.929768085,10.241543055],[105.927965641,10.241435766],[105.92659235,10.241800547],[105.925819874,10.2422297],[105.924124718,10.242658854],[105.922880173,10.242959261],[105.922236443,10.243667364],[105.922043324,10.244868994],[105.921700001,10.245383978],[105.920670033,10.245555639],[105.919961929,10.245727301],[105.91940403,10.246242285],[105.919425488,10.24720788],[105.919232368,10.247894526],[105.918889046,10.248838663],[105.918674469,10.249353647],[105.918717384,10.24997592],[105.918266773,10.250662565],[105.918223858,10.251199007],[105.919146538,10.251992941],[105.919554234,10.252143145],[105.919876099,10.251756907],[105.92069149,10.252228975],[105.921356678,10.253516436],[105.921871662,10.25434792],[105.921946764,10.254884362],[105.922086239,10.255533457],[105.922236443,10.256091356],[105.922622681,10.256327391],[105.923094749,10.255898237],[105.923566818,10.255898237],[105.923888683,10.25652051],[105.924425125,10.258462429],[105.925111771,10.259535313],[105.926098824,10.258977413],[105.926141739,10.257818699],[105.927386284,10.257518291],[105.929017067,10.257861614],[105.929746628,10.25863409],[105.931334496,10.258290768],[105.932321548,10.258462429],[105.932106972,10.26039362],[105.931506157,10.261337757],[105.930476189,10.262067318],[105.928888321,10.261166096],[105.928330421,10.262067318],[105.929145813,10.263226032],[105.930132866,10.263569355],[105.930390358,10.26417017],[105.931334496,10.264180899],[105.931892395,10.26463151],[105.932364464,10.265403986],[105.933072567,10.265811682],[105.933823586,10.265790224],[105.935368538,10.265232325],[105.935776234,10.265318155],[105.93526125,10.26619792],[105.934681892,10.267163515],[105.934402943,10.268365145],[105.934381485,10.26933074],[105.93526125,10.270360708],[105.935776234,10.270875692],[105.936419964,10.270918608],[105.936934948,10.270940065],[105.937407017,10.270575285],[105.937943459,10.270274878],[105.938436985,10.269995928],[105.938866138,10.270403624]]},"properties":{"Tên kênh":"Rạch Cái Côn đến rạch Bà Điểu","Địa chỉ":"Từ Vàm Xếp Ông Thiệt đến  sông Cái Cam","Chiều dài":"7300m","Chiều rộng mặt":"25m","Bề rộng đáy":"10m","Phân cấp":null,"Năm xây dựng":null,"Tình trạng hoạt động":null,"Ghi chú":"F(tưới tiêu): 800ha","layer_id":249,"fid":47,"label":"Rạch Cái Côn đến rạch Bà Điểu"}},{"type":"Feature","id":65,"geometry":{"type":"LineString","coordinates":[[106.098060608,9.998545647],[106.082954407,9.963183403]]},"properties":{"Tên kênh":"Kênh Ngã Chánh","Địa chỉ":"Từ sông Vũng Liêm đến K.Trà Ngoa","Chiều dài":"8750m","Chiều rộng mặt":"30m","Bề rộng đáy":"20m","Phân cấp":null,"Năm xây dựng":null,"Tình trạng hoạt động":null,"Ghi chú":"F(tưới tiêu): 2500ha","layer_id":249,"fid":65,"label":"Kênh Ngã Chánh"}},{"type":"Feature","id":66,"geometry":{"type":"LineString","coordinates":[[106.134624481,10.023565292],[106.151103973,10.017385483],[106.178741455,10.02322197],[106.185779572,10.024938583],[106.18938446,10.025625229],[106.190414429,10.026268959],[106.192302704,10.024981499],[106.194448471,10.024809837],[106.195392609,10.023436546],[106.196422577,10.020089149],[106.197967529,10.017256737],[106.198396683,10.014853477],[106.20054245,10.013051033],[106.202688217,10.010561943],[106.204662323,10.009446144],[106.205778122,10.010561943],[106.207923889,10.011849403],[106.208267212,10.010476112],[106.210241318,10.009016991],[106.212472916,10.010819435],[106.214017868,10.01262188],[106.214962006,10.014424324],[106.218824387,10.015025139],[106.222085953,10.014681816],[106.223802567,10.01768589],[106.227064133,10.019145012],[106.230583191,10.020947456],[106.232471466,10.023608208],[106.231613159,10.027298927],[106.231355667,10.032963753],[106.231184006,10.041804314]]},"properties":{"Tên kênh":"Rạch Mây Tức","Địa chỉ":"Từ rạch Giồng Tròn","Chiều dài":"9100m","Chiều rộng mặt":"35m","Bề rộng đáy":"25m","Phân cấp":null,"Năm xây dựng":null,"Tình trạng hoạt động":null,"Ghi chú":"F(tưới tiêu): 2700ha","layer_id":249,"fid":66,"label":"Rạch Mây Tức"}},{"type":"Feature","id":68,"geometry":{"type":"LineString","coordinates":[[105.965237617,10.115125179],[105.965409279,10.115125179],[105.964379311,10.116884708],[105.963692665,10.117614269],[105.963048935,10.119030476],[105.962791443,10.120060444],[105.961933136,10.120747089],[105.961461067,10.121262074],[105.961289406,10.122506618],[105.96051693,10.124008656],[105.960216522,10.125381947],[105.961589813,10.127184391],[105.962276459,10.127913952],[105.962834358,10.129458904],[105.963864326,10.130617619],[105.964422226,10.131400824],[105.965087414,10.134876966],[105.965816975,10.138117075],[105.96613884,10.139415264],[105.966181755,10.14018774],[105.967082977,10.141346455],[105.968112946,10.142719746],[105.968756676,10.143620968],[105.969400406,10.146024227],[105.970001221,10.147912502],[105.970258713,10.151002407],[105.970129967,10.152719021],[105.970945358,10.15383482],[105.971632004,10.155079365],[105.971803665,10.156366825],[105.972704887,10.157268047]]},"properties":{"Tên kênh":"Kênh Giáp Nước","Địa chỉ":"Từ kênh Cái Ngang đến ranh  Long Hồ","Chiều dài":"5000m","Chiều rộng mặt":"38m","Bề rộng đáy":"8m","Phân cấp":null,"Năm xây dựng":null,"Tình trạng hoạt động":null,"Ghi chú":"F(tưới tiêu): 2800ha","layer_id":249,"fid":68,"label":"Kênh Giáp Nước"}},{"type":"Feature","id":69,"geometry":{"type":"LineString","coordinates":[[106.012165546,10.194786787],[106.010062695,10.193413496],[106.008839607,10.19291997],[106.006479263,10.192383528],[106.003346443,10.191804171],[106.001543999,10.191739798],[106.000213623,10.192018747],[105.999162197,10.191503763],[105.998346806,10.191332102],[105.996630192,10.191310644],[105.995857716,10.190774202],[105.994312763,10.188134909],[105.993411541,10.186504126],[105.992596149,10.185602903],[105.991265774,10.185023546],[105.988991261,10.184551477],[105.987510681,10.184143782],[105.986845493,10.183414221],[105.986759663,10.18176198],[105.986244678,10.180495977],[105.984463692,10.179444551],[105.982961655,10.179337263],[105.982339382,10.178328753],[105.981481075,10.176397562],[105.981416702,10.175367594],[105.981824398,10.17365098],[105.980901718,10.171891451],[105.979828835,10.17079711],[105.978734493,10.168930292],[105.978326797,10.166848898],[105.977983475,10.165046453],[105.97710371,10.162643194],[105.976481438,10.161119699],[105.975580215,10.160433054],[105.974442959,10.16019702],[105.973584652,10.159295797],[105.973176956,10.158244371],[105.972822905,10.157412887]]},"properties":{"Tên kênh":"Rạch Cái Cao","Địa chỉ":"Từ sông Long Hồ đến k.Ông Vệ","Chiều dài":"7620m","Chiều rộng mặt":"28m","Bề rộng đáy":"18m","Phân cấp":null,"Năm xây dựng":null,"Tình trạng hoạt động":null,"Ghi chú":"F(tưới tiêu): 5400ha","layer_id":249,"fid":69,"label":"Rạch Cái Cao"}},{"type":"Feature","id":70,"geometry":{"type":"LineString","coordinates":[[105.913009644,10.146346092],[105.91137886,10.142054558],[105.909490585,10.136218071],[105.907430649,10.130639076],[105.905284882,10.126605034],[105.902109146,10.121798515],[105.899105072,10.117678642],[105.898332596,10.11585474],[105.897259712,10.114352703],[105.896143913,10.114266872],[105.895543098,10.114223957]]},"properties":{"Tên kênh":"Kênh Đội Hổ - Bảo Kê","Địa chỉ":"Từ Ranh phường 8 - rạch ông Me Nhỏ","Chiều dài":"21000m","Chiều rộng mặt":"","Bề rộng đáy":"","Phân cấp":null,"Năm xây dựng":null,"Tình trạng hoạt động":null,"Ghi chú":"Diện tích bảo vệ: 2000ha","layer_id":249,"fid":70,"label":"Kênh Đội Hổ - Bảo Kê"}},{"type":"Feature","id":73,"geometry":{"type":"LineString","coordinates":[[105.883355141,10.150272846],[105.883355141,10.148127079],[105.883698463,10.146582127],[105.885372162,10.145380497],[105.887088776,10.143964291],[105.888118744,10.1420331],[105.887861252,10.140874386],[105.886230469,10.14010191],[105.885543823,10.138514042],[105.884771347,10.136754513],[105.884728432,10.135552883],[105.886316299,10.134694576],[105.888290405,10.133321285],[105.889792442,10.131733418],[105.89009285,10.129716396],[105.889620781,10.125982761],[105.889492035,10.124137402],[105.890135765,10.123107433],[105.89202404,10.121905804],[105.893955231,10.120403767],[105.895586014,10.118601322],[105.895757675,10.115768909],[105.895028114,10.110447407],[105.89322567,10.107915401],[105.89138031,10.107057095],[105.88944912,10.106284618],[105.887861252,10.105297565],[105.887303352,10.104353428],[105.887775421,10.102035999],[105.887904167,10.100662708],[105.886445045,10.099418163],[105.885672569,10.097744465],[105.885500908,10.09594202],[105.885844231,10.093495846],[105.885972977,10.092079639],[105.886144638,10.089547634],[105.886251926,10.087198019],[105.886487961,10.085331202],[105.886294842,10.083957911],[105.885651112,10.083142519],[105.884578228,10.082713366],[105.884363651,10.082412958],[105.885136127,10.081533194],[105.885822773,10.080653429],[105.886702538,10.079505444],[105.887303352,10.076372623],[105.888118744,10.073583126],[105.888376236,10.071780682],[105.889663696,10.068690777],[105.891809464,10.063605309],[105.89258194,10.062146187],[105.895929337,10.061116219],[105.897388458,10.057082176],[105.899362564,10.051245689]]},"properties":{"Tên kênh":"Sông Ba Càng + Kênh Chà Và ","Địa chỉ":"Từ sông Măng đến ranh Long Hồ","Chiều dài":"20685m","Chiều rộng mặt":"40m","Bề rộng đáy":"15m","Phân cấp":null,"Năm xây dựng":null,"Tình trạng hoạt động":null,"Ghi chú":"F(tưới tiêu): 10500ha","layer_id":249,"fid":73,"label":"Sông Ba Càng + Kênh Chà Và "}},{"type":"Feature","id":72,"geometry":{"type":"LineString","coordinates":[[105.939660072,9.990155697],[105.939745903,9.991400242],[105.940432549,9.992344379],[105.940303802,9.993374348],[105.939917564,9.994189739],[105.940175056,9.994790554],[105.941548347,9.9954772],[105.942234993,9.996292591],[105.9425354,9.99740839],[105.943136215,9.998524189],[105.943565369,9.99925375],[105.943951607,10.000326633],[105.944466591,10.001227856],[105.944724083,10.002601147],[105.946011543,10.004274845],[105.947384834,10.005304813],[105.948886871,10.005905628],[105.950260162,10.00607729],[105.95056057,10.007321835],[105.950689316,10.009124279],[105.950131416,10.010583401],[105.949831009,10.011742115],[105.950303078,10.012385845],[105.951590538,10.013072491],[105.951504707,10.014059544],[105.950388908,10.015046597],[105.949702263,10.016806126],[105.947299004,10.025174618],[105.946526527,10.027019978],[105.945839882,10.027577877],[105.945239067,10.02800703],[105.945239067,10.028822422],[105.944337845,10.029680729],[105.943350792,10.030581951],[105.942921638,10.031998158],[105.943007469,10.033500195],[105.942578316,10.035517216],[105.941720009,10.038650036],[105.938243866,10.054249763],[105.938072205,10.055730343],[105.936355591,10.057060719]]},"properties":{"Tên kênh":"Kênh Ba Phố + Tổng Hưng","Địa chỉ":"Từ sông Măng đến kênh Bình Phú","Chiều dài":"8870m","Chiều rộng mặt":"35m","Bề rộng đáy":"8m","Phân cấp":null,"Năm xây dựng":null,"Tình trạng hoạt động":null,"Ghi chú":"F(tưới tiêu): 5000ha","layer_id":249,"fid":72,"label":"Kênh Ba Phố + Tổng Hưng"}},{"type":"Feature","id":74,"geometry":{"type":"LineString","coordinates":[[105.758686066,10.101006031],[105.761625767,10.104492903],[105.76362133,10.107046366],[105.764436722,10.108462572],[105.765058994,10.109556913],[105.765788555,10.109943151],[105.766367912,10.110200644],[105.766947269,10.111123323],[105.767977238,10.112174749],[105.769135952,10.113097429],[105.76980114,10.113655329],[105.770637989,10.11530757],[105.771152973,10.115886927],[105.772118568,10.11687398],[105.772612095,10.117560625],[105.773427486,10.118139982],[105.77357769,10.122023821],[105.77357769,10.124748945],[105.773921013,10.138224363],[105.774092674,10.142601728],[105.774371624,10.152386427],[105.774435997,10.155433416],[105.774586201,10.165218115],[105.774607658,10.168737173],[105.774929523,10.188778639]]},"properties":{"Tên kênh":"Kênh Chú Bèn - Câu Dụng","Địa chỉ":"Kênh Trà Mơn - ranh Đồng Tháp","Chiều dài":"10125m","Chiều rộng mặt":"37m","Bề rộng đáy":"32m","Phân cấp":null,"Năm xây dựng":null,"Tình trạng hoạt động":null,"Ghi chú":"F(tưới tiêu): 1500ha","layer_id":249,"fid":74,"label":"Kênh Chú Bèn - Câu Dụng"}},{"type":"Feature","id":75,"geometry":{"type":"LineString","coordinates":[[105.755295753,10.101917982],[105.754137039,10.103999376],[105.752806664,10.106188059],[105.751819611,10.107518435],[105.750403404,10.108505487],[105.749373436,10.109428167],[105.748536587,10.110350847],[105.747592449,10.11161685],[105.747506618,10.112668276],[105.746498108,10.113934278],[105.745124817,10.11567235],[105.744373798,10.116616488],[105.74426651,10.117110014],[105.744867325,10.117839575],[105.745682716,10.118612051],[105.746583939,10.119212866],[105.747528076,10.119813681],[105.748064518,10.120457411],[105.749008656,10.122817755],[105.749716759,10.124341249],[105.75209856,10.128396749],[105.753901005,10.132087469],[105.755703449,10.135005713],[105.757548809,10.137923956],[105.759029388,10.140370131],[105.761582851,10.14526248],[105.762784481,10.147644281],[105.767118931,10.155884027],[105.769135952,10.159617662],[105.774435997,10.170614719]]},"properties":{"Tên kênh":"Kênh Bờ Dòng - Mười Thới","Địa chỉ":"Kênh Trà Mơn - kênh 30/4","Chiều dài":"9875m","Chiều rộng mặt":"42m","Bề rộng đáy":"37m","Phân cấp":null,"Năm xây dựng":null,"Tình trạng hoạt động":null,"Ghi chú":"F(tưới tiêu): 2800ha","layer_id":249,"fid":75,"label":"Kênh Bờ Dòng - Mười Thới"}},{"type":"Feature","id":55,"geometry":{"type":"LineString","coordinates":[[105.80288887,10.052790642],[105.803060532,10.054335594],[105.802373886,10.056052208],[105.802545547,10.058283806],[105.802373886,10.061116219],[105.804347992,10.062232018],[105.806837082,10.062232018],[105.809841156,10.061116219],[105.8122015,10.060279369],[105.813188553,10.059034824],[105.814390182,10.05787611],[105.815291405,10.057575703],[105.816836357,10.059421062],[105.81838131,10.061137676],[105.820355415,10.062510967],[105.822329521,10.063583851],[105.822844505,10.063841343],[105.823359489,10.064957142],[105.823316574,10.066244602],[105.823574066,10.067660809],[105.824561119,10.068218708],[105.826749802,10.068948269],[105.827007294,10.069978237],[105.82657814,10.071866512],[105.826835632,10.072982311],[105.828380585,10.074570179],[105.829925537,10.076973438],[105.831298828,10.079548359],[105.83147049,10.08092165],[105.83026886,10.082809925],[105.828638077,10.084269047],[105.827350616,10.085556507],[105.82722187,10.086629391],[105.827865601,10.087702274],[105.8289814,10.08838892],[105.830097198,10.089204311],[105.829882622,10.090663433],[105.829110146,10.092122555],[105.828766823,10.093839169],[105.829668045,10.096328259],[105.830097198,10.097100735],[105.829882622,10.098173618],[105.82971096,10.099246502],[105.829925537,10.099933147],[105.830655098,10.101091862],[105.830354691,10.102078915],[105.829324722,10.102508068],[105.827565193,10.102679729],[105.826449394,10.103151798],[105.826449394,10.104267597],[105.827736855,10.106112957],[105.829367638,10.108001232],[105.830569267,10.109374523],[105.831384659,10.110522509],[105.831406116,10.111552477],[105.830955505,10.112689734],[105.830419064,10.11382699],[105.830698013,10.114685297],[105.831534863,10.11530757],[105.831749439,10.115972757],[105.831406116,10.116745234],[105.83054781,10.117925406],[105.830397606,10.118848085],[105.83091259,10.119577646],[105.830719471,10.120199919],[105.829818249,10.120607615],[105.828595161,10.120564699],[105.827822685,10.120564699],[105.827178955,10.121465921],[105.826921463,10.123740435],[105.827350616,10.126669407],[105.82722187,10.128514767],[105.826964378,10.129330158],[105.825848579,10.128986835],[105.824518204,10.129201412],[105.824131966,10.131175518],[105.822887421,10.133149624],[105.821857452,10.133761168],[105.821063519,10.134705305],[105.820140839,10.135370493],[105.818123817,10.135713816],[105.816771984,10.136142969],[105.816600323,10.137258768],[105.816493034,10.138385296],[105.81597805,10.139114857],[105.814433098,10.139114857],[105.813574791,10.140144825],[105.811429024,10.142633915],[105.801258087,10.155529976]]},"properties":{"Tên kênh":"Kênh Vàm Tắt - Cái Vồn -  Tầm Vu","Địa chỉ":"Từ sông Hậu - Mười Thới","Chiều dài":"20500m","Chiều rộng mặt":"46m","Bề rộng đáy":"34m","Phân cấp":null,"Năm xây dựng":null,"Tình trạng hoạt động":null,"Ghi chú":"F(tưới tiêu): 4200ha","layer_id":249,"fid":55,"label":"Kênh Vàm Tắt - Cái Vồn -  Tầm Vu"}},{"type":"Feature","id":56,"geometry":{"type":"LineString","coordinates":[[105.822758675,10.063111782],[105.824475288,10.058948994],[105.825805664,10.05603075],[105.826363564,10.053970814],[105.82777977,10.049936771],[105.828380585,10.048263073],[105.8284235,10.044658184],[105.829453468,10.042126179],[105.83211422,10.038650036],[105.833144188,10.034315586],[105.833873749,10.031011105],[105.834646225,10.028822422],[105.836834908,10.0273633],[105.839066505,10.025732517],[105.840783119,10.022685528],[105.84207058,10.019938946],[105.844259262,10.018136501],[105.845890045,10.016334057],[105.848164558,10.013372898],[105.850224495,10.010883808],[105.852928162,10.009424686],[105.854258537,10.007836819],[105.854172707,10.005862713],[105.854558945,10.004274845],[105.855588913,10.003974438],[105.858206749,10.00487566],[105.860095024,10.005004406],[105.861682892,10.004661083],[105.863571167,10.003159046],[105.865502357,10.001828671],[105.868206024,10.000712872],[105.87146759,9.999232292],[105.872926712,9.996399879],[105.874300003,9.992880821],[105.874943733,9.992011786],[105.875909328,9.991561174],[105.882411003,9.990327358]]},"properties":{"Tên kênh":"Kênh Cái Vồn","Địa chỉ":"Từ ngã ba Vàm Tắt Chà Và - ranh Tam Bình","Chiều dài":"12250m","Chiều rộng mặt":"75m","Bề rộng đáy":"45m","Phân cấp":null,"Năm xây dựng":null,"Tình trạng hoạt động":null,"Ghi chú":"F(tưới tiêu): 6000ha","layer_id":249,"fid":56,"label":"Kênh Cái Vồn"}},{"type":"Feature","id":58,"geometry":{"type":"LineString","coordinates":[[105.854387283,10.078196526],[105.858507156,10.067381859],[105.862627029,10.05751133],[105.864944458,10.053048134],[105.868034363,10.047125816],[105.874643326,10.038542747],[105.878677368,10.036139488],[105.884342194,10.032362938],[105.893096924,10.029273033]]},"properties":{"Tên kênh":"Kênh Phó Chất - Giáo Mẹo","Địa chỉ":"Kênh Chà Và - ranh Tam Bình","Chiều dài":"7250m","Chiều rộng mặt":"26m","Bề rộng đáy":"21m","Phân cấp":null,"Năm xây dựng":null,"Tình trạng hoạt động":null,"Ghi chú":"F(tưới tiêu):  2000ha","layer_id":249,"fid":58,"label":"Kênh Phó Chất - Giáo Mẹo"}},{"type":"Feature","id":57,"geometry":{"type":"LineString","coordinates":[[105.795550346,10.061824322],[105.795636177,10.066040754],[105.795764923,10.069688559],[105.795893669,10.07271409],[105.796129704,10.08331418],[105.79662323,10.096070766],[105.796923637,10.106413364],[105.79791069,10.138020515],[105.798683167,10.159134865]]},"properties":{"Tên kênh":"Kênh Hai Quí - Từ Tải","Địa chỉ":"Sông Hậu - ranh Đồng Tháp","Chiều dài":"10750m","Chiều rộng mặt":"30m","Bề rộng đáy":"25m","Phân cấp":null,"Năm xây dựng":null,"Tình trạng hoạt động":null,"Ghi chú":"F(tưới tiêu): 3000ha","layer_id":249,"fid":57,"label":"Kênh Hai Quí - Từ Tải"}},{"type":"Feature","id":76,"geometry":{"type":"LineString","coordinates":[[105.705471039,10.127806664],[105.702981949,10.129609108],[105.701265335,10.130553246],[105.698347092,10.131840706],[105.69560051,10.133299828],[105.69190979,10.136067867],[105.689806938,10.137312412],[105.68821907,10.138041973],[105.687017441,10.13890028],[105.68500042,10.141303539]]},"properties":{"Tên kênh":"Kênh Sông Sép","Địa chỉ":"Sông Hậu - ranh Đồng Tháp","Chiều dài":"3250m","Chiều rộng mặt":"42m","Bề rộng đáy":"37m","Phân cấp":null,"Năm xây dựng":null,"Tình trạng hoạt động":null,"Ghi chú":"F(tưới tiêu): 2000ha","layer_id":249,"fid":76,"label":"Kênh Sông Sép"}},{"type":"Feature","id":77,"geometry":{"type":"LineString","coordinates":[[105.905134678,9.940234423],[105.906164646,9.941371679],[105.904383659,9.942466021],[105.902473927,9.943603277],[105.901143551,9.944504499],[105.899233818,9.945985079],[105.897839069,9.947208166],[105.896508694,9.948452711],[105.893354416,9.950448275],[105.890693665,9.952207804],[105.888783932,9.953645468],[105.88455677,9.957250357],[105.883033276,9.958451986],[105.882475376,9.958838224],[105.882260799,9.958258867],[105.880801678,9.958494902],[105.879127979,9.958988428],[105.87857008,9.959117174],[105.878248215,9.958838224],[105.875938307,9.959352543],[105.875013034,9.959198331]]},"properties":{"Tên kênh":"Kênh Mái Dầm","Địa chỉ":"Từ sông Hậu","Chiều dài":"3900m","Chiều rộng mặt":"40m","Bề rộng đáy":"25m","Phân cấp":null,"Năm xây dựng":null,"Tình trạng hoạt động":null,"Ghi chú":"F(tưới tiêu): 1200ha","layer_id":249,"fid":77,"label":"Kênh Mái Dầm"}},{"type":"Feature","id":80,"geometry":{"type":"LineString","coordinates":[[105.913095474,10.146431923],[105.914254189,10.14977932],[105.915498734,10.153126717],[105.917859077,10.157804489],[105.920562744,10.1623106],[105.921850204,10.165786743],[105.924038887,10.172224045],[105.924897194,10.173425674],[105.928630829,10.179047585],[105.937128067,10.191793442],[105.93931675,10.195226669],[105.940454006,10.196889639]]},"properties":{"Tên kênh":"Kênh Đội Hổ - Bảo Kê","Địa chỉ":"Từ ranh phường 8 - rạch ông Me Nhỏ","Chiều dài":"21000m","Chiều rộng mặt":null,"Bề rộng đáy":null,"Phân cấp":null,"Năm xây dựng":null,"Tình trạng hoạt động":null,"Ghi chú":"Diện tích bảo vệ: 2000ha","layer_id":249,"fid":80,"label":"Kênh Đội Hổ - Bảo Kê"}},{"type":"Feature","id":20,"geometry":{"type":"LineString","coordinates":[[105.967404842,10.256348848],[105.967962742,10.255275965],[105.968134403,10.254846811],[105.968306065,10.253881216],[105.968466997,10.253586173],[105.968971252,10.252920985],[105.969099998,10.252502561],[105.968949795,10.252127051],[105.968391895,10.251923203],[105.968016386,10.25167644],[105.967662334,10.251258016],[105.967286825,10.250871778],[105.966954231,10.250646472],[105.966417789,10.250528455],[105.9656775,10.250496268],[105.965173244,10.250303149],[105.964915752,10.249981284],[105.965173244,10.24936974],[105.965387821,10.248747468],[105.965355635,10.248028636],[105.965366364,10.246773362],[105.965645313,10.245496631],[105.965698957,10.244659781],[105.965516567,10.244048238],[105.965055227,10.243501067],[105.964819193,10.242932439],[105.964593887,10.242406726],[105.964347124,10.242041945],[105.96309185,10.24153769],[105.96198678,10.241526961],[105.961471796,10.241162181],[105.961289406,10.24043262],[105.961225033,10.239585042],[105.961042643,10.238823295],[105.960790515,10.23815006],[105.960377455,10.237071812],[105.960339904,10.236347616],[105.960275531,10.234963596],[105.960114598,10.234148204],[105.960050225,10.233778059],[105.959744453,10.233440101],[105.959347486,10.23296535],[105.958349705,10.232396722],[105.95774889,10.231967568],[105.957212448,10.230991244],[105.956697464,10.229982734],[105.95600009,10.229038596],[105.955731869,10.228491426],[105.955528021,10.227922797],[105.955570936,10.227000117],[105.955549479,10.226077437],[105.955270529,10.225519538],[105.954755545,10.224822164],[105.953199863,10.22356689],[105.952459574,10.222633481],[105.952202082,10.221882463],[105.951783657,10.220702291],[105.951579809,10.219811797],[105.950582027,10.216888189],[105.94963789,10.214549303],[105.949466228,10.213519335],[105.949337482,10.212875605],[105.948243141,10.209742785],[105.946784019,10.206052065],[105.945646763,10.202795863],[105.944863558,10.200639367],[105.942792892,10.196267366]]},"properties":{"Tên kênh":"Kênh Đội Hổ-Bảo Kê","Địa chỉ":"Từ ranh phường 8 đến Rạch Ông Me nhỏ","Chiều dài":"21000m","Chiều rộng mặt":"","Bề rộng đáy":"","Phân cấp":"Cấp tỉnh quản lý","Năm xây dựng":null,"Tình trạng hoạt động":"Bình thường","Ghi chú":"Diện tích bảo vệ: 2000ha","layer_id":249,"fid":20,"label":"Kênh Đội Hổ-Bảo Kê"}},{"type":"Feature","id":62,"geometry":{"type":"LineString","coordinates":[[105.988411903,10.017020702],[105.988154411,10.015733242],[105.988240242,10.013587475],[105.988497734,10.011570454],[105.988969803,10.009768009],[105.989012718,10.008351803],[105.989055634,10.007193089],[105.989613533,10.006849766],[105.990214348,10.007021427],[105.990729332,10.007965565],[105.991415977,10.008394718],[105.992574692,10.007922649],[105.994334221,10.006034374],[105.995621681,10.003974438],[105.996522903,10.001442432],[105.996780396,9.99925375],[105.996522903,9.997880459],[105.996694565,9.996893406],[105.99738121,9.996807575],[105.999140739,9.996550083],[106.000299454,9.995992184],[106.001329422,9.995863438],[106.00227356,9.996678829],[106.002831459,9.997022152],[106.003346443,9.996603727],[106.003496647,9.995423555],[106.004076004,9.993964434],[106.004998684,9.993063211],[106.00641489,9.992204905],[106.008024216,9.99178648],[106.009483337,9.99114275],[106.010513306,9.990284443],[106.012144089,9.989855289],[106.014332771,9.989254475],[106.015040874,9.988578558],[106.015555859,9.987870455],[106.015770435,9.987183809],[106.016242504,9.987012148],[106.016950607,9.987183809],[106.018323898,9.987055063],[106.01913929,9.98671174],[106.020169258,9.985864162],[106.021499634,9.985692501],[106.023087502,9.985435009],[106.024031639,9.984619617],[106.024546623,9.983718395],[106.025319099,9.982774258],[106.025705338,9.981701374],[106.025662422,9.980456829],[106.026220322,9.979512691],[106.026563644,9.978353977],[106.027207375,9.977753162],[106.027207375,9.976551533],[106.027936935,9.976036549],[106.027765274,9.975135326],[106.028323174,9.974448681],[106.02853775,9.973847866],[106.028623581,9.973289967],[106.029353142,9.972903728],[106.029717922,9.972555041],[106.029953957,9.972040057],[106.030329466,9.972211719],[106.030855179,9.972308278],[106.031273603,9.972029328],[106.031498909,9.97123003],[106.032357216,9.970672131],[106.033258438,9.970157146],[106.034460068,9.970114231],[106.035404205,9.969170094],[106.03600502,9.968268871],[106.036691666,9.967582226],[106.038150787,9.966595173],[106.038880348,9.965136051],[106.040897369,9.964020252],[106.043257713,9.962089062],[106.047763824,9.958612919],[106.049995422,9.955823421],[106.052312851,9.95316267],[106.053128242,9.951403141],[106.053771973,9.946982861],[106.053729057,9.942734241],[106.053729057,9.941961765]]},"properties":{"Tên kênh":"Kênh Trà Côn","Địa chỉ":"Từ sông Măng - huyện Cầu Kè","Chiều dài":"13750m","Chiều rộng mặt":"23m","Bề rộng đáy":"10m","Phân cấp":null,"Năm xây dựng":null,"Tình trạng hoạt động":null,"Ghi chú":"F(tưới tiêu): 4400ha","layer_id":249,"fid":62,"label":"Kênh Trà Côn"}}]}
