{"type":"FeatureCollection","name":"Kè","metadata":{"source":"https://hatang.vinhlong.gov.vn/","downloaded_at":"2026-07-20T01:12:34+00:00","layer_id":250,"layer_name":"Kè","catalog_endpoints":["/map/publicLayers2?inputs=thuy_loi"],"requested_bbox":[104.0,8.0,108.0,12.0],"tile_size":0.0,"tile_count":1,"tile_errors":[],"feature_count":10,"coordinate_order":"x,y (thường là longitude,latitude theo cấu hình EPSG:4326 của WebGIS)"},"features":[{"type":"Feature","id":7,"geometry":{"type":"LineString","coordinates":[[106.000008,10.046806],[105.998419,10.044556]]},"properties":{"Tên kè":"Kè thị trấn Tam Bình","Địa chỉ":"Thị trấn Tam Bình","Chiều dài":"298.7","Kết cấu kè":"BTCT","Năm xây dựng":"2009","Tình trạng hoạt động":"Bình Thường","Ghi chú":null,"layer_id":250,"fid":7,"label":"Kè thị trấn Tam Bình"}},{"type":"Feature","id":9,"geometry":{"type":"LineString","coordinates":[[105.974013805,10.258049369],[105.975590944,10.258521438],[105.976395607,10.258800387],[105.978133678,10.259347558],[105.97894907,10.259658694],[105.979721546,10.259916186],[105.981223583,10.260377526],[105.982972383,10.260849595],[105.984066725,10.260956883],[105.985096693,10.261074901],[105.986480713,10.26126802]]},"properties":{"Tên kè":"Kè chống sạt lở bờ sông Cổ Chiên (khu vực Phường 5, TPVL)","Địa chỉ":"Phường 5,  TP.Vĩnh Long","Chiều dài":"719m","Kết cấu kè":"BTCT","Năm xây dựng":"2009","Tình trạng hoạt động":"Bình thường","Ghi chú":null,"layer_id":250,"fid":9,"label":"Kè chống sạt lở bờ sông Cổ Chiên (khu vực Phường 5, TPVL)"}},{"type":"Feature","id":12,"geometry":{"type":"LineString","coordinates":[[106.112759113,10.173355937],[106.112136841,10.172862411],[106.111664772,10.172540545],[106.111235619,10.172293782],[106.110709906,10.172111392],[106.110141277,10.172057748],[106.109293699,10.172229409],[106.10901475,10.172401071],[106.108800173,10.172765851],[106.10863924,10.17351687],[106.10845685,10.174568295]]},"properties":{"Tên kè":"Kè thị trấn Cái Nhum","Địa chỉ":"Thị trấn Cái Nhum","Chiều dài":"750","Kết cấu kè":"BTCT","Năm xây dựng":"2005","Tình trạng hoạt động":"Bình thường","Ghi chú":null,"layer_id":250,"fid":12,"label":"Kè thị trấn Cái Nhum"}},{"type":"Feature","id":13,"geometry":{"type":"LineString","coordinates":[[105.921206474,9.962099791],[105.920069218,9.963065386],[105.919232368,9.96394515],[105.918567181,9.964782],[105.918223858,9.965811968]]},"properties":{"Tên kè":"Kè thị trấn Trà Ôn  (Khu 1, thị trấn Trà Ôn)","Địa chỉ":"Thị trấn Trà Ôn","Chiều dài":"680","Kết cấu kè":"BTCT","Năm xây dựng":"2000","Tình trạng hoạt động":"Bình thường","Ghi chú":null,"layer_id":250,"fid":13,"label":"Kè thị trấn Trà Ôn  (Khu 1, thị trấn Trà Ôn)"}},{"type":"Feature","id":14,"geometry":{"type":"LineString","coordinates":[[105.822544098,10.064458251],[105.822812319,10.064887404],[105.822844505,10.065380931],[105.822930336,10.066228509],[105.822908878,10.066990256],[105.823123455,10.067666173],[105.823466778,10.068106055],[105.823895931,10.068492293]]},"properties":{"Tên kè":"Kè thị trấn Cái Vồn","Địa chỉ":" thị trấn Cái Vồn","Chiều dài":"524","Kết cấu kè":"BTCT","Năm xây dựng":"2009","Tình trạng hoạt động":"Bình thường","Ghi chú":null,"layer_id":250,"fid":14,"label":"Kè thị trấn Cái Vồn"}},{"type":"Feature","id":10,"geometry":{"type":"LineString","coordinates":[[105.972608328,10.258070827],[105.972071886,10.258103013],[105.971599817,10.25803864],[105.97102046,10.257920623],[105.970451832,10.257641673],[105.970151424,10.257437825],[105.969743729,10.257191062],[105.969282389,10.256955028],[105.968788862,10.25675118],[105.967694521,10.256364942]]},"properties":{"Tên kè":"Kè chống sạt lở bờ sông Cổ Chiên  (khu vực Phường 1, TPVL)","Địa chỉ":"Phường 1,  TP.Vĩnh Long","Chiều dài":"643m","Kết cấu kè":"BTCT","Năm xây dựng":"1997","Tình trạng hoạt động":"Bình thường","Ghi chú":null,"layer_id":250,"fid":10,"label":"Kè chống sạt lở bờ sông Cổ Chiên  (khu vực Phường 1, TPVL)"}},{"type":"Feature","id":11,"geometry":{"type":"LineString","coordinates":[[105.967453122,10.255686343],[105.967163444,10.255981386],[105.966691375,10.256308615],[105.966165662,10.25654465],[105.965269804,10.256710947],[105.964250565,10.256914794],[105.963220596,10.257220566],[105.96216917,10.257354677],[105.961745381,10.257445872],[105.96143961,10.257317126],[105.961029232,10.257594734],[105.960495472,10.25786832],[105.959478915,10.258131176],[105.958811045,10.258292109],[105.95704694,10.258676168],[105.955990678,10.258912084],[105.954144001,10.25939852],[105.952824354,10.259645283],[105.950756632,10.259905488],[105.950088426,10.259944794],[105.948702881,10.259964447],[105.947739878,10.260082366],[105.946998596,10.260205865],[105.947073698,10.261589885],[105.947036147,10.261796415],[105.946311951,10.262418687],[105.944638256,10.264230433],[105.942433476,10.266624391],[105.942658782,10.266887248],[105.94189167,10.26769191],[105.94060421,10.268906951],[105.939359665,10.2697438],[105.938447714,10.27048409],[105.935497284,10.272334814],[105.933630466,10.273278952],[105.930883884,10.274287462],[105.924704075,10.275295973],[105.9222579,10.275403261],[105.917208836,10.275241496],[105.913374851,10.274948826],[105.911531026,10.274626888]]},"properties":{"Tên kè":"Kè chống sạt lở bờ sông Cổ Chiên (từ cầu Cái Cá đến cầu Mỹ Thuận)","Địa chỉ":"Phường 1, 2, 5, 9, xã Trường An, Tân Ngãi, Tân Hòa","Chiều dài":"9075m","Kết cấu kè":"BTCT","Năm xây dựng":"2017","Tình trạng hoạt động":"Bình thường","Ghi chú":null,"layer_id":250,"fid":11,"label":"Kè chống sạt lở bờ sông Cổ Chiên (từ cầu Cái Cá đến cầu Mỹ Thuận)"}},{"type":"Feature","id":17,"geometry":{"type":"LineString","coordinates":[[106.004054546,10.192211866],[106.004413962,10.192238688],[106.004907489,10.192324519],[106.005266905,10.19236207],[106.005374193,10.192388892]]},"properties":{"Tên kè":"Kè gia cố sạt lở bờ sông Cái Cao","Địa chỉ":null,"Chiều dài":"146m","Kết cấu kè":"Rọ đá","Năm xây dựng":null,"Tình trạng hoạt động":"Bình thường","Ghi chú":"Xây mới","layer_id":250,"fid":17,"label":"Kè gia cố sạt lở bờ sông Cái Cao"}},{"type":"Feature","id":15,"geometry":{"type":"LineString","coordinates":[[105.873452425,9.992108345],[105.872883797,9.992119074],[105.87220788,9.992097616],[105.871456861,9.992001057],[105.870738029,9.991915226],[105.870383978,9.991743565],[105.870201588,9.991539717]]},"properties":{"Tên kè":"Kè rọ đá Cồn Sừng (cầu rạch Tranh - Sông Hậu)","Địa chỉ":null,"Chiều dài":"112m","Kết cấu kè":"BTCT","Năm xây dựng":null,"Tình trạng hoạt động":"Bình thường","Ghi chú":"Xây mới","layer_id":250,"fid":15,"label":"Kè rọ đá Cồn Sừng (cầu rạch Tranh - Sông Hậu)"}},{"type":"Feature","id":16,"geometry":{"type":"LineString","coordinates":[[105.992617607,10.230883956],[105.992569327,10.230594277],[105.992526412,10.230240226],[105.992531776,10.230068564],[105.992510319,10.229939818]]},"properties":{"Tên kè":"Kè gia cố sạt lở bờ sông Ông Me","Địa chỉ":null,"Chiều dài":"102m","Kết cấu kè":"BTCT","Năm xây dựng":null,"Tình trạng hoạt động":"Bình thường","Ghi chú":"Xây mới","layer_id":250,"fid":16,"label":"Kè gia cố sạt lở bờ sông Ông Me"}}]}
