{"type":"FeatureCollection","name":"Đập ","metadata":{"source":"https://hatang.vinhlong.gov.vn/","downloaded_at":"2026-07-20T01:12:46+00:00","layer_id":252,"layer_name":"Đập ","catalog_endpoints":["/map/publicLayers2?inputs=thuy_loi"],"requested_bbox":[104.0,8.0,108.0,12.0],"tile_size":0.0,"tile_count":1,"tile_errors":[],"feature_count":3,"coordinate_order":"x,y (thường là longitude,latitude theo cấu hình EPSG:4326 của WebGIS)"},"features":[{"type":"Feature","id":1,"geometry":{"type":"Point","coordinates":[105.979375,10.156002045]},"properties":{"Tên đập":"Ông Thuẩn","Địa điểm":"xã Phước Hậu, huyện Long Hồ","Chiều dài":null,"Chiều rộng mặt":"4m","Kết cấu":"BTCT","Phân cấp":"Cấp huyện quản lý","Năm xây dựng":null,"Tình trạng":"Bình thường","Ghi chú":null,"layer_id":252,"fid":1,"label":"Ông Thuẩn"}},{"type":"Feature","id":3,"geometry":{"type":"Point","coordinates":[106.012361,10.135728]},"properties":{"Tên đập":"Ba Tiến","Địa điểm":"xã Long An, huyện Long Hồ","Chiều dài":null,"Chiều rộng mặt":"4m","Kết cấu":null,"Phân cấp":"Cấp huyện quản lý","Năm xây dựng":null,"Tình trạng":"Bình thường","Ghi chú":null,"layer_id":252,"fid":3,"label":"Ba Tiến"}},{"type":"Feature","id":2,"geometry":{"type":"Point","coordinates":[105.998244,10.242325]},"properties":{"Tên đập":"Bà Giang","Địa điểm":"xã Thanh Đức, huyện Long Hồ","Chiều dài":null,"Chiều rộng mặt":"4m","Kết cấu":null,"Phân cấp":"Cấp huyện quản lý","Năm xây dựng":null,"Tình trạng":"Bình thường","Ghi chú":null,"layer_id":252,"fid":2,"label":"Bà Giang"}}]}
