{"type":"FeatureCollection","name":"Bơm điện ","metadata":{"source":"https://hatang.vinhlong.gov.vn/","downloaded_at":"2026-07-20T01:12:51+00:00","layer_id":253,"layer_name":"Bơm điện ","catalog_endpoints":["/map/publicLayers2?inputs=nuoc_sach"],"requested_bbox":[104.0,8.0,108.0,12.0],"tile_size":0.0,"tile_count":1,"tile_errors":[],"feature_count":93,"coordinate_order":"x,y (thường là longitude,latitude theo cấu hình EPSG:4326 của WebGIS)"},"features":[{"type":"Feature","id":2,"geometry":{"type":"Point","coordinates":[105.848208144,10.0430262]},"properties":{"Tên trạm":"Đông Bình","Nhà sản xuất":null,"Loại bơm ":"LTTN","Mã số":"NTP","Số lượng":"6","Lưu lượng(m3/h)":"45","Cột áp (m)":"20","Ngày lắp đặt":null,"Ngày thay ":null,"Quá trình sử dụng":null,"Công suất sử dụng":null,"Tủ điện":null,"layer_id":253,"fid":2,"label":"Đông Bình"}},{"type":"Feature","id":3,"geometry":{"type":"Point","coordinates":[105.874152975,9.995013747]},"properties":{"Tên trạm":"Đông Thành","Nhà sản xuất":null,"Loại bơm ":"LTTN","Mã số":"Teco","Số lượng":"6","Lưu lượng(m3/h)":"52","Cột áp (m)":"21","Ngày lắp đặt":null,"Ngày thay ":null,"Quá trình sử dụng":null,"Công suất sử dụng":null,"Tủ điện":null,"layer_id":253,"fid":3,"label":"Đông Thành"}},{"type":"Feature","id":4,"geometry":{"type":"Point","coordinates":[105.861985209,10.044539482]},"properties":{"Tên trạm":"Đông Thạnh","Nhà sản xuất":null,"Loại bơm ":"LTTN","Mã số":"Teco","Số lượng":"6","Lưu lượng(m3/h)":"52","Cột áp (m)":"21","Ngày lắp đặt":null,"Ngày thay ":null,"Quá trình sử dụng":null,"Công suất sử dụng":null,"Tủ điện":null,"layer_id":253,"fid":4,"label":"Đông Thạnh"}},{"type":"Feature","id":5,"geometry":{"type":"Point","coordinates":[105.842144071,10.019406553]},"properties":{"Tên trạm":"Mỹ Hòa","Nhà sản xuất":null,"Loại bơm ":"LTTN","Mã số":"SAER","Số lượng":"6","Lưu lượng(m3/h)":"130","Cột áp (m)":"21","Ngày lắp đặt":null,"Ngày thay ":null,"Quá trình sử dụng":null,"Công suất sử dụng":null,"Tủ điện":null,"layer_id":253,"fid":5,"label":"Mỹ Hòa"}},{"type":"Feature","id":6,"geometry":{"type":"Point","coordinates":[105.832775217,10.081414994]},"properties":{"Tên trạm":"Thuận An ","Nhà sản xuất":null,"Loại bơm ":"LTTN","Mã số":"Teco","Số lượng":"6","Lưu lượng(m3/h)":"44.7","Cột áp (m)":"16","Ngày lắp đặt":null,"Ngày thay ":null,"Quá trình sử dụng":null,"Công suất sử dụng":null,"Tủ điện":null,"layer_id":253,"fid":6,"label":"Thuận An "}},{"type":"Feature","id":7,"geometry":{"type":"Point","coordinates":[105.850822967,10.107382039]},"properties":{"Tên trạm":"Thuận Phú B","Nhà sản xuất":null,"Loại bơm ":"LTTN","Mã số":"Teco","Số lượng":"6","Lưu lượng(m3/h)":"44.7","Cột áp (m)":"16","Ngày lắp đặt":null,"Ngày thay ":null,"Quá trình sử dụng":null,"Công suất sử dụng":null,"Tủ điện":null,"layer_id":253,"fid":7,"label":"Thuận Phú B"}},{"type":"Feature","id":8,"geometry":{"type":"Point","coordinates":[105.826622058,10.104920464]},"properties":{"Tên trạm":"Mỹ Thuận","Nhà sản xuất":null,"Loại bơm ":"LTTN","Mã số":"Teco","Số lượng":"3","Lưu lượng(m3/h)":"43.3","Cột áp (m)":"24","Ngày lắp đặt":null,"Ngày thay ":null,"Quá trình sử dụng":null,"Công suất sử dụng":null,"Tủ điện":null,"layer_id":253,"fid":8,"label":"Mỹ Thuận"}},{"type":"Feature","id":9,"geometry":{"type":"Point","coordinates":[105.824707739,10.143042016]},"properties":{"Tên trạm":"Nguyễn Văn Thảnh","Nhà sản xuất":null,"Loại bơm ":"LTTN","Mã số":"Teco","Số lượng":"3","Lưu lượng(m3/h)":"52","Cột áp (m)":"21","Ngày lắp đặt":null,"Ngày thay ":null,"Quá trình sử dụng":null,"Công suất sử dụng":null,"Tủ điện":null,"layer_id":253,"fid":9,"label":"Nguyễn Văn Thảnh"}},{"type":"Feature","id":10,"geometry":{"type":"Point","coordinates":[105.710205803,10.153479041]},"properties":{"Tên trạm":"Tân An Thạnh","Nhà sản xuất":null,"Loại bơm ":"LTTN","Mã số":"Teco","Số lượng":"6","Lưu lượng(m3/h)":"30","Cột áp (m)":"28","Ngày lắp đặt":null,"Ngày thay ":null,"Quá trình sử dụng":null,"Công suất sử dụng":null,"Tủ điện":null,"layer_id":253,"fid":10,"label":"Tân An Thạnh"}},{"type":"Feature","id":11,"geometry":{"type":"Point","coordinates":[105.729604145,10.122932125]},"properties":{"Tên trạm":"Tân Bình","Nhà sản xuất":null,"Loại bơm ":"LTTN","Mã số":"Teco","Số lượng":"6","Lưu lượng(m3/h)":"72","Cột áp (m)":"22","Ngày lắp đặt":null,"Ngày thay ":null,"Quá trình sử dụng":null,"Công suất sử dụng":null,"Tủ điện":null,"layer_id":253,"fid":11,"label":"Tân Bình"}},{"type":"Feature","id":12,"geometry":{"type":"Point","coordinates":[105.758606335,10.182983653]},"properties":{"Tên trạm":"Tân Hưng","Nhà sản xuất":null,"Loại bơm ":"LTTN","Mã số":"Mistuky","Số lượng":"6","Lưu lượng(m3/h)":"40","Cột áp (m)":"25","Ngày lắp đặt":null,"Ngày thay ":null,"Quá trình sử dụng":null,"Công suất sử dụng":null,"Tủ điện":null,"layer_id":253,"fid":12,"label":"Tân Hưng"}},{"type":"Feature","id":13,"geometry":{"type":"Point","coordinates":[105.715563429,10.140844267]},"properties":{"Tên trạm":"Tân Lược","Nhà sản xuất":null,"Loại bơm ":"LTTN","Mã số":"Teco","Số lượng":"6","Lưu lượng(m3/h)":"44.7","Cột áp (m)":"16","Ngày lắp đặt":null,"Ngày thay ":null,"Quá trình sử dụng":null,"Công suất sử dụng":null,"Tủ điện":null,"layer_id":253,"fid":13,"label":"Tân Lược"}},{"type":"Feature","id":14,"geometry":{"type":"Point","coordinates":[105.774805442,10.171207224]},"properties":{"Tên trạm":"Tân Thành 1","Nhà sản xuất":null,"Loại bơm ":"LTTN","Mã số":"Teco","Số lượng":"6","Lưu lượng(m3/h)":"52","Cột áp (m)":"21","Ngày lắp đặt":null,"Ngày thay ":null,"Quá trình sử dụng":null,"Công suất sử dụng":null,"Tủ điện":null,"layer_id":253,"fid":14,"label":"Tân Thành 1"}},{"type":"Feature","id":15,"geometry":{"type":"Point","coordinates":[105.748775244,10.157430402]},"properties":{"Tên trạm":"Tân Thành 2","Nhà sản xuất":null,"Loại bơm ":"LTTN","Mã số":"Teco","Số lượng":"6","Lưu lượng(m3/h)":"52","Cột áp (m)":"21","Ngày lắp đặt":null,"Ngày thay ":null,"Quá trình sử dụng":null,"Công suất sử dụng":null,"Tủ điện":null,"layer_id":253,"fid":15,"label":"Tân Thành 2"}},{"type":"Feature","id":16,"geometry":{"type":"Point","coordinates":[105.773906277,10.144155252]},"properties":{"Tên trạm":"Thành Đông","Nhà sản xuất":null,"Loại bơm ":"LTTN","Mã số":"Teco","Số lượng":"6","Lưu lượng(m3/h)":"43.3","Cột áp (m)":"24","Ngày lắp đặt":null,"Ngày thay ":null,"Quá trình sử dụng":null,"Công suất sử dụng":null,"Tủ điện":null,"layer_id":253,"fid":16,"label":"Thành Đông"}},{"type":"Feature","id":17,"geometry":{"type":"Point","coordinates":[105.786296796,10.131450149]},"properties":{"Tên trạm":"Thành Trung","Nhà sản xuất":null,"Loại bơm ":"LTTN","Mã số":"Calpeda","Số lượng":"6","Lưu lượng(m3/h)":"60","Cột áp (m)":"20","Ngày lắp đặt":null,"Ngày thay ":null,"Quá trình sử dụng":null,"Công suất sử dụng":null,"Tủ điện":null,"layer_id":253,"fid":17,"label":"Thành Trung"}},{"type":"Feature","id":18,"geometry":{"type":"Point","coordinates":[105.974178712,10.268862018]},"properties":{"Tên trạm":"An Bình","Nhà sản xuất":null,"Loại bơm ":"LTTN","Mã số":"Teco","Số lượng":"6","Lưu lượng(m3/h)":"43.3","Cột áp (m)":"24","Ngày lắp đặt":null,"Ngày thay ":null,"Quá trình sử dụng":null,"Công suất sử dụng":null,"Tủ điện":null,"layer_id":253,"fid":18,"label":"An Bình"}},{"type":"Feature","id":19,"geometry":{"type":"Point","coordinates":[105.964535354,10.310448468]},"properties":{"Tên trạm":"Đồng Phú","Nhà sản xuất":null,"Loại bơm ":"LTTN","Mã số":"Teco","Số lượng":"6","Lưu lượng(m3/h)":"43.3","Cột áp (m)":"24","Ngày lắp đặt":null,"Ngày thay ":null,"Quá trình sử dụng":null,"Công suất sử dụng":null,"Tủ điện":null,"layer_id":253,"fid":19,"label":"Đồng Phú"}},{"type":"Feature","id":20,"geometry":{"type":"Point","coordinates":[105.985274795,10.271684616]},"properties":{"Tên trạm":"Hòa Ninh 2","Nhà sản xuất":null,"Loại bơm ":"LTTN","Mã số":"SAER","Số lượng":"6","Lưu lượng(m3/h)":"110","Cột áp (m)":"16","Ngày lắp đặt":null,"Ngày thay ":null,"Quá trình sử dụng":null,"Công suất sử dụng":null,"Tủ điện":null,"layer_id":253,"fid":20,"label":"Hòa Ninh 2"}},{"type":"Feature","id":21,"geometry":{"type":"Point","coordinates":[105.951810873,10.164283941]},"properties":{"Tên trạm":"Hòa Phú 2","Nhà sản xuất":null,"Loại bơm ":"LTTN","Mã số":"NTP","Số lượng":"6","Lưu lượng(m3/h)":"45","Cột áp (m)":"20","Ngày lắp đặt":null,"Ngày thay ":null,"Quá trình sử dụng":null,"Công suất sử dụng":null,"Tủ điện":null,"layer_id":253,"fid":21,"label":"Hòa Phú 2"}},{"type":"Feature","id":22,"geometry":{"type":"Point","coordinates":[105.96960924,10.184737884]},"properties":{"Tên trạm":"Lộc Hòa","Nhà sản xuất":null,"Loại bơm ":"LTTN","Mã số":"NTP","Số lượng":"6","Lưu lượng(m3/h)":"20","Cột áp (m)":"24","Ngày lắp đặt":null,"Ngày thay ":null,"Quá trình sử dụng":null,"Công suất sử dụng":null,"Tủ điện":null,"layer_id":253,"fid":22,"label":"Lộc Hòa"}},{"type":"Feature","id":23,"geometry":{"type":"Point","coordinates":[106.00822307,10.16685948]},"properties":{"Tên trạm":"Long An 1","Nhà sản xuất":null,"Loại bơm ":"LTTN","Mã số":"Teco","Số lượng":"6","Lưu lượng(m3/h)":"20","Cột áp (m)":"24","Ngày lắp đặt":null,"Ngày thay ":null,"Quá trình sử dụng":null,"Công suất sử dụng":null,"Tủ điện":null,"layer_id":253,"fid":23,"label":"Long An 1"}},{"type":"Feature","id":24,"geometry":{"type":"Point","coordinates":[106.014580323,10.1531789]},"properties":{"Tên trạm":"Long An 2","Nhà sản xuất":null,"Loại bơm ":"LTTN","Mã số":"Teco","Số lượng":"6","Lưu lượng(m3/h)":"44.7","Cột áp (m)":"16","Ngày lắp đặt":null,"Ngày thay ":null,"Quá trình sử dụng":null,"Công suất sử dụng":null,"Tủ điện":null,"layer_id":253,"fid":24,"label":"Long An 2"}},{"type":"Feature","id":25,"geometry":{"type":"Point","coordinates":[105.984975163,10.224732926]},"properties":{"Tên trạm":"Long Phước 1","Nhà sản xuất":null,"Loại bơm ":"LTTN","Mã số":"Teco","Số lượng":"6","Lưu lượng(m3/h)":"32","Cột áp (m)":"16","Ngày lắp đặt":null,"Ngày thay ":null,"Quá trình sử dụng":null,"Công suất sử dụng":null,"Tủ điện":null,"layer_id":253,"fid":25,"label":"Long Phước 1"}},{"type":"Feature","id":26,"geometry":{"type":"Point","coordinates":[10.214175551,10.214175551]},"properties":{"Tên trạm":"Long Phước 2","Nhà sản xuất":null,"Loại bơm ":"LTTN","Mã số":"Teco","Số lượng":"6","Lưu lượng(m3/h)":"44.7","Cột áp (m)":"16","Ngày lắp đặt":null,"Ngày thay ":null,"Quá trình sử dụng":null,"Công suất sử dụng":null,"Tủ điện":null,"layer_id":253,"fid":26,"label":"Long Phước 2"}},{"type":"Feature","id":27,"geometry":{"type":"Point","coordinates":[105.966237971,10.207409699]},"properties":{"Tên trạm":"Long Phước 3","Nhà sản xuất":null,"Loại bơm ":"LTTN","Mã số":"Teco","Số lượng":"6","Lưu lượng(m3/h)":"52","Cột áp (m)":"21","Ngày lắp đặt":null,"Ngày thay ":null,"Quá trình sử dụng":null,"Công suất sử dụng":null,"Tủ điện":null,"layer_id":253,"fid":27,"label":"Long Phước 3"}},{"type":"Feature","id":28,"geometry":{"type":"Point","coordinates":[105.995418736,10.190251252]},"properties":{"Tên trạm":"Phú Đức 2","Nhà sản xuất":null,"Loại bơm ":"LTTN","Mã số":"Grundfos","Số lượng":"6","Lưu lượng(m3/h)":"72","Cột áp (m)":"22","Ngày lắp đặt":null,"Ngày thay ":null,"Quá trình sử dụng":null,"Công suất sử dụng":null,"Tủ điện":null,"layer_id":253,"fid":28,"label":"Phú Đức 2"}},{"type":"Feature","id":29,"geometry":{"type":"Point","coordinates":[105.922309884,10.166027271]},"properties":{"Tên trạm":"Phú Quới","Nhà sản xuất":null,"Loại bơm ":"LTTN","Mã số":"SAER","Số lượng":"6","Lưu lượng(m3/h)":"80","Cột áp (m)":"24","Ngày lắp đặt":null,"Ngày thay ":null,"Quá trình sử dụng":null,"Công suất sử dụng":null,"Tủ điện":null,"layer_id":253,"fid":29,"label":"Phú Quới"}},{"type":"Feature","id":30,"geometry":{"type":"Point","coordinates":[105.97302401,10.216604143]},"properties":{"Tên trạm":"Phước Hậu 1","Nhà sản xuất":null,"Loại bơm ":"LTTN","Mã số":"SAER","Số lượng":"6","Lưu lượng(m3/h)":"50","Cột áp (m)":"20","Ngày lắp đặt":null,"Ngày thay ":null,"Quá trình sử dụng":null,"Công suất sử dụng":null,"Tủ điện":null,"layer_id":253,"fid":30,"label":"Phước Hậu 1"}},{"type":"Feature","id":31,"geometry":{"type":"Point","coordinates":[105.93715085,10.235306825]},"properties":{"Tên trạm":"Tân Hạnh 1","Nhà sản xuất":null,"Loại bơm ":"LTTN","Mã số":"SAER","Số lượng":"6","Lưu lượng(m3/h)":"50","Cột áp (m)":"20","Ngày lắp đặt":null,"Ngày thay ":null,"Quá trình sử dụng":null,"Công suất sử dụng":null,"Tủ điện":null,"layer_id":253,"fid":31,"label":"Tân Hạnh 1"}},{"type":"Feature","id":32,"geometry":{"type":"Point","coordinates":[105.918216865,10.205684554]},"properties":{"Tên trạm":"Tân Hạnh 2","Nhà sản xuất":null,"Loại bơm ":"LTTN","Mã số":"Teco","Số lượng":"6","Lưu lượng(m3/h)":"52","Cột áp (m)":"21","Ngày lắp đặt":null,"Ngày thay ":null,"Quá trình sử dụng":null,"Công suất sử dụng":null,"Tủ điện":null,"layer_id":253,"fid":32,"label":"Tân Hạnh 2"}},{"type":"Feature","id":33,"geometry":{"type":"Point","coordinates":[105.898701789,10.168249789]},"properties":{"Tên trạm":"Thạnh Quới 1","Nhà sản xuất":null,"Loại bơm ":"LTTN","Mã số":"Teco","Số lượng":"6","Lưu lượng(m3/h)":"52","Cột áp (m)":"21","Ngày lắp đặt":null,"Ngày thay ":null,"Quá trình sử dụng":null,"Công suất sử dụng":null,"Tủ điện":null,"layer_id":253,"fid":33,"label":"Thạnh Quới 1"}},{"type":"Feature","id":34,"geometry":{"type":"Point","coordinates":[106.139603413,10.204765237]},"properties":{"Tên trạm":"An Phước","Nhà sản xuất":null,"Loại bơm ":"LTTN","Mã số":"SAER","Số lượng":"6","Lưu lượng(m3/h)":"80","Cột áp (m)":"24","Ngày lắp đặt":null,"Ngày thay ":null,"Quá trình sử dụng":null,"Công suất sử dụng":null,"Tủ điện":null,"layer_id":253,"fid":34,"label":"An Phước"}},{"type":"Feature","id":35,"geometry":{"type":"Point","coordinates":[106.029438862,10.170984927]},"properties":{"Tên trạm":"Bình Phước 1","Nhà sản xuất":null,"Loại bơm ":"LTTN","Mã số":"Teco","Số lượng":"6","Lưu lượng(m3/h)":"20","Cột áp (m)":"24","Ngày lắp đặt":null,"Ngày thay ":null,"Quá trình sử dụng":null,"Công suất sử dụng":null,"Tủ điện":null,"layer_id":253,"fid":35,"label":"Bình Phước 1"}},{"type":"Feature","id":36,"geometry":{"type":"Point","coordinates":[106.054879729,10.185173924]},"properties":{"Tên trạm":"Bình Phước 2","Nhà sản xuất":null,"Loại bơm ":"LTTN","Mã số":"Teco","Số lượng":"6","Lưu lượng(m3/h)":"43.3","Cột áp (m)":"24","Ngày lắp đặt":null,"Ngày thay ":null,"Quá trình sử dụng":null,"Công suất sử dụng":null,"Tủ điện":null,"layer_id":253,"fid":36,"label":"Bình Phước 2"}},{"type":"Feature","id":37,"geometry":{"type":"Point","coordinates":[106.155527697,10.158967029]},"properties":{"Tên trạm":"Chánh An","Nhà sản xuất":null,"Loại bơm ":"LTTN","Mã số":"Grundfos","Số lượng":"6","Lưu lượng(m3/h)":"50","Cột áp (m)":"22","Ngày lắp đặt":null,"Ngày thay ":null,"Quá trình sử dụng":null,"Công suất sử dụng":null,"Tủ điện":null,"layer_id":253,"fid":37,"label":"Chánh An"}},{"type":"Feature","id":38,"geometry":{"type":"Point","coordinates":[106.097557052,10.195912119]},"properties":{"Tên trạm":"Chánh Hội 1","Nhà sản xuất":null,"Loại bơm ":"LTTN","Mã số":"NTP","Số lượng":"6","Lưu lượng(m3/h)":"45","Cột áp (m)":"20","Ngày lắp đặt":null,"Ngày thay ":null,"Quá trình sử dụng":null,"Công suất sử dụng":null,"Tủ điện":null,"layer_id":253,"fid":38,"label":"Chánh Hội 1"}},{"type":"Feature","id":39,"geometry":{"type":"Point","coordinates":[106.104413017,10.187156579]},"properties":{"Tên trạm":"Chánh Hội 2","Nhà sản xuất":null,"Loại bơm ":"LTTN","Mã số":"NTP","Số lượng":"6","Lưu lượng(m3/h)":"27","Cột áp (m)":"20","Ngày lắp đặt":null,"Ngày thay ":null,"Quá trình sử dụng":null,"Công suất sử dụng":null,"Tủ điện":null,"layer_id":253,"fid":39,"label":"Chánh Hội 2"}},{"type":"Feature","id":40,"geometry":{"type":"Point","coordinates":[106.02760105,10.207732162]},"properties":{"Tên trạm":"Hòa Tịnh","Nhà sản xuất":null,"Loại bơm ":"LTTN","Mã số":"Teco","Số lượng":"6","Lưu lượng(m3/h)":"52","Cột áp (m)":"21","Ngày lắp đặt":null,"Ngày thay ":null,"Quá trình sử dụng":null,"Công suất sử dụng":null,"Tủ điện":null,"layer_id":253,"fid":40,"label":"Hòa Tịnh"}},{"type":"Feature","id":41,"geometry":{"type":"Point","coordinates":[106.002522956,10.210004978]},"properties":{"Tên trạm":"Long Mỹ","Nhà sản xuất":null,"Loại bơm ":"LTTN","Mã số":"Teco","Số lượng":"6","Lưu lượng(m3/h)":"44.7","Cột áp (m)":"16","Ngày lắp đặt":null,"Ngày thay ":null,"Quá trình sử dụng":null,"Công suất sử dụng":null,"Tủ điện":null,"layer_id":253,"fid":41,"label":"Long Mỹ"}},{"type":"Feature","id":42,"geometry":{"type":"Point","coordinates":[106.053626768,10.241693558]},"properties":{"Tên trạm":"Mỹ An 1","Nhà sản xuất":null,"Loại bơm ":"LTTN","Mã số":"Teco","Số lượng":"6","Lưu lượng(m3/h)":"52","Cột áp (m)":"21","Ngày lắp đặt":null,"Ngày thay ":null,"Quá trình sử dụng":null,"Công suất sử dụng":null,"Tủ điện":null,"layer_id":253,"fid":42,"label":"Mỹ An 1"}},{"type":"Feature","id":43,"geometry":{"type":"Point","coordinates":[106.03591162,10.243260258]},"properties":{"Tên trạm":"Mỹ An 2","Nhà sản xuất":null,"Loại bơm ":"LTTN","Mã số":"Teco","Số lượng":"6","Lưu lượng(m3/h)":"20","Cột áp (m)":"24","Ngày lắp đặt":null,"Ngày thay ":null,"Quá trình sử dụng":null,"Công suất sử dụng":null,"Tủ điện":null,"layer_id":253,"fid":43,"label":"Mỹ An 2"}},{"type":"Feature","id":44,"geometry":{"type":"Point","coordinates":[106.101374026,10.235813334]},"properties":{"Tên trạm":"Mỹ Phước","Nhà sản xuất":null,"Loại bơm ":"LTTN","Mã số":"Teco","Số lượng":"6","Lưu lượng(m3/h)":"20","Cột áp (m)":"24","Ngày lắp đặt":null,"Ngày thay ":null,"Quá trình sử dụng":null,"Công suất sử dụng":null,"Tủ điện":null,"layer_id":253,"fid":44,"label":"Mỹ Phước"}},{"type":"Feature","id":45,"geometry":{"type":"Point","coordinates":[106.090011628,10.207146097]},"properties":{"Tên trạm":"Nhơn Phú","Nhà sản xuất":null,"Loại bơm ":"LTTN","Mã số":"Teco","Số lượng":"6","Lưu lượng(m3/h)":"30","Cột áp (m)":"28","Ngày lắp đặt":null,"Ngày thay ":null,"Quá trình sử dụng":null,"Công suất sử dụng":null,"Tủ điện":null,"layer_id":253,"fid":45,"label":"Nhơn Phú"}},{"type":"Feature","id":46,"geometry":{"type":"Point","coordinates":[106.097314147,10.158544832]},"properties":{"Tên trạm":"Tân An Hội","Nhà sản xuất":null,"Loại bơm ":"LTTN","Mã số":"Teco","Số lượng":"6","Lưu lượng(m3/h)":"30","Cột áp (m)":"28","Ngày lắp đặt":null,"Ngày thay ":null,"Quá trình sử dụng":null,"Công suất sử dụng":null,"Tủ điện":null,"layer_id":253,"fid":46,"label":"Tân An Hội"}},{"type":"Feature","id":47,"geometry":{"type":"Point","coordinates":[106.042928193,10.149860213]},"properties":{"Tên trạm":"Tân Long 2","Nhà sản xuất":null,"Loại bơm ":"LTTN","Mã số":"Teco","Số lượng":"6","Lưu lượng(m3/h)":"70","Cột áp (m)":"12","Ngày lắp đặt":null,"Ngày thay ":null,"Quá trình sử dụng":null,"Công suất sử dụng":null,"Tủ điện":null,"layer_id":253,"fid":47,"label":"Tân Long 2"}},{"type":"Feature","id":48,"geometry":{"type":"Point","coordinates":[106.076838739,10.124387076]},"properties":{"Tên trạm":"Tân Long Hội","Nhà sản xuất":null,"Loại bơm ":"LTTN","Mã số":"Grundfos","Số lượng":"6","Lưu lượng(m3/h)":"120","Cột áp (m)":"21","Ngày lắp đặt":null,"Ngày thay ":null,"Quá trình sử dụng":null,"Công suất sử dụng":null,"Tủ điện":null,"layer_id":253,"fid":48,"label":"Tân Long Hội"}},{"type":"Feature","id":49,"geometry":{"type":"Point","coordinates":[105.943966337,10.000533779]},"properties":{"Tên trạm":"Bình Ninh","Nhà sản xuất":null,"Loại bơm ":"LTTN","Mã số":"Teco","Số lượng":"6","Lưu lượng(m3/h)":"43.3","Cột áp (m)":"24","Ngày lắp đặt":null,"Ngày thay ":null,"Quá trình sử dụng":null,"Công suất sử dụng":null,"Tủ điện":null,"layer_id":253,"fid":49,"label":"Bình Ninh"}},{"type":"Feature","id":50,"geometry":{"type":"Point","coordinates":[105.989921929,10.110631261]},"properties":{"Tên trạm":"Hậu Lộc","Nhà sản xuất":null,"Loại bơm ":"LTTN","Mã số":"Teco","Số lượng":"6","Lưu lượng(m3/h)":"30","Cột áp (m)":"28","Ngày lắp đặt":null,"Ngày thay ":null,"Quá trình sử dụng":null,"Công suất sử dụng":null,"Tủ điện":null,"layer_id":253,"fid":50,"label":"Hậu Lộc"}},{"type":"Feature","id":51,"geometry":{"type":"Point","coordinates":[106.030797661,10.08715056]},"properties":{"Tên trạm":"Hòa Hiệp","Nhà sản xuất":null,"Loại bơm ":"LTTN","Mã số":"Teco","Số lượng":"6","Lưu lượng(m3/h)":"90","Cột áp (m)":"20","Ngày lắp đặt":null,"Ngày thay ":null,"Quá trình sử dụng":null,"Công suất sử dụng":null,"Tủ điện":null,"layer_id":253,"fid":51,"label":"Hòa Hiệp"}},{"type":"Feature","id":52,"geometry":{"type":"Point","coordinates":[106.003064227,10.083197657]},"properties":{"Tên trạm":"Hòa Lộc","Nhà sản xuất":null,"Loại bơm ":"LTTN","Mã số":"Teco","Số lượng":"6","Lưu lượng(m3/h)":"50","Cột áp (m)":"30","Ngày lắp đặt":null,"Ngày thay ":null,"Quá trình sử dụng":null,"Công suất sử dụng":null,"Tủ điện":null,"layer_id":253,"fid":52,"label":"Hòa Lộc"}},{"type":"Feature","id":53,"geometry":{"type":"Point","coordinates":[106.070323761,10.098594323]},"properties":{"Tên trạm":"Hòa Thạnh 2","Nhà sản xuất":null,"Loại bơm ":"LTTN","Mã số":"Teco","Số lượng":"6","Lưu lượng(m3/h)":"85","Cột áp (m)":"16","Ngày lắp đặt":null,"Ngày thay ":null,"Quá trình sử dụng":null,"Công suất sử dụng":null,"Tủ điện":null,"layer_id":253,"fid":53,"label":"Hòa Thạnh 2"}},{"type":"Feature","id":54,"geometry":{"type":"Point","coordinates":[105.979137243,10.018188384]},"properties":{"Tên trạm":"Loan Mỹ","Nhà sản xuất":null,"Loại bơm ":"LTTN","Mã số":"Teco","Số lượng":"6","Lưu lượng(m3/h)":"52","Cột áp (m)":"21","Ngày lắp đặt":null,"Ngày thay ":null,"Quá trình sử dụng":null,"Công suất sử dụng":null,"Tủ điện":null,"layer_id":253,"fid":54,"label":"Loan Mỹ"}},{"type":"Feature","id":55,"geometry":{"type":"Point","coordinates":[105.913405539,10.076640347]},"properties":{"Tên trạm":"Long Phú 1","Nhà sản xuất":null,"Loại bơm ":"LTTN","Mã số":"Teco","Số lượng":"6","Lưu lượng(m3/h)":"43.3","Cột áp (m)":"24","Ngày lắp đặt":null,"Ngày thay ":null,"Quá trình sử dụng":null,"Công suất sử dụng":null,"Tủ điện":null,"layer_id":253,"fid":55,"label":"Long Phú 1"}},{"type":"Feature","id":56,"geometry":{"type":"Point","coordinates":[105.918061826,10.086218581]},"properties":{"Tên trạm":"Long Phú 2","Nhà sản xuất":null,"Loại bơm ":"LTTN","Mã số":"Teco","Số lượng":"6","Lưu lượng(m3/h)":"20","Cột áp (m)":"24","Ngày lắp đặt":null,"Ngày thay ":null,"Quá trình sử dụng":null,"Công suất sử dụng":null,"Tủ điện":null,"layer_id":253,"fid":56,"label":"Long Phú 2"}},{"type":"Feature","id":57,"geometry":{"type":"Point","coordinates":[105.964259115,10.101057292]},"properties":{"Tên trạm":"Mỹ Lộc 1","Nhà sản xuất":null,"Loại bơm ":"LTTN","Mã số":"Teco","Số lượng":"6","Lưu lượng(m3/h)":"50","Cột áp (m)":"22","Ngày lắp đặt":null,"Ngày thay ":null,"Quá trình sử dụng":null,"Công suất sử dụng":null,"Tủ điện":null,"layer_id":253,"fid":57,"label":"Mỹ Lộc 1"}},{"type":"Feature","id":58,"geometry":{"type":"Point","coordinates":[105.934092228,10.099606543]},"properties":{"Tên trạm":"Mỹ Lộc 2","Nhà sản xuất":null,"Loại bơm ":"LTTN","Mã số":"Teco","Số lượng":"6","Lưu lượng(m3/h)":"100","Cột áp (m)":"20","Ngày lắp đặt":null,"Ngày thay ":null,"Quá trình sử dụng":null,"Công suất sử dụng":null,"Tủ điện":null,"layer_id":253,"fid":58,"label":"Mỹ Lộc 2"}},{"type":"Feature","id":59,"geometry":{"type":"Point","coordinates":[105.905000122,10.030656001]},"properties":{"Tên trạm":"Ngãi Tứ","Nhà sản xuất":null,"Loại bơm ":"LTTN","Mã số":"Teco","Số lượng":"6","Lưu lượng(m3/h)":"30","Cột áp (m)":"28","Ngày lắp đặt":null,"Ngày thay ":null,"Quá trình sử dụng":null,"Công suất sử dụng":null,"Tủ điện":null,"layer_id":253,"fid":59,"label":"Ngãi Tứ"}},{"type":"Feature","id":60,"geometry":{"type":"Point","coordinates":[105.882028939,10.107338285]},"properties":{"Tên trạm":"Phú Hưng","Nhà sản xuất":null,"Loại bơm ":"LTTN","Mã số":"Teco","Số lượng":"6","Lưu lượng(m3/h)":"45","Cột áp (m)":"20","Ngày lắp đặt":null,"Ngày thay ":null,"Quá trình sử dụng":null,"Công suất sử dụng":null,"Tủ điện":null,"layer_id":253,"fid":60,"label":"Phú Hưng"}},{"type":"Feature","id":61,"geometry":{"type":"Point","coordinates":[105.953466809,10.128305434]},"properties":{"Tên trạm":"Phú Lộc","Nhà sản xuất":null,"Loại bơm ":"LTTN","Mã số":"Teco","Số lượng":"6","Lưu lượng(m3/h)":"52","Cột áp (m)":"21","Ngày lắp đặt":null,"Ngày thay ":null,"Quá trình sử dụng":null,"Công suất sử dụng":null,"Tủ điện":null,"layer_id":253,"fid":61,"label":"Phú Lộc"}},{"type":"Feature","id":62,"geometry":{"type":"Point","coordinates":[105.885057976,10.145327596]},"properties":{"Tên trạm":"Phú Thịnh","Nhà sản xuất":null,"Loại bơm ":"LTTN","Mã số":"Teco","Số lượng":"6","Lưu lượng(m3/h)":"160","Cột áp (m)":"17","Ngày lắp đặt":null,"Ngày thay ":null,"Quá trình sử dụng":null,"Công suất sử dụng":null,"Tủ điện":null,"layer_id":253,"fid":62,"label":"Phú Thịnh"}},{"type":"Feature","id":63,"geometry":{"type":"Point","coordinates":[105.906158137,10.110455894]},"properties":{"Tên trạm":"Song Phú","Nhà sản xuất":null,"Loại bơm ":"LTTN","Mã số":"Teco","Số lượng":"6","Lưu lượng(m3/h)":"45","Cột áp (m)":"20","Ngày lắp đặt":null,"Ngày thay ":null,"Quá trình sử dụng":null,"Công suất sử dụng":null,"Tủ điện":null,"layer_id":253,"fid":63,"label":"Song Phú"}},{"type":"Feature","id":64,"geometry":{"type":"Point","coordinates":[105.970323961,10.149249004]},"properties":{"Tên trạm":"Tân Lộc 2","Nhà sản xuất":null,"Loại bơm ":"LTTN","Mã số":"Teco","Số lượng":"6","Lưu lượng(m3/h)":"44.7","Cột áp (m)":"16","Ngày lắp đặt":null,"Ngày thay ":null,"Quá trình sử dụng":null,"Công suất sử dụng":null,"Tủ điện":null,"layer_id":253,"fid":64,"label":"Tân Lộc 2"}},{"type":"Feature","id":65,"geometry":{"type":"Point","coordinates":[105.884836726,10.089821393]},"properties":{"Tên trạm":"Tân Phú 2","Nhà sản xuất":null,"Loại bơm ":"LTTN","Mã số":"Teco","Số lượng":"6","Lưu lượng(m3/h)":"20","Cột áp (m)":"24","Ngày lắp đặt":null,"Ngày thay ":null,"Quá trình sử dụng":null,"Công suất sử dụng":null,"Tủ điện":null,"layer_id":253,"fid":65,"label":"Tân Phú 2"}},{"type":"Feature","id":66,"geometry":{"type":"Point","coordinates":[105.998413496,10.043114646]},"properties":{"Tên trạm":"Tường Lộc","Nhà sản xuất":null,"Loại bơm ":"LTTN","Mã số":"Teco","Số lượng":"6","Lưu lượng(m3/h)":"72","Cột áp (m)":"22","Ngày lắp đặt":null,"Ngày thay ":null,"Quá trình sử dụng":null,"Công suất sử dụng":null,"Tủ điện":null,"layer_id":253,"fid":66,"label":"Tường Lộc"}},{"type":"Feature","id":67,"geometry":{"type":"Point","coordinates":[106.041316485,10.042803232]},"properties":{"Tên trạm":"Hòa Bình","Nhà sản xuất":null,"Loại bơm ":"LTTN","Mã số":"Teco","Số lượng":"6","Lưu lượng(m3/h)":"70","Cột áp (m)":"20","Ngày lắp đặt":null,"Ngày thay ":null,"Quá trình sử dụng":null,"Công suất sử dụng":null,"Tủ điện":null,"layer_id":253,"fid":67,"label":"Hòa Bình"}},{"type":"Feature","id":68,"geometry":{"type":"Point","coordinates":[106.074279427,9.945931988]},"properties":{"Tên trạm":"Hựu Thành","Nhà sản xuất":null,"Loại bơm ":"LTTN","Mã số":"Teco","Số lượng":"6","Lưu lượng(m3/h)":"44.7","Cột áp (m)":"16","Ngày lắp đặt":null,"Ngày thay ":null,"Quá trình sử dụng":null,"Công suất sử dụng":null,"Tủ điện":null,"layer_id":253,"fid":68,"label":"Hựu Thành"}},{"type":"Feature","id":69,"geometry":{"type":"Point","coordinates":[105.913023104,9.954660075]},"properties":{"Tên trạm":"Lục Sỹ Thành 1","Nhà sản xuất":null,"Loại bơm ":"LTTN","Mã số":"Teco","Số lượng":"6","Lưu lượng(m3/h)":"44.7","Cột áp (m)":"16","Ngày lắp đặt":null,"Ngày thay ":null,"Quá trình sử dụng":null,"Công suất sử dụng":null,"Tủ điện":null,"layer_id":253,"fid":69,"label":"Lục Sỹ Thành 1"}},{"type":"Feature","id":70,"geometry":{"type":"Point","coordinates":[105.912995979,9.951550993]},"properties":{"Tên trạm":"Lục Sỹ Thành 2","Nhà sản xuất":null,"Loại bơm ":"LTTN","Mã số":"Teco","Số lượng":"6","Lưu lượng(m3/h)":"52","Cột áp (m)":"21","Ngày lắp đặt":null,"Ngày thay ":null,"Quá trình sử dụng":null,"Công suất sử dụng":null,"Tủ điện":null,"layer_id":253,"fid":70,"label":"Lục Sỹ Thành 2"}},{"type":"Feature","id":71,"geometry":{"type":"Point","coordinates":[105.880705406,9.982130957]},"properties":{"Tên trạm":"Phú Thành 2","Nhà sản xuất":null,"Loại bơm ":"LTTN","Mã số":"Teco","Số lượng":"6","Lưu lượng(m3/h)":"120","Cột áp (m)":"21","Ngày lắp đặt":null,"Ngày thay ":null,"Quá trình sử dụng":null,"Công suất sử dụng":null,"Tủ điện":null,"layer_id":253,"fid":71,"label":"Phú Thành 2"}},{"type":"Feature","id":72,"geometry":{"type":"Point","coordinates":[105.976441658,10.015027713]},"properties":{"Tên trạm":"Thiện Mỹ","Nhà sản xuất":null,"Loại bơm ":"LTTN","Mã số":"Teco","Số lượng":"6","Lưu lượng(m3/h)":"72","Cột áp (m)":"22","Ngày lắp đặt":null,"Ngày thay ":null,"Quá trình sử dụng":null,"Công suất sử dụng":null,"Tủ điện":null,"layer_id":253,"fid":72,"label":"Thiện Mỹ"}},{"type":"Feature","id":73,"geometry":{"type":"Point","coordinates":[106.051462101,9.984188765]},"properties":{"Tên trạm":"Thới Hòa","Nhà sản xuất":null,"Loại bơm ":"LTTN","Mã số":"Teco","Số lượng":"6","Lưu lượng(m3/h)":"52","Cột áp (m)":"21","Ngày lắp đặt":null,"Ngày thay ":null,"Quá trình sử dụng":null,"Công suất sử dụng":null,"Tủ điện":null,"layer_id":253,"fid":73,"label":"Thới Hòa"}},{"type":"Feature","id":74,"geometry":{"type":"Point","coordinates":[106.030861337,9.952450314]},"properties":{"Tên trạm":"Thuận Thới 2","Nhà sản xuất":null,"Loại bơm ":"LTTN","Mã số":"Teco","Số lượng":"6","Lưu lượng(m3/h)":"45","Cột áp (m)":"20","Ngày lắp đặt":null,"Ngày thay ":null,"Quá trình sử dụng":null,"Công suất sử dụng":null,"Tủ điện":null,"layer_id":253,"fid":74,"label":"Thuận Thới 2"}},{"type":"Feature","id":75,"geometry":{"type":"Point","coordinates":[105.97840765,9.911941712]},"properties":{"Tên trạm":"Tích Thiện","Nhà sản xuất":null,"Loại bơm ":"LTTN","Mã số":"Teco","Số lượng":"6","Lưu lượng(m3/h)":"72","Cột áp (m)":"22","Ngày lắp đặt":null,"Ngày thay ":null,"Quá trình sử dụng":null,"Công suất sử dụng":null,"Tủ điện":null,"layer_id":253,"fid":75,"label":"Tích Thiện"}},{"type":"Feature","id":76,"geometry":{"type":"Point","coordinates":[106.011854617,10.010490462]},"properties":{"Tên trạm":"Trà Côn","Nhà sản xuất":null,"Loại bơm ":"LTTN","Mã số":"Teco","Số lượng":"6","Lưu lượng(m3/h)":"52","Cột áp (m)":"21","Ngày lắp đặt":null,"Ngày thay ":null,"Quá trình sử dụng":null,"Công suất sử dụng":null,"Tủ điện":null,"layer_id":253,"fid":76,"label":"Trà Côn"}},{"type":"Feature","id":77,"geometry":{"type":"Point","coordinates":[106.010679874,9.953232199]},"properties":{"Tên trạm":"Vĩnh Xuân 2","Nhà sản xuất":null,"Loại bơm ":"LTTN","Mã số":"Teco","Số lượng":"6","Lưu lượng(m3/h)":"120","Cột áp (m)":"21","Ngày lắp đặt":null,"Ngày thay ":null,"Quá trình sử dụng":null,"Công suất sử dụng":null,"Tủ điện":null,"layer_id":253,"fid":77,"label":"Vĩnh Xuân 2"}},{"type":"Feature","id":78,"geometry":{"type":"Point","coordinates":[106.040537876,10.079277737]},"properties":{"Tên trạm":"Xuân Hiệp","Nhà sản xuất":null,"Loại bơm ":"LTTN","Mã số":"Teco","Số lượng":"6","Lưu lượng(m3/h)":"30","Cột áp (m)":"28","Ngày lắp đặt":null,"Ngày thay ":null,"Quá trình sử dụng":null,"Công suất sử dụng":null,"Tủ điện":null,"layer_id":253,"fid":78,"label":"Xuân Hiệp"}},{"type":"Feature","id":79,"geometry":{"type":"Point","coordinates":[106.131929566,9.985998852]},"properties":{"Tên trạm":"Hiếu Liên ","Nhà sản xuất":null,"Loại bơm ":"LTTN","Mã số":"Teco","Số lượng":"6","Lưu lượng(m3/h)":"80","Cột áp (m)":"24","Ngày lắp đặt":null,"Ngày thay ":null,"Quá trình sử dụng":null,"Công suất sử dụng":null,"Tủ điện":null,"layer_id":253,"fid":79,"label":"Hiếu Liên "}},{"type":"Feature","id":80,"geometry":{"type":"Point","coordinates":[106.112296119,9.93909255]},"properties":{"Tên trạm":"Hiếu Nghĩa","Nhà sản xuất":null,"Loại bơm ":"LTTN","Mã số":"Teco","Số lượng":"6","Lưu lượng(m3/h)":"52","Cột áp (m)":"21","Ngày lắp đặt":null,"Ngày thay ":null,"Quá trình sử dụng":null,"Công suất sử dụng":null,"Tủ điện":null,"layer_id":253,"fid":80,"label":"Hiếu Nghĩa"}},{"type":"Feature","id":81,"geometry":{"type":"Point","coordinates":[106.10941346,10.031744968]},"properties":{"Tên trạm":"Hiếu Nhơn","Nhà sản xuất":null,"Loại bơm ":"LTTN","Mã số":"Teco","Số lượng":"6","Lưu lượng(m3/h)":"43.3","Cột áp (m)":"24","Ngày lắp đặt":null,"Ngày thay ":null,"Quá trình sử dụng":null,"Công suất sử dụng":null,"Tủ điện":null,"layer_id":253,"fid":81,"label":"Hiếu Nhơn"}},{"type":"Feature","id":82,"geometry":{"type":"Point","coordinates":[106.094508608,9.987035143]},"properties":{"Tên trạm":"Hiếu Thành","Nhà sản xuất":null,"Loại bơm ":"LTTN","Mã số":"Teco","Số lượng":"6","Lưu lượng(m3/h)":"50","Cột áp (m)":"30","Ngày lắp đặt":null,"Ngày thay ":null,"Quá trình sử dụng":null,"Công suất sử dụng":null,"Tủ điện":null,"layer_id":253,"fid":82,"label":"Hiếu Thành"}},{"type":"Feature","id":83,"geometry":{"type":"Point","coordinates":[106.182348171,10.159102163]},"properties":{"Tên trạm":"Quới Thiện","Nhà sản xuất":null,"Loại bơm ":"LTTN","Mã số":"Teco","Số lượng":"6","Lưu lượng(m3/h)":"120","Cột áp (m)":"21","Ngày lắp đặt":null,"Ngày thay ":null,"Quá trình sử dụng":null,"Công suất sử dụng":null,"Tủ điện":null,"layer_id":253,"fid":83,"label":"Quới Thiện"}},{"type":"Feature","id":84,"geometry":{"type":"Point","coordinates":[106.084645788,10.112221702]},"properties":{"Tên trạm":"Tân An Luông","Nhà sản xuất":null,"Loại bơm ":"LTTN","Mã số":"Teco","Số lượng":"6","Lưu lượng(m3/h)":"52","Cột áp (m)":"21","Ngày lắp đặt":null,"Ngày thay ":null,"Quá trình sử dụng":null,"Công suất sử dụng":null,"Tủ điện":null,"layer_id":253,"fid":84,"label":"Tân An Luông"}},{"type":"Feature","id":85,"geometry":{"type":"Point","coordinates":[106.127574884,10.163180718]},"properties":{"Tên trạm":"Tân Quới Trung","Nhà sản xuất":null,"Loại bơm ":"LTTN","Mã số":"Teco","Số lượng":"6","Lưu lượng(m3/h)":"72","Cột áp (m)":"22","Ngày lắp đặt":null,"Ngày thay ":null,"Quá trình sử dụng":null,"Công suất sử dụng":null,"Tủ điện":null,"layer_id":253,"fid":85,"label":"Tân Quới Trung"}},{"type":"Feature","id":86,"geometry":{"type":"Point","coordinates":[106.231352541,10.114912095]},"properties":{"Tên trạm":"Thanh Bình","Nhà sản xuất":null,"Loại bơm ":"LTTN","Mã số":"Teco","Số lượng":"6","Lưu lượng(m3/h)":"50","Cột áp (m)":"20","Ngày lắp đặt":null,"Ngày thay ":null,"Quá trình sử dụng":null,"Công suất sử dụng":null,"Tủ điện":null,"layer_id":253,"fid":86,"label":"Thanh Bình"}},{"type":"Feature","id":87,"geometry":{"type":"Point","coordinates":[106.12459555,10.028488976]},"properties":{"Tên trạm":"Trung An 2","Nhà sản xuất":null,"Loại bơm ":"LTTN","Mã số":"Teco","Số lượng":"6","Lưu lượng(m3/h)":"85","Cột áp (m)":"16","Ngày lắp đặt":null,"Ngày thay ":null,"Quá trình sử dụng":null,"Công suất sử dụng":null,"Tủ điện":null,"layer_id":253,"fid":87,"label":"Trung An 2"}},{"type":"Feature","id":88,"geometry":{"type":"Point","coordinates":[106.12865789,10.12423786]},"properties":{"Tên trạm":"Trung Chánh","Nhà sản xuất":null,"Loại bơm ":"LTTN","Mã số":"Teco","Số lượng":"6","Lưu lượng(m3/h)":"72","Cột áp (m)":"22","Ngày lắp đặt":null,"Ngày thay ":null,"Quá trình sử dụng":null,"Công suất sử dụng":null,"Tủ điện":null,"layer_id":253,"fid":88,"label":"Trung Chánh"}},{"type":"Feature","id":89,"geometry":{"type":"Point","coordinates":[106.156918398,10.111452555]},"properties":{"Tên trạm":"Trung Hiệp 2","Nhà sản xuất":null,"Loại bơm ":"LTTN","Mã số":"Teco","Số lượng":"6","Lưu lượng(m3/h)":"20","Cột áp (m)":"24","Ngày lắp đặt":null,"Ngày thay ":null,"Quá trình sử dụng":null,"Công suất sử dụng":null,"Tủ điện":null,"layer_id":253,"fid":89,"label":"Trung Hiệp 2"}},{"type":"Feature","id":90,"geometry":{"type":"Point","coordinates":[106.197938586,10.055204292]},"properties":{"Tên trạm":"Trung Ngãi 1","Nhà sản xuất":null,"Loại bơm ":"LTTN","Mã số":"Teco","Số lượng":"6","Lưu lượng(m3/h)":"52","Cột áp (m)":"21","Ngày lắp đặt":null,"Ngày thay ":null,"Quá trình sử dụng":null,"Công suất sử dụng":null,"Tủ điện":null,"layer_id":253,"fid":90,"label":"Trung Ngãi 1"}},{"type":"Feature","id":91,"geometry":{"type":"Point","coordinates":[106.177215352,10.026152589]},"properties":{"Tên trạm":"Trung Ngãi 2","Nhà sản xuất":null,"Loại bơm ":"LTTN","Mã số":"Teco","Số lượng":"6","Lưu lượng(m3/h)":"52","Cột áp (m)":"21","Ngày lắp đặt":null,"Ngày thay ":null,"Quá trình sử dụng":null,"Công suất sử dụng":null,"Tủ điện":null,"layer_id":253,"fid":91,"label":"Trung Ngãi 2"}},{"type":"Feature","id":92,"geometry":{"type":"Point","coordinates":[106.21440867,10.048605264]},"properties":{"Tên trạm":"Trung Nghĩa","Nhà sản xuất":null,"Loại bơm ":"LTTN","Mã số":"Teco","Số lượng":"6","Lưu lượng(m3/h)":"100","Cột áp (m)":"19","Ngày lắp đặt":null,"Ngày thay ":null,"Quá trình sử dụng":null,"Công suất sử dụng":null,"Tủ điện":null,"layer_id":253,"fid":92,"label":"Trung Nghĩa"}},{"type":"Feature","id":93,"geometry":{"type":"Point","coordinates":[106.186374983,10.130252398]},"properties":{"Tên trạm":"Trung Thành Tây","Nhà sản xuất":null,"Loại bơm ":"LTTN","Mã số":"Teco","Số lượng":"6","Lưu lượng(m3/h)":null,"Cột áp (m)":null,"Ngày lắp đặt":null,"Ngày thay ":null,"Quá trình sử dụng":null,"Công suất sử dụng":null,"Tủ điện":null,"layer_id":253,"fid":93,"label":"Trung Thành Tây"}},{"type":"Feature","id":94,"geometry":{"type":"Point","coordinates":[106.104956182,10.231325209]},"properties":{"Tên trạm":"Mỹ An 3","Nhà sản xuất":null,"Loại bơm ":"LTTN","Mã số":"Teco","Số lượng":"6","Lưu lượng(m3/h)":null,"Cột áp (m)":null,"Ngày lắp đặt":null,"Ngày thay ":null,"Quá trình sử dụng":null,"Công suất sử dụng":null,"Tủ điện":null,"layer_id":253,"fid":94,"label":"Mỹ An 3"}}]}
