{"type":"FeatureCollection","name":"Công trình thu ","metadata":{"source":"https://hatang.vinhlong.gov.vn/","downloaded_at":"2026-07-20T01:12:56+00:00","layer_id":254,"layer_name":"Công trình thu ","catalog_endpoints":["/map/publicLayers2?inputs=nuoc_sach"],"requested_bbox":[104.0,8.0,108.0,12.0],"tile_size":0.0,"tile_count":1,"tile_errors":[],"feature_count":92,"coordinate_order":"x,y (thường là longitude,latitude theo cấu hình EPSG:4326 của WebGIS)"},"features":[{"type":"Feature","id":86,"geometry":{"type":"Point","coordinates":[106.136221824,10.026031877]},"properties":{"Tên trạm":"Trung An 2","Điểm thu nước":"Sông Nhà Đài","Đường kính":null,"Loại công trình thu":null,"Ngày lắp đặt":null,"Quá trình sử dụng":null,"Ghi chú":null,"toa_do_x":null,"toa_do_y":null,"layer_id":254,"fid":86,"label":"Trung An 2"}},{"type":"Feature","id":91,"geometry":{"type":"Point","coordinates":[106.112228036,9.938981831]},"properties":{"Tên trạm":"Hiếu Nghĩa","Điểm thu nước":"Sông Trà Ngoa","Đường kính":null,"Loại công trình thu":null,"Ngày lắp đặt":null,"Quá trình sử dụng":null,"Ghi chú":null,"toa_do_x":null,"toa_do_y":null,"layer_id":254,"fid":91,"label":"Hiếu Nghĩa"}},{"type":"Feature","id":75,"geometry":{"type":"Point","coordinates":[105.904914737,10.030632913]},"properties":{"Tên trạm":"Ngãi Tứ","Điểm thu nước":"Sông Đông Thạnh","Đường kính":null,"Loại công trình thu":null,"Ngày lắp đặt":null,"Quá trình sử dụng":null,"Ghi chú":null,"toa_do_x":null,"toa_do_y":null,"layer_id":254,"fid":75,"label":"Ngãi Tứ"}},{"type":"Feature","id":76,"geometry":{"type":"Point","coordinates":[105.913417339,9.954541326]},"properties":{"Tên trạm":"Lục Sỹ Thành 1","Điểm thu nước":"Sông Hậu","Đường kính":null,"Loại công trình thu":null,"Ngày lắp đặt":null,"Quá trình sử dụng":null,"Ghi chú":null,"toa_do_x":null,"toa_do_y":null,"layer_id":254,"fid":76,"label":"Lục Sỹ Thành 1"}},{"type":"Feature","id":77,"geometry":{"type":"Point","coordinates":[105.977876186,9.911609888]},"properties":{"Tên trạm":"Tích Thiện","Điểm thu nước":"Sông Hậu","Đường kính":null,"Loại công trình thu":null,"Ngày lắp đặt":null,"Quá trình sử dụng":null,"Ghi chú":null,"toa_do_x":null,"toa_do_y":null,"layer_id":254,"fid":77,"label":"Tích Thiện"}},{"type":"Feature","id":78,"geometry":{"type":"Point","coordinates":[106.010245085,9.953232408]},"properties":{"Tên trạm":"Vĩnh Xuân 2","Điểm thu nước":"Rạch Vĩnh Lợi","Đường kính":null,"Loại công trình thu":null,"Ngày lắp đặt":null,"Quá trình sử dụng":null,"Ghi chú":null,"toa_do_x":null,"toa_do_y":null,"layer_id":254,"fid":78,"label":"Vĩnh Xuân 2"}},{"type":"Feature","id":79,"geometry":{"type":"Point","coordinates":[106.030852497,9.952448532]},"properties":{"Tên trạm":"Thuận Thới 2","Điểm thu nước":"Rạch Vĩnh Thới","Đường kính":null,"Loại công trình thu":null,"Ngày lắp đặt":null,"Quá trình sử dụng":null,"Ghi chú":null,"toa_do_x":null,"toa_do_y":null,"layer_id":254,"fid":79,"label":"Thuận Thới 2"}},{"type":"Feature","id":81,"geometry":{"type":"Point","coordinates":[106.0514009,9.984077811]},"properties":{"Tên trạm":"Thới Hòa","Điểm thu nước":"Rạch Trà Ngoa","Đường kính":null,"Loại công trình thu":null,"Ngày lắp đặt":null,"Quá trình sử dụng":null,"Ghi chú":null,"toa_do_x":null,"toa_do_y":null,"layer_id":254,"fid":81,"label":"Thới Hòa"}},{"type":"Feature","id":82,"geometry":{"type":"Point","coordinates":[106.012004614,10.010677278]},"properties":{"Tên trạm":"Trà Côn","Điểm thu nước":"Rạch Trà Ngoa","Đường kính":null,"Loại công trình thu":null,"Ngày lắp đặt":null,"Quá trình sử dụng":null,"Ghi chú":null,"toa_do_x":null,"toa_do_y":null,"layer_id":254,"fid":82,"label":"Trà Côn"}},{"type":"Feature","id":83,"geometry":{"type":"Point","coordinates":[106.094411463,9.987058416]},"properties":{"Tên trạm":"Hiếu Thành","Điểm thu nước":"Kênh Ngã Chạch","Đường kính":null,"Loại công trình thu":null,"Ngày lắp đặt":null,"Quá trình sử dụng":null,"Ghi chú":null,"toa_do_x":null,"toa_do_y":null,"layer_id":254,"fid":83,"label":"Hiếu Thành"}},{"type":"Feature","id":84,"geometry":{"type":"Point","coordinates":[106.131942272,9.986023083]},"properties":{"Tên trạm":"Hiếu Liên","Điểm thu nước":"Rạch Bà Bảy","Đường kính":null,"Loại công trình thu":null,"Ngày lắp đặt":null,"Quá trình sử dụng":null,"Ghi chú":null,"toa_do_x":null,"toa_do_y":null,"layer_id":254,"fid":84,"label":"Hiếu Liên"}},{"type":"Feature","id":85,"geometry":{"type":"Point","coordinates":[106.109358072,10.031778216]},"properties":{"Tên trạm":"Hiếu Nhơn","Điểm thu nước":"Rạch Bưng Trường","Đường kính":null,"Loại công trình thu":null,"Ngày lắp đặt":null,"Quá trình sử dụng":null,"Ghi chú":null,"toa_do_x":null,"toa_do_y":null,"layer_id":254,"fid":85,"label":"Hiếu Nhơn"}},{"type":"Feature","id":69,"geometry":{"type":"Point","coordinates":[105.912995979,9.951550993]},"properties":{"Tên trạm":"Lục Sỹ Thành 2","Điểm thu nước":"Sông Hậu","Đường kính":null,"Loại công trình thu":null,"Ngày lắp đặt":null,"Quá trình sử dụng":null,"Ghi chú":null,"toa_do_x":null,"toa_do_y":null,"layer_id":254,"fid":69,"label":"Lục Sỹ Thành 2"}},{"type":"Feature","id":60,"geometry":{"type":"Point","coordinates":[106.084220409,10.112440288]},"properties":{"Tên trạm":"Tân An Luông","Điểm thu nước":"Sông Mang Thít","Đường kính":null,"Loại công trình thu":null,"Ngày lắp đặt":null,"Quá trình sử dụng":null,"Ghi chú":null,"toa_do_x":null,"toa_do_y":null,"layer_id":254,"fid":60,"label":"Tân An Luông"}},{"type":"Feature","id":61,"geometry":{"type":"Point","coordinates":[106.129142046,10.124067664]},"properties":{"Tên trạm":"Trung Chánh","Điểm thu nước":"Sông Vũng Liêm","Đường kính":null,"Loại công trình thu":null,"Ngày lắp đặt":null,"Quá trình sử dụng":null,"Ghi chú":null,"toa_do_x":null,"toa_do_y":null,"layer_id":254,"fid":61,"label":"Trung Chánh"}},{"type":"Feature","id":66,"geometry":{"type":"Point","coordinates":[105.979329944,10.017870963]},"properties":{"Tên trạm":"Loan Mỹ","Điểm thu nước":"Sông Tam Bình","Đường kính":null,"Loại công trình thu":null,"Ngày lắp đặt":null,"Quá trình sử dụng":null,"Ghi chú":null,"toa_do_x":null,"toa_do_y":null,"layer_id":254,"fid":66,"label":"Loan Mỹ"}},{"type":"Feature","id":62,"geometry":{"type":"Point","coordinates":[106.157079935,10.11164099]},"properties":{"Tên trạm":"Trung Hiệp 2","Điểm thu nước":"Sông Vũng Liêm","Đường kính":null,"Loại công trình thu":null,"Ngày lắp đặt":null,"Quá trình sử dụng":null,"Ghi chú":null,"toa_do_x":null,"toa_do_y":null,"layer_id":254,"fid":62,"label":"Trung Hiệp 2"}},{"type":"Feature","id":63,"geometry":{"type":"Point","coordinates":[106.187968254,10.131261349]},"properties":{"Tên trạm":"Trung Thành Tây","Điểm thu nước":"Sông Cổ Chiên","Đường kính":null,"Loại công trình thu":null,"Ngày lắp đặt":null,"Quá trình sử dụng":null,"Ghi chú":null,"toa_do_x":null,"toa_do_y":null,"layer_id":254,"fid":63,"label":"Trung Thành Tây"}},{"type":"Feature","id":64,"geometry":{"type":"Point","coordinates":[106.231414676,10.114945471]},"properties":{"Tên trạm":"Thanh Bình","Điểm thu nước":"Rạch Cần Thơ","Đường kính":null,"Loại công trình thu":null,"Ngày lắp đặt":null,"Quá trình sử dụng":null,"Ghi chú":null,"toa_do_x":null,"toa_do_y":null,"layer_id":254,"fid":64,"label":"Thanh Bình"}},{"type":"Feature","id":65,"geometry":{"type":"Point","coordinates":[105.997917652,10.043209791]},"properties":{"Tên trạm":"Tường Lộc","Điểm thu nước":"Sông Mang Thít","Đường kính":null,"Loại công trình thu":null,"Ngày lắp đặt":null,"Quá trình sử dụng":null,"Ghi chú":null,"toa_do_x":null,"toa_do_y":null,"layer_id":254,"fid":65,"label":"Tường Lộc"}},{"type":"Feature","id":67,"geometry":{"type":"Point","coordinates":[105.976261497,10.015253127]},"properties":{"Tên trạm":"Thiện Mỹ","Điểm thu nước":"Sông Tam Bình","Đường kính":null,"Loại công trình thu":null,"Ngày lắp đặt":null,"Quá trình sử dụng":null,"Ghi chú":null,"toa_do_x":null,"toa_do_y":null,"layer_id":254,"fid":67,"label":"Thiện Mỹ"}},{"type":"Feature","id":68,"geometry":{"type":"Point","coordinates":[105.944080353,10.000522435]},"properties":{"Tên trạm":"Bình Ninh","Điểm thu nước":"Sông Cả Là","Đường kính":null,"Loại công trình thu":null,"Ngày lắp đặt":null,"Quá trình sử dụng":null,"Ghi chú":null,"toa_do_x":null,"toa_do_y":null,"layer_id":254,"fid":68,"label":"Bình Ninh"}},{"type":"Feature","id":70,"geometry":{"type":"Point","coordinates":[105.880812407,9.982554317]},"properties":{"Tên trạm":"Phú Thành 2","Điểm thu nước":"Sông Hậu","Đường kính":null,"Loại công trình thu":null,"Ngày lắp đặt":null,"Quá trình sử dụng":null,"Ghi chú":null,"toa_do_x":null,"toa_do_y":null,"layer_id":254,"fid":70,"label":"Phú Thành 2"}},{"type":"Feature","id":71,"geometry":{"type":"Point","coordinates":[105.873827934,9.994994402]},"properties":{"Tên trạm":"Đông Thành","Điểm thu nước":"Sông Trà Ôn","Đường kính":null,"Loại công trình thu":null,"Ngày lắp đặt":null,"Quá trình sử dụng":null,"Ghi chú":null,"toa_do_x":null,"toa_do_y":null,"layer_id":254,"fid":71,"label":"Đông Thành"}},{"type":"Feature","id":72,"geometry":{"type":"Point","coordinates":[105.842322707,10.019550025]},"properties":{"Tên trạm":"Mỹ Hòa","Điểm thu nước":"Sông Trà Ôn","Đường kính":null,"Loại công trình thu":null,"Ngày lắp đặt":null,"Quá trình sử dụng":null,"Ghi chú":null,"toa_do_x":null,"toa_do_y":null,"layer_id":254,"fid":72,"label":"Mỹ Hòa"}},{"type":"Feature","id":73,"geometry":{"type":"Point","coordinates":[105.848218203,10.0428316]},"properties":{"Tên trạm":"Đông Bình","Điểm thu nước":"Sông Trà Ôn","Đường kính":null,"Loại công trình thu":null,"Ngày lắp đặt":null,"Quá trình sử dụng":null,"Ghi chú":null,"toa_do_x":null,"toa_do_y":null,"layer_id":254,"fid":73,"label":"Đông Bình"}},{"type":"Feature","id":74,"geometry":{"type":"Point","coordinates":[105.862015486,10.044444948]},"properties":{"Tên trạm":"Đông Thạnh","Điểm thu nước":"Sông Trà Ôn","Đường kính":null,"Loại công trình thu":null,"Ngày lắp đặt":null,"Quá trình sử dụng":null,"Ghi chú":null,"toa_do_x":null,"toa_do_y":null,"layer_id":254,"fid":74,"label":"Đông Thạnh"}},{"type":"Feature","id":37,"geometry":{"type":"Point","coordinates":[105.824904442,10.143006742]},"properties":{"Tên trạm":"Nguyễn Văn Thảnh","Điểm thu nước":"Sông Tầm Vu","Đường kính":null,"Loại công trình thu":null,"Ngày lắp đặt":null,"Quá trình sử dụng":null,"Ghi chú":null,"toa_do_x":null,"toa_do_y":null,"layer_id":254,"fid":37,"label":"Nguyễn Văn Thảnh"}},{"type":"Feature","id":38,"geometry":{"type":"Point","coordinates":[105.826846361,10.104830861]},"properties":{"Tên trạm":"Mỹ Thuận","Điểm thu nước":"Sông Mỹ Thuận","Đường kính":null,"Loại công trình thu":null,"Ngày lắp đặt":null,"Quá trình sử dụng":null,"Ghi chú":null,"toa_do_x":null,"toa_do_y":null,"layer_id":254,"fid":38,"label":"Mỹ Thuận"}},{"type":"Feature","id":39,"geometry":{"type":"Point","coordinates":[105.832647979,10.081526488]},"properties":{"Tên trạm":"Thuận An","Điểm thu nước":"Rạch Múc","Đường kính":null,"Loại công trình thu":null,"Ngày lắp đặt":null,"Quá trình sử dụng":null,"Ghi chú":null,"toa_do_x":null,"toa_do_y":null,"layer_id":254,"fid":39,"label":"Thuận An"}},{"type":"Feature","id":14,"geometry":{"type":"Point","coordinates":[106.053493023,10.241948068]},"properties":{"Tên trạm":"Mỹ An 1","Điểm thu nước":"Sông Cổ Chiên","Đường kính":null,"Loại công trình thu":null,"Ngày lắp đặt":null,"Quá trình sử dụng":null,"Ghi chú":null,"toa_do_x":null,"toa_do_y":null,"layer_id":254,"fid":14,"label":"Mỹ An 1"}},{"type":"Feature","id":92,"geometry":{"type":"Point","coordinates":[106.105006188,10.231390223]},"properties":{"Tên trạm":"Mỹ An 3","Điểm thu nước":"Sông Cái Kè","Đường kính":null,"Loại công trình thu":null,"Ngày lắp đặt":null,"Quá trình sử dụng":null,"Ghi chú":null,"toa_do_x":null,"toa_do_y":null,"layer_id":254,"fid":92,"label":"Mỹ An 3"}},{"type":"Feature","id":41,"geometry":{"type":"Point","coordinates":[105.881989896,10.107276365]},"properties":{"Tên trạm":"Phú Hưng","Điểm thu nước":"Sông Mù U","Đường kính":null,"Loại công trình thu":null,"Ngày lắp đặt":null,"Quá trình sử dụng":null,"Ghi chú":null,"toa_do_x":null,"toa_do_y":null,"layer_id":254,"fid":41,"label":"Phú Hưng"}},{"type":"Feature","id":42,"geometry":{"type":"Point","coordinates":[105.88483572,10.090121627]},"properties":{"Tên trạm":"Tân Phú 2","Điểm thu nước":"Sông Trà Dả","Đường kính":null,"Loại công trình thu":null,"Ngày lắp đặt":null,"Quá trình sử dụng":null,"Ghi chú":null,"toa_do_x":null,"toa_do_y":null,"layer_id":254,"fid":42,"label":"Tân Phú 2"}},{"type":"Feature","id":24,"geometry":{"type":"Point","coordinates":[106.181488037,10.15899539]},"properties":{"Tên trạm":"Quới Thiện","Điểm thu nước":"Sông Cổ Chiên","Đường kính":null,"Loại công trình thu":null,"Ngày lắp đặt":null,"Quá trình sử dụng":null,"Ghi chú":null,"toa_do_x":null,"toa_do_y":null,"layer_id":254,"fid":24,"label":"Quới Thiện"}},{"type":"Feature","id":25,"geometry":{"type":"Point","coordinates":[106.155653,10.158517957]},"properties":{"Tên trạm":"Chánh An","Điểm thu nước":"Sông Mang Thít","Đường kính":null,"Loại công trình thu":null,"Ngày lắp đặt":null,"Quá trình sử dụng":null,"Ghi chú":null,"toa_do_x":null,"toa_do_y":null,"layer_id":254,"fid":25,"label":"Chánh An"}},{"type":"Feature","id":26,"geometry":{"type":"Point","coordinates":[106.128004789,10.163689256]},"properties":{"Tên trạm":"Tân Quới Trung","Điểm thu nước":"Sông Mang Thít","Đường kính":null,"Loại công trình thu":null,"Ngày lắp đặt":null,"Quá trình sử dụng":null,"Ghi chú":null,"toa_do_x":null,"toa_do_y":null,"layer_id":254,"fid":26,"label":"Tân Quới Trung"}},{"type":"Feature","id":27,"geometry":{"type":"Point","coordinates":[106.097416878,10.158807635]},"properties":{"Tên trạm":"Tân An Hội","Điểm thu nước":"Sông Mang Thít","Đường kính":null,"Loại công trình thu":null,"Ngày lắp đặt":null,"Quá trình sử dụng":null,"Ghi chú":null,"toa_do_x":null,"toa_do_y":null,"layer_id":254,"fid":27,"label":"Tân An Hội"}},{"type":"Feature","id":1,"geometry":{"type":"Point","coordinates":[105.964668989,10.310438275]},"properties":{"Tên trạm":"Đồng Phú","Điểm thu nước":"Sông Tiền","Đường kính":null,"Loại công trình thu":null,"Ngày lắp đặt":null,"Quá trình sử dụng":null,"Ghi chú":null,"toa_do_x":null,"toa_do_y":null,"layer_id":254,"fid":1,"label":"Đồng Phú"}},{"type":"Feature","id":2,"geometry":{"type":"Point","coordinates":[105.974214971,10.268843919]},"properties":{"Tên trạm":"An Bình","Điểm thu nước":"Rạch Bà Vú","Đường kính":null,"Loại công trình thu":null,"Ngày lắp đặt":null,"Quá trình sử dụng":null,"Ghi chú":null,"toa_do_x":null,"toa_do_y":null,"layer_id":254,"fid":2,"label":"An Bình"}},{"type":"Feature","id":3,"geometry":{"type":"Point","coordinates":[105.985386372,10.271715224]},"properties":{"Tên trạm":"Hòa Ninh 2","Điểm thu nước":"Sông Hòa Ninh","Đường kính":null,"Loại công trình thu":null,"Ngày lắp đặt":null,"Quá trình sử dụng":null,"Ghi chú":null,"toa_do_x":null,"toa_do_y":null,"layer_id":254,"fid":3,"label":"Hòa Ninh 2"}},{"type":"Feature","id":4,"geometry":{"type":"Point","coordinates":[105.937235355,10.235191584]},"properties":{"Tên trạm":"Tân Hạnh 1","Điểm thu nước":"Sông Cái Cam","Đường kính":null,"Loại công trình thu":null,"Ngày lắp đặt":null,"Quá trình sử dụng":null,"Ghi chú":null,"toa_do_x":null,"toa_do_y":null,"layer_id":254,"fid":4,"label":"Tân Hạnh 1"}},{"type":"Feature","id":5,"geometry":{"type":"Point","coordinates":[105.918331146,10.205601454]},"properties":{"Tên trạm":"Tân Hạnh 2","Điểm thu nước":"Sông Phú An","Đường kính":null,"Loại công trình thu":null,"Ngày lắp đặt":null,"Quá trình sử dụng":null,"Ghi chú":null,"toa_do_x":null,"toa_do_y":null,"layer_id":254,"fid":5,"label":"Tân Hạnh 2"}},{"type":"Feature","id":15,"geometry":{"type":"Point","coordinates":[106.101644039,10.236269832]},"properties":{"Tên trạm":"Mỹ Phước","Điểm thu nước":"Sông Cổ Chiên","Đường kính":null,"Loại công trình thu":null,"Ngày lắp đặt":null,"Quá trình sử dụng":null,"Ghi chú":null,"toa_do_x":null,"toa_do_y":null,"layer_id":254,"fid":15,"label":"Mỹ Phước"}},{"type":"Feature","id":16,"geometry":{"type":"Point","coordinates":[106.090013981,10.207618475]},"properties":{"Tên trạm":"Nhơn Phú","Điểm thu nước":"Rạch Cái Mới","Đường kính":null,"Loại công trình thu":null,"Ngày lắp đặt":null,"Quá trình sử dụng":null,"Ghi chú":null,"toa_do_x":null,"toa_do_y":null,"layer_id":254,"fid":16,"label":"Nhơn Phú"}},{"type":"Feature","id":17,"geometry":{"type":"Point","coordinates":[106.097867489,10.19605279]},"properties":{"Tên trạm":"Chánh Hội 1","Điểm thu nước":"Rạch Cái Nhum","Đường kính":null,"Loại công trình thu":null,"Ngày lắp đặt":null,"Quá trình sử dụng":null,"Ghi chú":null,"toa_do_x":null,"toa_do_y":null,"layer_id":254,"fid":17,"label":"Chánh Hội 1"}},{"type":"Feature","id":18,"geometry":{"type":"Point","coordinates":[106.104283333,10.187032521]},"properties":{"Tên trạm":"Chánh Hội 2","Điểm thu nước":"Rạch Cái Nhum","Đường kính":null,"Loại công trình thu":null,"Ngày lắp đặt":null,"Quá trình sử dụng":null,"Ghi chú":null,"toa_do_x":null,"toa_do_y":null,"layer_id":254,"fid":18,"label":"Chánh Hội 2"}},{"type":"Feature","id":55,"geometry":{"type":"Point","coordinates":[106.003410816,10.083327591]},"properties":{"Tên trạm":"Hòa Lộc","Điểm thu nước":"Sông Ba Kè","Đường kính":null,"Loại công trình thu":null,"Ngày lắp đặt":null,"Quá trình sử dụng":null,"Ghi chú":null,"toa_do_x":null,"toa_do_y":null,"layer_id":254,"fid":55,"label":"Hòa Lộc"}},{"type":"Feature","id":93,"geometry":{"type":"Point","coordinates":[106.00213717,10.21441389]},"properties":{"Tên trạm":"Long Phước 2","Điểm thu nước":"Sông Long Hồ","Đường kính":null,"Loại công trình thu":null,"Ngày lắp đặt":null,"Quá trình sử dụng":null,"Ghi chú":null,"toa_do_x":null,"toa_do_y":null,"layer_id":254,"fid":93,"label":"Long Phước 2"}},{"type":"Feature","id":40,"geometry":{"type":"Point","coordinates":[105.850659013,10.107444003]},"properties":{"Tên trạm":"Thuận Phú B","Điểm thu nước":"Sông Mỹ Thuận","Đường kính":null,"Loại công trình thu":null,"Ngày lắp đặt":null,"Quá trình sử dụng":null,"Ghi chú":null,"toa_do_x":null,"toa_do_y":null,"layer_id":254,"fid":40,"label":"Thuận Phú B"}},{"type":"Feature","id":59,"geometry":{"type":"Point","coordinates":[106.077148062,10.124339324]},"properties":{"Tên trạm":"Tân Long Hội","Điểm thu nước":"Sông Mang Thít","Đường kính":null,"Loại công trình thu":null,"Ngày lắp đặt":null,"Quá trình sử dụng":null,"Ghi chú":null,"toa_do_x":null,"toa_do_y":null,"layer_id":254,"fid":59,"label":"Tân Long Hội"}},{"type":"Feature","id":87,"geometry":{"type":"Point","coordinates":[106.041460633,10.042847693]},"properties":{"Tên trạm":"Hòa Bình","Điểm thu nước":"Sông Hòa Bình","Đường kính":null,"Loại công trình thu":null,"Ngày lắp đặt":null,"Quá trình sử dụng":null,"Ghi chú":null,"toa_do_x":null,"toa_do_y":null,"layer_id":254,"fid":87,"label":"Hòa Bình"}},{"type":"Feature","id":88,"geometry":{"type":"Point","coordinates":[106.177207232,10.026128814]},"properties":{"Tên trạm":"Trung Ngãi 2","Điểm thu nước":"Sông Giồng Ké","Đường kính":null,"Loại công trình thu":null,"Ngày lắp đặt":null,"Quá trình sử dụng":null,"Ghi chú":null,"toa_do_x":null,"toa_do_y":null,"layer_id":254,"fid":88,"label":"Trung Ngãi 2"}},{"type":"Feature","id":89,"geometry":{"type":"Point","coordinates":[106.198045313,10.055103377]},"properties":{"Tên trạm":"Trung Ngãi 1","Điểm thu nước":"Rạch Đồn","Đường kính":null,"Loại công trình thu":null,"Ngày lắp đặt":null,"Quá trình sử dụng":null,"Ghi chú":null,"toa_do_x":null,"toa_do_y":null,"layer_id":254,"fid":89,"label":"Trung Ngãi 1"}},{"type":"Feature","id":90,"geometry":{"type":"Point","coordinates":[106.214386672,10.048625842]},"properties":{"Tên trạm":"Trung Nghĩa","Điểm thu nước":"Sông Giồng Ké","Đường kính":null,"Loại công trình thu":null,"Ngày lắp đặt":null,"Quá trình sử dụng":null,"Ghi chú":null,"toa_do_x":null,"toa_do_y":null,"layer_id":254,"fid":90,"label":"Trung Nghĩa"}},{"type":"Feature","id":6,"geometry":{"type":"Point","coordinates":[105.984970293,10.224734081]},"properties":{"Tên trạm":"Long Phước 1","Điểm thu nước":"Sông Ông Me","Đường kính":null,"Loại công trình thu":null,"Ngày lắp đặt":null,"Quá trình sử dụng":null,"Ghi chú":null,"toa_do_x":null,"toa_do_y":null,"layer_id":254,"fid":6,"label":"Long Phước 1"}},{"type":"Feature","id":7,"geometry":{"type":"Point","coordinates":[105.973010659,10.216579735]},"properties":{"Tên trạm":"Phước Hậu 1","Điểm thu nước":"Sông Ông Me","Đường kính":null,"Loại công trình thu":null,"Ngày lắp đặt":null,"Quá trình sử dụng":null,"Ghi chú":null,"toa_do_x":null,"toa_do_y":null,"layer_id":254,"fid":7,"label":"Phước Hậu 1"}},{"type":"Feature","id":8,"geometry":{"type":"Point","coordinates":[105.966179073,10.207512528]},"properties":{"Tên trạm":"Long Phước 3","Điểm thu nước":"Rạch Đìa Chuối","Đường kính":null,"Loại công trình thu":null,"Ngày lắp đặt":null,"Quá trình sử dụng":null,"Ghi chú":null,"toa_do_x":null,"toa_do_y":null,"layer_id":254,"fid":8,"label":"Long Phước 3"}},{"type":"Feature","id":9,"geometry":{"type":"Point","coordinates":[106.002423763,10.209914446]},"properties":{"Tên trạm":"Long Mỹ","Điểm thu nước":"Sông Long Hồ","Đường kính":null,"Loại công trình thu":null,"Ngày lắp đặt":null,"Quá trình sử dụng":null,"Ghi chú":null,"toa_do_x":null,"toa_do_y":null,"layer_id":254,"fid":9,"label":"Long Mỹ"}},{"type":"Feature","id":23,"geometry":{"type":"Point","coordinates":[106.139924526,10.205006003]},"properties":{"Tên trạm":"An Phước","Điểm thu nước":"Sông Cổ Chiên","Đường kính":null,"Loại công trình thu":null,"Ngày lắp đặt":null,"Quá trình sử dụng":null,"Ghi chú":null,"toa_do_x":null,"toa_do_y":null,"layer_id":254,"fid":23,"label":"An Phước"}},{"type":"Feature","id":45,"geometry":{"type":"Point","coordinates":[105.918002576,10.086235777]},"properties":{"Tên trạm":"Long Phú 2","Điểm thu nước":"Sông Cái Sơn","Đường kính":null,"Loại công trình thu":null,"Ngày lắp đặt":null,"Quá trình sử dụng":null,"Ghi chú":null,"toa_do_x":null,"toa_do_y":null,"layer_id":254,"fid":45,"label":"Long Phú 2"}},{"type":"Feature","id":32,"geometry":{"type":"Point","coordinates":[105.748670697,10.157512128]},"properties":{"Tên trạm":"Tân Thành 2","Điểm thu nước":"Rạch Tắc Bà Đông","Đường kính":null,"Loại công trình thu":null,"Ngày lắp đặt":null,"Quá trình sử dụng":null,"Ghi chú":null,"toa_do_x":null,"toa_do_y":null,"layer_id":254,"fid":32,"label":"Tân Thành 2"}},{"type":"Feature","id":54,"geometry":{"type":"Point","coordinates":[105.989656448,10.110216737]},"properties":{"Tên trạm":"Hậu Lộc","Điểm thu nước":"Sông Cái Ngang","Đường kính":null,"Loại công trình thu":null,"Ngày lắp đặt":null,"Quá trình sử dụng":null,"Ghi chú":null,"toa_do_x":null,"toa_do_y":null,"layer_id":254,"fid":54,"label":"Hậu Lộc"}},{"type":"Feature","id":43,"geometry":{"type":"Point","coordinates":[105.906003714,10.110195279]},"properties":{"Tên trạm":"Song Phú","Điểm thu nước":"Sông Cái Ngang","Đường kính":null,"Loại công trình thu":null,"Ngày lắp đặt":null,"Quá trình sử dụng":null,"Ghi chú":null,"toa_do_x":null,"toa_do_y":null,"layer_id":254,"fid":43,"label":"Song Phú"}},{"type":"Feature","id":44,"geometry":{"type":"Point","coordinates":[105.934134722,10.099701136]},"properties":{"Tên trạm":"Mỹ Lộc 2","Điểm thu nước":"Sông Cái Ngang","Đường kính":null,"Loại công trình thu":null,"Ngày lắp đặt":null,"Quá trình sử dụng":null,"Ghi chú":null,"toa_do_x":null,"toa_do_y":null,"layer_id":254,"fid":44,"label":"Mỹ Lộc 2"}},{"type":"Feature","id":46,"geometry":{"type":"Point","coordinates":[105.91347903,10.076818541]},"properties":{"Tên trạm":"Long Phú 1","Điểm thu nước":"Sông Cái Sơn","Đường kính":null,"Loại công trình thu":null,"Ngày lắp đặt":null,"Quá trình sử dụng":null,"Ghi chú":null,"toa_do_x":null,"toa_do_y":null,"layer_id":254,"fid":46,"label":"Long Phú 1"}},{"type":"Feature","id":33,"geometry":{"type":"Point","coordinates":[105.758804083,10.182829499]},"properties":{"Tên trạm":"Tân Hưng","Điểm thu nước":"Rạch Tắc Bà Đông","Đường kính":null,"Loại công trình thu":null,"Ngày lắp đặt":null,"Quá trình sử dụng":null,"Ghi chú":null,"toa_do_x":null,"toa_do_y":null,"layer_id":254,"fid":33,"label":"Tân Hưng"}},{"type":"Feature","id":34,"geometry":{"type":"Point","coordinates":[105.774655938,10.171218887]},"properties":{"Tên trạm":"Tân Thành 1","Điểm thu nước":"Kênh Mười Thới","Đường kính":null,"Loại công trình thu":null,"Ngày lắp đặt":null,"Quá trình sử dụng":null,"Ghi chú":null,"toa_do_x":null,"toa_do_y":null,"layer_id":254,"fid":34,"label":"Tân Thành 1"}},{"type":"Feature","id":35,"geometry":{"type":"Point","coordinates":[105.774065852,10.141628087]},"properties":{"Tên trạm":"Thành Đông","Điểm thu nước":"Sông Miếu Bà","Đường kính":null,"Loại công trình thu":null,"Ngày lắp đặt":null,"Quá trình sử dụng":null,"Ghi chú":null,"toa_do_x":null,"toa_do_y":null,"layer_id":254,"fid":35,"label":"Thành Đông"}},{"type":"Feature","id":36,"geometry":{"type":"Point","coordinates":[105.786414742,10.131349862]},"properties":{"Tên trạm":"Thành Trung","Điểm thu nước":"Kênh Sáu Sơn","Đường kính":null,"Loại công trình thu":null,"Ngày lắp đặt":null,"Quá trình sử dụng":null,"Ghi chú":null,"toa_do_x":null,"toa_do_y":null,"layer_id":254,"fid":36,"label":"Thành Trung"}},{"type":"Feature","id":19,"geometry":{"type":"Point","coordinates":[106.054887772,10.185106695]},"properties":{"Tên trạm":"Bình Phước 2","Điểm thu nước":"Rạch Bình Thới","Đường kính":null,"Loại công trình thu":null,"Ngày lắp đặt":null,"Quá trình sử dụng":null,"Ghi chú":null,"toa_do_x":null,"toa_do_y":null,"layer_id":254,"fid":19,"label":"Bình Phước 2"}},{"type":"Feature","id":20,"geometry":{"type":"Point","coordinates":[106.029573083,10.170992911]},"properties":{"Tên trạm":"Bình Phước 1","Điểm thu nước":"Rạch Bình Phước","Đường kính":null,"Loại công trình thu":null,"Ngày lắp đặt":null,"Quá trình sử dụng":null,"Ghi chú":null,"toa_do_x":null,"toa_do_y":null,"layer_id":254,"fid":20,"label":"Bình Phước 1"}},{"type":"Feature","id":21,"geometry":{"type":"Point","coordinates":[106.00821197,10.166969597]},"properties":{"Tên trạm":"Long An 1","Điểm thu nước":"Kênh Mới","Đường kính":null,"Loại công trình thu":null,"Ngày lắp đặt":null,"Quá trình sử dụng":null,"Ghi chú":null,"toa_do_x":null,"toa_do_y":null,"layer_id":254,"fid":21,"label":"Long An 1"}},{"type":"Feature","id":22,"geometry":{"type":"Point","coordinates":[106.01457417,10.153268874]},"properties":{"Tên trạm":"Long An 2","Điểm thu nước":"Rạch Cái Sao","Đường kính":null,"Loại công trình thu":null,"Ngày lắp đặt":null,"Quá trình sử dụng":null,"Ghi chú":null,"toa_do_x":null,"toa_do_y":null,"layer_id":254,"fid":22,"label":"Long An 2"}},{"type":"Feature","id":28,"geometry":{"type":"Point","coordinates":[106.043048501,10.149948299]},"properties":{"Tên trạm":"Tân Long 2","Điểm thu nước":"Rạch Lung","Đường kính":null,"Loại công trình thu":null,"Ngày lắp đặt":null,"Quá trình sử dụng":null,"Ghi chú":null,"toa_do_x":null,"toa_do_y":null,"layer_id":254,"fid":28,"label":"Tân Long 2"}},{"type":"Feature","id":49,"geometry":{"type":"Point","coordinates":[105.921919942,10.166116655]},"properties":{"Tên trạm":"Phú Quới","Điểm thu nước":"Sông Phú An","Đường kính":null,"Loại công trình thu":null,"Ngày lắp đặt":null,"Quá trình sử dụng":null,"Ghi chú":null,"toa_do_x":null,"toa_do_y":null,"layer_id":254,"fid":49,"label":"Phú Quới"}},{"type":"Feature","id":50,"geometry":{"type":"Point","coordinates":[105.951878875,10.164282694]},"properties":{"Tên trạm":"Hòa Phú 2","Điểm thu nước":"Rạch Sơn Bửu","Đường kính":null,"Loại công trình thu":null,"Ngày lắp đặt":null,"Quá trình sử dụng":null,"Ghi chú":null,"toa_do_x":null,"toa_do_y":null,"layer_id":254,"fid":50,"label":"Hòa Phú 2"}},{"type":"Feature","id":51,"geometry":{"type":"Point","coordinates":[105.970159471,10.14925763]},"properties":{"Tên trạm":"Tân Lộc","Điểm thu nước":"Rạch Cái Sao","Đường kính":null,"Loại công trình thu":null,"Ngày lắp đặt":null,"Quá trình sử dụng":null,"Ghi chú":null,"toa_do_x":null,"toa_do_y":null,"layer_id":254,"fid":51,"label":"Tân Lộc"}},{"type":"Feature","id":53,"geometry":{"type":"Point","coordinates":[105.964070857,10.101173669]},"properties":{"Tên trạm":"Mỹ Lộc 1","Điểm thu nước":"Sông Cái Ngang","Đường kính":null,"Loại công trình thu":null,"Ngày lắp đặt":null,"Quá trình sử dụng":null,"Ghi chú":null,"toa_do_x":null,"toa_do_y":null,"layer_id":254,"fid":53,"label":"Mỹ Lộc 1"}},{"type":"Feature","id":56,"geometry":{"type":"Point","coordinates":[106.030688882,10.086562335]},"properties":{"Tên trạm":"Hòa Hiệp","Điểm thu nước":"Sông Mang Thít","Đường kính":null,"Loại công trình thu":null,"Ngày lắp đặt":null,"Quá trình sử dụng":null,"Ghi chú":null,"toa_do_x":null,"toa_do_y":null,"layer_id":254,"fid":56,"label":"Hòa Hiệp"}},{"type":"Feature","id":57,"geometry":{"type":"Point","coordinates":[106.040360928,10.079553723]},"properties":{"Tên trạm":"Xuân Hiệp","Điểm thu nước":"Sông Mang Thít","Đường kính":null,"Loại công trình thu":null,"Ngày lắp đặt":null,"Quá trình sử dụng":null,"Ghi chú":null,"toa_do_x":null,"toa_do_y":null,"layer_id":254,"fid":57,"label":"Xuân Hiệp"}},{"type":"Feature","id":58,"geometry":{"type":"Point","coordinates":[106.070680618,10.098055601]},"properties":{"Tên trạm":"Hòa Thạnh 2","Điểm thu nước":"Sông Mang Thít","Đường kính":null,"Loại công trình thu":null,"Ngày lắp đặt":null,"Quá trình sử dụng":null,"Ghi chú":null,"toa_do_x":null,"toa_do_y":null,"layer_id":254,"fid":58,"label":"Hòa Thạnh 2"}},{"type":"Feature","id":52,"geometry":{"type":"Point","coordinates":[105.953626335,10.128479227]},"properties":{"Tên trạm":"Phú Lộc","Điểm thu nước":"Rạch Ngã Cạy","Đường kính":null,"Loại công trình thu":null,"Ngày lắp đặt":null,"Quá trình sử dụng":null,"Ghi chú":null,"toa_do_x":null,"toa_do_y":null,"layer_id":254,"fid":52,"label":"Phú Lộc"}},{"type":"Feature","id":10,"geometry":{"type":"Point","coordinates":[105.995492935,10.190173388]},"properties":{"Tên trạm":"Phú Đức 2","Điểm thu nước":"Rạch Cái Sao","Đường kính":null,"Loại công trình thu":null,"Ngày lắp đặt":null,"Quá trình sử dụng":null,"Ghi chú":null,"toa_do_x":null,"toa_do_y":null,"layer_id":254,"fid":10,"label":"Phú Đức 2"}},{"type":"Feature","id":11,"geometry":{"type":"Point","coordinates":[105.969649851,10.184788853]},"properties":{"Tên trạm":"Lộc Hòa","Điểm thu nước":"Sông Ông Me","Đường kính":null,"Loại công trình thu":null,"Ngày lắp đặt":null,"Quá trình sử dụng":null,"Ghi chú":null,"toa_do_x":null,"toa_do_y":null,"layer_id":254,"fid":11,"label":"Lộc Hòa"}},{"type":"Feature","id":29,"geometry":{"type":"Point","coordinates":[105.710036159,10.15358001]},"properties":{"Tên trạm":"Tân An Thạnh","Điểm thu nước":"Kênh 20-3","Đường kính":null,"Loại công trình thu":null,"Ngày lắp đặt":null,"Quá trình sử dụng":null,"Ghi chú":null,"toa_do_x":null,"toa_do_y":null,"layer_id":254,"fid":29,"label":"Tân An Thạnh"}},{"type":"Feature","id":30,"geometry":{"type":"Point","coordinates":[105.71532011,10.140300393]},"properties":{"Tên trạm":"Tân Lược","Điểm thu nước":"Rạch Tắc Bà Đông","Đường kính":null,"Loại công trình thu":null,"Ngày lắp đặt":null,"Quá trình sử dụng":null,"Ghi chú":null,"toa_do_x":null,"toa_do_y":null,"layer_id":254,"fid":30,"label":"Tân Lược"}},{"type":"Feature","id":31,"geometry":{"type":"Point","coordinates":[105.729570687,10.122794956]},"properties":{"Tên trạm":"Tân Bình","Điểm thu nước":"Rạch Tắc Bà Đông","Đường kính":null,"Loại công trình thu":null,"Ngày lắp đặt":null,"Quá trình sử dụng":null,"Ghi chú":null,"toa_do_x":null,"toa_do_y":null,"layer_id":254,"fid":31,"label":"Tân Bình"}},{"type":"Feature","id":12,"geometry":{"type":"Point","coordinates":[106.027572155,10.207760632]},"properties":{"Tên trạm":"Hòa Tịnh","Điểm thu nước":"Sông Bình Hòa","Đường kính":null,"Loại công trình thu":null,"Ngày lắp đặt":null,"Quá trình sử dụng":null,"Ghi chú":null,"toa_do_x":null,"toa_do_y":null,"layer_id":254,"fid":12,"label":"Hòa Tịnh"}},{"type":"Feature","id":47,"geometry":{"type":"Point","coordinates":[105.885216594,10.145490468]},"properties":{"Tên trạm":"Phú Thịnh","Điểm thu nước":"Sông Hòa Thành 2","Đường kính":null,"Loại công trình thu":null,"Ngày lắp đặt":null,"Quá trình sử dụng":null,"Ghi chú":null,"toa_do_x":null,"toa_do_y":null,"layer_id":254,"fid":47,"label":"Phú Thịnh"}},{"type":"Feature","id":48,"geometry":{"type":"Point","coordinates":[105.898761749,10.168365687]},"properties":{"Tên trạm":"Thạnh Quới","Điểm thu nước":"Sông Tràm Lô","Đường kính":null,"Loại công trình thu":null,"Ngày lắp đặt":null,"Quá trình sử dụng":null,"Ghi chú":null,"toa_do_x":null,"toa_do_y":null,"layer_id":254,"fid":48,"label":"Thạnh Quới"}},{"type":"Feature","id":13,"geometry":{"type":"Point","coordinates":[106.035715342,10.243404508]},"properties":{"Tên trạm":"Mỹ An 2","Điểm thu nước":"Sông Cái Lóc","Đường kính":null,"Loại công trình thu":null,"Ngày lắp đặt":null,"Quá trình sử dụng":null,"Ghi chú":null,"toa_do_x":null,"toa_do_y":null,"layer_id":254,"fid":13,"label":"Mỹ An 2"}}]}
