{"type":"FeatureCollection","name":"Đồng hồ tổng nước sạch ","metadata":{"source":"https://hatang.vinhlong.gov.vn/","downloaded_at":"2026-07-20T01:13:16+00:00","layer_id":257,"layer_name":"Đồng hồ tổng nước sạch ","catalog_endpoints":["/map/publicLayers2?inputs=nuoc_sach"],"requested_bbox":[104.0,8.0,108.0,12.0],"tile_size":0.0,"tile_count":1,"tile_errors":[],"feature_count":93,"coordinate_order":"x,y (thường là longitude,latitude theo cấu hình EPSG:4326 của WebGIS)"},"features":[{"type":"Feature","id":187,"geometry":{"type":"Point","coordinates":[105.848208144,10.0430262]},"properties":{"Trạm cấp nước":"Đông Bình","Số Seri đồng hồ":null,"Loại đồng hồ":null,"Chỉ số đầu kỳ":null,"Chỉ số cuối kỳ":null,"Nước sản xuất":null,"Ngày lắp đặt":null,"Ngày thay đồng hồ":null,"Trạng thái":"Đang hoạt động","Kích thước đồng hồ":null,"Nhà sản xuất":null,"Áp lực tối đa":null,"Áp lực tối thiểu":null,"toa_do_x":105.84820814397,"toa_do_y":10.0430261996718,"layer_id":257,"fid":187,"label":"Đông Bình"}},{"type":"Feature","id":188,"geometry":{"type":"Point","coordinates":[105.874152975,9.995013747]},"properties":{"Trạm cấp nước":"Đông Thành","Số Seri đồng hồ":null,"Loại đồng hồ":null,"Chỉ số đầu kỳ":null,"Chỉ số cuối kỳ":null,"Nước sản xuất":null,"Ngày lắp đặt":null,"Ngày thay đồng hồ":null,"Trạng thái":"Đang hoạt động","Kích thước đồng hồ":null,"Nhà sản xuất":null,"Áp lực tối đa":null,"Áp lực tối thiểu":null,"toa_do_x":105.874152974757,"toa_do_y":9.99501374689709,"layer_id":257,"fid":188,"label":"Đông Thành"}},{"type":"Feature","id":189,"geometry":{"type":"Point","coordinates":[105.861985209,10.044539482]},"properties":{"Trạm cấp nước":"Đông Thạnh","Số Seri đồng hồ":null,"Loại đồng hồ":null,"Chỉ số đầu kỳ":null,"Chỉ số cuối kỳ":null,"Nước sản xuất":null,"Ngày lắp đặt":null,"Ngày thay đồng hồ":null,"Trạng thái":"Đang hoạt động","Kích thước đồng hồ":null,"Nhà sản xuất":null,"Áp lực tối đa":null,"Áp lực tối thiểu":null,"toa_do_x":105.861985209154,"toa_do_y":10.0445394820745,"layer_id":257,"fid":189,"label":"Đông Thạnh"}},{"type":"Feature","id":190,"geometry":{"type":"Point","coordinates":[105.842144071,10.019406553]},"properties":{"Trạm cấp nước":"Mỹ Hòa","Số Seri đồng hồ":null,"Loại đồng hồ":null,"Chỉ số đầu kỳ":null,"Chỉ số cuối kỳ":null,"Nước sản xuất":null,"Ngày lắp đặt":null,"Ngày thay đồng hồ":null,"Trạng thái":"Đang hoạt động","Kích thước đồng hồ":null,"Nhà sản xuất":null,"Áp lực tối đa":null,"Áp lực tối thiểu":null,"toa_do_x":105.842144070818,"toa_do_y":10.0194065526001,"layer_id":257,"fid":190,"label":"Mỹ Hòa"}},{"type":"Feature","id":191,"geometry":{"type":"Point","coordinates":[105.832775217,10.081414994]},"properties":{"Trạm cấp nước":"Thuận An ","Số Seri đồng hồ":null,"Loại đồng hồ":null,"Chỉ số đầu kỳ":null,"Chỉ số cuối kỳ":null,"Nước sản xuất":null,"Ngày lắp đặt":null,"Ngày thay đồng hồ":null,"Trạng thái":"Đang hoạt động","Kích thước đồng hồ":null,"Nhà sản xuất":null,"Áp lực tối đa":null,"Áp lực tối thiểu":null,"toa_do_x":105.832775216778,"toa_do_y":10.0814149939867,"layer_id":257,"fid":191,"label":"Thuận An "}},{"type":"Feature","id":192,"geometry":{"type":"Point","coordinates":[105.850822967,10.107382039]},"properties":{"Trạm cấp nước":"Thuận Phú B","Số Seri đồng hồ":null,"Loại đồng hồ":null,"Chỉ số đầu kỳ":null,"Chỉ số cuối kỳ":null,"Nước sản xuất":null,"Ngày lắp đặt":null,"Ngày thay đồng hồ":null,"Trạng thái":"Đang hoạt động","Kích thước đồng hồ":null,"Nhà sản xuất":null,"Áp lực tối đa":null,"Áp lực tối thiểu":null,"toa_do_x":105.850822966505,"toa_do_y":10.107382039308,"layer_id":257,"fid":192,"label":"Thuận Phú B"}},{"type":"Feature","id":193,"geometry":{"type":"Point","coordinates":[105.826622058,10.104920464]},"properties":{"Trạm cấp nước":"Mỹ Thuận","Số Seri đồng hồ":null,"Loại đồng hồ":null,"Chỉ số đầu kỳ":null,"Chỉ số cuối kỳ":null,"Nước sản xuất":null,"Ngày lắp đặt":null,"Ngày thay đồng hồ":null,"Trạng thái":"Đang hoạt động","Kích thước đồng hồ":null,"Nhà sản xuất":null,"Áp lực tối đa":null,"Áp lực tối thiểu":null,"toa_do_x":105.826622057549,"toa_do_y":10.1049204642668,"layer_id":257,"fid":193,"label":"Mỹ Thuận"}},{"type":"Feature","id":194,"geometry":{"type":"Point","coordinates":[105.824707739,10.143042016]},"properties":{"Trạm cấp nước":"Nguyễn Văn Thảnh","Số Seri đồng hồ":null,"Loại đồng hồ":null,"Chỉ số đầu kỳ":null,"Chỉ số cuối kỳ":null,"Nước sản xuất":null,"Ngày lắp đặt":null,"Ngày thay đồng hồ":null,"Trạng thái":"Đang hoạt động","Kích thước đồng hồ":null,"Nhà sản xuất":null,"Áp lực tối đa":null,"Áp lực tối thiểu":null,"toa_do_x":105.824707738717,"toa_do_y":10.1430420164371,"layer_id":257,"fid":194,"label":"Nguyễn Văn Thảnh"}},{"type":"Feature","id":195,"geometry":{"type":"Point","coordinates":[105.710205803,10.153479041]},"properties":{"Trạm cấp nước":"Tân An Thạnh","Số Seri đồng hồ":null,"Loại đồng hồ":null,"Chỉ số đầu kỳ":"         ","Chỉ số cuối kỳ":null,"Nước sản xuất":null,"Ngày lắp đặt":null,"Ngày thay đồng hồ":null,"Trạng thái":"Đang hoạt động","Kích thước đồng hồ":null,"Nhà sản xuất":null,"Áp lực tối đa":null,"Áp lực tối thiểu":null,"toa_do_x":105.710205802973,"toa_do_y":10.1534790407256,"layer_id":257,"fid":195,"label":"Tân An Thạnh"}},{"type":"Feature","id":196,"geometry":{"type":"Point","coordinates":[105.729604145,10.122932125]},"properties":{"Trạm cấp nước":"Tân Bình","Số Seri đồng hồ":null,"Loại đồng hồ":null,"Chỉ số đầu kỳ":null,"Chỉ số cuối kỳ":null,"Nước sản xuất":null,"Ngày lắp đặt":null,"Ngày thay đồng hồ":null,"Trạng thái":"Đang hoạt động","Kích thước đồng hồ":null,"Nhà sản xuất":null,"Áp lực tối đa":null,"Áp lực tối thiểu":null,"toa_do_x":105.72960414492,"toa_do_y":10.1229321254164,"layer_id":257,"fid":196,"label":"Tân Bình"}},{"type":"Feature","id":197,"geometry":{"type":"Point","coordinates":[105.758606335,10.182983653]},"properties":{"Trạm cấp nước":"Tân Hưng","Số Seri đồng hồ":null,"Loại đồng hồ":null,"Chỉ số đầu kỳ":null,"Chỉ số cuối kỳ":null,"Nước sản xuất":null,"Ngày lắp đặt":null,"Ngày thay đồng hồ":null,"Trạng thái":"Đang hoạt động","Kích thước đồng hồ":null,"Nhà sản xuất":null,"Áp lực tối đa":null,"Áp lực tối thiểu":null,"toa_do_x":105.758606335195,"toa_do_y":10.1829836525623,"layer_id":257,"fid":197,"label":"Tân Hưng"}},{"type":"Feature","id":198,"geometry":{"type":"Point","coordinates":[105.715563429,10.140844267]},"properties":{"Trạm cấp nước":"Tân Lược","Số Seri đồng hồ":null,"Loại đồng hồ":null,"Chỉ số đầu kỳ":null,"Chỉ số cuối kỳ":null,"Nước sản xuất":null,"Ngày lắp đặt":null,"Ngày thay đồng hồ":null,"Trạng thái":"Đang hoạt động","Kích thước đồng hồ":null,"Nhà sản xuất":null,"Áp lực tối đa":null,"Áp lực tối thiểu":null,"toa_do_x":105.715563429461,"toa_do_y":10.1408442673915,"layer_id":257,"fid":198,"label":"Tân Lược"}},{"type":"Feature","id":199,"geometry":{"type":"Point","coordinates":[105.774805442,10.171207224]},"properties":{"Trạm cấp nước":"Tân Thành 1","Số Seri đồng hồ":null,"Loại đồng hồ":null,"Chỉ số đầu kỳ":null,"Chỉ số cuối kỳ":null,"Nước sản xuất":null,"Ngày lắp đặt":null,"Ngày thay đồng hồ":null,"Trạng thái":"Đang hoạt động","Kích thước đồng hồ":null,"Nhà sản xuất":null,"Áp lực tối đa":null,"Áp lực tối thiểu":null,"toa_do_x":105.774805442253,"toa_do_y":10.1712072236451,"layer_id":257,"fid":199,"label":"Tân Thành 1"}},{"type":"Feature","id":200,"geometry":{"type":"Point","coordinates":[105.748775244,10.157430402]},"properties":{"Trạm cấp nước":"Tân Thành 2","Số Seri đồng hồ":null,"Loại đồng hồ":null,"Chỉ số đầu kỳ":null,"Chỉ số cuối kỳ":null,"Nước sản xuất":null,"Ngày lắp đặt":null,"Ngày thay đồng hồ":null,"Trạng thái":"Đang hoạt động","Kích thước đồng hồ":null,"Nhà sản xuất":null,"Áp lực tối đa":null,"Áp lực tối thiểu":null,"toa_do_x":105.748775243859,"toa_do_y":10.1574304022263,"layer_id":257,"fid":200,"label":"Tân Thành 2"}},{"type":"Feature","id":201,"geometry":{"type":"Point","coordinates":[105.773906277,10.144155252]},"properties":{"Trạm cấp nước":"Thành Đông","Số Seri đồng hồ":null,"Loại đồng hồ":null,"Chỉ số đầu kỳ":null,"Chỉ số cuối kỳ":null,"Nước sản xuất":null,"Ngày lắp đặt":null,"Ngày thay đồng hồ":null,"Trạng thái":"Đang hoạt động","Kích thước đồng hồ":null,"Nhà sản xuất":null,"Áp lực tối đa":null,"Áp lực tối thiểu":null,"toa_do_x":105.773906276604,"toa_do_y":10.144155251732,"layer_id":257,"fid":201,"label":"Thành Đông"}},{"type":"Feature","id":202,"geometry":{"type":"Point","coordinates":[105.786296796,10.131450149]},"properties":{"Trạm cấp nước":"Thành Trung","Số Seri đồng hồ":null,"Loại đồng hồ":null,"Chỉ số đầu kỳ":null,"Chỉ số cuối kỳ":null,"Nước sản xuất":null,"Ngày lắp đặt":null,"Ngày thay đồng hồ":null,"Trạng thái":"Đang hoạt động","Kích thước đồng hồ":null,"Nhà sản xuất":null,"Áp lực tối đa":null,"Áp lực tối thiểu":null,"toa_do_x":105.786296796487,"toa_do_y":10.1314501489697,"layer_id":257,"fid":202,"label":"Thành Trung"}},{"type":"Feature","id":203,"geometry":{"type":"Point","coordinates":[105.974178712,10.268862018]},"properties":{"Trạm cấp nước":"An Bình","Số Seri đồng hồ":null,"Loại đồng hồ":null,"Chỉ số đầu kỳ":null,"Chỉ số cuối kỳ":null,"Nước sản xuất":null,"Ngày lắp đặt":null,"Ngày thay đồng hồ":null,"Trạng thái":"Đang hoạt động","Kích thước đồng hồ":null,"Nhà sản xuất":null,"Áp lực tối đa":null,"Áp lực tối thiểu":null,"toa_do_x":105.974178711668,"toa_do_y":10.2688620178989,"layer_id":257,"fid":203,"label":"An Bình"}},{"type":"Feature","id":204,"geometry":{"type":"Point","coordinates":[105.964535354,10.310448468]},"properties":{"Trạm cấp nước":"Đồng Phú","Số Seri đồng hồ":null,"Loại đồng hồ":null,"Chỉ số đầu kỳ":null,"Chỉ số cuối kỳ":null,"Nước sản xuất":null,"Ngày lắp đặt":null,"Ngày thay đồng hồ":null,"Trạng thái":"Đang hoạt động","Kích thước đồng hồ":null,"Nhà sản xuất":null,"Áp lực tối đa":null,"Áp lực tối thiểu":null,"toa_do_x":105.96453535403,"toa_do_y":10.3104484677848,"layer_id":257,"fid":204,"label":"Đồng Phú"}},{"type":"Feature","id":205,"geometry":{"type":"Point","coordinates":[105.985274795,10.271684616]},"properties":{"Trạm cấp nước":"Hòa Ninh 2","Số Seri đồng hồ":null,"Loại đồng hồ":null,"Chỉ số đầu kỳ":null,"Chỉ số cuối kỳ":null,"Nước sản xuất":null,"Ngày lắp đặt":null,"Ngày thay đồng hồ":null,"Trạng thái":"Đang hoạt động","Kích thước đồng hồ":null,"Nhà sản xuất":null,"Áp lực tối đa":null,"Áp lực tối thiểu":null,"toa_do_x":105.985274795343,"toa_do_y":10.2716846164359,"layer_id":257,"fid":205,"label":"Hòa Ninh 2"}},{"type":"Feature","id":206,"geometry":{"type":"Point","coordinates":[105.951810873,10.164283941]},"properties":{"Trạm cấp nước":"Hòa Phú 2","Số Seri đồng hồ":null,"Loại đồng hồ":null,"Chỉ số đầu kỳ":null,"Chỉ số cuối kỳ":null,"Nước sản xuất":null,"Ngày lắp đặt":null,"Ngày thay đồng hồ":null,"Trạng thái":"Đang hoạt động","Kích thước đồng hồ":null,"Nhà sản xuất":null,"Áp lực tối đa":null,"Áp lực tối thiểu":null,"toa_do_x":105.951810872688,"toa_do_y":10.1642839405147,"layer_id":257,"fid":206,"label":"Hòa Phú 2"}},{"type":"Feature","id":207,"geometry":{"type":"Point","coordinates":[105.96960924,10.184737884]},"properties":{"Trạm cấp nước":"Lộc Hòa","Số Seri đồng hồ":null,"Loại đồng hồ":null,"Chỉ số đầu kỳ":null,"Chỉ số cuối kỳ":null,"Nước sản xuất":null,"Ngày lắp đặt":null,"Ngày thay đồng hồ":null,"Trạng thái":"Đang hoạt động","Kích thước đồng hồ":null,"Nhà sản xuất":null,"Áp lực tối đa":null,"Áp lực tối thiểu":null,"toa_do_x":105.969609239524,"toa_do_y":10.1847378843476,"layer_id":257,"fid":207,"label":"Lộc Hòa"}},{"type":"Feature","id":208,"geometry":{"type":"Point","coordinates":[106.00822307,10.16685948]},"properties":{"Trạm cấp nước":"Long An 1","Số Seri đồng hồ":null,"Loại đồng hồ":null,"Chỉ số đầu kỳ":null,"Chỉ số cuối kỳ":null,"Nước sản xuất":null,"Ngày lắp đặt":null,"Ngày thay đồng hồ":null,"Trạng thái":"Đang hoạt động","Kích thước đồng hồ":null,"Nhà sản xuất":null,"Áp lực tối đa":null,"Áp lực tối thiểu":null,"toa_do_x":106.00822307021,"toa_do_y":10.1668594797295,"layer_id":257,"fid":208,"label":"Long An 1"}},{"type":"Feature","id":209,"geometry":{"type":"Point","coordinates":[106.014580323,10.1531789]},"properties":{"Trạm cấp nước":"Long An 2","Số Seri đồng hồ":null,"Loại đồng hồ":null,"Chỉ số đầu kỳ":null,"Chỉ số cuối kỳ":null,"Nước sản xuất":null,"Ngày lắp đặt":null,"Ngày thay đồng hồ":null,"Trạng thái":"Đang hoạt động","Kích thước đồng hồ":null,"Nhà sản xuất":null,"Áp lực tối đa":null,"Áp lực tối thiểu":null,"toa_do_x":106.014580322796,"toa_do_y":10.1531789001414,"layer_id":257,"fid":209,"label":"Long An 2"}},{"type":"Feature","id":210,"geometry":{"type":"Point","coordinates":[105.984975163,10.224732926]},"properties":{"Trạm cấp nước":"Long Phước 1","Số Seri đồng hồ":null,"Loại đồng hồ":null,"Chỉ số đầu kỳ":null,"Chỉ số cuối kỳ":null,"Nước sản xuất":null,"Ngày lắp đặt":null,"Ngày thay đồng hồ":null,"Trạng thái":"Đang hoạt động","Kích thước đồng hồ":null,"Nhà sản xuất":null,"Áp lực tối đa":null,"Áp lực tối thiểu":null,"toa_do_x":105.984975162644,"toa_do_y":10.2247329258135,"layer_id":257,"fid":210,"label":"Long Phước 1"}},{"type":"Feature","id":211,"geometry":{"type":"Point","coordinates":[10.214175551,10.214175551]},"properties":{"Trạm cấp nước":"Long Phước 2","Số Seri đồng hồ":null,"Loại đồng hồ":null,"Chỉ số đầu kỳ":null,"Chỉ số cuối kỳ":null,"Nước sản xuất":null,"Ngày lắp đặt":null,"Ngày thay đồng hồ":null,"Trạng thái":"Đang hoạt động","Kích thước đồng hồ":null,"Nhà sản xuất":null,"Áp lực tối đa":null,"Áp lực tối thiểu":null,"toa_do_x":10.2141755508492,"toa_do_y":10.2141755508492,"layer_id":257,"fid":211,"label":"Long Phước 2"}},{"type":"Feature","id":212,"geometry":{"type":"Point","coordinates":[105.966237971,10.207409699]},"properties":{"Trạm cấp nước":"Long Phước 3","Số Seri đồng hồ":null,"Loại đồng hồ":null,"Chỉ số đầu kỳ":null,"Chỉ số cuối kỳ":null,"Nước sản xuất":null,"Ngày lắp đặt":null,"Ngày thay đồng hồ":null,"Trạng thái":"Đang hoạt động","Kích thước đồng hồ":null,"Nhà sản xuất":null,"Áp lực tối đa":null,"Áp lực tối thiểu":null,"toa_do_x":105.966237971364,"toa_do_y":10.2074096992586,"layer_id":257,"fid":212,"label":"Long Phước 3"}},{"type":"Feature","id":213,"geometry":{"type":"Point","coordinates":[105.995418736,10.190251252]},"properties":{"Trạm cấp nước":"Phú Đức 2","Số Seri đồng hồ":null,"Loại đồng hồ":null,"Chỉ số đầu kỳ":null,"Chỉ số cuối kỳ":null,"Nước sản xuất":null,"Ngày lắp đặt":null,"Ngày thay đồng hồ":null,"Trạng thái":"Đang hoạt động","Kích thước đồng hồ":null,"Nhà sản xuất":null,"Áp lực tối đa":null,"Áp lực tối thiểu":null,"toa_do_x":105.995418735676,"toa_do_y":10.1902512522252,"layer_id":257,"fid":213,"label":"Phú Đức 2"}},{"type":"Feature","id":214,"geometry":{"type":"Point","coordinates":[105.922309884,10.166027271]},"properties":{"Trạm cấp nước":"Phú Quới","Số Seri đồng hồ":null,"Loại đồng hồ":null,"Chỉ số đầu kỳ":null,"Chỉ số cuối kỳ":null,"Nước sản xuất":null,"Ngày lắp đặt":null,"Ngày thay đồng hồ":null,"Trạng thái":"Đang hoạt động","Kích thước đồng hồ":null,"Nhà sản xuất":null,"Áp lực tối đa":null,"Áp lực tối thiểu":null,"toa_do_x":105.922309884089,"toa_do_y":10.1660272712764,"layer_id":257,"fid":214,"label":"Phú Quới"}},{"type":"Feature","id":215,"geometry":{"type":"Point","coordinates":[105.97302401,10.216604143]},"properties":{"Trạm cấp nước":"Phước Hậu 1","Số Seri đồng hồ":null,"Loại đồng hồ":null,"Chỉ số đầu kỳ":null,"Chỉ số cuối kỳ":null,"Nước sản xuất":null,"Ngày lắp đặt":null,"Ngày thay đồng hồ":null,"Trạng thái":"Đang hoạt động","Kích thước đồng hồ":null,"Nhà sản xuất":null,"Áp lực tối đa":null,"Áp lực tối thiểu":null,"toa_do_x":105.973024009923,"toa_do_y":10.2166041427671,"layer_id":257,"fid":215,"label":"Phước Hậu 1"}},{"type":"Feature","id":216,"geometry":{"type":"Point","coordinates":[105.93715085,10.235306825]},"properties":{"Trạm cấp nước":"Tân Hạnh 1","Số Seri đồng hồ":null,"Loại đồng hồ":null,"Chỉ số đầu kỳ":null,"Chỉ số cuối kỳ":null,"Nước sản xuất":null,"Ngày lắp đặt":null,"Ngày thay đồng hồ":null,"Trạng thái":"Đang hoạt động","Kích thước đồng hồ":null,"Nhà sản xuất":null,"Áp lực tối đa":null,"Áp lực tối thiểu":null,"toa_do_x":105.93715085033,"toa_do_y":10.2353068246612,"layer_id":257,"fid":216,"label":"Tân Hạnh 1"}},{"type":"Feature","id":217,"geometry":{"type":"Point","coordinates":[105.918216865,10.205684554]},"properties":{"Trạm cấp nước":"Tân Hạnh 2","Số Seri đồng hồ":null,"Loại đồng hồ":null,"Chỉ số đầu kỳ":null,"Chỉ số cuối kỳ":null,"Nước sản xuất":null,"Ngày lắp đặt":null,"Ngày thay đồng hồ":null,"Trạng thái":"Đang hoạt động","Kích thước đồng hồ":null,"Nhà sản xuất":null,"Áp lực tối đa":null,"Áp lực tối thiểu":null,"toa_do_x":105.91821686537,"toa_do_y":10.2056845536709,"layer_id":257,"fid":217,"label":"Tân Hạnh 2"}},{"type":"Feature","id":218,"geometry":{"type":"Point","coordinates":[105.898701789,10.168249789]},"properties":{"Trạm cấp nước":"Thạnh Quới 1","Số Seri đồng hồ":null,"Loại đồng hồ":null,"Chỉ số đầu kỳ":null,"Chỉ số cuối kỳ":null,"Nước sản xuất":null,"Ngày lắp đặt":null,"Ngày thay đồng hồ":null,"Trạng thái":"Đang hoạt động","Kích thước đồng hồ":null,"Nhà sản xuất":null,"Áp lực tối đa":null,"Áp lực tối thiểu":null,"toa_do_x":105.898701789192,"toa_do_y":10.1682497889012,"layer_id":257,"fid":218,"label":"Thạnh Quới 1"}},{"type":"Feature","id":219,"geometry":{"type":"Point","coordinates":[106.139603413,10.204765237]},"properties":{"Trạm cấp nước":"An Phước","Số Seri đồng hồ":null,"Loại đồng hồ":null,"Chỉ số đầu kỳ":null,"Chỉ số cuối kỳ":null,"Nước sản xuất":null,"Ngày lắp đặt":null,"Ngày thay đồng hồ":null,"Trạng thái":"Đang hoạt động","Kích thước đồng hồ":null,"Nhà sản xuất":null,"Áp lực tối đa":null,"Áp lực tối thiểu":null,"toa_do_x":106.139603412648,"toa_do_y":10.2047652367128,"layer_id":257,"fid":219,"label":"An Phước"}},{"type":"Feature","id":220,"geometry":{"type":"Point","coordinates":[106.029438862,10.170984927]},"properties":{"Trạm cấp nước":"Bình Phước 1","Số Seri đồng hồ":null,"Loại đồng hồ":null,"Chỉ số đầu kỳ":null,"Chỉ số cuối kỳ":null,"Nước sản xuất":null,"Ngày lắp đặt":null,"Ngày thay đồng hồ":null,"Trạng thái":"Đang hoạt động","Kích thước đồng hồ":null,"Nhà sản xuất":null,"Áp lực tối đa":null,"Áp lực tối thiểu":null,"toa_do_x":106.029438861831,"toa_do_y":10.1709849267487,"layer_id":257,"fid":220,"label":"Bình Phước 1"}},{"type":"Feature","id":221,"geometry":{"type":"Point","coordinates":[106.054879729,10.185173924]},"properties":{"Trạm cấp nước":"Bình Phước 2","Số Seri đồng hồ":null,"Loại đồng hồ":null,"Chỉ số đầu kỳ":null,"Chỉ số cuối kỳ":null,"Nước sản xuất":null,"Ngày lắp đặt":null,"Ngày thay đồng hồ":null,"Trạng thái":"Đang hoạt động","Kích thước đồng hồ":null,"Nhà sản xuất":null,"Áp lực tối đa":null,"Áp lực tối thiểu":null,"toa_do_x":106.054879729211,"toa_do_y":10.1851739237926,"layer_id":257,"fid":221,"label":"Bình Phước 2"}},{"type":"Feature","id":222,"geometry":{"type":"Point","coordinates":[106.155527697,10.158967029]},"properties":{"Trạm cấp nước":"Chánh An","Số Seri đồng hồ":null,"Loại đồng hồ":null,"Chỉ số đầu kỳ":null,"Chỉ số cuối kỳ":null,"Nước sản xuất":null,"Ngày lắp đặt":null,"Ngày thay đồng hồ":null,"Trạng thái":"Đang hoạt động","Kích thước đồng hồ":null,"Nhà sản xuất":null,"Áp lực tối đa":null,"Áp lực tối thiểu":null,"toa_do_x":106.155527697295,"toa_do_y":10.1589670286788,"layer_id":257,"fid":222,"label":"Chánh An"}},{"type":"Feature","id":223,"geometry":{"type":"Point","coordinates":[106.097557052,10.195912119]},"properties":{"Trạm cấp nước":"Chánh Hội 1","Số Seri đồng hồ":null,"Loại đồng hồ":null,"Chỉ số đầu kỳ":null,"Chỉ số cuối kỳ":null,"Nước sản xuất":null,"Ngày lắp đặt":null,"Ngày thay đồng hồ":null,"Trạng thái":"Đang hoạt động","Kích thước đồng hồ":null,"Nhà sản xuất":null,"Áp lực tối đa":null,"Áp lực tối thiểu":null,"toa_do_x":106.097557051804,"toa_do_y":10.1959121193397,"layer_id":257,"fid":223,"label":"Chánh Hội 1"}},{"type":"Feature","id":224,"geometry":{"type":"Point","coordinates":[106.104413017,10.187156579]},"properties":{"Trạm cấp nước":"Chánh Hội 2","Số Seri đồng hồ":null,"Loại đồng hồ":null,"Chỉ số đầu kỳ":null,"Chỉ số cuối kỳ":null,"Nước sản xuất":null,"Ngày lắp đặt":null,"Ngày thay đồng hồ":null,"Trạng thái":"Đang hoạt động","Kích thước đồng hồ":null,"Nhà sản xuất":null,"Áp lực tối đa":null,"Áp lực tối thiểu":null,"toa_do_x":106.104413016805,"toa_do_y":10.1871565785712,"layer_id":257,"fid":224,"label":"Chánh Hội 2"}},{"type":"Feature","id":225,"geometry":{"type":"Point","coordinates":[106.02760105,10.207732162]},"properties":{"Trạm cấp nước":"Hòa Tịnh","Số Seri đồng hồ":null,"Loại đồng hồ":null,"Chỉ số đầu kỳ":null,"Chỉ số cuối kỳ":null,"Nước sản xuất":null,"Ngày lắp đặt":null,"Ngày thay đồng hồ":null,"Trạng thái":"Đang hoạt động","Kích thước đồng hồ":null,"Nhà sản xuất":null,"Áp lực tối đa":null,"Áp lực tối thiểu":null,"toa_do_x":106.027601049852,"toa_do_y":10.2077321617599,"layer_id":257,"fid":225,"label":"Hòa Tịnh"}},{"type":"Feature","id":226,"geometry":{"type":"Point","coordinates":[106.002522956,10.210004978]},"properties":{"Trạm cấp nước":"Long Mỹ","Số Seri đồng hồ":null,"Loại đồng hồ":null,"Chỉ số đầu kỳ":null,"Chỉ số cuối kỳ":null,"Nước sản xuất":null,"Ngày lắp đặt":null,"Ngày thay đồng hồ":null,"Trạng thái":"Đang hoạt động","Kích thước đồng hồ":null,"Nhà sản xuất":null,"Áp lực tối đa":null,"Áp lực tối thiểu":null,"toa_do_x":106.00252295553,"toa_do_y":10.2100049781393,"layer_id":257,"fid":226,"label":"Long Mỹ"}},{"type":"Feature","id":227,"geometry":{"type":"Point","coordinates":[106.053626768,10.241693558]},"properties":{"Trạm cấp nước":"Mỹ An 1","Số Seri đồng hồ":null,"Loại đồng hồ":null,"Chỉ số đầu kỳ":null,"Chỉ số cuối kỳ":null,"Nước sản xuất":null,"Ngày lắp đặt":null,"Ngày thay đồng hồ":null,"Trạng thái":"Đang hoạt động","Kích thước đồng hồ":null,"Nhà sản xuất":null,"Áp lực tối đa":null,"Áp lực tối thiểu":null,"toa_do_x":106.05362676812,"toa_do_y":10.2416935575719,"layer_id":257,"fid":227,"label":"Mỹ An 1"}},{"type":"Feature","id":228,"geometry":{"type":"Point","coordinates":[106.03591162,10.243260258]},"properties":{"Trạm cấp nước":"Mỹ An 2","Số Seri đồng hồ":null,"Loại đồng hồ":null,"Chỉ số đầu kỳ":null,"Chỉ số cuối kỳ":null,"Nước sản xuất":null,"Ngày lắp đặt":null,"Ngày thay đồng hồ":null,"Trạng thái":"Đang hoạt động","Kích thước đồng hồ":null,"Nhà sản xuất":null,"Áp lực tối đa":null,"Áp lực tối thiểu":null,"toa_do_x":106.035911619859,"toa_do_y":10.2432602582867,"layer_id":257,"fid":228,"label":"Mỹ An 2"}},{"type":"Feature","id":229,"geometry":{"type":"Point","coordinates":[106.101374026,10.235813334]},"properties":{"Trạm cấp nước":"Mỹ Phước","Số Seri đồng hồ":null,"Loại đồng hồ":null,"Chỉ số đầu kỳ":null,"Chỉ số cuối kỳ":null,"Nước sản xuất":null,"Ngày lắp đặt":null,"Ngày thay đồng hồ":null,"Trạng thái":"Đang hoạt động","Kích thước đồng hồ":null,"Nhà sản xuất":null,"Áp lực tối đa":null,"Áp lực tối thiểu":null,"toa_do_x":106.1013740265,"toa_do_y":10.2358133339441,"layer_id":257,"fid":229,"label":"Mỹ Phước"}},{"type":"Feature","id":230,"geometry":{"type":"Point","coordinates":[106.090011628,10.207146097]},"properties":{"Trạm cấp nước":"Nhơn Phú","Số Seri đồng hồ":null,"Loại đồng hồ":null,"Chỉ số đầu kỳ":null,"Chỉ số cuối kỳ":null,"Nước sản xuất":null,"Ngày lắp đặt":null,"Ngày thay đồng hồ":null,"Trạng thái":"Đang hoạt động","Kích thước đồng hồ":null,"Nhà sản xuất":null,"Áp lực tối đa":null,"Áp lực tối thiểu":null,"toa_do_x":106.090011628481,"toa_do_y":10.2071460967821,"layer_id":257,"fid":230,"label":"Nhơn Phú"}},{"type":"Feature","id":231,"geometry":{"type":"Point","coordinates":[106.097314147,10.158544832]},"properties":{"Trạm cấp nước":"Tân An Hội","Số Seri đồng hồ":null,"Loại đồng hồ":null,"Chỉ số đầu kỳ":null,"Chỉ số cuối kỳ":null,"Nước sản xuất":null,"Ngày lắp đặt":null,"Ngày thay đồng hồ":null,"Trạng thái":"Đang hoạt động","Kích thước đồng hồ":null,"Nhà sản xuất":null,"Áp lực tối đa":null,"Áp lực tối thiểu":null,"toa_do_x":106.09731414667,"toa_do_y":10.1585448320194,"layer_id":257,"fid":231,"label":"Tân An Hội"}},{"type":"Feature","id":232,"geometry":{"type":"Point","coordinates":[106.042928193,10.149860213]},"properties":{"Trạm cấp nước":"Tân Long 2","Số Seri đồng hồ":null,"Loại đồng hồ":null,"Chỉ số đầu kỳ":null,"Chỉ số cuối kỳ":null,"Nước sản xuất":null,"Ngày lắp đặt":null,"Ngày thay đồng hồ":null,"Trạng thái":"Đang hoạt động","Kích thước đồng hồ":null,"Nhà sản xuất":null,"Áp lực tối đa":null,"Áp lực tối thiểu":null,"toa_do_x":106.04292819251,"toa_do_y":10.1498602127367,"layer_id":257,"fid":232,"label":"Tân Long 2"}},{"type":"Feature","id":233,"geometry":{"type":"Point","coordinates":[106.076838739,10.124387076]},"properties":{"Trạm cấp nước":"Tân Long Hội","Số Seri đồng hồ":null,"Loại đồng hồ":null,"Chỉ số đầu kỳ":null,"Chỉ số cuối kỳ":null,"Nước sản xuất":null,"Ngày lắp đặt":null,"Ngày thay đồng hồ":null,"Trạng thái":"Đang hoạt động","Kích thước đồng hồ":null,"Nhà sản xuất":null,"Áp lực tối đa":null,"Áp lực tối thiểu":null,"toa_do_x":106.076838738652,"toa_do_y":10.1243870762403,"layer_id":257,"fid":233,"label":"Tân Long Hội"}},{"type":"Feature","id":234,"geometry":{"type":"Point","coordinates":[105.943966337,10.000533779]},"properties":{"Trạm cấp nước":"Bình Ninh","Số Seri đồng hồ":null,"Loại đồng hồ":null,"Chỉ số đầu kỳ":null,"Chỉ số cuối kỳ":null,"Nước sản xuất":null,"Ngày lắp đặt":null,"Ngày thay đồng hồ":null,"Trạng thái":"Đang hoạt động","Kích thước đồng hồ":null,"Nhà sản xuất":null,"Áp lực tối đa":null,"Áp lực tối thiểu":null,"toa_do_x":105.943966336724,"toa_do_y":10.0005337786118,"layer_id":257,"fid":234,"label":"Bình Ninh"}},{"type":"Feature","id":235,"geometry":{"type":"Point","coordinates":[105.989921929,10.110631261]},"properties":{"Trạm cấp nước":"Hậu Lộc","Số Seri đồng hồ":null,"Loại đồng hồ":null,"Chỉ số đầu kỳ":null,"Chỉ số cuối kỳ":null,"Nước sản xuất":null,"Ngày lắp đặt":null,"Ngày thay đồng hồ":null,"Trạng thái":"Đang hoạt động","Kích thước đồng hồ":null,"Nhà sản xuất":null,"Áp lực tối đa":null,"Áp lực tối thiểu":null,"toa_do_x":105.989921929369,"toa_do_y":10.11063126145,"layer_id":257,"fid":235,"label":"Hậu Lộc"}},{"type":"Feature","id":236,"geometry":{"type":"Point","coordinates":[106.030797661,10.08715056]},"properties":{"Trạm cấp nước":"Hòa Hiệp","Số Seri đồng hồ":null,"Loại đồng hồ":null,"Chỉ số đầu kỳ":null,"Chỉ số cuối kỳ":null,"Nước sản xuất":null,"Ngày lắp đặt":null,"Ngày thay đồng hồ":null,"Trạng thái":"Đang hoạt động","Kích thước đồng hồ":null,"Nhà sản xuất":null,"Áp lực tối đa":null,"Áp lực tối thiểu":null,"toa_do_x":106.030797661035,"toa_do_y":10.0871505600992,"layer_id":257,"fid":236,"label":"Hòa Hiệp"}},{"type":"Feature","id":237,"geometry":{"type":"Point","coordinates":[106.003064227,10.083197657]},"properties":{"Trạm cấp nước":"Hòa Lộc","Số Seri đồng hồ":null,"Loại đồng hồ":null,"Chỉ số đầu kỳ":null,"Chỉ số cuối kỳ":null,"Nước sản xuất":null,"Ngày lắp đặt":null,"Ngày thay đồng hồ":null,"Trạng thái":"Đang hoạt động","Kích thước đồng hồ":null,"Nhà sản xuất":null,"Áp lực tối đa":null,"Áp lực tối thiểu":null,"toa_do_x":106.00306422662,"toa_do_y":10.0831976566709,"layer_id":257,"fid":237,"label":"Hòa Lộc"}},{"type":"Feature","id":238,"geometry":{"type":"Point","coordinates":[106.070323761,10.098594323]},"properties":{"Trạm cấp nước":"Hòa Thạnh 2","Số Seri đồng hồ":null,"Loại đồng hồ":null,"Chỉ số đầu kỳ":null,"Chỉ số cuối kỳ":null,"Nước sản xuất":null,"Ngày lắp đặt":null,"Ngày thay đồng hồ":null,"Trạng thái":"Đang hoạt động","Kích thước đồng hồ":null,"Nhà sản xuất":null,"Áp lực tối đa":null,"Áp lực tối thiểu":null,"toa_do_x":106.070323761312,"toa_do_y":10.0985943230894,"layer_id":257,"fid":238,"label":"Hòa Thạnh 2"}},{"type":"Feature","id":239,"geometry":{"type":"Point","coordinates":[105.979137243,10.018188384]},"properties":{"Trạm cấp nước":"Loan Mỹ","Số Seri đồng hồ":null,"Loại đồng hồ":null,"Chỉ số đầu kỳ":null,"Chỉ số cuối kỳ":null,"Nước sản xuất":null,"Ngày lắp đặt":null,"Ngày thay đồng hồ":null,"Trạng thái":"Đang hoạt động","Kích thước đồng hồ":null,"Nhà sản xuất":null,"Áp lực tối đa":null,"Áp lực tối thiểu":null,"toa_do_x":105.979137243373,"toa_do_y":10.0181883841881,"layer_id":257,"fid":239,"label":"Loan Mỹ"}},{"type":"Feature","id":240,"geometry":{"type":"Point","coordinates":[105.913405539,10.076640347]},"properties":{"Trạm cấp nước":"Long Phú 1","Số Seri đồng hồ":null,"Loại đồng hồ":null,"Chỉ số đầu kỳ":null,"Chỉ số cuối kỳ":null,"Nước sản xuất":null,"Ngày lắp đặt":null,"Ngày thay đồng hồ":null,"Trạng thái":"Đang hoạt động","Kích thước đồng hồ":null,"Nhà sản xuất":null,"Áp lực tối đa":null,"Áp lực tối thiểu":null,"toa_do_x":105.913405539485,"toa_do_y":10.0766403466336,"layer_id":257,"fid":240,"label":"Long Phú 1"}},{"type":"Feature","id":241,"geometry":{"type":"Point","coordinates":[105.918061826,10.086218581]},"properties":{"Trạm cấp nước":"Long Phú 2","Số Seri đồng hồ":null,"Loại đồng hồ":null,"Chỉ số đầu kỳ":null,"Chỉ số cuối kỳ":null,"Nước sản xuất":null,"Ngày lắp đặt":null,"Ngày thay đồng hồ":null,"Trạng thái":"Đang hoạt động","Kích thước đồng hồ":null,"Nhà sản xuất":null,"Áp lực tối đa":null,"Áp lực tối thiểu":null,"toa_do_x":105.918061825555,"toa_do_y":10.0862185811749,"layer_id":257,"fid":241,"label":"Long Phú 2"}},{"type":"Feature","id":242,"geometry":{"type":"Point","coordinates":[105.964259115,10.101057292]},"properties":{"Trạm cấp nước":"Mỹ Lộc 1","Số Seri đồng hồ":null,"Loại đồng hồ":null,"Chỉ số đầu kỳ":null,"Chỉ số cuối kỳ":null,"Nước sản xuất":null,"Ngày lắp đặt":null,"Ngày thay đồng hồ":null,"Trạng thái":"Đang hoạt động","Kích thước đồng hồ":null,"Nhà sản xuất":null,"Áp lực tối đa":null,"Áp lực tối thiểu":null,"toa_do_x":105.96425911458,"toa_do_y":10.1010572920506,"layer_id":257,"fid":242,"label":"Mỹ Lộc 1"}},{"type":"Feature","id":243,"geometry":{"type":"Point","coordinates":[105.934092228,10.099606543]},"properties":{"Trạm cấp nước":"Mỹ Lộc 2","Số Seri đồng hồ":null,"Loại đồng hồ":null,"Chỉ số đầu kỳ":null,"Chỉ số cuối kỳ":null,"Nước sản xuất":null,"Ngày lắp đặt":null,"Ngày thay đồng hồ":null,"Trạng thái":"Đang hoạt động","Kích thước đồng hồ":null,"Nhà sản xuất":null,"Áp lực tối đa":null,"Áp lực tối thiểu":null,"toa_do_x":105.934092228433,"toa_do_y":10.0996065426593,"layer_id":257,"fid":243,"label":"Mỹ Lộc 2"}},{"type":"Feature","id":244,"geometry":{"type":"Point","coordinates":[105.905000122,10.030656001]},"properties":{"Trạm cấp nước":"Ngãi Tứ","Số Seri đồng hồ":null,"Loại đồng hồ":null,"Chỉ số đầu kỳ":null,"Chỉ số cuối kỳ":null,"Nước sản xuất":null,"Ngày lắp đặt":null,"Ngày thay đồng hồ":null,"Trạng thái":"Đang hoạt động","Kích thước đồng hồ":null,"Nhà sản xuất":null,"Áp lực tối đa":null,"Áp lực tối thiểu":null,"toa_do_x":105.905000122255,"toa_do_y":10.0306560012759,"layer_id":257,"fid":244,"label":"Ngãi Tứ"}},{"type":"Feature","id":245,"geometry":{"type":"Point","coordinates":[105.882028939,10.107338285]},"properties":{"Trạm cấp nước":"Phú Hưng","Số Seri đồng hồ":null,"Loại đồng hồ":null,"Chỉ số đầu kỳ":null,"Chỉ số cuối kỳ":null,"Nước sản xuất":null,"Ngày lắp đặt":null,"Ngày thay đồng hồ":null,"Trạng thái":"Đang hoạt động","Kích thước đồng hồ":null,"Nhà sản xuất":null,"Áp lực tối đa":null,"Áp lực tối thiểu":null,"toa_do_x":105.882028938763,"toa_do_y":10.1073382853569,"layer_id":257,"fid":245,"label":"Phú Hưng"}},{"type":"Feature","id":246,"geometry":{"type":"Point","coordinates":[105.953466809,10.128305434]},"properties":{"Trạm cấp nước":"Phú Lộc","Số Seri đồng hồ":null,"Loại đồng hồ":null,"Chỉ số đầu kỳ":null,"Chỉ số cuối kỳ":null,"Nước sản xuất":null,"Ngày lắp đặt":null,"Ngày thay đồng hồ":null,"Trạng thái":"Đang hoạt động","Kích thước đồng hồ":null,"Nhà sản xuất":null,"Áp lực tối đa":null,"Áp lực tối thiểu":null,"toa_do_x":105.953466809463,"toa_do_y":10.1283054342273,"layer_id":257,"fid":246,"label":"Phú Lộc"}},{"type":"Feature","id":247,"geometry":{"type":"Point","coordinates":[105.885057976,10.145327596]},"properties":{"Trạm cấp nước":"Phú Thịnh","Số Seri đồng hồ":null,"Loại đồng hồ":null,"Chỉ số đầu kỳ":null,"Chỉ số cuối kỳ":null,"Nước sản xuất":null,"Ngày lắp đặt":null,"Ngày thay đồng hồ":null,"Trạng thái":"Đang hoạt động","Kích thước đồng hồ":null,"Nhà sản xuất":null,"Áp lực tối đa":null,"Áp lực tối thiểu":null,"toa_do_x":105.885057975597,"toa_do_y":10.145327595852,"layer_id":257,"fid":247,"label":"Phú Thịnh"}},{"type":"Feature","id":248,"geometry":{"type":"Point","coordinates":[105.906158137,10.110455894]},"properties":{"Trạm cấp nước":"Song Phú","Số Seri đồng hồ":null,"Loại đồng hồ":null,"Chỉ số đầu kỳ":null,"Chỉ số cuối kỳ":null,"Nước sản xuất":null,"Ngày lắp đặt":null,"Ngày thay đồng hồ":null,"Trạng thái":"Đang hoạt động","Kích thước đồng hồ":null,"Nhà sản xuất":null,"Áp lực tối đa":null,"Áp lực tối thiểu":null,"toa_do_x":105.906158136777,"toa_do_y":10.1104558939197,"layer_id":257,"fid":248,"label":"Song Phú"}},{"type":"Feature","id":249,"geometry":{"type":"Point","coordinates":[105.970323961,10.149249004]},"properties":{"Trạm cấp nước":"Tân Lộc 2","Số Seri đồng hồ":null,"Loại đồng hồ":null,"Chỉ số đầu kỳ":null,"Chỉ số cuối kỳ":null,"Nước sản xuất":null,"Ngày lắp đặt":null,"Ngày thay đồng hồ":null,"Trạng thái":"Đang hoạt động","Kích thước đồng hồ":null,"Nhà sản xuất":null,"Áp lực tối đa":null,"Áp lực tối thiểu":null,"toa_do_x":105.970323960882,"toa_do_y":10.1492490044285,"layer_id":257,"fid":249,"label":"Tân Lộc 2"}},{"type":"Feature","id":250,"geometry":{"type":"Point","coordinates":[105.884836726,10.089821393]},"properties":{"Trạm cấp nước":"Tân Phú 2","Số Seri đồng hồ":null,"Loại đồng hồ":null,"Chỉ số đầu kỳ":null,"Chỉ số cuối kỳ":null,"Nước sản xuất":null,"Ngày lắp đặt":null,"Ngày thay đồng hồ":null,"Trạng thái":"Đang hoạt động","Kích thước đồng hồ":null,"Nhà sản xuất":null,"Áp lực tối đa":null,"Áp lực tối thiểu":null,"toa_do_x":105.88483672615,"toa_do_y":10.0898213926315,"layer_id":257,"fid":250,"label":"Tân Phú 2"}},{"type":"Feature","id":255,"geometry":{"type":"Point","coordinates":[105.912995979,9.951550993]},"properties":{"Trạm cấp nước":"Lục Sỹ Thành 2","Số Seri đồng hồ":null,"Loại đồng hồ":null,"Chỉ số đầu kỳ":null,"Chỉ số cuối kỳ":null,"Nước sản xuất":null,"Ngày lắp đặt":null,"Ngày thay đồng hồ":null,"Trạng thái":"Đang hoạt động","Kích thước đồng hồ":null,"Nhà sản xuất":null,"Áp lực tối đa":null,"Áp lực tối thiểu":null,"toa_do_x":105.871239979839,"toa_do_y":9.95185191169205,"layer_id":257,"fid":255,"label":"Lục Sỹ Thành 2"}},{"type":"Feature","id":251,"geometry":{"type":"Point","coordinates":[105.998413496,10.043114646]},"properties":{"Trạm cấp nước":"Tường Lộc","Số Seri đồng hồ":null,"Loại đồng hồ":null,"Chỉ số đầu kỳ":null,"Chỉ số cuối kỳ":null,"Nước sản xuất":null,"Ngày lắp đặt":null,"Ngày thay đồng hồ":null,"Trạng thái":"Đang hoạt động","Kích thước đồng hồ":null,"Nhà sản xuất":null,"Áp lực tối đa":null,"Áp lực tối thiểu":null,"toa_do_x":105.998413496376,"toa_do_y":10.0431146459146,"layer_id":257,"fid":251,"label":"Tường Lộc"}},{"type":"Feature","id":252,"geometry":{"type":"Point","coordinates":[106.041316485,10.042803232]},"properties":{"Trạm cấp nước":"Hòa Bình","Số Seri đồng hồ":null,"Loại đồng hồ":null,"Chỉ số đầu kỳ":null,"Chỉ số cuối kỳ":null,"Nước sản xuất":null,"Ngày lắp đặt":null,"Ngày thay đồng hồ":null,"Trạng thái":"Đang hoạt động","Kích thước đồng hồ":null,"Nhà sản xuất":null,"Áp lực tối đa":null,"Áp lực tối thiểu":null,"toa_do_x":106.041316485377,"toa_do_y":10.0428032320119,"layer_id":257,"fid":252,"label":"Hòa Bình"}},{"type":"Feature","id":253,"geometry":{"type":"Point","coordinates":[106.074279427,9.945931988]},"properties":{"Trạm cấp nước":"Hựu Thành","Số Seri đồng hồ":null,"Loại đồng hồ":null,"Chỉ số đầu kỳ":null,"Chỉ số cuối kỳ":null,"Nước sản xuất":null,"Ngày lắp đặt":null,"Ngày thay đồng hồ":null,"Trạng thái":"Đang hoạt động","Kích thước đồng hồ":null,"Nhà sản xuất":null,"Áp lực tối đa":null,"Áp lực tối thiểu":null,"toa_do_x":106.074279426773,"toa_do_y":9.9459319878179,"layer_id":257,"fid":253,"label":"Hựu Thành"}},{"type":"Feature","id":254,"geometry":{"type":"Point","coordinates":[105.913023104,9.954660075]},"properties":{"Trạm cấp nước":"Lục Sỹ Thành 1","Số Seri đồng hồ":null,"Loại đồng hồ":null,"Chỉ số đầu kỳ":null,"Chỉ số cuối kỳ":null,"Nước sản xuất":null,"Ngày lắp đặt":null,"Ngày thay đồng hồ":null,"Trạng thái":"Đang hoạt động","Kích thước đồng hồ":null,"Nhà sản xuất":null,"Áp lực tối đa":null,"Áp lực tối thiểu":null,"toa_do_x":105.913023103719,"toa_do_y":9.95466007549627,"layer_id":257,"fid":254,"label":"Lục Sỹ Thành 1"}},{"type":"Feature","id":256,"geometry":{"type":"Point","coordinates":[105.880705406,9.982130957]},"properties":{"Trạm cấp nước":"Phú Thành 2","Số Seri đồng hồ":null,"Loại đồng hồ":null,"Chỉ số đầu kỳ":null,"Chỉ số cuối kỳ":null,"Nước sản xuất":null,"Ngày lắp đặt":null,"Ngày thay đồng hồ":null,"Trạng thái":"Đang hoạt động","Kích thước đồng hồ":null,"Nhà sản xuất":null,"Áp lực tối đa":null,"Áp lực tối thiểu":null,"toa_do_x":105.880705405908,"toa_do_y":9.98213095731086,"layer_id":257,"fid":256,"label":"Phú Thành 2"}},{"type":"Feature","id":257,"geometry":{"type":"Point","coordinates":[105.976441658,10.015027713]},"properties":{"Trạm cấp nước":"Thiện Mỹ","Số Seri đồng hồ":null,"Loại đồng hồ":null,"Chỉ số đầu kỳ":null,"Chỉ số cuối kỳ":null,"Nước sản xuất":null,"Ngày lắp đặt":null,"Ngày thay đồng hồ":null,"Trạng thái":"Đang hoạt động","Kích thước đồng hồ":null,"Nhà sản xuất":null,"Áp lực tối đa":null,"Áp lực tối thiểu":null,"toa_do_x":105.976441657979,"toa_do_y":10.0150277131445,"layer_id":257,"fid":257,"label":"Thiện Mỹ"}},{"type":"Feature","id":258,"geometry":{"type":"Point","coordinates":[106.051462101,9.984188765]},"properties":{"Trạm cấp nước":"Thới Hòa","Số Seri đồng hồ":null,"Loại đồng hồ":null,"Chỉ số đầu kỳ":null,"Chỉ số cuối kỳ":null,"Nước sản xuất":null,"Ngày lắp đặt":null,"Ngày thay đồng hồ":null,"Trạng thái":"Đang hoạt động","Kích thước đồng hồ":null,"Nhà sản xuất":null,"Áp lực tối đa":null,"Áp lực tối thiểu":null,"toa_do_x":106.051462100833,"toa_do_y":9.98418876513024,"layer_id":257,"fid":258,"label":"Thới Hòa"}},{"type":"Feature","id":259,"geometry":{"type":"Point","coordinates":[106.030861337,9.952450314]},"properties":{"Trạm cấp nước":"Thuận Thới 2","Số Seri đồng hồ":null,"Loại đồng hồ":null,"Chỉ số đầu kỳ":null,"Chỉ số cuối kỳ":null,"Nước sản xuất":null,"Ngày lắp đặt":null,"Ngày thay đồng hồ":null,"Trạng thái":"Đang hoạt động","Kích thước đồng hồ":null,"Nhà sản xuất":null,"Áp lực tối đa":null,"Áp lực tối thiểu":null,"toa_do_x":106.03086133659,"toa_do_y":9.9524503139483,"layer_id":257,"fid":259,"label":"Thuận Thới 2"}},{"type":"Feature","id":260,"geometry":{"type":"Point","coordinates":[105.97840765,9.911941712]},"properties":{"Trạm cấp nước":"Tích Thiện","Số Seri đồng hồ":null,"Loại đồng hồ":null,"Chỉ số đầu kỳ":null,"Chỉ số cuối kỳ":null,"Nước sản xuất":null,"Ngày lắp đặt":null,"Ngày thay đồng hồ":null,"Trạng thái":"Đang hoạt động","Kích thước đồng hồ":null,"Nhà sản xuất":null,"Áp lực tối đa":null,"Áp lực tối thiểu":null,"toa_do_x":105.978407650034,"toa_do_y":9.91194171173181,"layer_id":257,"fid":260,"label":"Tích Thiện"}},{"type":"Feature","id":261,"geometry":{"type":"Point","coordinates":[106.011854617,10.010490462]},"properties":{"Trạm cấp nước":"Trà Côn","Số Seri đồng hồ":null,"Loại đồng hồ":null,"Chỉ số đầu kỳ":null,"Chỉ số cuối kỳ":null,"Nước sản xuất":null,"Ngày lắp đặt":null,"Ngày thay đồng hồ":null,"Trạng thái":"Đang hoạt động","Kích thước đồng hồ":null,"Nhà sản xuất":null,"Áp lực tối đa":null,"Áp lực tối thiểu":null,"toa_do_x":106.011854617057,"toa_do_y":10.0104904616888,"layer_id":257,"fid":261,"label":"Trà Côn"}},{"type":"Feature","id":262,"geometry":{"type":"Point","coordinates":[106.010679874,9.953232199]},"properties":{"Trạm cấp nước":"Vĩnh Xuân 2","Số Seri đồng hồ":null,"Loại đồng hồ":null,"Chỉ số đầu kỳ":null,"Chỉ số cuối kỳ":null,"Nước sản xuất":null,"Ngày lắp đặt":null,"Ngày thay đồng hồ":null,"Trạng thái":"Đang hoạt động","Kích thước đồng hồ":null,"Nhà sản xuất":null,"Áp lực tối đa":null,"Áp lực tối thiểu":null,"toa_do_x":106.010679874246,"toa_do_y":9.95323219896173,"layer_id":257,"fid":262,"label":"Vĩnh Xuân 2"}},{"type":"Feature","id":263,"geometry":{"type":"Point","coordinates":[106.040537876,10.079277737]},"properties":{"Trạm cấp nước":"Xuân Hiệp","Số Seri đồng hồ":null,"Loại đồng hồ":null,"Chỉ số đầu kỳ":null,"Chỉ số cuối kỳ":null,"Nước sản xuất":null,"Ngày lắp đặt":null,"Ngày thay đồng hồ":null,"Trạng thái":"Đang hoạt động","Kích thước đồng hồ":null,"Nhà sản xuất":null,"Áp lực tối đa":null,"Áp lực tối thiểu":null,"toa_do_x":106.040537876376,"toa_do_y":10.0792777367625,"layer_id":257,"fid":263,"label":"Xuân Hiệp"}},{"type":"Feature","id":264,"geometry":{"type":"Point","coordinates":[106.131929566,9.985998852]},"properties":{"Trạm cấp nước":"Hiếu Liên ","Số Seri đồng hồ":null,"Loại đồng hồ":null,"Chỉ số đầu kỳ":null,"Chỉ số cuối kỳ":null,"Nước sản xuất":null,"Ngày lắp đặt":null,"Ngày thay đồng hồ":null,"Trạng thái":"Đang hoạt động","Kích thước đồng hồ":null,"Nhà sản xuất":null,"Áp lực tối đa":null,"Áp lực tối thiểu":null,"toa_do_x":106.131929565998,"toa_do_y":9.98599885203973,"layer_id":257,"fid":264,"label":"Hiếu Liên "}},{"type":"Feature","id":265,"geometry":{"type":"Point","coordinates":[106.112296119,9.93909255]},"properties":{"Trạm cấp nước":"Hiếu Nghĩa","Số Seri đồng hồ":null,"Loại đồng hồ":null,"Chỉ số đầu kỳ":null,"Chỉ số cuối kỳ":null,"Nước sản xuất":null,"Ngày lắp đặt":null,"Ngày thay đồng hồ":null,"Trạng thái":"Đang hoạt động","Kích thước đồng hồ":null,"Nhà sản xuất":null,"Áp lực tối đa":null,"Áp lực tối thiểu":null,"toa_do_x":106.112296118997,"toa_do_y":9.9390925498715,"layer_id":257,"fid":265,"label":"Hiếu Nghĩa"}},{"type":"Feature","id":266,"geometry":{"type":"Point","coordinates":[106.10941346,10.031744968]},"properties":{"Trạm cấp nước":"Hiếu Nhơn","Số Seri đồng hồ":null,"Loại đồng hồ":null,"Chỉ số đầu kỳ":null,"Chỉ số cuối kỳ":null,"Nước sản xuất":null,"Ngày lắp đặt":null,"Ngày thay đồng hồ":null,"Trạng thái":"Đang hoạt động","Kích thước đồng hồ":null,"Nhà sản xuất":null,"Áp lực tối đa":null,"Áp lực tối thiểu":null,"toa_do_x":106.109413459679,"toa_do_y":10.03174496839,"layer_id":257,"fid":266,"label":"Hiếu Nhơn"}},{"type":"Feature","id":267,"geometry":{"type":"Point","coordinates":[106.094508608,9.987035143]},"properties":{"Trạm cấp nước":"Hiếu Thành","Số Seri đồng hồ":null,"Loại đồng hồ":null,"Chỉ số đầu kỳ":null,"Chỉ số cuối kỳ":null,"Nước sản xuất":null,"Ngày lắp đặt":null,"Ngày thay đồng hồ":null,"Trạng thái":"Đang hoạt động","Kích thước đồng hồ":null,"Nhà sản xuất":null,"Áp lực tối đa":null,"Áp lực tối thiểu":null,"toa_do_x":106.094508607914,"toa_do_y":9.98703514257894,"layer_id":257,"fid":267,"label":"Hiếu Thành"}},{"type":"Feature","id":268,"geometry":{"type":"Point","coordinates":[106.182348171,10.159102163]},"properties":{"Trạm cấp nước":"Quới Thiện","Số Seri đồng hồ":null,"Loại đồng hồ":null,"Chỉ số đầu kỳ":null,"Chỉ số cuối kỳ":null,"Nước sản xuất":null,"Ngày lắp đặt":null,"Ngày thay đồng hồ":null,"Trạng thái":"Đang hoạt động","Kích thước đồng hồ":null,"Nhà sản xuất":null,"Áp lực tối đa":null,"Áp lực tối thiểu":null,"toa_do_x":106.182348170807,"toa_do_y":10.1591021634487,"layer_id":257,"fid":268,"label":"Quới Thiện"}},{"type":"Feature","id":272,"geometry":{"type":"Point","coordinates":[106.136221824,10.026031877]},"properties":{"Trạm cấp nước":"Trung An 2","Số Seri đồng hồ":null,"Loại đồng hồ":null,"Chỉ số đầu kỳ":null,"Chỉ số cuối kỳ":null,"Nước sản xuất":null,"Ngày lắp đặt":null,"Ngày thay đồng hồ":null,"Trạng thái":"Đang hoạt động","Kích thước đồng hồ":null,"Nhà sản xuất":null,"Áp lực tối đa":null,"Áp lực tối thiểu":null,"toa_do_x":106.1245955502,"toa_do_y":10.0284889755752,"layer_id":257,"fid":272,"label":"Trung An 2"}},{"type":"Feature","id":269,"geometry":{"type":"Point","coordinates":[106.084645788,10.112221702]},"properties":{"Trạm cấp nước":"Tân An Luông","Số Seri đồng hồ":null,"Loại đồng hồ":null,"Chỉ số đầu kỳ":null,"Chỉ số cuối kỳ":null,"Nước sản xuất":null,"Ngày lắp đặt":null,"Ngày thay đồng hồ":null,"Trạng thái":"Đang hoạt động","Kích thước đồng hồ":null,"Nhà sản xuất":null,"Áp lực tối đa":null,"Áp lực tối thiểu":null,"toa_do_x":106.084645788094,"toa_do_y":10.1122217018746,"layer_id":257,"fid":269,"label":"Tân An Luông"}},{"type":"Feature","id":270,"geometry":{"type":"Point","coordinates":[106.127574884,10.163180718]},"properties":{"Trạm cấp nước":"Tân Quới Trung","Số Seri đồng hồ":null,"Loại đồng hồ":null,"Chỉ số đầu kỳ":null,"Chỉ số cuối kỳ":null,"Nước sản xuất":null,"Ngày lắp đặt":null,"Ngày thay đồng hồ":null,"Trạng thái":"Đang hoạt động","Kích thước đồng hồ":null,"Nhà sản xuất":null,"Áp lực tối đa":null,"Áp lực tối thiểu":null,"toa_do_x":106.127574883805,"toa_do_y":10.1631807183768,"layer_id":257,"fid":270,"label":"Tân Quới Trung"}},{"type":"Feature","id":271,"geometry":{"type":"Point","coordinates":[106.231352541,10.114912095]},"properties":{"Trạm cấp nước":"Thanh Bình","Số Seri đồng hồ":null,"Loại đồng hồ":null,"Chỉ số đầu kỳ":null,"Chỉ số cuối kỳ":null,"Nước sản xuất":null,"Ngày lắp đặt":null,"Ngày thay đồng hồ":null,"Trạng thái":"Đang hoạt động","Kích thước đồng hồ":null,"Nhà sản xuất":null,"Áp lực tối đa":null,"Áp lực tối thiểu":null,"toa_do_x":106.231352540598,"toa_do_y":10.1149120946664,"layer_id":257,"fid":271,"label":"Thanh Bình"}},{"type":"Feature","id":273,"geometry":{"type":"Point","coordinates":[106.12865789,10.12423786]},"properties":{"Trạm cấp nước":"Trung Chánh","Số Seri đồng hồ":null,"Loại đồng hồ":null,"Chỉ số đầu kỳ":null,"Chỉ số cuối kỳ":null,"Nước sản xuất":null,"Ngày lắp đặt":null,"Ngày thay đồng hồ":null,"Trạng thái":"Đang hoạt động","Kích thước đồng hồ":null,"Nhà sản xuất":null,"Áp lực tối đa":null,"Áp lực tối thiểu":null,"toa_do_x":106.128657890271,"toa_do_y":10.1242378600734,"layer_id":257,"fid":273,"label":"Trung Chánh"}},{"type":"Feature","id":274,"geometry":{"type":"Point","coordinates":[106.156918398,10.111452555]},"properties":{"Trạm cấp nước":"Trung Hiệp 2","Số Seri đồng hồ":null,"Loại đồng hồ":null,"Chỉ số đầu kỳ":null,"Chỉ số cuối kỳ":null,"Nước sản xuất":null,"Ngày lắp đặt":null,"Ngày thay đồng hồ":null,"Trạng thái":"Đang hoạt động","Kích thước đồng hồ":null,"Nhà sản xuất":null,"Áp lực tối đa":null,"Áp lực tối thiểu":null,"toa_do_x":106.156918398389,"toa_do_y":10.1114525554714,"layer_id":257,"fid":274,"label":"Trung Hiệp 2"}},{"type":"Feature","id":275,"geometry":{"type":"Point","coordinates":[106.197938586,10.055204292]},"properties":{"Trạm cấp nước":"Trung Ngãi 1","Số Seri đồng hồ":null,"Loại đồng hồ":null,"Chỉ số đầu kỳ":null,"Chỉ số cuối kỳ":null,"Nước sản xuất":null,"Ngày lắp đặt":null,"Ngày thay đồng hồ":null,"Trạng thái":"Đang hoạt động","Kích thước đồng hồ":null,"Nhà sản xuất":null,"Áp lực tối đa":null,"Áp lực tối thiểu":null,"toa_do_x":106.197938585946,"toa_do_y":10.055204291557,"layer_id":257,"fid":275,"label":"Trung Ngãi 1"}},{"type":"Feature","id":276,"geometry":{"type":"Point","coordinates":[106.177215352,10.026152589]},"properties":{"Trạm cấp nước":"Trung Ngãi 2","Số Seri đồng hồ":null,"Loại đồng hồ":null,"Chỉ số đầu kỳ":null,"Chỉ số cuối kỳ":null,"Nước sản xuất":null,"Ngày lắp đặt":null,"Ngày thay đồng hồ":null,"Trạng thái":"Đang hoạt động","Kích thước đồng hồ":null,"Nhà sản xuất":null,"Áp lực tối đa":null,"Áp lực tối thiểu":null,"toa_do_x":106.177215351954,"toa_do_y":10.0261525892073,"layer_id":257,"fid":276,"label":"Trung Ngãi 2"}},{"type":"Feature","id":277,"geometry":{"type":"Point","coordinates":[106.21440867,10.048605264]},"properties":{"Trạm cấp nước":"Trung Nghĩa","Số Seri đồng hồ":null,"Loại đồng hồ":null,"Chỉ số đầu kỳ":null,"Chỉ số cuối kỳ":null,"Nước sản xuất":null,"Ngày lắp đặt":null,"Ngày thay đồng hồ":null,"Trạng thái":"Đang hoạt động","Kích thước đồng hồ":null,"Nhà sản xuất":null,"Áp lực tối đa":null,"Áp lực tối thiểu":null,"toa_do_x":106.214408669972,"toa_do_y":10.0486052643186,"layer_id":257,"fid":277,"label":"Trung Nghĩa"}},{"type":"Feature","id":278,"geometry":{"type":"Point","coordinates":[106.186374983,10.130252398]},"properties":{"Trạm cấp nước":"Trung Thành Tây","Số Seri đồng hồ":null,"Loại đồng hồ":null,"Chỉ số đầu kỳ":null,"Chỉ số cuối kỳ":null,"Nước sản xuất":null,"Ngày lắp đặt":null,"Ngày thay đồng hồ":null,"Trạng thái":"Đang hoạt động","Kích thước đồng hồ":null,"Nhà sản xuất":null,"Áp lực tối đa":null,"Áp lực tối thiểu":null,"toa_do_x":106.186374983118,"toa_do_y":10.1302523978789,"layer_id":257,"fid":278,"label":"Trung Thành Tây"}},{"type":"Feature","id":279,"geometry":{"type":"Point","coordinates":[106.104956182,10.231325209]},"properties":{"Trạm cấp nước":"Mỹ An 3","Số Seri đồng hồ":null,"Loại đồng hồ":null,"Chỉ số đầu kỳ":null,"Chỉ số cuối kỳ":null,"Nước sản xuất":null,"Ngày lắp đặt":null,"Ngày thay đồng hồ":null,"Trạng thái":"Đang hoạt động","Kích thước đồng hồ":null,"Nhà sản xuất":null,"Áp lực tối đa":null,"Áp lực tối thiểu":null,"toa_do_x":106.104956181836,"toa_do_y":10.2313252092131,"layer_id":257,"fid":279,"label":"Mỹ An 3"}}]}
