{"type":"FeatureCollection","name":"Đồng hồ tổng nước thô","metadata":{"source":"https://hatang.vinhlong.gov.vn/","downloaded_at":"2026-07-20T01:13:21+00:00","layer_id":258,"layer_name":"Đồng hồ tổng nước thô","catalog_endpoints":["/map/publicLayers2?inputs=nuoc_sach"],"requested_bbox":[104.0,8.0,108.0,12.0],"tile_size":0.0,"tile_count":1,"tile_errors":[],"feature_count":52,"coordinate_order":"x,y (thường là longitude,latitude theo cấu hình EPSG:4326 của WebGIS)"},"features":[{"type":"Feature","id":1,"geometry":{"type":"Point","coordinates":[105.861985209,10.044539482]},"properties":{"Trạm cấp nước":"Đông Thạnh","Số Seri đồng hồ":null,"Loại đồng hồ":null,"Chỉ số đầu kỳ":null,"Chỉ số cuối kỳ":null,"Nước khai thác":null,"Ngày lắp đặt":null,"Ngày thay đồng hồ":null,"Trạng thái":null,"Kích thước đồng hồ":"D150","Nhà sản xuất":null,"Áp lực tối đa":null,"Áp lực tối thiểu":null,"layer_id":258,"fid":1,"label":"Đông Thạnh"}},{"type":"Feature","id":27,"geometry":{"type":"Point","coordinates":[105.861985209,10.044539482]},"properties":{"Trạm cấp nước":"Đông Thạnh","Số Seri đồng hồ":null,"Loại đồng hồ":null,"Chỉ số đầu kỳ":null,"Chỉ số cuối kỳ":null,"Nước khai thác":null,"Ngày lắp đặt":null,"Ngày thay đồng hồ":null,"Trạng thái":null,"Kích thước đồng hồ":"D150","Nhà sản xuất":null,"Áp lực tối đa":null,"Áp lực tối thiểu":null,"layer_id":258,"fid":27,"label":"Đông Thạnh"}},{"type":"Feature","id":2,"geometry":{"type":"Point","coordinates":[105.842144071,10.019406553]},"properties":{"Trạm cấp nước":"Mỹ Hòa","Số Seri đồng hồ":null,"Loại đồng hồ":null,"Chỉ số đầu kỳ":null,"Chỉ số cuối kỳ":null,"Nước khai thác":null,"Ngày lắp đặt":null,"Ngày thay đồng hồ":null,"Trạng thái":null,"Kích thước đồng hồ":"D200","Nhà sản xuất":null,"Áp lực tối đa":null,"Áp lực tối thiểu":null,"layer_id":258,"fid":2,"label":"Mỹ Hòa"}},{"type":"Feature","id":3,"geometry":{"type":"Point","coordinates":[105.826622058,10.104920464]},"properties":{"Trạm cấp nước":"Mỹ Thuận","Số Seri đồng hồ":null,"Loại đồng hồ":null,"Chỉ số đầu kỳ":null,"Chỉ số cuối kỳ":null,"Nước khai thác":null,"Ngày lắp đặt":null,"Ngày thay đồng hồ":null,"Trạng thái":null,"Kích thước đồng hồ":"D150","Nhà sản xuất":null,"Áp lực tối đa":null,"Áp lực tối thiểu":null,"layer_id":258,"fid":3,"label":"Mỹ Thuận"}},{"type":"Feature","id":28,"geometry":{"type":"Point","coordinates":[105.842144071,10.019406553]},"properties":{"Trạm cấp nước":"Mỹ Hòa","Số Seri đồng hồ":null,"Loại đồng hồ":null,"Chỉ số đầu kỳ":null,"Chỉ số cuối kỳ":null,"Nước khai thác":null,"Ngày lắp đặt":null,"Ngày thay đồng hồ":null,"Trạng thái":null,"Kích thước đồng hồ":"D200","Nhà sản xuất":null,"Áp lực tối đa":null,"Áp lực tối thiểu":null,"layer_id":258,"fid":28,"label":"Mỹ Hòa"}},{"type":"Feature","id":4,"geometry":{"type":"Point","coordinates":[105.729604145,10.122932125]},"properties":{"Trạm cấp nước":"Tân Bình","Số Seri đồng hồ":null,"Loại đồng hồ":null,"Chỉ số đầu kỳ":null,"Chỉ số cuối kỳ":null,"Nước khai thác":null,"Ngày lắp đặt":null,"Ngày thay đồng hồ":null,"Trạng thái":null,"Kích thước đồng hồ":"D150","Nhà sản xuất":null,"Áp lực tối đa":null,"Áp lực tối thiểu":null,"layer_id":258,"fid":4,"label":"Tân Bình"}},{"type":"Feature","id":5,"geometry":{"type":"Point","coordinates":[105.786296796,10.131450149]},"properties":{"Trạm cấp nước":"Thành Trung","Số Seri đồng hồ":null,"Loại đồng hồ":null,"Chỉ số đầu kỳ":null,"Chỉ số cuối kỳ":null,"Nước khai thác":null,"Ngày lắp đặt":null,"Ngày thay đồng hồ":null,"Trạng thái":null,"Kích thước đồng hồ":"D150","Nhà sản xuất":null,"Áp lực tối đa":null,"Áp lực tối thiểu":null,"layer_id":258,"fid":5,"label":"Thành Trung"}},{"type":"Feature","id":29,"geometry":{"type":"Point","coordinates":[105.826622058,10.104920464]},"properties":{"Trạm cấp nước":"Mỹ Thuận","Số Seri đồng hồ":null,"Loại đồng hồ":null,"Chỉ số đầu kỳ":null,"Chỉ số cuối kỳ":null,"Nước khai thác":null,"Ngày lắp đặt":null,"Ngày thay đồng hồ":null,"Trạng thái":null,"Kích thước đồng hồ":"D150","Nhà sản xuất":null,"Áp lực tối đa":null,"Áp lực tối thiểu":null,"layer_id":258,"fid":29,"label":"Mỹ Thuận"}},{"type":"Feature","id":6,"geometry":{"type":"Point","coordinates":[106.030797661,10.08715056]},"properties":{"Trạm cấp nước":"Hòa Hiệp","Số Seri đồng hồ":null,"Loại đồng hồ":null,"Chỉ số đầu kỳ":null,"Chỉ số cuối kỳ":null,"Nước khai thác":null,"Ngày lắp đặt":null,"Ngày thay đồng hồ":null,"Trạng thái":null,"Kích thước đồng hồ":"D150","Nhà sản xuất":null,"Áp lực tối đa":null,"Áp lực tối thiểu":null,"layer_id":258,"fid":6,"label":"Hòa Hiệp"}},{"type":"Feature","id":7,"geometry":{"type":"Point","coordinates":[106.003064227,10.083197657]},"properties":{"Trạm cấp nước":"Hòa Lộc","Số Seri đồng hồ":null,"Loại đồng hồ":null,"Chỉ số đầu kỳ":null,"Chỉ số cuối kỳ":null,"Nước khai thác":null,"Ngày lắp đặt":null,"Ngày thay đồng hồ":null,"Trạng thái":null,"Kích thước đồng hồ":"D150","Nhà sản xuất":null,"Áp lực tối đa":null,"Áp lực tối thiểu":null,"layer_id":258,"fid":7,"label":"Hòa Lộc"}},{"type":"Feature","id":30,"geometry":{"type":"Point","coordinates":[105.729604145,10.122932125]},"properties":{"Trạm cấp nước":"Tân Bình","Số Seri đồng hồ":null,"Loại đồng hồ":null,"Chỉ số đầu kỳ":null,"Chỉ số cuối kỳ":null,"Nước khai thác":null,"Ngày lắp đặt":null,"Ngày thay đồng hồ":null,"Trạng thái":null,"Kích thước đồng hồ":"D150","Nhà sản xuất":null,"Áp lực tối đa":null,"Áp lực tối thiểu":null,"layer_id":258,"fid":30,"label":"Tân Bình"}},{"type":"Feature","id":8,"geometry":{"type":"Point","coordinates":[105.934092228,10.099606543]},"properties":{"Trạm cấp nước":"Mỹ Lộc 2","Số Seri đồng hồ":null,"Loại đồng hồ":null,"Chỉ số đầu kỳ":null,"Chỉ số cuối kỳ":null,"Nước khai thác":null,"Ngày lắp đặt":null,"Ngày thay đồng hồ":null,"Trạng thái":null,"Kích thước đồng hồ":"D150","Nhà sản xuất":null,"Áp lực tối đa":null,"Áp lực tối thiểu":null,"layer_id":258,"fid":8,"label":"Mỹ Lộc 2"}},{"type":"Feature","id":9,"geometry":{"type":"Point","coordinates":[105.905000122,10.030656001]},"properties":{"Trạm cấp nước":"Ngãi Tứ","Số Seri đồng hồ":null,"Loại đồng hồ":null,"Chỉ số đầu kỳ":null,"Chỉ số cuối kỳ":null,"Nước khai thác":null,"Ngày lắp đặt":null,"Ngày thay đồng hồ":null,"Trạng thái":null,"Kích thước đồng hồ":"D200","Nhà sản xuất":null,"Áp lực tối đa":null,"Áp lực tối thiểu":null,"layer_id":258,"fid":9,"label":"Ngãi Tứ"}},{"type":"Feature","id":31,"geometry":{"type":"Point","coordinates":[105.786296796,10.131450149]},"properties":{"Trạm cấp nước":"Thành Trung","Số Seri đồng hồ":null,"Loại đồng hồ":null,"Chỉ số đầu kỳ":null,"Chỉ số cuối kỳ":null,"Nước khai thác":null,"Ngày lắp đặt":null,"Ngày thay đồng hồ":null,"Trạng thái":null,"Kích thước đồng hồ":"D150","Nhà sản xuất":null,"Áp lực tối đa":null,"Áp lực tối thiểu":null,"layer_id":258,"fid":31,"label":"Thành Trung"}},{"type":"Feature","id":10,"geometry":{"type":"Point","coordinates":[105.906158137,10.110455894]},"properties":{"Trạm cấp nước":"Song Phú","Số Seri đồng hồ":null,"Loại đồng hồ":null,"Chỉ số đầu kỳ":null,"Chỉ số cuối kỳ":null,"Nước khai thác":null,"Ngày lắp đặt":null,"Ngày thay đồng hồ":null,"Trạng thái":null,"Kích thước đồng hồ":"D200","Nhà sản xuất":null,"Áp lực tối đa":null,"Áp lực tối thiểu":null,"layer_id":258,"fid":10,"label":"Song Phú"}},{"type":"Feature","id":11,"geometry":{"type":"Point","coordinates":[106.041316485,10.042803232]},"properties":{"Trạm cấp nước":"Hòa Bình","Số Seri đồng hồ":null,"Loại đồng hồ":null,"Chỉ số đầu kỳ":null,"Chỉ số cuối kỳ":null,"Nước khai thác":null,"Ngày lắp đặt":null,"Ngày thay đồng hồ":null,"Trạng thái":null,"Kích thước đồng hồ":"D150","Nhà sản xuất":null,"Áp lực tối đa":null,"Áp lực tối thiểu":null,"layer_id":258,"fid":11,"label":"Hòa Bình"}},{"type":"Feature","id":32,"geometry":{"type":"Point","coordinates":[106.030797661,10.08715056]},"properties":{"Trạm cấp nước":"Hòa Hiệp","Số Seri đồng hồ":null,"Loại đồng hồ":null,"Chỉ số đầu kỳ":null,"Chỉ số cuối kỳ":null,"Nước khai thác":null,"Ngày lắp đặt":null,"Ngày thay đồng hồ":null,"Trạng thái":null,"Kích thước đồng hồ":"D150","Nhà sản xuất":null,"Áp lực tối đa":null,"Áp lực tối thiểu":null,"layer_id":258,"fid":32,"label":"Hòa Hiệp"}},{"type":"Feature","id":33,"geometry":{"type":"Point","coordinates":[106.003064227,10.083197657]},"properties":{"Trạm cấp nước":"Hòa Lộc","Số Seri đồng hồ":null,"Loại đồng hồ":null,"Chỉ số đầu kỳ":null,"Chỉ số cuối kỳ":null,"Nước khai thác":null,"Ngày lắp đặt":null,"Ngày thay đồng hồ":null,"Trạng thái":null,"Kích thước đồng hồ":"D150","Nhà sản xuất":null,"Áp lực tối đa":null,"Áp lực tối thiểu":null,"layer_id":258,"fid":33,"label":"Hòa Lộc"}},{"type":"Feature","id":34,"geometry":{"type":"Point","coordinates":[105.934092228,10.099606543]},"properties":{"Trạm cấp nước":"Mỹ Lộc 2","Số Seri đồng hồ":null,"Loại đồng hồ":null,"Chỉ số đầu kỳ":null,"Chỉ số cuối kỳ":null,"Nước khai thác":null,"Ngày lắp đặt":null,"Ngày thay đồng hồ":null,"Trạng thái":null,"Kích thước đồng hồ":"D150","Nhà sản xuất":null,"Áp lực tối đa":null,"Áp lực tối thiểu":null,"layer_id":258,"fid":34,"label":"Mỹ Lộc 2"}},{"type":"Feature","id":36,"geometry":{"type":"Point","coordinates":[105.906158137,10.110455894]},"properties":{"Trạm cấp nước":"Song Phú","Số Seri đồng hồ":null,"Loại đồng hồ":null,"Chỉ số đầu kỳ":null,"Chỉ số cuối kỳ":null,"Nước khai thác":null,"Ngày lắp đặt":null,"Ngày thay đồng hồ":null,"Trạng thái":null,"Kích thước đồng hồ":"D200","Nhà sản xuất":null,"Áp lực tối đa":null,"Áp lực tối thiểu":null,"layer_id":258,"fid":36,"label":"Song Phú"}},{"type":"Feature","id":15,"geometry":{"type":"Point","coordinates":[106.040537876,10.079277737]},"properties":{"Trạm cấp nước":"Xuân Hiệp","Số Seri đồng hồ":null,"Loại đồng hồ":null,"Chỉ số đầu kỳ":null,"Chỉ số cuối kỳ":null,"Nước khai thác":null,"Ngày lắp đặt":null,"Ngày thay đồng hồ":null,"Trạng thái":null,"Kích thước đồng hồ":"D200","Nhà sản xuất":null,"Áp lực tối đa":null,"Áp lực tối thiểu":null,"layer_id":258,"fid":15,"label":"Xuân Hiệp"}},{"type":"Feature","id":16,"geometry":{"type":"Point","coordinates":[106.030861337,9.952450314]},"properties":{"Trạm cấp nước":"Thuận Thới","Số Seri đồng hồ":null,"Loại đồng hồ":null,"Chỉ số đầu kỳ":null,"Chỉ số cuối kỳ":null,"Nước khai thác":null,"Ngày lắp đặt":null,"Ngày thay đồng hồ":null,"Trạng thái":null,"Kích thước đồng hồ":"D150","Nhà sản xuất":null,"Áp lực tối đa":null,"Áp lực tối thiểu":null,"layer_id":258,"fid":16,"label":"Thuận Thới"}},{"type":"Feature","id":12,"geometry":{"type":"Point","coordinates":[105.880705406,9.982130957]},"properties":{"Trạm cấp nước":"Phú Thành","Số Seri đồng hồ":null,"Loại đồng hồ":null,"Chỉ số đầu kỳ":null,"Chỉ số cuối kỳ":null,"Nước khai thác":null,"Ngày lắp đặt":null,"Ngày thay đồng hồ":null,"Trạng thái":null,"Kích thước đồng hồ":"D150","Nhà sản xuất":null,"Áp lực tối đa":null,"Áp lực tối thiểu":null,"layer_id":258,"fid":12,"label":"Phú Thành"}},{"type":"Feature","id":35,"geometry":{"type":"Point","coordinates":[105.905000122,10.030656001]},"properties":{"Trạm cấp nước":"Ngãi Tứ","Số Seri đồng hồ":null,"Loại đồng hồ":null,"Chỉ số đầu kỳ":null,"Chỉ số cuối kỳ":null,"Nước khai thác":null,"Ngày lắp đặt":null,"Ngày thay đồng hồ":null,"Trạng thái":null,"Kích thước đồng hồ":"D200","Nhà sản xuất":null,"Áp lực tối đa":null,"Áp lực tối thiểu":null,"layer_id":258,"fid":35,"label":"Ngãi Tứ"}},{"type":"Feature","id":13,"geometry":{"type":"Point","coordinates":[106.051462101,9.984188765]},"properties":{"Trạm cấp nước":"Thới Hòa","Số Seri đồng hồ":null,"Loại đồng hồ":null,"Chỉ số đầu kỳ":null,"Chỉ số cuối kỳ":null,"Nước khai thác":null,"Ngày lắp đặt":null,"Ngày thay đồng hồ":null,"Trạng thái":null,"Kích thước đồng hồ":"D150","Nhà sản xuất":null,"Áp lực tối đa":null,"Áp lực tối thiểu":null,"layer_id":258,"fid":13,"label":"Thới Hòa"}},{"type":"Feature","id":14,"geometry":{"type":"Point","coordinates":[105.976441658,10.015027713]},"properties":{"Trạm cấp nước":"Thiện Mỹ","Số Seri đồng hồ":null,"Loại đồng hồ":null,"Chỉ số đầu kỳ":null,"Chỉ số cuối kỳ":null,"Nước khai thác":null,"Ngày lắp đặt":null,"Ngày thay đồng hồ":null,"Trạng thái":null,"Kích thước đồng hồ":"D200","Nhà sản xuất":null,"Áp lực tối đa":null,"Áp lực tối thiểu":null,"layer_id":258,"fid":14,"label":"Thiện Mỹ"}},{"type":"Feature","id":23,"geometry":{"type":"Point","coordinates":[105.995418736,10.190251252]},"properties":{"Trạm cấp nước":"Phú Đức 2","Số Seri đồng hồ":null,"Loại đồng hồ":null,"Chỉ số đầu kỳ":null,"Chỉ số cuối kỳ":null,"Nước khai thác":null,"Ngày lắp đặt":null,"Ngày thay đồng hồ":null,"Trạng thái":null,"Kích thước đồng hồ":"D200","Nhà sản xuất":null,"Áp lực tối đa":null,"Áp lực tối thiểu":null,"layer_id":258,"fid":23,"label":"Phú Đức 2"}},{"type":"Feature","id":43,"geometry":{"type":"Point","coordinates":[106.197938586,10.055204292]},"properties":{"Trạm cấp nước":"Trung Ngãi 1","Số Seri đồng hồ":null,"Loại đồng hồ":null,"Chỉ số đầu kỳ":null,"Chỉ số cuối kỳ":null,"Nước khai thác":null,"Ngày lắp đặt":null,"Ngày thay đồng hồ":null,"Trạng thái":null,"Kích thước đồng hồ":"D150","Nhà sản xuất":null,"Áp lực tối đa":null,"Áp lực tối thiểu":null,"layer_id":258,"fid":43,"label":"Trung Ngãi 1"}},{"type":"Feature","id":24,"geometry":{"type":"Point","coordinates":[106.104956182,10.231325209]},"properties":{"Trạm cấp nước":"Mỹ An 3","Số Seri đồng hồ":null,"Loại đồng hồ":null,"Chỉ số đầu kỳ":null,"Chỉ số cuối kỳ":null,"Nước khai thác":null,"Ngày lắp đặt":null,"Ngày thay đồng hồ":null,"Trạng thái":null,"Kích thước đồng hồ":"D200","Nhà sản xuất":null,"Áp lực tối đa":null,"Áp lực tối thiểu":null,"layer_id":258,"fid":24,"label":"Mỹ An 3"}},{"type":"Feature","id":25,"geometry":{"type":"Point","coordinates":[106.042928193,10.149860213]},"properties":{"Trạm cấp nước":"Tân Long","Số Seri đồng hồ":null,"Loại đồng hồ":null,"Chỉ số đầu kỳ":null,"Chỉ số cuối kỳ":null,"Nước khai thác":null,"Ngày lắp đặt":null,"Ngày thay đồng hồ":null,"Trạng thái":null,"Kích thước đồng hồ":"D150","Nhà sản xuất":null,"Áp lực tối đa":null,"Áp lực tối thiểu":null,"layer_id":258,"fid":25,"label":"Tân Long"}},{"type":"Feature","id":44,"geometry":{"type":"Point","coordinates":[106.231352541,10.114912095]},"properties":{"Trạm cấp nước":"Thanh Bình","Số Seri đồng hồ":null,"Loại đồng hồ":null,"Chỉ số đầu kỳ":null,"Chỉ số cuối kỳ":null,"Nước khai thác":null,"Ngày lắp đặt":null,"Ngày thay đồng hồ":null,"Trạng thái":null,"Kích thước đồng hồ":"D150","Nhà sản xuất":null,"Áp lực tối đa":null,"Áp lực tối thiểu":null,"layer_id":258,"fid":44,"label":"Thanh Bình"}},{"type":"Feature","id":26,"geometry":{"type":"Point","coordinates":[106.076838739,10.124387076]},"properties":{"Trạm cấp nước":"Tân Long Hội ","Số Seri đồng hồ":null,"Loại đồng hồ":null,"Chỉ số đầu kỳ":null,"Chỉ số cuối kỳ":null,"Nước khai thác":null,"Ngày lắp đặt":null,"Ngày thay đồng hồ":null,"Trạng thái":null,"Kích thước đồng hồ":"D200","Nhà sản xuất":null,"Áp lực tối đa":null,"Áp lực tối thiểu":null,"layer_id":258,"fid":26,"label":"Tân Long Hội "}},{"type":"Feature","id":45,"geometry":{"type":"Point","coordinates":[106.127574884,10.163180718]},"properties":{"Trạm cấp nước":"Tân Quới Trung","Số Seri đồng hồ":null,"Loại đồng hồ":null,"Chỉ số đầu kỳ":null,"Chỉ số cuối kỳ":null,"Nước khai thác":null,"Ngày lắp đặt":null,"Ngày thay đồng hồ":null,"Trạng thái":null,"Kích thước đồng hồ":"D150","Nhà sản xuất":null,"Áp lực tối đa":null,"Áp lực tối thiểu":null,"layer_id":258,"fid":45,"label":"Tân Quới Trung"}},{"type":"Feature","id":46,"geometry":{"type":"Point","coordinates":[106.084645788,10.112221702]},"properties":{"Trạm cấp nước":"Tân An Luông","Số Seri đồng hồ":null,"Loại đồng hồ":null,"Chỉ số đầu kỳ":null,"Chỉ số cuối kỳ":null,"Nước khai thác":null,"Ngày lắp đặt":null,"Ngày thay đồng hồ":null,"Trạng thái":null,"Kích thước đồng hồ":"D200","Nhà sản xuất":null,"Áp lực tối đa":null,"Áp lực tối thiểu":null,"layer_id":258,"fid":46,"label":"Tân An Luông"}},{"type":"Feature","id":47,"geometry":{"type":"Point","coordinates":[105.985274795,10.271684616]},"properties":{"Trạm cấp nước":"Hòa Ninh","Số Seri đồng hồ":null,"Loại đồng hồ":null,"Chỉ số đầu kỳ":null,"Chỉ số cuối kỳ":null,"Nước khai thác":null,"Ngày lắp đặt":null,"Ngày thay đồng hồ":null,"Trạng thái":null,"Kích thước đồng hồ":"D200","Nhà sản xuất":null,"Áp lực tối đa":null,"Áp lực tối thiểu":null,"layer_id":258,"fid":47,"label":"Hòa Ninh"}},{"type":"Feature","id":48,"geometry":{"type":"Point","coordinates":[105.951810873,10.164283941]},"properties":{"Trạm cấp nước":"Hòa Phú 2","Số Seri đồng hồ":null,"Loại đồng hồ":null,"Chỉ số đầu kỳ":null,"Chỉ số cuối kỳ":null,"Nước khai thác":null,"Ngày lắp đặt":null,"Ngày thay đồng hồ":null,"Trạng thái":null,"Kích thước đồng hồ":"D110","Nhà sản xuất":null,"Áp lực tối đa":null,"Áp lực tối thiểu":null,"layer_id":258,"fid":48,"label":"Hòa Phú 2"}},{"type":"Feature","id":49,"geometry":{"type":"Point","coordinates":[105.995418736,10.190251252]},"properties":{"Trạm cấp nước":"Phú Đức 2","Số Seri đồng hồ":null,"Loại đồng hồ":null,"Chỉ số đầu kỳ":null,"Chỉ số cuối kỳ":null,"Nước khai thác":null,"Ngày lắp đặt":null,"Ngày thay đồng hồ":null,"Trạng thái":null,"Kích thước đồng hồ":"D200","Nhà sản xuất":null,"Áp lực tối đa":null,"Áp lực tối thiểu":null,"layer_id":258,"fid":49,"label":"Phú Đức 2"}},{"type":"Feature","id":37,"geometry":{"type":"Point","coordinates":[106.041316485,10.042803232]},"properties":{"Trạm cấp nước":"Hòa Bình","Số Seri đồng hồ":null,"Loại đồng hồ":null,"Chỉ số đầu kỳ":null,"Chỉ số cuối kỳ":null,"Nước khai thác":null,"Ngày lắp đặt":null,"Ngày thay đồng hồ":null,"Trạng thái":null,"Kích thước đồng hồ":"D150","Nhà sản xuất":null,"Áp lực tối đa":null,"Áp lực tối thiểu":null,"layer_id":258,"fid":37,"label":"Hòa Bình"}},{"type":"Feature","id":17,"geometry":{"type":"Point","coordinates":[106.197938586,10.055204292]},"properties":{"Trạm cấp nước":"Trung Ngãi 1","Số Seri đồng hồ":null,"Loại đồng hồ":null,"Chỉ số đầu kỳ":null,"Chỉ số cuối kỳ":null,"Nước khai thác":null,"Ngày lắp đặt":null,"Ngày thay đồng hồ":null,"Trạng thái":null,"Kích thước đồng hồ":"D150","Nhà sản xuất":null,"Áp lực tối đa":null,"Áp lực tối thiểu":null,"layer_id":258,"fid":17,"label":"Trung Ngãi 1"}},{"type":"Feature","id":50,"geometry":{"type":"Point","coordinates":[106.104956182,10.231325209]},"properties":{"Trạm cấp nước":"Mỹ An 3","Số Seri đồng hồ":null,"Loại đồng hồ":null,"Chỉ số đầu kỳ":null,"Chỉ số cuối kỳ":null,"Nước khai thác":null,"Ngày lắp đặt":null,"Ngày thay đồng hồ":null,"Trạng thái":null,"Kích thước đồng hồ":"D200","Nhà sản xuất":null,"Áp lực tối đa":null,"Áp lực tối thiểu":null,"layer_id":258,"fid":50,"label":"Mỹ An 3"}},{"type":"Feature","id":18,"geometry":{"type":"Point","coordinates":[106.231352541,10.114912095]},"properties":{"Trạm cấp nước":"Thanh Bình","Số Seri đồng hồ":null,"Loại đồng hồ":null,"Chỉ số đầu kỳ":null,"Chỉ số cuối kỳ":null,"Nước khai thác":null,"Ngày lắp đặt":null,"Ngày thay đồng hồ":null,"Trạng thái":null,"Kích thước đồng hồ":"D150","Nhà sản xuất":null,"Áp lực tối đa":null,"Áp lực tối thiểu":null,"layer_id":258,"fid":18,"label":"Thanh Bình"}},{"type":"Feature","id":38,"geometry":{"type":"Point","coordinates":[105.880705406,9.982130957]},"properties":{"Trạm cấp nước":"Phú Thành","Số Seri đồng hồ":null,"Loại đồng hồ":null,"Chỉ số đầu kỳ":null,"Chỉ số cuối kỳ":null,"Nước khai thác":null,"Ngày lắp đặt":null,"Ngày thay đồng hồ":null,"Trạng thái":null,"Kích thước đồng hồ":"D150","Nhà sản xuất":null,"Áp lực tối đa":null,"Áp lực tối thiểu":null,"layer_id":258,"fid":38,"label":"Phú Thành"}},{"type":"Feature","id":51,"geometry":{"type":"Point","coordinates":[106.042928193,10.149860213]},"properties":{"Trạm cấp nước":"Tân Long","Số Seri đồng hồ":null,"Loại đồng hồ":null,"Chỉ số đầu kỳ":null,"Chỉ số cuối kỳ":null,"Nước khai thác":null,"Ngày lắp đặt":null,"Ngày thay đồng hồ":null,"Trạng thái":null,"Kích thước đồng hồ":"D150","Nhà sản xuất":null,"Áp lực tối đa":null,"Áp lực tối thiểu":null,"layer_id":258,"fid":51,"label":"Tân Long"}},{"type":"Feature","id":19,"geometry":{"type":"Point","coordinates":[106.127574884,10.163180718]},"properties":{"Trạm cấp nước":"Tân Quới Trung","Số Seri đồng hồ":null,"Loại đồng hồ":null,"Chỉ số đầu kỳ":null,"Chỉ số cuối kỳ":null,"Nước khai thác":null,"Ngày lắp đặt":null,"Ngày thay đồng hồ":null,"Trạng thái":null,"Kích thước đồng hồ":"D150","Nhà sản xuất":null,"Áp lực tối đa":null,"Áp lực tối thiểu":null,"layer_id":258,"fid":19,"label":"Tân Quới Trung"}},{"type":"Feature","id":20,"geometry":{"type":"Point","coordinates":[106.084645788,10.112221702]},"properties":{"Trạm cấp nước":"Tân An Luông","Số Seri đồng hồ":null,"Loại đồng hồ":null,"Chỉ số đầu kỳ":null,"Chỉ số cuối kỳ":null,"Nước khai thác":null,"Ngày lắp đặt":null,"Ngày thay đồng hồ":null,"Trạng thái":null,"Kích thước đồng hồ":"D200","Nhà sản xuất":null,"Áp lực tối đa":null,"Áp lực tối thiểu":null,"layer_id":258,"fid":20,"label":"Tân An Luông"}},{"type":"Feature","id":39,"geometry":{"type":"Point","coordinates":[106.051462101,9.984188765]},"properties":{"Trạm cấp nước":"Thới Hòa","Số Seri đồng hồ":null,"Loại đồng hồ":null,"Chỉ số đầu kỳ":null,"Chỉ số cuối kỳ":null,"Nước khai thác":null,"Ngày lắp đặt":null,"Ngày thay đồng hồ":null,"Trạng thái":null,"Kích thước đồng hồ":"D150","Nhà sản xuất":null,"Áp lực tối đa":null,"Áp lực tối thiểu":null,"layer_id":258,"fid":39,"label":"Thới Hòa"}},{"type":"Feature","id":21,"geometry":{"type":"Point","coordinates":[105.985274795,10.271684616]},"properties":{"Trạm cấp nước":"Hòa Ninh","Số Seri đồng hồ":null,"Loại đồng hồ":null,"Chỉ số đầu kỳ":null,"Chỉ số cuối kỳ":null,"Nước khai thác":null,"Ngày lắp đặt":null,"Ngày thay đồng hồ":null,"Trạng thái":null,"Kích thước đồng hồ":"D200","Nhà sản xuất":null,"Áp lực tối đa":null,"Áp lực tối thiểu":null,"layer_id":258,"fid":21,"label":"Hòa Ninh"}},{"type":"Feature","id":22,"geometry":{"type":"Point","coordinates":[105.951810873,10.164283941]},"properties":{"Trạm cấp nước":"Hòa Phú 2","Số Seri đồng hồ":null,"Loại đồng hồ":null,"Chỉ số đầu kỳ":null,"Chỉ số cuối kỳ":null,"Nước khai thác":null,"Ngày lắp đặt":null,"Ngày thay đồng hồ":null,"Trạng thái":null,"Kích thước đồng hồ":"D110","Nhà sản xuất":null,"Áp lực tối đa":null,"Áp lực tối thiểu":null,"layer_id":258,"fid":22,"label":"Hòa Phú 2"}},{"type":"Feature","id":40,"geometry":{"type":"Point","coordinates":[105.976441658,10.015027713]},"properties":{"Trạm cấp nước":"Thiện Mỹ","Số Seri đồng hồ":null,"Loại đồng hồ":null,"Chỉ số đầu kỳ":null,"Chỉ số cuối kỳ":null,"Nước khai thác":null,"Ngày lắp đặt":null,"Ngày thay đồng hồ":null,"Trạng thái":null,"Kích thước đồng hồ":"D200","Nhà sản xuất":null,"Áp lực tối đa":null,"Áp lực tối thiểu":null,"layer_id":258,"fid":40,"label":"Thiện Mỹ"}},{"type":"Feature","id":41,"geometry":{"type":"Point","coordinates":[106.040537876,10.079277737]},"properties":{"Trạm cấp nước":"Xuân Hiệp","Số Seri đồng hồ":null,"Loại đồng hồ":null,"Chỉ số đầu kỳ":null,"Chỉ số cuối kỳ":null,"Nước khai thác":null,"Ngày lắp đặt":null,"Ngày thay đồng hồ":null,"Trạng thái":null,"Kích thước đồng hồ":"D200","Nhà sản xuất":null,"Áp lực tối đa":null,"Áp lực tối thiểu":null,"layer_id":258,"fid":41,"label":"Xuân Hiệp"}},{"type":"Feature","id":42,"geometry":{"type":"Point","coordinates":[106.030861337,9.952450314]},"properties":{"Trạm cấp nước":"Thuận Thới","Số Seri đồng hồ":null,"Loại đồng hồ":null,"Chỉ số đầu kỳ":null,"Chỉ số cuối kỳ":null,"Nước khai thác":null,"Ngày lắp đặt":null,"Ngày thay đồng hồ":null,"Trạng thái":null,"Kích thước đồng hồ":"D150","Nhà sản xuất":null,"Áp lực tối đa":null,"Áp lực tối thiểu":null,"layer_id":258,"fid":42,"label":"Thuận Thới"}},{"type":"Feature","id":52,"geometry":{"type":"Point","coordinates":[106.076838739,10.124387076]},"properties":{"Trạm cấp nước":"Tân Long Hội ","Số Seri đồng hồ":null,"Loại đồng hồ":null,"Chỉ số đầu kỳ":null,"Chỉ số cuối kỳ":null,"Nước khai thác":null,"Ngày lắp đặt":null,"Ngày thay đồng hồ":null,"Trạng thái":null,"Kích thước đồng hồ":"D200","Nhà sản xuất":null,"Áp lực tối đa":null,"Áp lực tối thiểu":null,"layer_id":258,"fid":52,"label":"Tân Long Hội "}}]}
