{"type":"FeatureCollection","name":"Van ","metadata":{"source":"https://hatang.vinhlong.gov.vn/","downloaded_at":"2026-07-20T01:13:26+00:00","layer_id":259,"layer_name":"Van ","catalog_endpoints":["/map/publicLayers2?inputs=nuoc_sach"],"requested_bbox":[104.0,8.0,108.0,12.0],"tile_size":0.0,"tile_count":1,"tile_errors":[],"feature_count":93,"coordinate_order":"x,y (thường là longitude,latitude theo cấu hình EPSG:4326 của WebGIS)"},"features":[{"type":"Feature","id":218,"geometry":{"type":"Point","coordinates":[105.848208144,10.0430262]},"properties":{"Trạm cấp nước":"Đông Bình","Vị trí lắp đặt":"Trong TCN","Ngày lắp đặt":null,"Trạng thái":null,"Đường kính":null,"Chủng loại":null,"Nhà sản xuất":null,"Ghi chú":null,"layer_id":259,"fid":218,"label":"Đông Bình"}},{"type":"Feature","id":219,"geometry":{"type":"Point","coordinates":[105.874152975,9.995013747]},"properties":{"Trạm cấp nước":"Đông Thành","Vị trí lắp đặt":"Trong TCN","Ngày lắp đặt":null,"Trạng thái":null,"Đường kính":null,"Chủng loại":null,"Nhà sản xuất":null,"Ghi chú":null,"layer_id":259,"fid":219,"label":"Đông Thành"}},{"type":"Feature","id":220,"geometry":{"type":"Point","coordinates":[105.861985209,10.044539482]},"properties":{"Trạm cấp nước":"Đông Thạnh","Vị trí lắp đặt":"Trong TCN","Ngày lắp đặt":null,"Trạng thái":null,"Đường kính":null,"Chủng loại":null,"Nhà sản xuất":null,"Ghi chú":null,"layer_id":259,"fid":220,"label":"Đông Thạnh"}},{"type":"Feature","id":221,"geometry":{"type":"Point","coordinates":[105.842144071,10.019406553]},"properties":{"Trạm cấp nước":"Mỹ Hòa","Vị trí lắp đặt":"Trong TCN","Ngày lắp đặt":null,"Trạng thái":null,"Đường kính":null,"Chủng loại":null,"Nhà sản xuất":null,"Ghi chú":null,"layer_id":259,"fid":221,"label":"Mỹ Hòa"}},{"type":"Feature","id":222,"geometry":{"type":"Point","coordinates":[105.832775217,10.081414994]},"properties":{"Trạm cấp nước":"Thuận An ","Vị trí lắp đặt":"Trong TCN","Ngày lắp đặt":null,"Trạng thái":null,"Đường kính":null,"Chủng loại":null,"Nhà sản xuất":null,"Ghi chú":null,"layer_id":259,"fid":222,"label":"Thuận An "}},{"type":"Feature","id":223,"geometry":{"type":"Point","coordinates":[105.850822967,10.107382039]},"properties":{"Trạm cấp nước":"Thuận Phú B","Vị trí lắp đặt":"Trong TCN","Ngày lắp đặt":null,"Trạng thái":null,"Đường kính":null,"Chủng loại":null,"Nhà sản xuất":null,"Ghi chú":null,"layer_id":259,"fid":223,"label":"Thuận Phú B"}},{"type":"Feature","id":224,"geometry":{"type":"Point","coordinates":[105.826622058,10.104920464]},"properties":{"Trạm cấp nước":"Mỹ Thuận","Vị trí lắp đặt":"Trong TCN","Ngày lắp đặt":null,"Trạng thái":null,"Đường kính":null,"Chủng loại":null,"Nhà sản xuất":null,"Ghi chú":null,"layer_id":259,"fid":224,"label":"Mỹ Thuận"}},{"type":"Feature","id":225,"geometry":{"type":"Point","coordinates":[105.824707739,10.143042016]},"properties":{"Trạm cấp nước":"Nguyễn Văn Thảnh","Vị trí lắp đặt":"Trong TCN","Ngày lắp đặt":null,"Trạng thái":null,"Đường kính":null,"Chủng loại":null,"Nhà sản xuất":null,"Ghi chú":null,"layer_id":259,"fid":225,"label":"Nguyễn Văn Thảnh"}},{"type":"Feature","id":226,"geometry":{"type":"Point","coordinates":[105.710205803,10.153479041]},"properties":{"Trạm cấp nước":"Tân An Thạnh","Vị trí lắp đặt":"Trong TCN","Ngày lắp đặt":null,"Trạng thái":null,"Đường kính":null,"Chủng loại":null,"Nhà sản xuất":null,"Ghi chú":null,"layer_id":259,"fid":226,"label":"Tân An Thạnh"}},{"type":"Feature","id":227,"geometry":{"type":"Point","coordinates":[105.729604145,10.122932125]},"properties":{"Trạm cấp nước":"Tân Bình","Vị trí lắp đặt":"Trong TCN","Ngày lắp đặt":null,"Trạng thái":null,"Đường kính":null,"Chủng loại":null,"Nhà sản xuất":null,"Ghi chú":null,"layer_id":259,"fid":227,"label":"Tân Bình"}},{"type":"Feature","id":311,"geometry":{"type":"Point","coordinates":[105.912876302,9.954831371]},"properties":{"Trạm cấp nước":"Lục Sỹ Thành 1","Vị trí lắp đặt":"Trong TCN","Ngày lắp đặt":null,"Trạng thái":null,"Đường kính":null,"Chủng loại":null,"Nhà sản xuất":null,"Ghi chú":null,"layer_id":259,"fid":311,"label":"Lục Sỹ Thành 1"}},{"type":"Feature","id":228,"geometry":{"type":"Point","coordinates":[105.758606335,10.182983653]},"properties":{"Trạm cấp nước":"Tân Hưng","Vị trí lắp đặt":"Trong TCN","Ngày lắp đặt":null,"Trạng thái":null,"Đường kính":null,"Chủng loại":null,"Nhà sản xuất":null,"Ghi chú":null,"layer_id":259,"fid":228,"label":"Tân Hưng"}},{"type":"Feature","id":229,"geometry":{"type":"Point","coordinates":[105.715563429,10.140844267]},"properties":{"Trạm cấp nước":"Tân Lược","Vị trí lắp đặt":"Trong TCN","Ngày lắp đặt":null,"Trạng thái":null,"Đường kính":null,"Chủng loại":null,"Nhà sản xuất":null,"Ghi chú":null,"layer_id":259,"fid":229,"label":"Tân Lược"}},{"type":"Feature","id":230,"geometry":{"type":"Point","coordinates":[105.774805442,10.171207224]},"properties":{"Trạm cấp nước":"Tân Thành 1","Vị trí lắp đặt":"Trong TCN","Ngày lắp đặt":null,"Trạng thái":null,"Đường kính":null,"Chủng loại":null,"Nhà sản xuất":null,"Ghi chú":null,"layer_id":259,"fid":230,"label":"Tân Thành 1"}},{"type":"Feature","id":231,"geometry":{"type":"Point","coordinates":[105.748775244,10.157430402]},"properties":{"Trạm cấp nước":"Tân Thành 2","Vị trí lắp đặt":"Trong TCN","Ngày lắp đặt":null,"Trạng thái":null,"Đường kính":null,"Chủng loại":null,"Nhà sản xuất":null,"Ghi chú":null,"layer_id":259,"fid":231,"label":"Tân Thành 2"}},{"type":"Feature","id":232,"geometry":{"type":"Point","coordinates":[105.773906277,10.144155252]},"properties":{"Trạm cấp nước":"Thành Đông","Vị trí lắp đặt":"Trong TCN","Ngày lắp đặt":null,"Trạng thái":null,"Đường kính":null,"Chủng loại":null,"Nhà sản xuất":null,"Ghi chú":null,"layer_id":259,"fid":232,"label":"Thành Đông"}},{"type":"Feature","id":233,"geometry":{"type":"Point","coordinates":[105.786296796,10.131450149]},"properties":{"Trạm cấp nước":"Thành Trung","Vị trí lắp đặt":"Trong TCN","Ngày lắp đặt":null,"Trạng thái":null,"Đường kính":null,"Chủng loại":null,"Nhà sản xuất":null,"Ghi chú":null,"layer_id":259,"fid":233,"label":"Thành Trung"}},{"type":"Feature","id":234,"geometry":{"type":"Point","coordinates":[105.974178712,10.268862018]},"properties":{"Trạm cấp nước":"An Bình","Vị trí lắp đặt":"Trong TCN","Ngày lắp đặt":null,"Trạng thái":null,"Đường kính":null,"Chủng loại":null,"Nhà sản xuất":null,"Ghi chú":null,"layer_id":259,"fid":234,"label":"An Bình"}},{"type":"Feature","id":235,"geometry":{"type":"Point","coordinates":[105.964535354,10.310448468]},"properties":{"Trạm cấp nước":"Đồng Phú","Vị trí lắp đặt":"Trong TCN","Ngày lắp đặt":null,"Trạng thái":null,"Đường kính":null,"Chủng loại":null,"Nhà sản xuất":null,"Ghi chú":null,"layer_id":259,"fid":235,"label":"Đồng Phú"}},{"type":"Feature","id":236,"geometry":{"type":"Point","coordinates":[105.985274795,10.271684616]},"properties":{"Trạm cấp nước":"Hòa Ninh 2","Vị trí lắp đặt":"Trong TCN","Ngày lắp đặt":null,"Trạng thái":null,"Đường kính":null,"Chủng loại":null,"Nhà sản xuất":null,"Ghi chú":null,"layer_id":259,"fid":236,"label":"Hòa Ninh 2"}},{"type":"Feature","id":237,"geometry":{"type":"Point","coordinates":[105.951810873,10.164283941]},"properties":{"Trạm cấp nước":"Hòa Phú 2","Vị trí lắp đặt":"Trong TCN","Ngày lắp đặt":null,"Trạng thái":null,"Đường kính":null,"Chủng loại":null,"Nhà sản xuất":null,"Ghi chú":null,"layer_id":259,"fid":237,"label":"Hòa Phú 2"}},{"type":"Feature","id":238,"geometry":{"type":"Point","coordinates":[105.96960924,10.184737884]},"properties":{"Trạm cấp nước":"Lộc Hòa","Vị trí lắp đặt":"Trong TCN","Ngày lắp đặt":null,"Trạng thái":null,"Đường kính":null,"Chủng loại":null,"Nhà sản xuất":null,"Ghi chú":null,"layer_id":259,"fid":238,"label":"Lộc Hòa"}},{"type":"Feature","id":239,"geometry":{"type":"Point","coordinates":[106.00822307,10.16685948]},"properties":{"Trạm cấp nước":"Long An 1","Vị trí lắp đặt":"Trong TCN","Ngày lắp đặt":null,"Trạng thái":null,"Đường kính":null,"Chủng loại":null,"Nhà sản xuất":null,"Ghi chú":null,"layer_id":259,"fid":239,"label":"Long An 1"}},{"type":"Feature","id":240,"geometry":{"type":"Point","coordinates":[106.014580323,10.1531789]},"properties":{"Trạm cấp nước":"Long An 2","Vị trí lắp đặt":"Trong TCN","Ngày lắp đặt":null,"Trạng thái":null,"Đường kính":null,"Chủng loại":null,"Nhà sản xuất":null,"Ghi chú":null,"layer_id":259,"fid":240,"label":"Long An 2"}},{"type":"Feature","id":241,"geometry":{"type":"Point","coordinates":[105.984975163,10.224732926]},"properties":{"Trạm cấp nước":"Long Phước 1","Vị trí lắp đặt":"Trong TCN","Ngày lắp đặt":null,"Trạng thái":null,"Đường kính":null,"Chủng loại":null,"Nhà sản xuất":null,"Ghi chú":null,"layer_id":259,"fid":241,"label":"Long Phước 1"}},{"type":"Feature","id":242,"geometry":{"type":"Point","coordinates":[106.00213717,10.21441389]},"properties":{"Trạm cấp nước":"Long Phước 2","Vị trí lắp đặt":"Trong TCN","Ngày lắp đặt":null,"Trạng thái":null,"Đường kính":null,"Chủng loại":null,"Nhà sản xuất":null,"Ghi chú":null,"layer_id":259,"fid":242,"label":"Long Phước 2"}},{"type":"Feature","id":243,"geometry":{"type":"Point","coordinates":[105.966237971,10.207409699]},"properties":{"Trạm cấp nước":"Long Phước 3","Vị trí lắp đặt":"Trong TCN","Ngày lắp đặt":null,"Trạng thái":null,"Đường kính":null,"Chủng loại":null,"Nhà sản xuất":null,"Ghi chú":null,"layer_id":259,"fid":243,"label":"Long Phước 3"}},{"type":"Feature","id":244,"geometry":{"type":"Point","coordinates":[105.995418736,10.190251252]},"properties":{"Trạm cấp nước":"Phú Đức 2","Vị trí lắp đặt":"Trong TCN","Ngày lắp đặt":null,"Trạng thái":null,"Đường kính":null,"Chủng loại":null,"Nhà sản xuất":null,"Ghi chú":null,"layer_id":259,"fid":244,"label":"Phú Đức 2"}},{"type":"Feature","id":245,"geometry":{"type":"Point","coordinates":[105.922309884,10.166027271]},"properties":{"Trạm cấp nước":"Phú Quới","Vị trí lắp đặt":"Trong TCN","Ngày lắp đặt":null,"Trạng thái":null,"Đường kính":null,"Chủng loại":null,"Nhà sản xuất":null,"Ghi chú":null,"layer_id":259,"fid":245,"label":"Phú Quới"}},{"type":"Feature","id":246,"geometry":{"type":"Point","coordinates":[105.97302401,10.216604143]},"properties":{"Trạm cấp nước":"Phước Hậu 1","Vị trí lắp đặt":"Trong TCN","Ngày lắp đặt":null,"Trạng thái":null,"Đường kính":null,"Chủng loại":null,"Nhà sản xuất":null,"Ghi chú":null,"layer_id":259,"fid":246,"label":"Phước Hậu 1"}},{"type":"Feature","id":247,"geometry":{"type":"Point","coordinates":[105.93715085,10.235306825]},"properties":{"Trạm cấp nước":"Tân Hạnh 1","Vị trí lắp đặt":"Trong TCN","Ngày lắp đặt":null,"Trạng thái":null,"Đường kính":null,"Chủng loại":null,"Nhà sản xuất":null,"Ghi chú":null,"layer_id":259,"fid":247,"label":"Tân Hạnh 1"}},{"type":"Feature","id":248,"geometry":{"type":"Point","coordinates":[105.918216865,10.205684554]},"properties":{"Trạm cấp nước":"Tân Hạnh 2","Vị trí lắp đặt":"Trong TCN","Ngày lắp đặt":null,"Trạng thái":null,"Đường kính":null,"Chủng loại":null,"Nhà sản xuất":null,"Ghi chú":null,"layer_id":259,"fid":248,"label":"Tân Hạnh 2"}},{"type":"Feature","id":249,"geometry":{"type":"Point","coordinates":[105.898701789,10.168249789]},"properties":{"Trạm cấp nước":"Thạnh Quới 1","Vị trí lắp đặt":"Trong TCN","Ngày lắp đặt":null,"Trạng thái":null,"Đường kính":null,"Chủng loại":null,"Nhà sản xuất":null,"Ghi chú":null,"layer_id":259,"fid":249,"label":"Thạnh Quới 1"}},{"type":"Feature","id":250,"geometry":{"type":"Point","coordinates":[106.139603413,10.204765237]},"properties":{"Trạm cấp nước":"An Phước","Vị trí lắp đặt":"Trong TCN","Ngày lắp đặt":null,"Trạng thái":null,"Đường kính":null,"Chủng loại":null,"Nhà sản xuất":null,"Ghi chú":null,"layer_id":259,"fid":250,"label":"An Phước"}},{"type":"Feature","id":251,"geometry":{"type":"Point","coordinates":[106.029438862,10.170984927]},"properties":{"Trạm cấp nước":"Bình Phước 1","Vị trí lắp đặt":"Trong TCN","Ngày lắp đặt":null,"Trạng thái":null,"Đường kính":null,"Chủng loại":null,"Nhà sản xuất":null,"Ghi chú":null,"layer_id":259,"fid":251,"label":"Bình Phước 1"}},{"type":"Feature","id":252,"geometry":{"type":"Point","coordinates":[106.054879729,10.185173924]},"properties":{"Trạm cấp nước":"Bình Phước 2","Vị trí lắp đặt":"Trong TCN","Ngày lắp đặt":null,"Trạng thái":null,"Đường kính":null,"Chủng loại":null,"Nhà sản xuất":null,"Ghi chú":null,"layer_id":259,"fid":252,"label":"Bình Phước 2"}},{"type":"Feature","id":253,"geometry":{"type":"Point","coordinates":[106.155527697,10.158967029]},"properties":{"Trạm cấp nước":"Chánh An","Vị trí lắp đặt":"Trong TCN","Ngày lắp đặt":null,"Trạng thái":null,"Đường kính":null,"Chủng loại":null,"Nhà sản xuất":null,"Ghi chú":null,"layer_id":259,"fid":253,"label":"Chánh An"}},{"type":"Feature","id":254,"geometry":{"type":"Point","coordinates":[106.097557052,10.195912119]},"properties":{"Trạm cấp nước":"Chánh Hội 1","Vị trí lắp đặt":"Trong TCN","Ngày lắp đặt":null,"Trạng thái":null,"Đường kính":null,"Chủng loại":null,"Nhà sản xuất":null,"Ghi chú":null,"layer_id":259,"fid":254,"label":"Chánh Hội 1"}},{"type":"Feature","id":255,"geometry":{"type":"Point","coordinates":[106.104413017,10.187156579]},"properties":{"Trạm cấp nước":"Chánh Hội 2","Vị trí lắp đặt":"Trong TCN","Ngày lắp đặt":null,"Trạng thái":null,"Đường kính":null,"Chủng loại":null,"Nhà sản xuất":null,"Ghi chú":null,"layer_id":259,"fid":255,"label":"Chánh Hội 2"}},{"type":"Feature","id":256,"geometry":{"type":"Point","coordinates":[106.02760105,10.207732162]},"properties":{"Trạm cấp nước":"Hòa Tịnh","Vị trí lắp đặt":"Trong TCN","Ngày lắp đặt":null,"Trạng thái":null,"Đường kính":null,"Chủng loại":null,"Nhà sản xuất":null,"Ghi chú":null,"layer_id":259,"fid":256,"label":"Hòa Tịnh"}},{"type":"Feature","id":257,"geometry":{"type":"Point","coordinates":[106.002522956,10.210004978]},"properties":{"Trạm cấp nước":"Long Mỹ","Vị trí lắp đặt":"Trong TCN","Ngày lắp đặt":null,"Trạng thái":null,"Đường kính":null,"Chủng loại":null,"Nhà sản xuất":null,"Ghi chú":null,"layer_id":259,"fid":257,"label":"Long Mỹ"}},{"type":"Feature","id":258,"geometry":{"type":"Point","coordinates":[106.053626768,10.241693558]},"properties":{"Trạm cấp nước":"Mỹ An 1","Vị trí lắp đặt":"Trong TCN","Ngày lắp đặt":null,"Trạng thái":null,"Đường kính":null,"Chủng loại":null,"Nhà sản xuất":null,"Ghi chú":null,"layer_id":259,"fid":258,"label":"Mỹ An 1"}},{"type":"Feature","id":259,"geometry":{"type":"Point","coordinates":[106.03591162,10.243260258]},"properties":{"Trạm cấp nước":"Mỹ An 2","Vị trí lắp đặt":"Trong TCN","Ngày lắp đặt":null,"Trạng thái":null,"Đường kính":null,"Chủng loại":null,"Nhà sản xuất":null,"Ghi chú":null,"layer_id":259,"fid":259,"label":"Mỹ An 2"}},{"type":"Feature","id":260,"geometry":{"type":"Point","coordinates":[106.101374026,10.235813334]},"properties":{"Trạm cấp nước":"Mỹ Phước","Vị trí lắp đặt":"Trong TCN","Ngày lắp đặt":null,"Trạng thái":null,"Đường kính":null,"Chủng loại":null,"Nhà sản xuất":null,"Ghi chú":null,"layer_id":259,"fid":260,"label":"Mỹ Phước"}},{"type":"Feature","id":261,"geometry":{"type":"Point","coordinates":[106.090011628,10.207146097]},"properties":{"Trạm cấp nước":"Nhơn Phú","Vị trí lắp đặt":"Trong TCN","Ngày lắp đặt":null,"Trạng thái":null,"Đường kính":null,"Chủng loại":null,"Nhà sản xuất":null,"Ghi chú":null,"layer_id":259,"fid":261,"label":"Nhơn Phú"}},{"type":"Feature","id":262,"geometry":{"type":"Point","coordinates":[106.097314147,10.158544832]},"properties":{"Trạm cấp nước":"Tân An Hội","Vị trí lắp đặt":"Trong TCN","Ngày lắp đặt":null,"Trạng thái":null,"Đường kính":null,"Chủng loại":null,"Nhà sản xuất":null,"Ghi chú":null,"layer_id":259,"fid":262,"label":"Tân An Hội"}},{"type":"Feature","id":263,"geometry":{"type":"Point","coordinates":[106.042928193,10.149860213]},"properties":{"Trạm cấp nước":"Tân Long 2","Vị trí lắp đặt":"Trong TCN","Ngày lắp đặt":null,"Trạng thái":null,"Đường kính":null,"Chủng loại":null,"Nhà sản xuất":null,"Ghi chú":null,"layer_id":259,"fid":263,"label":"Tân Long 2"}},{"type":"Feature","id":264,"geometry":{"type":"Point","coordinates":[106.076838739,10.124387076]},"properties":{"Trạm cấp nước":"Tân Long Hội","Vị trí lắp đặt":"Trong TCN","Ngày lắp đặt":null,"Trạng thái":null,"Đường kính":null,"Chủng loại":null,"Nhà sản xuất":null,"Ghi chú":null,"layer_id":259,"fid":264,"label":"Tân Long Hội"}},{"type":"Feature","id":265,"geometry":{"type":"Point","coordinates":[105.943966337,10.000533779]},"properties":{"Trạm cấp nước":"Bình Ninh","Vị trí lắp đặt":"Trong TCN","Ngày lắp đặt":null,"Trạng thái":null,"Đường kính":null,"Chủng loại":null,"Nhà sản xuất":null,"Ghi chú":null,"layer_id":259,"fid":265,"label":"Bình Ninh"}},{"type":"Feature","id":266,"geometry":{"type":"Point","coordinates":[105.989921929,10.110631261]},"properties":{"Trạm cấp nước":"Hậu Lộc","Vị trí lắp đặt":"Trong TCN","Ngày lắp đặt":null,"Trạng thái":null,"Đường kính":null,"Chủng loại":null,"Nhà sản xuất":null,"Ghi chú":null,"layer_id":259,"fid":266,"label":"Hậu Lộc"}},{"type":"Feature","id":267,"geometry":{"type":"Point","coordinates":[106.030797661,10.08715056]},"properties":{"Trạm cấp nước":"Hòa Hiệp","Vị trí lắp đặt":"Trong TCN","Ngày lắp đặt":null,"Trạng thái":null,"Đường kính":null,"Chủng loại":null,"Nhà sản xuất":null,"Ghi chú":null,"layer_id":259,"fid":267,"label":"Hòa Hiệp"}},{"type":"Feature","id":268,"geometry":{"type":"Point","coordinates":[106.003064227,10.083197657]},"properties":{"Trạm cấp nước":"Hòa Lộc","Vị trí lắp đặt":"Trong TCN","Ngày lắp đặt":null,"Trạng thái":null,"Đường kính":null,"Chủng loại":null,"Nhà sản xuất":null,"Ghi chú":null,"layer_id":259,"fid":268,"label":"Hòa Lộc"}},{"type":"Feature","id":269,"geometry":{"type":"Point","coordinates":[106.070323761,10.098594323]},"properties":{"Trạm cấp nước":"Hòa Thạnh 2","Vị trí lắp đặt":"Trong TCN","Ngày lắp đặt":null,"Trạng thái":null,"Đường kính":null,"Chủng loại":null,"Nhà sản xuất":null,"Ghi chú":null,"layer_id":259,"fid":269,"label":"Hòa Thạnh 2"}},{"type":"Feature","id":270,"geometry":{"type":"Point","coordinates":[105.979137243,10.018188384]},"properties":{"Trạm cấp nước":"Loan Mỹ","Vị trí lắp đặt":"Trong TCN","Ngày lắp đặt":null,"Trạng thái":null,"Đường kính":null,"Chủng loại":null,"Nhà sản xuất":null,"Ghi chú":null,"layer_id":259,"fid":270,"label":"Loan Mỹ"}},{"type":"Feature","id":271,"geometry":{"type":"Point","coordinates":[105.913405539,10.076640347]},"properties":{"Trạm cấp nước":"Long Phú 1","Vị trí lắp đặt":"Trong TCN","Ngày lắp đặt":null,"Trạng thái":null,"Đường kính":null,"Chủng loại":null,"Nhà sản xuất":null,"Ghi chú":null,"layer_id":259,"fid":271,"label":"Long Phú 1"}},{"type":"Feature","id":272,"geometry":{"type":"Point","coordinates":[105.918061826,10.086218581]},"properties":{"Trạm cấp nước":"Long Phú 2","Vị trí lắp đặt":"Trong TCN","Ngày lắp đặt":null,"Trạng thái":null,"Đường kính":null,"Chủng loại":null,"Nhà sản xuất":null,"Ghi chú":null,"layer_id":259,"fid":272,"label":"Long Phú 2"}},{"type":"Feature","id":273,"geometry":{"type":"Point","coordinates":[105.964259115,10.101057292]},"properties":{"Trạm cấp nước":"Mỹ Lộc 1","Vị trí lắp đặt":"Trong TCN","Ngày lắp đặt":null,"Trạng thái":null,"Đường kính":null,"Chủng loại":null,"Nhà sản xuất":null,"Ghi chú":null,"layer_id":259,"fid":273,"label":"Mỹ Lộc 1"}},{"type":"Feature","id":274,"geometry":{"type":"Point","coordinates":[105.934092228,10.099606543]},"properties":{"Trạm cấp nước":"Mỹ Lộc 2","Vị trí lắp đặt":"Trong TCN","Ngày lắp đặt":null,"Trạng thái":null,"Đường kính":null,"Chủng loại":null,"Nhà sản xuất":null,"Ghi chú":null,"layer_id":259,"fid":274,"label":"Mỹ Lộc 2"}},{"type":"Feature","id":275,"geometry":{"type":"Point","coordinates":[105.905000122,10.030656001]},"properties":{"Trạm cấp nước":"Ngãi Tứ","Vị trí lắp đặt":"Trong TCN","Ngày lắp đặt":null,"Trạng thái":null,"Đường kính":null,"Chủng loại":null,"Nhà sản xuất":null,"Ghi chú":null,"layer_id":259,"fid":275,"label":"Ngãi Tứ"}},{"type":"Feature","id":276,"geometry":{"type":"Point","coordinates":[105.882028939,10.107338285]},"properties":{"Trạm cấp nước":"Phú Hưng","Vị trí lắp đặt":"Trong TCN","Ngày lắp đặt":null,"Trạng thái":null,"Đường kính":null,"Chủng loại":null,"Nhà sản xuất":null,"Ghi chú":null,"layer_id":259,"fid":276,"label":"Phú Hưng"}},{"type":"Feature","id":277,"geometry":{"type":"Point","coordinates":[105.953466809,10.128305434]},"properties":{"Trạm cấp nước":"Phú Lộc","Vị trí lắp đặt":"Trong TCN","Ngày lắp đặt":null,"Trạng thái":null,"Đường kính":null,"Chủng loại":null,"Nhà sản xuất":null,"Ghi chú":null,"layer_id":259,"fid":277,"label":"Phú Lộc"}},{"type":"Feature","id":286,"geometry":{"type":"Point","coordinates":[105.912995979,9.951550993]},"properties":{"Trạm cấp nước":"Lục Sỹ Thành 2","Vị trí lắp đặt":"Trong TCN","Ngày lắp đặt":null,"Trạng thái":null,"Đường kính":null,"Chủng loại":null,"Nhà sản xuất":null,"Ghi chú":null,"layer_id":259,"fid":286,"label":"Lục Sỹ Thành 2"}},{"type":"Feature","id":278,"geometry":{"type":"Point","coordinates":[105.885057976,10.145327596]},"properties":{"Trạm cấp nước":"Phú Thịnh","Vị trí lắp đặt":"Trong TCN","Ngày lắp đặt":null,"Trạng thái":null,"Đường kính":null,"Chủng loại":null,"Nhà sản xuất":null,"Ghi chú":null,"layer_id":259,"fid":278,"label":"Phú Thịnh"}},{"type":"Feature","id":279,"geometry":{"type":"Point","coordinates":[105.906158137,10.110455894]},"properties":{"Trạm cấp nước":"Song Phú","Vị trí lắp đặt":"Trong TCN","Ngày lắp đặt":null,"Trạng thái":null,"Đường kính":null,"Chủng loại":null,"Nhà sản xuất":null,"Ghi chú":null,"layer_id":259,"fid":279,"label":"Song Phú"}},{"type":"Feature","id":280,"geometry":{"type":"Point","coordinates":[105.970323961,10.149249004]},"properties":{"Trạm cấp nước":"Tân Lộc 2","Vị trí lắp đặt":"Trong TCN","Ngày lắp đặt":null,"Trạng thái":null,"Đường kính":null,"Chủng loại":null,"Nhà sản xuất":null,"Ghi chú":null,"layer_id":259,"fid":280,"label":"Tân Lộc 2"}},{"type":"Feature","id":281,"geometry":{"type":"Point","coordinates":[105.884836726,10.089821393]},"properties":{"Trạm cấp nước":"Tân Phú 2","Vị trí lắp đặt":"Trong TCN","Ngày lắp đặt":null,"Trạng thái":null,"Đường kính":null,"Chủng loại":null,"Nhà sản xuất":null,"Ghi chú":null,"layer_id":259,"fid":281,"label":"Tân Phú 2"}},{"type":"Feature","id":282,"geometry":{"type":"Point","coordinates":[105.998413496,10.043114646]},"properties":{"Trạm cấp nước":"Tường Lộc","Vị trí lắp đặt":"Trong TCN","Ngày lắp đặt":null,"Trạng thái":null,"Đường kính":null,"Chủng loại":null,"Nhà sản xuất":null,"Ghi chú":null,"layer_id":259,"fid":282,"label":"Tường Lộc"}},{"type":"Feature","id":283,"geometry":{"type":"Point","coordinates":[106.041316485,10.042803232]},"properties":{"Trạm cấp nước":"Hòa Bình","Vị trí lắp đặt":"Trong TCN","Ngày lắp đặt":null,"Trạng thái":null,"Đường kính":null,"Chủng loại":null,"Nhà sản xuất":null,"Ghi chú":null,"layer_id":259,"fid":283,"label":"Hòa Bình"}},{"type":"Feature","id":284,"geometry":{"type":"Point","coordinates":[106.074279427,9.945931988]},"properties":{"Trạm cấp nước":"Hựu Thành","Vị trí lắp đặt":"Trong TCN","Ngày lắp đặt":null,"Trạng thái":null,"Đường kính":null,"Chủng loại":null,"Nhà sản xuất":null,"Ghi chú":null,"layer_id":259,"fid":284,"label":"Hựu Thành"}},{"type":"Feature","id":287,"geometry":{"type":"Point","coordinates":[105.880705406,9.982130957]},"properties":{"Trạm cấp nước":"Phú Thành 2","Vị trí lắp đặt":"Trong TCN","Ngày lắp đặt":null,"Trạng thái":null,"Đường kính":null,"Chủng loại":null,"Nhà sản xuất":null,"Ghi chú":null,"layer_id":259,"fid":287,"label":"Phú Thành 2"}},{"type":"Feature","id":288,"geometry":{"type":"Point","coordinates":[105.976441658,10.015027713]},"properties":{"Trạm cấp nước":"Thiện Mỹ","Vị trí lắp đặt":"Trong TCN","Ngày lắp đặt":null,"Trạng thái":null,"Đường kính":null,"Chủng loại":null,"Nhà sản xuất":null,"Ghi chú":null,"layer_id":259,"fid":288,"label":"Thiện Mỹ"}},{"type":"Feature","id":289,"geometry":{"type":"Point","coordinates":[106.051462101,9.984188765]},"properties":{"Trạm cấp nước":"Thới Hòa","Vị trí lắp đặt":"Trong TCN","Ngày lắp đặt":null,"Trạng thái":null,"Đường kính":null,"Chủng loại":null,"Nhà sản xuất":null,"Ghi chú":null,"layer_id":259,"fid":289,"label":"Thới Hòa"}},{"type":"Feature","id":290,"geometry":{"type":"Point","coordinates":[106.030861337,9.952450314]},"properties":{"Trạm cấp nước":"Thuận Thới 2","Vị trí lắp đặt":"Trong TCN","Ngày lắp đặt":null,"Trạng thái":null,"Đường kính":null,"Chủng loại":null,"Nhà sản xuất":null,"Ghi chú":null,"layer_id":259,"fid":290,"label":"Thuận Thới 2"}},{"type":"Feature","id":291,"geometry":{"type":"Point","coordinates":[105.97840765,9.911941712]},"properties":{"Trạm cấp nước":"Tích Thiện","Vị trí lắp đặt":"Trong TCN","Ngày lắp đặt":null,"Trạng thái":null,"Đường kính":null,"Chủng loại":null,"Nhà sản xuất":null,"Ghi chú":null,"layer_id":259,"fid":291,"label":"Tích Thiện"}},{"type":"Feature","id":292,"geometry":{"type":"Point","coordinates":[106.011854617,10.010490462]},"properties":{"Trạm cấp nước":"Trà Côn","Vị trí lắp đặt":"Trong TCN","Ngày lắp đặt":null,"Trạng thái":null,"Đường kính":null,"Chủng loại":null,"Nhà sản xuất":null,"Ghi chú":null,"layer_id":259,"fid":292,"label":"Trà Côn"}},{"type":"Feature","id":293,"geometry":{"type":"Point","coordinates":[106.010679874,9.953232199]},"properties":{"Trạm cấp nước":"Vĩnh Xuân 2","Vị trí lắp đặt":"Trong TCN","Ngày lắp đặt":null,"Trạng thái":null,"Đường kính":null,"Chủng loại":null,"Nhà sản xuất":null,"Ghi chú":null,"layer_id":259,"fid":293,"label":"Vĩnh Xuân 2"}},{"type":"Feature","id":294,"geometry":{"type":"Point","coordinates":[106.040537876,10.079277737]},"properties":{"Trạm cấp nước":"Xuân Hiệp","Vị trí lắp đặt":"Trong TCN","Ngày lắp đặt":null,"Trạng thái":null,"Đường kính":null,"Chủng loại":null,"Nhà sản xuất":null,"Ghi chú":null,"layer_id":259,"fid":294,"label":"Xuân Hiệp"}},{"type":"Feature","id":295,"geometry":{"type":"Point","coordinates":[106.131929566,9.985998852]},"properties":{"Trạm cấp nước":"Hiếu Liên ","Vị trí lắp đặt":"Trong TCN","Ngày lắp đặt":null,"Trạng thái":null,"Đường kính":null,"Chủng loại":null,"Nhà sản xuất":null,"Ghi chú":null,"layer_id":259,"fid":295,"label":"Hiếu Liên "}},{"type":"Feature","id":296,"geometry":{"type":"Point","coordinates":[106.112296119,9.93909255]},"properties":{"Trạm cấp nước":"Hiếu Nghĩa","Vị trí lắp đặt":"Trong TCN","Ngày lắp đặt":null,"Trạng thái":null,"Đường kính":null,"Chủng loại":null,"Nhà sản xuất":null,"Ghi chú":null,"layer_id":259,"fid":296,"label":"Hiếu Nghĩa"}},{"type":"Feature","id":297,"geometry":{"type":"Point","coordinates":[106.10941346,10.031744968]},"properties":{"Trạm cấp nước":"Hiếu Nhơn","Vị trí lắp đặt":"Trong TCN","Ngày lắp đặt":null,"Trạng thái":null,"Đường kính":null,"Chủng loại":null,"Nhà sản xuất":null,"Ghi chú":null,"layer_id":259,"fid":297,"label":"Hiếu Nhơn"}},{"type":"Feature","id":298,"geometry":{"type":"Point","coordinates":[106.094508608,9.987035143]},"properties":{"Trạm cấp nước":"Hiếu Thành","Vị trí lắp đặt":"Trong TCN","Ngày lắp đặt":null,"Trạng thái":null,"Đường kính":null,"Chủng loại":null,"Nhà sản xuất":null,"Ghi chú":null,"layer_id":259,"fid":298,"label":"Hiếu Thành"}},{"type":"Feature","id":303,"geometry":{"type":"Point","coordinates":[106.136221824,10.026031877]},"properties":{"Trạm cấp nước":"Trung An 2","Vị trí lắp đặt":"Trong TCN","Ngày lắp đặt":null,"Trạng thái":null,"Đường kính":null,"Chủng loại":null,"Nhà sản xuất":null,"Ghi chú":null,"layer_id":259,"fid":303,"label":"Trung An 2"}},{"type":"Feature","id":299,"geometry":{"type":"Point","coordinates":[106.182348171,10.159102163]},"properties":{"Trạm cấp nước":"Quới Thiện","Vị trí lắp đặt":"Trong TCN","Ngày lắp đặt":null,"Trạng thái":null,"Đường kính":null,"Chủng loại":null,"Nhà sản xuất":null,"Ghi chú":null,"layer_id":259,"fid":299,"label":"Quới Thiện"}},{"type":"Feature","id":300,"geometry":{"type":"Point","coordinates":[106.084645788,10.112221702]},"properties":{"Trạm cấp nước":"Tân An Luông","Vị trí lắp đặt":"Trong TCN","Ngày lắp đặt":null,"Trạng thái":null,"Đường kính":null,"Chủng loại":null,"Nhà sản xuất":null,"Ghi chú":null,"layer_id":259,"fid":300,"label":"Tân An Luông"}},{"type":"Feature","id":301,"geometry":{"type":"Point","coordinates":[106.127574884,10.163180718]},"properties":{"Trạm cấp nước":"Tân Quới Trung","Vị trí lắp đặt":"Trong TCN","Ngày lắp đặt":null,"Trạng thái":null,"Đường kính":null,"Chủng loại":null,"Nhà sản xuất":null,"Ghi chú":null,"layer_id":259,"fid":301,"label":"Tân Quới Trung"}},{"type":"Feature","id":302,"geometry":{"type":"Point","coordinates":[106.231352541,10.114912095]},"properties":{"Trạm cấp nước":"Thanh Bình","Vị trí lắp đặt":"Trong TCN","Ngày lắp đặt":null,"Trạng thái":null,"Đường kính":null,"Chủng loại":null,"Nhà sản xuất":null,"Ghi chú":null,"layer_id":259,"fid":302,"label":"Thanh Bình"}},{"type":"Feature","id":304,"geometry":{"type":"Point","coordinates":[106.12865789,10.12423786]},"properties":{"Trạm cấp nước":"Trung Chánh","Vị trí lắp đặt":"Trong TCN","Ngày lắp đặt":null,"Trạng thái":null,"Đường kính":null,"Chủng loại":null,"Nhà sản xuất":null,"Ghi chú":null,"layer_id":259,"fid":304,"label":"Trung Chánh"}},{"type":"Feature","id":305,"geometry":{"type":"Point","coordinates":[106.156918398,10.111452555]},"properties":{"Trạm cấp nước":"Trung Hiệp 2","Vị trí lắp đặt":"Trong TCN","Ngày lắp đặt":null,"Trạng thái":null,"Đường kính":null,"Chủng loại":null,"Nhà sản xuất":null,"Ghi chú":null,"layer_id":259,"fid":305,"label":"Trung Hiệp 2"}},{"type":"Feature","id":306,"geometry":{"type":"Point","coordinates":[106.197938586,10.055204292]},"properties":{"Trạm cấp nước":"Trung Ngãi 1","Vị trí lắp đặt":"Trong TCN","Ngày lắp đặt":null,"Trạng thái":null,"Đường kính":null,"Chủng loại":null,"Nhà sản xuất":null,"Ghi chú":null,"layer_id":259,"fid":306,"label":"Trung Ngãi 1"}},{"type":"Feature","id":307,"geometry":{"type":"Point","coordinates":[106.177215352,10.026152589]},"properties":{"Trạm cấp nước":"Trung Ngãi 2","Vị trí lắp đặt":"Trong TCN","Ngày lắp đặt":null,"Trạng thái":null,"Đường kính":null,"Chủng loại":null,"Nhà sản xuất":null,"Ghi chú":null,"layer_id":259,"fid":307,"label":"Trung Ngãi 2"}},{"type":"Feature","id":308,"geometry":{"type":"Point","coordinates":[106.21440867,10.048605264]},"properties":{"Trạm cấp nước":"Trung Nghĩa","Vị trí lắp đặt":"Trong TCN","Ngày lắp đặt":null,"Trạng thái":null,"Đường kính":null,"Chủng loại":null,"Nhà sản xuất":null,"Ghi chú":null,"layer_id":259,"fid":308,"label":"Trung Nghĩa"}},{"type":"Feature","id":309,"geometry":{"type":"Point","coordinates":[106.186374983,10.130252398]},"properties":{"Trạm cấp nước":"Trung Thành Tây","Vị trí lắp đặt":"Trong TCN","Ngày lắp đặt":null,"Trạng thái":null,"Đường kính":null,"Chủng loại":null,"Nhà sản xuất":null,"Ghi chú":null,"layer_id":259,"fid":309,"label":"Trung Thành Tây"}},{"type":"Feature","id":310,"geometry":{"type":"Point","coordinates":[106.104956182,10.231325209]},"properties":{"Trạm cấp nước":"Mỹ An 3","Vị trí lắp đặt":"Trong TCN","Ngày lắp đặt":null,"Trạng thái":null,"Đường kính":null,"Chủng loại":null,"Nhà sản xuất":null,"Ghi chú":null,"layer_id":259,"fid":310,"label":"Mỹ An 3"}}]}
