{"type":"FeatureCollection","name":"Trạm khí tượng thủy văn ","metadata":{"source":"https://hatang.vinhlong.gov.vn/","downloaded_at":"2026-07-20T01:13:31+00:00","layer_id":260,"layer_name":"Trạm khí tượng thủy văn ","catalog_endpoints":["/map/publicLayers2?inputs=thuy_loi"],"requested_bbox":[104.0,8.0,108.0,12.0],"tile_size":0.0,"tile_count":1,"tile_errors":[],"feature_count":24,"coordinate_order":"x,y (thường là longitude,latitude theo cấu hình EPSG:4326 của WebGIS)"},"features":[{"type":"Feature","id":1,"geometry":{"type":"Point","coordinates":[105.992001,10.284534]},"properties":{"Tên trạm":"Trạm Hòa Ninh","Loại trạm":"Đo mưa","Vị trí Km":"xã Hòa Ninh","Vận hành":"Tự động","Năm xây dựng":null,"Ghi chú":null,"layer_id":260,"fid":1,"label":"Trạm Hòa Ninh"}},{"type":"Feature","id":2,"geometry":{"type":"Point","coordinates":[105.982222,10.179444]},"properties":{"Tên trạm":"Trạm Phú Đức","Loại trạm":"Đo mực nước\n nội đồng","Vị trí Km":"Xã Phú Đức","Vận hành":"Thủ công","Năm xây dựng":null,"Ghi chú":null,"layer_id":260,"fid":2,"label":"Trạm Phú Đức"}},{"type":"Feature","id":3,"geometry":{"type":"Point","coordinates":[106.031389,10.293333]},"properties":{"Tên trạm":"Trạm Vàm rạch Cái Muối","Loại trạm":"Đo mặn","Vị trí Km":"Xã Bình Hòa Phước","Vận hành":"Thủ công","Năm xây dựng":null,"Ghi chú":null,"layer_id":260,"fid":3,"label":"Trạm Vàm rạch Cái Muối"}},{"type":"Feature","id":4,"geometry":{"type":"Point","coordinates":[106.022778,10.296667]},"properties":{"Tên trạm":"Trạm Đồng Phú","Loại trạm":"Đo mặn","Vị trí Km":"Xã Đồng Phú","Vận hành":"Thủ công","Năm xây dựng":null,"Ghi chú":null,"layer_id":260,"fid":4,"label":"Trạm Đồng Phú"}},{"type":"Feature","id":5,"geometry":{"type":"Point","coordinates":[106.098611,10.193611]},"properties":{"Tên trạm":"Trạm Chánh Hội","Loại trạm":"Đo mưa","Vị trí Km":"Thị trấn Cái Nhum","Vận hành":"Tự động","Năm xây dựng":null,"Ghi chú":null,"layer_id":260,"fid":5,"label":"Trạm Chánh Hội"}},{"type":"Feature","id":6,"geometry":{"type":"Point","coordinates":[106.089722,10.174167]},"properties":{"Tên trạm":"Trạm Mang Thít","Loại trạm":"Đo mưa","Vị trí Km":"Thị trấn Cái Nhum","Vận hành":"Thủ công","Năm xây dựng":null,"Ghi chú":null,"layer_id":260,"fid":6,"label":"Trạm Mang Thít"}},{"type":"Feature","id":7,"geometry":{"type":"Point","coordinates":[105.903056,10.109167]},"properties":{"Tên trạm":"Trạm Song Phú","Loại trạm":"Đo mưa","Vị trí Km":"Xã Song Phú","Vận hành":"Tự động","Năm xây dựng":null,"Ghi chú":null,"layer_id":260,"fid":7,"label":"Trạm Song Phú"}},{"type":"Feature","id":8,"geometry":{"type":"Point","coordinates":[105.902778,10.115278]},"properties":{"Tên trạm":"Trạm Ba Càng","Loại trạm":"Đo mực nước\n nội đồng","Vị trí Km":"Xã Phú Thịnh","Vận hành":"Thủ công","Năm xây dựng":null,"Ghi chú":null,"layer_id":260,"fid":8,"label":"Trạm Ba Càng"}},{"type":"Feature","id":9,"geometry":{"type":"Point","coordinates":[106.169444,10.079722]},"properties":{"Tên trạm":"Trạm Vũng Liêm","Loại trạm":"Đo mưa","Vị trí Km":"Xã Trung Hiếu","Vận hành":"Tự động","Năm xây dựng":null,"Ghi chú":null,"layer_id":260,"fid":9,"label":"Trạm Vũng Liêm"}},{"type":"Feature","id":10,"geometry":{"type":"Point","coordinates":[106.201944,10.080833]},"properties":{"Tên trạm":"Trạm Vũng Liêm","Loại trạm":"Đo mưa","Vị trí Km":"Xã Trung Thành Đông","Vận hành":"Thủ công","Năm xây dựng":null,"Ghi chú":null,"layer_id":260,"fid":10,"label":"Trạm Vũng Liêm"}},{"type":"Feature","id":11,"geometry":{"type":"Point","coordinates":[106.188889,10.099722]},"properties":{"Tên trạm":"Trạm Vũng Liêm","Loại trạm":"Đo mực nước\n nội đồng","Vị trí Km":"Xã Trung Thành Đông","Vận hành":"Thủ công","Năm xây dựng":null,"Ghi chú":null,"layer_id":260,"fid":11,"label":"Trạm Vũng Liêm"}},{"type":"Feature","id":12,"geometry":{"type":"Point","coordinates":[106.110833,10.033889]},"properties":{"Tên trạm":"Trạm  Nhà Đài","Loại trạm":"Đo mực nước\n nội đồng","Vị trí Km":"Xã Hiếu Nhơn","Vận hành":"Thủ công","Năm xây dựng":null,"Ghi chú":null,"layer_id":260,"fid":12,"label":"Trạm  Nhà Đài"}},{"type":"Feature","id":13,"geometry":{"type":"Point","coordinates":[106.224444,10.085]},"properties":{"Tên trạm":"Trạm Cống Nàng Âm","Loại trạm":"Đo mặn","Vị trí Km":"Xã Trung Thành Đông","Vận hành":"Thủ công","Năm xây dựng":null,"Ghi chú":null,"layer_id":260,"fid":13,"label":"Trạm Cống Nàng Âm"}},{"type":"Feature","id":14,"geometry":{"type":"Point","coordinates":[106.163611,10.164722]},"properties":{"Tên trạm":"Trạm Quới An","Loại trạm":"Đo mặn","Vị trí Km":"Xã Quới An","Vận hành":"Thủ công","Năm xây dựng":null,"Ghi chú":null,"layer_id":260,"fid":14,"label":"Trạm Quới An"}},{"type":"Feature","id":15,"geometry":{"type":"Point","coordinates":[106.1125,9.938056]},"properties":{"Tên trạm":"Trạm Ngã Tư","Loại trạm":"Đo mặn","Vị trí Km":"Xã Hiếu Nghĩa","Vận hành":"Thủ công","Năm xây dựng":null,"Ghi chú":null,"layer_id":260,"fid":15,"label":"Trạm Ngã Tư"}},{"type":"Feature","id":16,"geometry":{"type":"Point","coordinates":[105.756944,10.176944]},"properties":{"Tên trạm":"Trạm Tân Thành","Loại trạm":"Đo mực nước\n nội đồng","Vị trí Km":"Xã Tân Thành","Vận hành":"Thủ công","Năm xây dựng":null,"Ghi chú":null,"layer_id":260,"fid":16,"label":"Trạm Tân Thành"}},{"type":"Feature","id":17,"geometry":{"type":"Point","coordinates":[105.688333,10.143333]},"properties":{"Tên trạm":"Trạm Bình Tân","Loại trạm":"Đo mưa","Vị trí Km":"Xã Tân An Thạnh","Vận hành":"Thủ công","Năm xây dựng":null,"Ghi chú":null,"layer_id":260,"fid":17,"label":"Trạm Bình Tân"}},{"type":"Feature","id":18,"geometry":{"type":"Point","coordinates":[105.921667,9.965278]},"properties":{"Tên trạm":"Trạm Trà Ôn","Loại trạm":"Đo mưa","Vị trí Km":"Thị trấn Trà Ôn","Vận hành":"Tự động","Năm xây dựng":null,"Ghi chú":null,"layer_id":260,"fid":18,"label":"Trạm Trà Ôn"}},{"type":"Feature","id":19,"geometry":{"type":"Point","coordinates":[106.080833,9.96]},"properties":{"Tên trạm":"Trạm Hựu Thành","Loại trạm":"Đo mưa","Vị trí Km":"Xã Hựu Thành","Vận hành":"Thủ công","Năm xây dựng":null,"Ghi chú":null,"layer_id":260,"fid":19,"label":"Trạm Hựu Thành"}},{"type":"Feature","id":20,"geometry":{"type":"Point","coordinates":[105.976944,9.913889]},"properties":{"Tên trạm":"Trạm Tích Thiện","Loại trạm":"Đo mặn, Đo mực nước\n nội đồng","Vị trí Km":"Xã Tích Thiện","Vận hành":"Thủ công","Năm xây dựng":null,"Ghi chú":null,"layer_id":260,"fid":20,"label":"Trạm Tích Thiện"}},{"type":"Feature","id":21,"geometry":{"type":"Point","coordinates":[105.824167,10.070278]},"properties":{"Tên trạm":"Trạm Cái Vồn","Loại trạm":"Đo mưa","Vị trí Km":"Phường Cái Vồn","Vận hành":"Tự động","Năm xây dựng":null,"Ghi chú":null,"layer_id":260,"fid":21,"label":"Trạm Cái Vồn"}},{"type":"Feature","id":22,"geometry":{"type":"Point","coordinates":[105.926111,10.274167]},"properties":{"Tên trạm":"Trạm KT Vĩnh Long","Loại trạm":"Đo các yếu tố nhiệt độ,\n độ ẩm, khí áp, giờ nắng, mưa, gió, bốc hơi,...","Vị trí Km":"Phường Tân Ngãi","Vận hành":"Tự động","Năm xây dựng":null,"Ghi chú":null,"layer_id":260,"fid":22,"label":"Trạm KT Vĩnh Long"}},{"type":"Feature","id":23,"geometry":{"type":"Point","coordinates":[105.926389,10.275278]},"properties":{"Tên trạm":"Trạm Thủy văn Mỹ Thuận","Loại trạm":"Đo mực nước,\n lưu lượng","Vị trí Km":"Phường Tân Ngãi","Vận hành":"Tự động","Năm xây dựng":null,"Ghi chú":null,"layer_id":260,"fid":23,"label":"Trạm Thủy văn Mỹ Thuận"}},{"type":"Feature","id":24,"geometry":{"type":"Point","coordinates":[105.956111,10.234167]},"properties":{"Tên trạm":"Trạm Phường 8","Loại trạm":"Đo mưa","Vị trí Km":"Phường 8","Vận hành":"Tự động","Năm xây dựng":null,"Ghi chú":null,"layer_id":260,"fid":24,"label":"Trạm Phường 8"}}]}
