{"type":"FeatureCollection","name":"Cống các loại ","metadata":{"source":"https://hatang.vinhlong.gov.vn/","downloaded_at":"2026-07-20T01:13:36+00:00","layer_id":261,"layer_name":"Cống các loại ","catalog_endpoints":["/map/publicLayers2?inputs=thuy_loi"],"requested_bbox":[104.0,8.0,108.0,12.0],"tile_size":0.0,"tile_count":1,"tile_errors":[],"feature_count":53,"coordinate_order":"x,y (thường là longitude,latitude theo cấu hình EPSG:4326 của WebGIS)"},"features":[{"type":"Feature","id":1,"geometry":{"type":"Point","coordinates":[106.123408,10.127892]},"properties":{"Tên cống":"Sáu Luốc","Địa chỉ":"Xã Trung Chánh, huyện Vũng Liêm","Chiều dài":null,"Chiều rộng dẫn nước":"3.2m","Kết cấu xây dựng":null,"Diện tích phục vụ":"90ha","Cao độ đáy":"-2m","Cao trình đỉnh cửa van":null,"Năm xây dựng":"2002","Tình trạng hoạt động":"Bình thường","Ghi chú":null,"layer_id":261,"fid":1,"label":"Sáu Luốc"}},{"type":"Feature","id":3,"geometry":{"type":"Point","coordinates":[106.205825,10.040025]},"properties":{"Tên cống":"Đập Giông","Địa chỉ":"Xã Trung Ngãi, huyện Vũng Liêm","Chiều dài":null,"Chiều rộng dẫn nước":"3.2m","Kết cấu xây dựng":null,"Diện tích phục vụ":"150ha","Cao độ đáy":"-1.8m","Cao trình đỉnh cửa van":null,"Năm xây dựng":"2007","Tình trạng hoạt động":"Bình thường","Ghi chú":null,"layer_id":261,"fid":3,"label":"Đập Giông"}},{"type":"Feature","id":45,"geometry":{"type":"Point","coordinates":[105.94096899,9.987967014]},"properties":{"Tên cống":"Cống Trà Mòn","Địa chỉ":"xã Tân Mỹ","Chiều dài":null,"Chiều rộng dẫn nước":"10m","Kết cấu xây dựng":"BTCT","Diện tích phục vụ":"700ha","Cao độ đáy":"-3m","Cao trình đỉnh cửa van":"5.5m","Năm xây dựng":"2019","Tình trạng hoạt động":"Bình thường","Ghi chú":"Đóng mở tự động","layer_id":261,"fid":45,"label":"Cống Trà Mòn"}},{"type":"Feature","id":2,"geometry":{"type":"Point","coordinates":[106.197522,10.053836]},"properties":{"Tên cống":"Tư Ty","Địa chỉ":"Xã Trung Ngãi, huyện Vũng Liêm","Chiều dài":null,"Chiều rộng dẫn nước":"3.2m","Kết cấu xây dựng":null,"Diện tích phục vụ":"150ha","Cao độ đáy":"-1.8m","Cao trình đỉnh cửa van":null,"Năm xây dựng":"2007","Tình trạng hoạt động":"Bình thường","Ghi chú":null,"layer_id":261,"fid":2,"label":"Tư Ty"}},{"type":"Feature","id":44,"geometry":{"type":"Point","coordinates":[105.988240242,10.013415813]},"properties":{"Tên cống":"Cống Trà Côn","Địa chỉ":"xã Trà Côn","Chiều dài":null,"Chiều rộng dẫn nước":"10m","Kết cấu xây dựng":"BTCT","Diện tích phục vụ":"700ha","Cao độ đáy":"-3m","Cao trình đỉnh cửa van":"5.5m","Năm xây dựng":"2018","Tình trạng hoạt động":"Bình thường","Ghi chú":"Đóng mở tự động","layer_id":261,"fid":44,"label":"Cống Trà Côn"}},{"type":"Feature","id":6,"geometry":{"type":"Point","coordinates":[106.236264,10.102903]},"properties":{"Tên cống":"Bà Vại","Địa chỉ":"Xã Thanh Bình, huyện Vũng Liêm","Chiều dài":null,"Chiều rộng dẫn nước":"3.4m","Kết cấu xây dựng":null,"Diện tích phục vụ":"300ha","Cao độ đáy":"-1.6m","Cao trình đỉnh cửa van":null,"Năm xây dựng":"2015","Tình trạng hoạt động":"Bình thường","Ghi chú":null,"layer_id":261,"fid":6,"label":"Bà Vại"}},{"type":"Feature","id":46,"geometry":{"type":"Point","coordinates":[105.994865298,10.0315395]},"properties":{"Tên cống":"Cống Sa Co","Địa chỉ":"xã Nhơn Bình","Chiều dài":null,"Chiều rộng dẫn nước":"5.5m","Kết cấu xây dựng":"BTCT","Diện tích phục vụ":"350ha","Cao độ đáy":"-2.5m","Cao trình đỉnh cửa van":"5m","Năm xây dựng":"2018","Tình trạng hoạt động":"Bình thường","Ghi chú":"Đóng mở tự động","layer_id":261,"fid":46,"label":"Cống Sa Co"}},{"type":"Feature","id":54,"geometry":{"type":"Point","coordinates":[106.212387085,10.149307251]},"properties":{"Tên cống":"Rạch Vọp","Địa chỉ":null,"Chiều dài":"12,5m","Chiều rộng dẫn nước":null,"Kết cấu xây dựng":"BTCT","Diện tích phục vụ":null,"Cao độ đáy":"+3.9m","Cao trình đỉnh cửa van":"+2.5m","Năm xây dựng":"2020","Tình trạng hoạt động":"Bình thường","Ghi chú":null,"layer_id":261,"fid":54,"label":"Rạch Vọp"}},{"type":"Feature","id":52,"geometry":{"type":"Point","coordinates":[106.085295975,10.212195665]},"properties":{"Tên cống":"Cống Rạch Giồng 1","Địa chỉ":null,"Chiều dài":"","Chiều rộng dẫn nước":"7.5m","Kết cấu xây dựng":"BTCT","Diện tích phục vụ":null,"Cao độ đáy":null,"Cao trình đỉnh cửa van":null,"Năm xây dựng":"2024","Tình trạng hoạt động":"Bình thường","Ghi chú":"Đóng mở tự động","layer_id":261,"fid":52,"label":"Cống Rạch Giồng 1"}},{"type":"Feature","id":53,"geometry":{"type":"Point","coordinates":[106.066591591,10.209752172]},"properties":{"Tên cống":"Cống Rạch Giồng 2","Địa chỉ":null,"Chiều dài":null,"Chiều rộng dẫn nước":"3.5m","Kết cấu xây dựng":"BTCT","Diện tích phục vụ":null,"Cao độ đáy":null,"Cao trình đỉnh cửa van":null,"Năm xây dựng":"2024","Tình trạng hoạt động":"Bình thường","Ghi chú":"Đóng mở tự động","layer_id":261,"fid":53,"label":"Cống Rạch Giồng 2"}},{"type":"Feature","id":5,"geometry":{"type":"Point","coordinates":[106.092414,9.990192]},"properties":{"Tên cống":"Ba Thanh","Địa chỉ":"Xã Hiếu Thành, huyện Vũng Liêm","Chiều dài":null,"Chiều rộng dẫn nước":"3.4m","Kết cấu xây dựng":null,"Diện tích phục vụ":"350ha","Cao độ đáy":"-1.6m","Cao trình đỉnh cửa van":null,"Năm xây dựng":"2015","Tình trạng hoạt động":"Bình thường","Ghi chú":null,"layer_id":261,"fid":5,"label":"Ba Thanh"}},{"type":"Feature","id":55,"geometry":{"type":"Point","coordinates":[106.219328642,10.14318645]},"properties":{"Tên cống":"Vàm Kênh Đào","Địa chỉ":null,"Chiều dài":"16m","Chiều rộng dẫn nước":null,"Kết cấu xây dựng":"BTCT","Diện tích phục vụ":null,"Cao độ đáy":"+3.9m","Cao trình đỉnh cửa van":"+2.5m","Năm xây dựng":"2020","Tình trạng hoạt động":"Bình thường","Ghi chú":null,"layer_id":261,"fid":55,"label":"Vàm Kênh Đào"}},{"type":"Feature","id":21,"geometry":{"type":"Point","coordinates":[106.257705688,10.083003044]},"properties":{"Tên cống":"Cống Bình thủy","Địa chỉ":"xã Thanh Bình","Chiều dài":null,"Chiều rộng dẫn nước":"10m","Kết cấu xây dựng":"BTCT","Diện tích phục vụ":"700ha","Cao độ đáy":"-3.5m","Cao trình đỉnh cửa van":null,"Năm xây dựng":"2018","Tình trạng hoạt động":"Bình thường","Ghi chú":"Đóng mở tự động","layer_id":261,"fid":21,"label":"Cống Bình thủy"}},{"type":"Feature","id":11,"geometry":{"type":"Point","coordinates":[106.165738106,10.155143738]},"properties":{"Tên cống":"Cái Tôm","Địa chỉ":"xã Quới An, huyện Vũng Liêm","Chiều dài":null,"Chiều rộng dẫn nước":"20m","Kết cấu xây dựng":"BTCT","Diện tích phục vụ":"9500ha","Cao độ đáy":"-4m","Cao trình đỉnh cửa van":null,"Năm xây dựng":"2017","Tình trạng hoạt động":"Bình thường","Ghi chú":"Loại máy đóng mở: Xi lanh thủy lực","layer_id":261,"fid":11,"label":"Cái Tôm"}},{"type":"Feature","id":19,"geometry":{"type":"Point","coordinates":[106.222300529,10.107164383]},"properties":{"Tên cống":"Cống Thanh Lương","Địa chỉ":"xã Thanh Bình","Chiều dài":null,"Chiều rộng dẫn nước":"20m","Kết cấu xây dựng":"BTCT","Diện tích phục vụ":"1500ha","Cao độ đáy":"-3.5m","Cao trình đỉnh cửa van":null,"Năm xây dựng":"2018","Tình trạng hoạt động":"Bình thường","Ghi chú":"Xi lanh thủy lực","layer_id":261,"fid":19,"label":"Cống Thanh Lương"}},{"type":"Feature","id":9,"geometry":{"type":"Point","coordinates":[106.047953,9.988411]},"properties":{"Tên cống":"Kênh Đào","Địa chỉ":"Xã Hựu Thành, huyện Trà Ôn","Chiều dài":null,"Chiều rộng dẫn nước":"3.3m","Kết cấu xây dựng":null,"Diện tích phục vụ":"250ha","Cao độ đáy":"-1.6m","Cao trình đỉnh cửa van":null,"Năm xây dựng":"2015","Tình trạng hoạt động":"Bình thường","Ghi chú":null,"layer_id":261,"fid":9,"label":"Kênh Đào"}},{"type":"Feature","id":20,"geometry":{"type":"Point","coordinates":[106.245732307,10.103988647]},"properties":{"Tên cống":"Cống Thái Bình","Địa chỉ":"xã Thanh Bình","Chiều dài":null,"Chiều rộng dẫn nước":"20m","Kết cấu xây dựng":"BTCT","Diện tích phục vụ":"1500ha","Cao độ đáy":"-4m","Cao trình đỉnh cửa van":null,"Năm xây dựng":"2018","Tình trạng hoạt động":"Bình thường","Ghi chú":"Xi lanh thủy lực","layer_id":261,"fid":20,"label":"Cống Thái Bình"}},{"type":"Feature","id":16,"geometry":{"type":"Point","coordinates":[106.097685099,10.158705711]},"properties":{"Tên cống":"Cống Ngọc Sơn Quang","Địa chỉ":"xã Tân An Hội","Chiều dài":null,"Chiều rộng dẫn nước":"20m","Kết cấu xây dựng":"BTCT","Diện tích phục vụ":"1500ha","Cao độ đáy":"-5m","Cao trình đỉnh cửa van":null,"Năm xây dựng":"2018","Tình trạng hoạt động":"Bình thường","Ghi chú":"Đóng mở tự động","layer_id":261,"fid":16,"label":"Cống Ngọc Sơn Quang"}},{"type":"Feature","id":12,"geometry":{"type":"Point","coordinates":[106.207966805,10.099396706]},"properties":{"Tên cống":"Cống Vũng Liêm","Địa chỉ":"xã Trung Thành Đông, huyện Vũng Liêm","Chiều dài":null,"Chiều rộng dẫn nước":"75m","Kết cấu xây dựng":"BTCT","Diện tích phục vụ":"28459ha","Cao độ đáy":"-4m","Cao trình đỉnh cửa van":null,"Năm xây dựng":"2016","Tình trạng hoạt động":"Bình thường","Ghi chú":"Loại máy đóng mở: Xi lanh thủy lực","layer_id":261,"fid":12,"label":"Cống Vũng Liêm"}},{"type":"Feature","id":7,"geometry":{"type":"Point","coordinates":[106.02045,10.123792]},"properties":{"Tên cống":"Đồn II","Địa chỉ":"Xã Hòa Lộc, huyện Tam Bình","Chiều dài":null,"Chiều rộng dẫn nước":"3.3m","Kết cấu xây dựng":null,"Diện tích phục vụ":"450ha","Cao độ đáy":"-1.8m","Cao trình đỉnh cửa van":null,"Năm xây dựng":"2014","Tình trạng hoạt động":"Bình thường","Ghi chú":null,"layer_id":261,"fid":7,"label":"Đồn II"}},{"type":"Feature","id":14,"geometry":{"type":"Point","coordinates":[106.071152687,10.100126266]},"properties":{"Tên cống":"Cống Ông Nam","Địa chỉ":"xã Hòa Thạnh, huyện Tam Bình","Chiều dài":null,"Chiều rộng dẫn nước":"10m","Kết cấu xây dựng":"BTCT","Diện tích phục vụ":"700ha","Cao độ đáy":"-3m","Cao trình đỉnh cửa van":null,"Năm xây dựng":"2018","Tình trạng hoạt động":"Bình Thường","Ghi chú":"Đóng mở tự động","layer_id":261,"fid":14,"label":"Cống Ông Nam"}},{"type":"Feature","id":10,"geometry":{"type":"Point","coordinates":[106.223545074,10.082799196]},"properties":{"Tên cống":"Cống Nàng Âm","Địa chỉ":"Xã Trung Thành Đông, huyện Vũng Liêm","Chiều dài":null,"Chiều rộng dẫn nước":"20m","Kết cấu xây dựng":null,"Diện tích phục vụ":"2790 ha","Cao độ đáy":"-4m","Cao trình đỉnh cửa van":null,"Năm xây dựng":"2007","Tình trạng hoạt động":null,"Ghi chú":null,"layer_id":261,"fid":10,"label":"Cống Nàng Âm"}},{"type":"Feature","id":13,"geometry":{"type":"Point","coordinates":[106.069500446,10.099482536]},"properties":{"Tên cống":"Cống Ông Cớ","Địa chỉ":"xã Hòa Thạnh, huyện Tam Bình","Chiều dài":null,"Chiều rộng dẫn nước":"8m","Kết cấu xây dựng":"BTCT","Diện tích phục vụ":"700ha","Cao độ đáy":"-3m","Cao trình đỉnh cửa van":null,"Năm xây dựng":"2018","Tình trạng hoạt động":"Bình thường","Ghi chú":"Đóng mở tự động","layer_id":261,"fid":13,"label":"Cống Ông Cớ"}},{"type":"Feature","id":8,"geometry":{"type":"Point","coordinates":[105.886314,9.992403]},"properties":{"Tên cống":"Rạch Đình-Bến xe","Địa chỉ":"Xã Ngãi Tứ, huyện Tam Bình","Chiều dài":null,"Chiều rộng dẫn nước":"4m","Kết cấu xây dựng":null,"Diện tích phục vụ":"350ha","Cao độ đáy":"-1.6m","Cao trình đỉnh cửa van":null,"Năm xây dựng":"2015","Tình trạng hoạt động":"Bình thường","Ghi chú":null,"layer_id":261,"fid":8,"label":"Rạch Đình-Bến xe"}},{"type":"Feature","id":15,"geometry":{"type":"Point","coordinates":[106.113831997,10.170249939]},"properties":{"Tên cống":"Cống Đường Trôm","Địa chỉ":"xã Tân Quới Trung","Chiều dài":null,"Chiều rộng dẫn nước":"15m","Kết cấu xây dựng":"BTCT","Diện tích phục vụ":"676ha","Cao độ đáy":"-3m","Cao trình đỉnh cửa van":null,"Năm xây dựng":"2018","Tình trạng hoạt động":"Bình thường","Ghi chú":"Đóng mở tự động","layer_id":261,"fid":15,"label":"Cống Đường Trôm"}},{"type":"Feature","id":18,"geometry":{"type":"Point","coordinates":[105.939788818,9.991292953]},"properties":{"Tên cống":"Cống Vàm Cơi","Địa chỉ":"xã Bình Ninh","Chiều dài":null,"Chiều rộng dẫn nước":"20m","Kết cấu xây dựng":"BTCT","Diện tích phục vụ":"1500ha","Cao độ đáy":"-5m","Cao trình đỉnh cửa van":null,"Năm xây dựng":"2018","Tình trạng hoạt động":"Bình thường","Ghi chú":"Đóng mở tự động","layer_id":261,"fid":18,"label":"Cống Vàm Cơi"}},{"type":"Feature","id":17,"geometry":{"type":"Point","coordinates":[106.085894108,10.117346048]},"properties":{"Tên cống":"Cống Gò Ân","Địa chỉ":"xã Tân An Luông","Chiều dài":null,"Chiều rộng dẫn nước":"10m","Kết cấu xây dựng":"BTCT","Diện tích phục vụ":"750ha","Cao độ đáy":"-3m","Cao trình đỉnh cửa van":null,"Năm xây dựng":"2018","Tình trạng hoạt động":"Bình thường","Ghi chú":"Đóng mở tự động","layer_id":261,"fid":17,"label":"Cống Gò Ân"}},{"type":"Feature","id":22,"geometry":{"type":"Point","coordinates":[106.039438248,10.074999332]},"properties":{"Tên cống":"Cống Lý Nho","Địa chỉ":"xã Xuân Hiệp","Chiều dài":null,"Chiều rộng dẫn nước":"10m","Kết cấu xây dựng":"BTCT","Diện tích phục vụ":"700ha","Cao độ đáy":"-3m","Cao trình đỉnh cửa van":null,"Năm xây dựng":"2018","Tình trạng hoạt động":"Bình thường","Ghi chú":"Đóng mở tự động","layer_id":261,"fid":22,"label":"Cống Lý Nho"}},{"type":"Feature","id":23,"geometry":{"type":"Point","coordinates":[105.927965641,10.1790905]},"properties":{"Tên cống":"Cống Kênh Tư","Địa chỉ":"xã Phú Quới","Chiều dài":null,"Chiều rộng dẫn nước":"3.5m","Kết cấu xây dựng":"BTCT","Diện tích phục vụ":"350 ha","Cao độ đáy":"-1.5m","Cao trình đỉnh cửa van":"4m","Năm xây dựng":"2019","Tình trạng hoạt động":"Bình thường","Ghi chú":"Đóng mở tự động","layer_id":261,"fid":23,"label":"Cống Kênh Tư"}},{"type":"Feature","id":28,"geometry":{"type":"Point","coordinates":[106.084198952,10.130124092]},"properties":{"Tên cống":"Cống Tân Quy","Địa chỉ":"xã Tân Long Hội","Chiều dài":null,"Chiều rộng dẫn nước":"10m","Kết cấu xây dựng":"BTCT","Diện tích phục vụ":"700ha","Cao độ đáy":"-3m","Cao trình đỉnh cửa van":"5.5m","Năm xây dựng":"2018","Tình trạng hoạt động":"Bình thường","Ghi chú":"Đóng mở tự động","layer_id":261,"fid":28,"label":"Cống Tân Quy"}},{"type":"Feature","id":24,"geometry":{"type":"Point","coordinates":[106.125354767,10.173575878]},"properties":{"Tên cống":"Cống Ruột Ngựa 2","Địa chỉ":"xã Chánh An","Chiều dài":null,"Chiều rộng dẫn nước":"8m","Kết cấu xây dựng":"BTCT","Diện tích phục vụ":"700ha","Cao độ đáy":"-2m","Cao trình đỉnh cửa van":"4.5m","Năm xây dựng":"2018","Tình trạng hoạt động":"Bình thường","Ghi chú":"Đóng mở tự động","layer_id":261,"fid":24,"label":"Cống Ruột Ngựa 2"}},{"type":"Feature","id":25,"geometry":{"type":"Point","coordinates":[106.050167084,10.090727806]},"properties":{"Tên cống":"Cống Rạch Đình","Địa chỉ":"xã Hòa Hiệp","Chiều dài":null,"Chiều rộng dẫn nước":"8m","Kết cấu xây dựng":"BTCT","Diện tích phục vụ":"700ha","Cao độ đáy":"-3m","Cao trình đỉnh cửa van":"5.5m","Năm xây dựng":"2018","Tình trạng hoạt động":"Bình thường","Ghi chú":"Đóng mở tự động","layer_id":261,"fid":25,"label":"Cống Rạch Đình"}},{"type":"Feature","id":26,"geometry":{"type":"Point","coordinates":[106.121299267,10.177824497]},"properties":{"Tên cống":"Cống Rạch Đôi","Địa chỉ":"TT.Cái Nhum","Chiều dài":null,"Chiều rộng dẫn nước":"10m","Kết cấu xây dựng":"BTCT","Diện tích phục vụ":"700ha","Cao độ đáy":"-3m","Cao trình đỉnh cửa van":"5.5m","Năm xây dựng":"2018","Tình trạng hoạt động":"Bình thường","Ghi chú":"Đóng mở tự động","layer_id":261,"fid":26,"label":"Cống Rạch Đôi"}},{"type":"Feature","id":27,"geometry":{"type":"Point","coordinates":[106.159858704,10.164756775]},"properties":{"Tên cống":"Cống Ruột Ngựa 1","Địa chỉ":"xã Chánh An","Chiều dài":null,"Chiều rộng dẫn nước":"10m","Kết cấu xây dựng":"BTCT","Diện tích phục vụ":"700ha","Cao độ đáy":"-4m","Cao trình đỉnh cửa van":"6.5m","Năm xây dựng":"2018","Tình trạng hoạt động":"Bình thường","Ghi chú":"Đóng mở tự động","layer_id":261,"fid":27,"label":"Cống Ruột Ngựa 1"}},{"type":"Feature","id":29,"geometry":{"type":"Point","coordinates":[105.937938094,9.989860654]},"properties":{"Tên cống":"Cống Ông Trư 1","Địa chỉ":"xã Bình Ninh","Chiều dài":null,"Chiều rộng dẫn nước":"4.5m","Kết cấu xây dựng":"BTCT","Diện tích phục vụ":"350ha","Cao độ đáy":"-1.8m","Cao trình đỉnh cửa van":"4.3m","Năm xây dựng":"2018","Tình trạng hoạt động":"Bình thường","Ghi chú":"Đóng mở tự động","layer_id":261,"fid":29,"label":"Cống Ông Trư 1"}},{"type":"Feature","id":30,"geometry":{"type":"Point","coordinates":[105.921624899,10.01298666]},"properties":{"Tên cống":"Cống Ông Trư 2","Địa chỉ":"xã Bình Ninh","Chiều dài":null,"Chiều rộng dẫn nước":"3.5m","Kết cấu xây dựng":"BTCT","Diện tích phục vụ":"350ha","Cao độ đáy":"-1.8m","Cao trình đỉnh cửa van":"4.3m","Năm xây dựng":"2018","Tình trạng hoạt động":"Bình thường","Ghi chú":"Đóng mở tự động","layer_id":261,"fid":30,"label":"Cống Ông Trư 2"}},{"type":"Feature","id":32,"geometry":{"type":"Point","coordinates":[105.949627161,10.027170181]},"properties":{"Tên cống":"Cống Ấp Giữa 1","Địa chỉ":"xã Loan Mỹ","Chiều dài":null,"Chiều rộng dẫn nước":"4.5m","Kết cấu xây dựng":"BTCT","Diện tích phục vụ":"350ha","Cao độ đáy":"-1.8m","Cao trình đỉnh cửa van":"4.3m","Năm xây dựng":"2018","Tình trạng hoạt động":"Bình thường","Ghi chú":"Đóng mở tự động","layer_id":261,"fid":32,"label":"Cống Ấp Giữa 1"}},{"type":"Feature","id":31,"geometry":{"type":"Point","coordinates":[105.926882029,9.977838993]},"properties":{"Tên cống":"Cống Rạch Lá","Địa chỉ":"xã Bình Ninh","Chiều dài":null,"Chiều rộng dẫn nước":"4m","Kết cấu xây dựng":"BTCT","Diện tích phục vụ":"350ha","Cao độ đáy":"-1.8m","Cao trình đỉnh cửa van":"4.3m","Năm xây dựng":"2018","Tình trạng hoạt động":"Bình thường","Ghi chú":"Đóng mở tự động","layer_id":261,"fid":31,"label":"Cống Rạch Lá"}},{"type":"Feature","id":35,"geometry":{"type":"Point","coordinates":[106.188890934,10.100963116]},"properties":{"Tên cống":"Cống Trung Trạch","Địa chỉ":"xã Trung Nghĩa","Chiều dài":null,"Chiều rộng dẫn nước":"10m","Kết cấu xây dựng":"BTCT","Diện tích phục vụ":"700ha","Cao độ đáy":"-3m","Cao trình đỉnh cửa van":"5.5m","Năm xây dựng":"2018","Tình trạng hoạt động":"Bình thường","Ghi chú":"Đóng mở tự động","layer_id":261,"fid":35,"label":"Cống Trung Trạch"}},{"type":"Feature","id":33,"geometry":{"type":"Point","coordinates":[105.993089676,10.064227581]},"properties":{"Tên cống":"Cống Cái Sơn Lớn","Địa chỉ":"xã Mỹ Thạnh Trung","Chiều dài":null,"Chiều rộng dẫn nước":"7.5m","Kết cấu xây dựng":"BTCT","Diện tích phục vụ":"400ha","Cao độ đáy":"-3m","Cao trình đỉnh cửa van":"5.5m","Năm xây dựng":"2018","Tình trạng hoạt động":"Bình thường","Ghi chú":"Đóng mở tự động","layer_id":261,"fid":33,"label":"Cống Cái Sơn Lớn"}},{"type":"Feature","id":34,"geometry":{"type":"Point","coordinates":[105.982918739,10.024530888]},"properties":{"Tên cống":"Cống Lò Vôi","Địa chỉ":"xã Loan Mỹ","Chiều dài":null,"Chiều rộng dẫn nước":"10m","Kết cấu xây dựng":"BTCT","Diện tích phục vụ":"700ha","Cao độ đáy":"-2.5m","Cao trình đỉnh cửa van":"5m","Năm xây dựng":"2018","Tình trạng hoạt động":"Bình thường","Ghi chú":"Đóng mở tự động","layer_id":261,"fid":34,"label":"Cống Lò Vôi"}},{"type":"Feature","id":36,"geometry":{"type":"Point","coordinates":[105.911314487,9.954053164]},"properties":{"Tên cống":"Cống Cái Bần","Địa chỉ":"xã Lục Sỹ Thành","Chiều dài":null,"Chiều rộng dẫn nước":"3.5m","Kết cấu xây dựng":"BTCT","Diện tích phục vụ":"2400ha","Cao độ đáy":"-2m","Cao trình đỉnh cửa van":"4.5m","Năm xây dựng":"2014","Tình trạng hoạt động":"Bình thường","Ghi chú":"Đóng mở tự động","layer_id":261,"fid":36,"label":"Cống Cái Bần"}},{"type":"Feature","id":37,"geometry":{"type":"Point","coordinates":[105.910660028,9.952304363]},"properties":{"Tên cống":"Cống Cái Cầu","Địa chỉ":"xã Lục Sỹ Thành","Chiều dài":null,"Chiều rộng dẫn nước":"5m","Kết cấu xây dựng":"BTCT","Diện tích phục vụ":"2400ha","Cao độ đáy":"-2m","Cao trình đỉnh cửa van":"4.5m","Năm xây dựng":"2015","Tình trạng hoạt động":"Bình thường","Ghi chú":"Đóng mở tự động","layer_id":261,"fid":37,"label":"Cống Cái Cầu"}},{"type":"Feature","id":38,"geometry":{"type":"Point","coordinates":[105.912237167,9.964342117]},"properties":{"Tên cống":"Cống Vàm Xếp","Địa chỉ":"xã Lục Sỹ Thành","Chiều dài":null,"Chiều rộng dẫn nước":"5m","Kết cấu xây dựng":"BTCT","Diện tích phục vụ":"2400ha","Cao độ đáy":"-2m","Cao trình đỉnh cửa van":"4.5m","Năm xây dựng":"2015","Tình trạng hoạt động":"Bình thường","Ghi chú":"Đóng mở tự động","layer_id":261,"fid":38,"label":"Cống Vàm Xếp"}},{"type":"Feature","id":39,"geometry":{"type":"Point","coordinates":[105.926420689,9.950909615]},"properties":{"Tên cống":"Cống 5 Nhung","Địa chỉ":"xã Lục Sỹ Thành","Chiều dài":null,"Chiều rộng dẫn nước":"3.5m","Kết cấu xây dựng":"BTCT","Diện tích phục vụ":"2400ha","Cao độ đáy":"-2m","Cao trình đỉnh cửa van":"4.5m","Năm xây dựng":"2015","Tình trạng hoạt động":"Bình thường","Ghi chú":"Đóng mở tự động","layer_id":261,"fid":39,"label":"Cống 5 Nhung"}},{"type":"Feature","id":40,"geometry":{"type":"Point","coordinates":[105.945560932,9.92634058]},"properties":{"Tên cống":"Cống Trường Tiền","Địa chỉ":"xã Lục Sỹ Thành","Chiều dài":null,"Chiều rộng dẫn nước":"5m","Kết cấu xây dựng":"BTCT","Diện tích phục vụ":"2400ha","Cao độ đáy":"-2m","Cao trình đỉnh cửa van":"4.5m","Năm xây dựng":"2007","Tình trạng hoạt động":"Bình thường","Ghi chú":"Đóng mở tự động","layer_id":261,"fid":40,"label":"Cống Trường Tiền"}},{"type":"Feature","id":41,"geometry":{"type":"Point","coordinates":[106.042968035,10.004081726]},"properties":{"Tên cống":"Cống Tư Xoáy","Địa chỉ":"xã Xuân Hiệp","Chiều dài":null,"Chiều rộng dẫn nước":"3.5m","Kết cấu xây dựng":"BTCT","Diện tích phục vụ":"950ha","Cao độ đáy":"-1.6m","Cao trình đỉnh cửa van":"4.1m","Năm xây dựng":"2016","Tình trạng hoạt động":"Bình thường","Ghi chú":"Đóng mở tự động","layer_id":261,"fid":41,"label":"Cống Tư Xoáy"}},{"type":"Feature","id":47,"geometry":{"type":"Point","coordinates":[105.977571756,9.91331242]},"properties":{"Tên cống":"Cống Rạch Chiếc","Địa chỉ":null,"Chiều dài":null,"Chiều rộng dẫn nước":"10m","Kết cấu xây dựng":"BTCT M300","Diện tích phục vụ":null,"Cao độ đáy":null,"Cao trình đỉnh cửa van":null,"Năm xây dựng":"2017","Tình trạng hoạt động":null,"Ghi chú":"Cửa van phẳng bằng thép đóng mở tự động 2 chiều, có bố trí cầu công tác, cầu giao thông, sân tiêu năng","layer_id":261,"fid":47,"label":"Cống Rạch Chiếc"}},{"type":"Feature","id":42,"geometry":{"type":"Point","coordinates":[106.023087502,10.077810287]},"properties":{"Tên cống":"Cống Rạch Chùa","Địa chỉ":"xã Xuân Hiệp","Chiều dài":null,"Chiều rộng dẫn nước":"5.5m","Kết cấu xây dựng":"BTCT","Diện tích phục vụ":"350ha","Cao độ đáy":"-2m","Cao trình đỉnh cửa van":"4.5m","Năm xây dựng":"2018","Tình trạng hoạt động":"Bình thường","Ghi chú":"Đóng mở tự động","layer_id":261,"fid":42,"label":"Cống Rạch Chùa"}},{"type":"Feature","id":48,"geometry":{"type":"Point","coordinates":[105.968424082,9.923663735]},"properties":{"Tên cống":"Cống Mương Điều","Địa chỉ":null,"Chiều dài":null,"Chiều rộng dẫn nước":"10m","Kết cấu xây dựng":"BTCT M300","Diện tích phục vụ":null,"Cao độ đáy":null,"Cao trình đỉnh cửa van":null,"Năm xây dựng":"2017","Tình trạng hoạt động":"Bình thường","Ghi chú":"Cửa van phẳng bằng thép đóng mở tự động 2 chiều, có bố trí cầu công tác, cầu giao thông, sân tiêu năng","layer_id":261,"fid":48,"label":"Cống Mương Điều"}},{"type":"Feature","id":49,"geometry":{"type":"Point","coordinates":[105.957051516,9.933416247]},"properties":{"Tên cống":"Cống Rạch Tra","Địa chỉ":null,"Chiều dài":null,"Chiều rộng dẫn nước":"10m","Kết cấu xây dựng":"BTCT M300","Diện tích phục vụ":null,"Cao độ đáy":null,"Cao trình đỉnh cửa van":null,"Năm xây dựng":"2017","Tình trạng hoạt động":"Bình thường","Ghi chú":"Cửa van phẳng bằng thép đóng mở tự động 2 chiều, có bố trí cầu công tác, cầu giao thông, sân tiêu năng","layer_id":261,"fid":49,"label":"Cống Rạch Tra"}},{"type":"Feature","id":50,"geometry":{"type":"Point","coordinates":[105.942964554,9.9453789]},"properties":{"Tên cống":"Cống Bang Chang","Địa chỉ":null,"Chiều dài":null,"Chiều rộng dẫn nước":"5m","Kết cấu xây dựng":"BTCT M300","Diện tích phục vụ":null,"Cao độ đáy":null,"Cao trình đỉnh cửa van":null,"Năm xây dựng":"2017","Tình trạng hoạt động":"Bình thường","Ghi chú":"Cửa van phẳng bằng thép đóng mở tự động 2 chiều, có bố trí cầu công tác, cầu giao thông, sân tiêu năng với chiều rộng cửa 3,5m","layer_id":261,"fid":50,"label":"Cống Bang Chang"}},{"type":"Feature","id":51,"geometry":{"type":"Point","coordinates":[106.018939465,9.997191802]},"properties":{"Tên cống":"Cống Trà Sơn","Địa chỉ":null,"Chiều dài":"16m","Chiều rộng dẫn nước":null,"Kết cấu xây dựng":"BTCT","Diện tích phục vụ":null,"Cao độ đáy":"-1.8m","Cao trình đỉnh cửa van":"+2.7m","Năm xây dựng":"2022","Tình trạng hoạt động":"Bình thường","Ghi chú":null,"layer_id":261,"fid":51,"label":"Cống Trà Sơn"}}]}
