{"type":"FeatureCollection","name":"Mã số vùng trồng nội địa","metadata":{"source":"https://hatang.vinhlong.gov.vn/","downloaded_at":"2026-07-20T01:13:52+00:00","layer_id":267,"layer_name":"Mã số vùng trồng nội địa","catalog_endpoints":["/map/publicLayers2?inputs=bvtv"],"requested_bbox":[104.0,8.0,108.0,12.0],"tile_size":0.0,"tile_count":1,"tile_errors":[],"feature_count":105,"coordinate_order":"x,y (thường là longitude,latitude theo cấu hình EPSG:4326 của WebGIS)"},"features":[{"type":"Feature","id":126,"geometry":{"type":"Polygon","coordinates":[[[106.034097,10.174926],[106.033798,10.179117],[106.034166,10.174894],[106.041057,10.176567],[106.034671,10.17756],[106.034097,10.174926]]]},"properties":{"TÊN VÙNG TRỒNG":"THT BƯỞI XÃ BÌNH PHƯỚC","ĐỊA CHỈ":"Ấp Phước Lợi, xã Bình Phước, huyện Mang Thít, tỉnh Vĩnh Long","NGƯỜI ĐẠI DIỆN":"Hồ Thanh Quang","SỐ ĐIỆN THOẠI":"0974480324","LOẠI CÂY":"Bưởi","DIỆN TÍCH":"3","SỐ HỘ":"5","CHỨNG NHẬN ATTP":"Cam kết ATTP","layer_id":267,"fid":126,"label":"THT BƯỞI XÃ BÌNH PHƯỚC"}},{"type":"Feature","id":127,"geometry":{"type":"Polygon","coordinates":[[[106.050416,9.967356],[106.04967,9.967123],[106.044363,9.974982],[106.048412,9.966713],[106.05042,9.967477],[106.050416,9.967356]]]},"properties":{"TÊN VÙNG TRỒNG":"VÕ QUỐC THẮNG","ĐỊA CHỈ":"Ấp Giồng Gòn, xã Thuận Thới, huyện Trà Ôn, tỉnh Vĩnh Long.","NGƯỜI ĐẠI DIỆN":"Võ Quốc Thắng","SỐ ĐIỆN THOẠI":"0707888578 ","LOẠI CÂY":"Cam ","DIỆN TÍCH":"1","SỐ HỘ":"1","CHỨNG NHẬN ATTP":"Cam kết ATTP","layer_id":267,"fid":127,"label":"VÕ QUỐC THẮNG"}},{"type":"Feature","id":63,"geometry":{"type":"Polygon","coordinates":[[[105.7401,10.1508],[105.7336,10.1489],[105.725,10.1463],[105.7408,10.1532],[105.72,10.1448],[105.7401,10.1508]]]},"properties":{"TÊN VÙNG TRỒNG":"TỔ HỢP TÁC SẦU RIÊNG ẤP TÂN LONG","ĐỊA CHỈ":"Ấp Tân LongTân Lược, Bình Tân, Vĩnh Long, Xã Tân Lược, Huyện Bình Tân, Tỉnh Vĩnh Long","NGƯỜI ĐẠI DIỆN":"VÕ CÔNG TRƯỜNG","SỐ ĐIỆN THOẠI":"0869943749","LOẠI CÂY":"Sầu riêng","DIỆN TÍCH":"15.42","SỐ HỘ":"29","CHỨNG NHẬN ATTP":"Cam kết ATTP","layer_id":267,"fid":63,"label":"TỔ HỢP TÁC SẦU RIÊNG ẤP TÂN LONG"}},{"type":"Feature","id":125,"geometry":{"type":"Polygon","coordinates":[[[106.173348,10.079874],[106.170528,10.07883],[106.166373,10.074326],[106.17151,10.071169],[106.17,10.075154],[106.173348,10.079874],[106.173348,10.079874]]]},"properties":{"TÊN VÙNG TRỒNG":"VT LÚA ẤP AN ĐIỀN 1","ĐỊA CHỈ":"Ấp An Điền 1, xã Trung Hiếu, huyện Vũng Liêm, tỉnh Vĩnh Long.","NGƯỜI ĐẠI DIỆN":"LÊ VĂN HUỆ","SỐ ĐIỆN THOẠI":"0786929434","LOẠI CÂY":"Lúa","DIỆN TÍCH":"17.31","SỐ HỘ":"22","CHỨNG NHẬN ATTP":"ATTP","layer_id":267,"fid":125,"label":"VT LÚA ẤP AN ĐIỀN 1"}},{"type":"Feature","id":167,"geometry":{"type":"Polygon","coordinates":[[[105.949707,10.212209],[105.948197,10.208114],[105.960491,10.199224],[105.95985,10.207428],[105.954811,10.205995],[105.949707,10.212209]]]},"properties":{"TÊN VÙNG TRỒNG":"Tổ hợp tác sản xuất lúa ấp Phước Lợi B","ĐỊA CHỈ":"Ấp Phước Lợi B, xã Phước Hậu, huyện Long Hồ","NGƯỜI ĐẠI DIỆN":"Nguyễn Văn Tuấn","SỐ ĐIỆN THOẠI":"0915972074","LOẠI CÂY":"Lúa","DIỆN TÍCH":"62.45","SỐ HỘ":"124","CHỨNG NHẬN ATTP":"Cam kết ATTP","layer_id":267,"fid":167,"label":"Tổ hợp tác sản xuất lúa ấp Phước Lợi B"}},{"type":"Feature","id":64,"geometry":{"type":"Polygon","coordinates":[[[105.7354,10.1508],[105.727,10.1545],[105.7221,10.1475],[105.724,10.1496],[105.724,10.1467],[105.7354,10.1508]]]},"properties":{"TÊN VÙNG TRỒNG":"TỔ HỢP TÁC SẦU RIÊNG ẤP TÂN KHÁNH","ĐỊA CHỈ":"Ấp Tân Khánh, Tân Lược, Bình Tân, Vĩnh Long, Xã Tân Lược, Huyện Bình Tân, Tỉnh Vĩnh Long","NGƯỜI ĐẠI DIỆN":"ĐÀO THANH LIÊM","SỐ ĐIỆN THOẠI":"0939706366","LOẠI CÂY":"Sầu riêng","DIỆN TÍCH":"11.18","SỐ HỘ":"21","CHỨNG NHẬN ATTP":"Cam kết ATTP","layer_id":267,"fid":64,"label":"TỔ HỢP TÁC SẦU RIÊNG ẤP TÂN KHÁNH"}},{"type":"Feature","id":62,"geometry":{"type":"Polygon","coordinates":[[[105.7983,10.147],[105.7982,10.1479],[105.8003,10.1446],[105.8046,10.149],[105.8004,10.1459],[105.7983,10.147]]]},"properties":{"TÊN VÙNG TRỒNG":"TỔ HỢP TÁC SẢN XUẤT MÍT HÒA AN ","ĐỊA CHỈ":"Ấp Hòa An, Xã Nguyễn Văn Thảnh, Huyện Bình Tân, Tỉnh Vĩnh Long","NGƯỜI ĐẠI DIỆN":"NGUYỄN VĂN TÂN","SỐ ĐIỆN THOẠI":"0939601692","LOẠI CÂY":"Mít","DIỆN TÍCH":"5.7","SỐ HỘ":"4","CHỨNG NHẬN ATTP":"cam kết ATTP","layer_id":267,"fid":62,"label":"TỔ HỢP TÁC SẢN XUẤT MÍT HÒA AN "}},{"type":"Feature","id":128,"geometry":{"type":"Polygon","coordinates":[[[106.026373,10.227012],[106.026642,10.227246],[106.027025,10.227728],[106.027838,10.227429],[106.026373,10.227012]]]},"properties":{"TÊN VÙNG TRỒNG":"VT CẢI TRẮNG ẤP AN HƯNG","ĐỊA CHỈ":"Ấp An Hưng, xã Mỹ An, huyện Mang Thít, tỉnh Vĩnh Long.","NGƯỜI ĐẠI DIỆN":"Lê Văn Minh","SỐ ĐIỆN THOẠI":"0326545762","LOẠI CÂY":"Củ cải trắng","DIỆN TÍCH":"3.25","SỐ HỘ":"6","CHỨNG NHẬN ATTP":"ATTP","layer_id":267,"fid":128,"label":"VT CẢI TRẮNG ẤP AN HƯNG"}},{"type":"Feature","id":67,"geometry":{"type":"Polygon","coordinates":[[[105.965642,9.929844],[105.972697,9.926543],[105.964252,9.921926],[105.973428,9.915484],[105.974044,9.919115],[105.965642,9.929844]]]},"properties":{"TÊN VÙNG TRỒNG":"HỢP TÁC XÃ NHÃN TÍCH PHƯỚC","ĐỊA CHỈ":"Ấp Tích PhướcTích Thiện, Trà Ôn, Vĩnh Long, Xã Tích Thiện, Huyện Trà Ôn, Tỉnh Vĩnh Long","NGƯỜI ĐẠI DIỆN":"NGUYỄN VĂN CÔNG","SỐ ĐIỆN THOẠI":"0914480419","LOẠI CÂY":"Nhãn","DIỆN TÍCH":"26","SỐ HỘ":"11","CHỨNG NHẬN ATTP":"Cam kết ATTP","layer_id":267,"fid":67,"label":"HỢP TÁC XÃ NHÃN TÍCH PHƯỚC"}},{"type":"Feature","id":168,"geometry":{"type":"Polygon","coordinates":[[[106.016804,10.171946],[106.012347,10.17258],[106.012144,10.170642],[106.016683,10.169963],[106.014278,10.171304],[106.016804,10.171946]]]},"properties":{"TÊN VÙNG TRỒNG":"Tổ hợp tác sản xuất lúa ấp An Phú A","ĐỊA CHỈ":"Ấp An Phú A, xã Long An, huyện Long Hồ","NGƯỜI ĐẠI DIỆN":"Huỳnh Ngọc Mai","SỐ ĐIỆN THOẠI":"0941182359","LOẠI CÂY":"Lúa","DIỆN TÍCH":"26.26","SỐ HỘ":"42","CHỨNG NHẬN ATTP":"Cam kết ATTP","layer_id":267,"fid":168,"label":"Tổ hợp tác sản xuất lúa ấp An Phú A"}},{"type":"Feature","id":129,"geometry":{"type":"Polygon","coordinates":[[[106.033519,10.027842],[106.032779,10.025288],[106.033147,10.025182],[106.033171,10.027731],[106.033827,10.027794],[106.033519,10.027842]]]},"properties":{"TÊN VÙNG TRỒNG":"LÊ VĂN SỨNG","ĐỊA CHỈ":"Ấp Hiệp Thạnh, xã Hòa Bình, huyện Trà Ôn, tỉnh Vĩnh Long.","NGƯỜI ĐẠI DIỆN":"Lê Văn Sứng","SỐ ĐIỆN THOẠI":"0988326136","LOẠI CÂY":"Cam ","DIỆN TÍCH":"1.5","SỐ HỘ":"1","CHỨNG NHẬN ATTP":"ATTP","layer_id":267,"fid":129,"label":"LÊ VĂN SỨNG"}},{"type":"Feature","id":68,"geometry":{"type":"Polygon","coordinates":[[[105.989114,9.92234],[105.989414,9.923513],[105.989656,9.923502],[105.989713,9.923707],[105.989283,9.921636],[105.989114,9.92234]]]},"properties":{"TÊN VÙNG TRỒNG":"LÊ THÀNH CÔNG","ĐỊA CHỈ":"Cây GònTích Thiện, Trà Ôn, Vĩnh Long, Xã Tích Thiện, Huyện Trà Ôn, Tỉnh Vĩnh Long","NGƯỜI ĐẠI DIỆN":"LÊ THÀNH CÔNG","SỐ ĐIỆN THOẠI":"0935651525","LOẠI CÂY":"Ổi","DIỆN TÍCH":"1","SỐ HỘ":"1","CHỨNG NHẬN ATTP":"Cam kết ATTP","layer_id":267,"fid":68,"label":"LÊ THÀNH CÔNG"}},{"type":"Feature","id":130,"geometry":{"type":"Polygon","coordinates":[[[106.070283,9.960355],[106.052801,9.980315],[106.033908,9.976713],[106.030283,9.975683],[106.032554,9.998675],[106.070283,9.960355]]]},"properties":{"TÊN VÙNG TRỒNG":"HTX DV NN HỰU THÀNH","ĐỊA CHỈ":"Ấp Trà Sơn, Hựu Thành, Trà Ôn","NGƯỜI ĐẠI DIỆN":"Đặng Văn Bé Tư","SỐ ĐIỆN THOẠI":"0365167345","LOẠI CÂY":"Cam ","DIỆN TÍCH":"8","SỐ HỘ":"8","CHỨNG NHẬN ATTP":"Cam kết ATTP","layer_id":267,"fid":130,"label":"HTX DV NN HỰU THÀNH"}},{"type":"Feature","id":69,"geometry":{"type":"Polygon","coordinates":[[[105.969739,9.953617],[105.969731,9.953616],[105.968601,9.954089],[105.968119,9.953659],[105.969739,9.953617]]]},"properties":{"TÊN VÙNG TRỒNG":"TỔ HỢP TÁC TRÁI CÂY MĂNG CỤT THIỆN MỸ","ĐỊA CHỈ":"ẤP Cây ĐiệpThiện Mỹ, Trà Ôn,Vĩnh Long, Xã Thiện Mỹ, Huyện Trà Ôn, Tỉnh Vĩnh Long","NGƯỜI ĐẠI DIỆN":"NGUYỄN VĂN DƯ","SỐ ĐIỆN THOẠI":"0762900079","LOẠI CÂY":"Măng cụt","DIỆN TÍCH":"1.4","SỐ HỘ":"1","CHỨNG NHẬN ATTP":"Cam kết ATTP","layer_id":267,"fid":69,"label":"TỔ HỢP TÁC TRÁI CÂY MĂNG CỤT THIỆN MỸ"}},{"type":"Feature","id":169,"geometry":{"type":"Polygon","coordinates":[[[105.96175,10.192212],[105.970984,10.196996],[105.963329,10.194525],[105.971471,10.185167],[105.969096,10.192289],[105.96175,10.192212]]]},"properties":{"TÊN VÙNG TRỒNG":"Tổ hợp tác sản xuất lúa ấp Phước Trinh A","ĐỊA CHỈ":"Ấp Phước Trinh A, xã Long Phước, huyện Long Hồ","NGƯỜI ĐẠI DIỆN":"Nguyễn Hồng Phúc","SỐ ĐIỆN THOẠI":"0902856323","LOẠI CÂY":"Lúa","DIỆN TÍCH":"71.95","SỐ HỘ":"114","CHỨNG NHẬN ATTP":"Cam kết ATTP","layer_id":267,"fid":169,"label":"Tổ hợp tác sản xuất lúa ấp Phước Trinh A"}},{"type":"Feature","id":131,"geometry":{"type":"Polygon","coordinates":[[[106.183932,10.172817],[106.186453,10.173034],[106.194118,10.168445],[106.18288,10.16688],[106.185112,10.171703],[106.183932,10.172817]]]},"properties":{"TÊN VÙNG TRỒNG":"HTX XOÀI QUỚI THIỆN","ĐỊA CHỈ":"Ấp Rạch Sâu, xã Quới Thiện, huyện Vũng Liêm, tỉnh Vĩnh Long","NGƯỜI ĐẠI DIỆN":"Lê Văn Diễn","SỐ ĐIỆN THOẠI":"0337126097","LOẠI CÂY":"Xoài","DIỆN TÍCH":"10.1","SỐ HỘ":"14","CHỨNG NHẬN ATTP":"Cam kết ATTP","layer_id":267,"fid":131,"label":"HTX XOÀI QUỚI THIỆN"}},{"type":"Feature","id":72,"geometry":{"type":"Polygon","coordinates":[[[106.022996,10.055279],[106.022046,10.053531],[106.022685,10.052903],[106.022993,10.055273],[106.023951,10.054267],[106.022996,10.055279]]]},"properties":{"TÊN VÙNG TRỒNG":"HỢP TÁC XÃ CAM SÀNH NHƠN NGÃI","ĐỊA CHỈ":"Ấp Nhơn Ngãi,Nhơn Bình, Trà Ôn, Vĩnh Long, Xã Nhơn Bình, Huyện Trà Ôn, Tỉnh Vĩnh Long","NGƯỜI ĐẠI DIỆN":"NGUYỄN VĂN PHA","SỐ ĐIỆN THOẠI":"0784650741","LOẠI CÂY":"Cam ","DIỆN TÍCH":"1","SỐ HỘ":"1","CHỨNG NHẬN ATTP":"ATTP","layer_id":267,"fid":72,"label":"HỢP TÁC XÃ CAM SÀNH NHƠN NGÃI"}},{"type":"Feature","id":70,"geometry":{"type":"Polygon","coordinates":[[[105.945465,9.985273],[105.945195,9.981319],[105.947543,9.982511],[105.945003,9.984081],[105.94752,9.981179],[105.945465,9.985273]]]},"properties":{"TÊN VÙNG TRỒNG":"HỢP TÁC XÃ CAM SÀNH THẮM TÀI","ĐỊA CHỈ":"Ấp Mỹ Hưng, Xã Thiện Mỹ, Huyện Trà Ôn, Tỉnh Vĩnh Long","NGƯỜI ĐẠI DIỆN":"LÊ VĂN TÀI","SỐ ĐIỆN THOẠI":"0899324432","LOẠI CÂY":"Cam","DIỆN TÍCH":"7.5","SỐ HỘ":"5","CHỨNG NHẬN ATTP":"Vietgap","layer_id":267,"fid":70,"label":"HỢP TÁC XÃ CAM SÀNH THẮM TÀI"}},{"type":"Feature","id":170,"geometry":{"type":"Polygon","coordinates":[[[105.975532,10.18341],[105.974695,10.181961],[105.974309,10.186557],[105.973273,10.184403],[105.974698,10.183808],[105.975532,10.18341]]]},"properties":{"TÊN VÙNG TRỒNG":"Hợp tác xã nông nghiệp Phước Thạnh","ĐỊA CHỈ":"Ấp Phước Thạnh, xã Lộc Hòa, huyện Long Hồ","NGƯỜI ĐẠI DIỆN":"Nguyễn Hữu Có","SỐ ĐIỆN THOẠI":"0382455532","LOẠI CÂY":"Lúa","DIỆN TÍCH":"20.55","SỐ HỘ":"30","CHỨNG NHẬN ATTP":"Cam kết ATTP","layer_id":267,"fid":170,"label":"Hợp tác xã nông nghiệp Phước Thạnh"}},{"type":"Feature","id":133,"geometry":{"type":"Polygon","coordinates":[[[106.04806,10.20017],[106.0521,10.20086],[106.05188,10.19772],[106.0497,10.19838],[106.04833,10.19935],[106.04806,10.20017]]]},"properties":{"TÊN VÙNG TRỒNG":"THT LÚA CHẤT LƯỢNG CAO THIỀNG LONG 1 XÃ HÒA TỊNH","ĐỊA CHỈ":"ấp Thiềng Long, xã Hòa Tịnh, Mang Thít, VL ","NGƯỜI ĐẠI DIỆN":"Lê Đức Trọn","SỐ ĐIỆN THOẠI":"0901010849","LOẠI CÂY":"Lúa","DIỆN TÍCH":"8.6","SỐ HỘ":"13","CHỨNG NHẬN ATTP":"Cam kết ATTP","layer_id":267,"fid":133,"label":"THT LÚA CHẤT LƯỢNG CAO THIỀNG LONG 1 XÃ HÒA TỊNH"}},{"type":"Feature","id":71,"geometry":{"type":"Polygon","coordinates":[[[105.872114,9.9703],[105.872056,9.970922],[105.887466,9.966118],[105.867564,9.976423],[105.883626,9.974866],[105.872114,9.9703]]]},"properties":{"TÊN VÙNG TRỒNG":"TỔ HỢP TÁC SẦU RIÊNG PHÚ THÀNH","ĐỊA CHỈ":"Ấp Phú SungPhú Thành, Trà Ôn, Vĩnh Long, Xã Phú Thành, Huyện Trà Ôn, Tỉnh Vĩnh Long","NGƯỜI ĐẠI DIỆN":"HUỲNH PHƯỚC TÍNH","SỐ ĐIỆN THOẠI":"0908835331","LOẠI CÂY":"Sầu riêng","DIỆN TÍCH":"10.6","SỐ HỘ":"9","CHỨNG NHẬN ATTP":"Cam kết ATTP","layer_id":267,"fid":71,"label":"TỔ HỢP TÁC SẦU RIÊNG PHÚ THÀNH"}},{"type":"Feature","id":171,"geometry":{"type":"Polygon","coordinates":[[[105.991845,10.183881],[105.992984,10.181836],[105.989175,10.171335],[105.986968,10.176261],[105.989479,10.176949],[105.991845,10.183881]]]},"properties":{"TÊN VÙNG TRỒNG":"Tổ hợp tác sản xuất lúa ấp An Thuận","ĐỊA CHỈ":"Ấp An Thuận, xã Phú Đức, huyện Long Hồ","NGƯỜI ĐẠI DIỆN":"Lê Minh Phước","SỐ ĐIỆN THOẠI":"0932983017","LOẠI CÂY":"Lúa","DIỆN TÍCH":"28.03","SỐ HỘ":"56","CHỨNG NHẬN ATTP":"Cam kết ATTP","layer_id":267,"fid":171,"label":"Tổ hợp tác sản xuất lúa ấp An Thuận"}},{"type":"Feature","id":134,"geometry":{"type":"Polygon","coordinates":[[[106.0731934,10.1427107],[106.0746959,10.1394803],[106.0806572,10.1383643],[106.0735963,10.1497478],[106.0679469,10.1404533],[106.0731934,10.1427107]]]},"properties":{"TÊN VÙNG TRỒNG":"VT DỪA ẤP TÂN TIẾN TÂN QUI","ĐỊA CHỈ":"ấp Tân Tiến, xã Tân Long Hội, Mang Thít, VL","NGƯỜI ĐẠI DIỆN":"Đặng Đức Thành","SỐ ĐIỆN THOẠI":"0786873845","LOẠI CÂY":"Dừa","DIỆN TÍCH":"4.85","SỐ HỘ":"5","CHỨNG NHẬN ATTP":"Cam kết ATTP","layer_id":267,"fid":134,"label":"VT DỪA ẤP TÂN TIẾN TÂN QUI"}},{"type":"Feature","id":74,"geometry":{"type":"Polygon","coordinates":[[[106.051,10.0695],[106.052,10.066],[106.0592,10.07071],[106.058,10.0732],[106.063,10.0714],[106.051,10.0695]]]},"properties":{"TÊN VÙNG TRỒNG":"HTX NN HỒI TƯỜNG","ĐỊA CHỈ":"Ấp Hồi Tường, Xuân Hiệp, Trà Ôn, VL","NGƯỜI ĐẠI DIỆN":"TRẦN VĂN BÉ BẢY","SỐ ĐIỆN THOẠI":"0393939954","LOẠI CÂY":"Lúa","DIỆN TÍCH":"13","SỐ HỘ":"12","CHỨNG NHẬN ATTP":"Vietgap","layer_id":267,"fid":74,"label":"HTX NN HỒI TƯỜNG"}},{"type":"Feature","id":73,"geometry":{"type":"Polygon","coordinates":[[[105.913118,9.964066],[105.9128,9.962493],[105.90943,9.961051],[105.908317,9.957809],[105.902322,9.961867],[105.913118,9.964066]]]},"properties":{"TÊN VÙNG TRỒNG":"HTX NN LỤC SĨ THÀNH","ĐỊA CHỈ":"Ấp Tân Thạnh, Lục Sĩ Thành, Trà Ôn, VL","NGƯỜI ĐẠI DIỆN":"BÙI MINH TRUNG","SỐ ĐIỆN THOẠI":"0374764158","LOẠI CÂY":"Nhãn","DIỆN TÍCH":"10","SỐ HỘ":"4","CHỨNG NHẬN ATTP":"Cam kết ATTP","layer_id":267,"fid":73,"label":"HTX NN LỤC SĨ THÀNH"}},{"type":"Feature","id":76,"geometry":{"type":"Polygon","coordinates":[[[105.8861426,9.9983037],[105.8866207,10.000264],[105.8847217,9.9981489],[105.8840304,9.9984104],[105.8876085,10.0045614],[105.8861426,9.9983037]]]},"properties":{"TÊN VÙNG TRỒNG":"TỔ HỢP TÁC SẢN XUẤT RAU QUẢ ĐÔNG THÀNH","ĐỊA CHỈ":"Đông Hòa 2, Đông Thành, Thị xã Bình Minh, Vĩnh Long, Xã Đông Thành, Thị xã Bình Minh, Tỉnh Vĩnh Long","NGƯỜI ĐẠI DIỆN":"ĐỖ HOÀNG MINH","SỐ ĐIỆN THOẠI":"0769314569","LOẠI CÂY":"Chanh","DIỆN TÍCH":"3.5","SỐ HỘ":"5","CHỨNG NHẬN ATTP":"ATTP","layer_id":267,"fid":76,"label":"TỔ HỢP TÁC SẢN XUẤT RAU QUẢ ĐÔNG THÀNH"}},{"type":"Feature","id":75,"geometry":{"type":"Polygon","coordinates":[[[105.99433,9.990608],[106.01865,9.996534],[105.986284,9.985685],[106.000948,9.973299],[106.001203,9.993969],[105.99433,9.990608]]]},"properties":{"TÊN VÙNG TRỒNG":"HTX DV NN TRÀ CÔN","ĐỊA CHỈ":"Ấp Bang Chanh, Trà Côn, Trà Ôn, VL","NGƯỜI ĐẠI DIỆN":"VÕ THANH BÌNH","SỐ ĐIỆN THOẠI":"0786843337","LOẠI CÂY":"Cam ","DIỆN TÍCH":"6.6","SỐ HỘ":"530","CHỨNG NHẬN ATTP":"Cam kết ATTP","layer_id":267,"fid":75,"label":"HTX DV NN TRÀ CÔN"}},{"type":"Feature","id":135,"geometry":{"type":"Polygon","coordinates":[[[106.0633,10.22245],[106.056747,10.208388],[106.063956,10.221156],[106.06184,10.221887],[106.062798,10.225326],[106.0633,10.22245]]]},"properties":{"TÊN VÙNG TRỒNG":"VT NHÃN PHÚ THUẬN A","ĐỊA CHỈ":"ấp Phú ThuậN A, xã Nhơn Phú, huyện Mang Thít, tỉnh Vĩnh Long","NGƯỜI ĐẠI DIỆN":"Trương Hoàng Phương","SỐ ĐIỆN THOẠI":"0985800398","LOẠI CÂY":"Nhãn","DIỆN TÍCH":"4","SỐ HỘ":"5","CHỨNG NHẬN ATTP":"Cam kết ATTP","layer_id":267,"fid":135,"label":"VT NHÃN PHÚ THUẬN A"}},{"type":"Feature","id":172,"geometry":{"type":"Polygon","coordinates":[[[106.011657,10.22846],[106.01479,10.231774],[106.018385,10.227806],[106.01465,10.226529],[106.014442,10.228111],[106.011657,10.22846]]]},"properties":{"TÊN VÙNG TRỒNG":"Tổ hợp tác sản xuất lúa ấp Long Quới","ĐỊA CHỈ":"Ấp Long Quới, xã Thanh Đức, huyện Long Hồ","NGƯỜI ĐẠI DIỆN":"Trần Minh Toàn","SỐ ĐIỆN THOẠI":"0939257841","LOẠI CÂY":"lúa","DIỆN TÍCH":"16.52","SỐ HỘ":"18","CHỨNG NHẬN ATTP":"Cam kết ATTP","layer_id":267,"fid":172,"label":"Tổ hợp tác sản xuất lúa ấp Long Quới"}},{"type":"Feature","id":136,"geometry":{"type":"Polygon","coordinates":[[[105.943307,9.922539],[105.947011,9.921149],[105.944298,9.926389],[105.933854,9.924897],[105.943307,9.922539]]]},"properties":{"TÊN VÙNG TRỒNG":"THT TRỒNG VÚ SỮA ẤP KINH ĐÀO","ĐỊA CHỈ":"ấp Kinh Đào, xã Lục Sĩ Thành, huyện Trà Ôn, VL","NGƯỜI ĐẠI DIỆN":"Trần Thanh Duyên","SỐ ĐIỆN THOẠI":"0939093263","LOẠI CÂY":"Vú sữa","DIỆN TÍCH":"5","SỐ HỘ":"5","CHỨNG NHẬN ATTP":"Cam kết ATTP","layer_id":267,"fid":136,"label":"THT TRỒNG VÚ SỮA ẤP KINH ĐÀO"}},{"type":"Feature","id":77,"geometry":{"type":"Polygon","coordinates":[[[105.889379,10.044949],[105.884722,10.041783],[105.889123,10.039743],[105.887056,10.032578],[105.892679,10.032578],[105.889379,10.044949]]]},"properties":{"TÊN VÙNG TRỒNG":"NGUYỄN THÀNH QUÍ","ĐỊA CHỈ":"Ấp Thạnh Hoà Đông Thạnh, Thị xã Bình Minh, Vĩnh Long, Xã Đông Thạnh, Thị xã Bình Minh, Tỉnh Vĩnh Long","NGƯỜI ĐẠI DIỆN":"NGUYỄN THÀNH QUÍ","SỐ ĐIỆN THOẠI":"0387777517","LOẠI CÂY":"Chanh","DIỆN TÍCH":"10.35","SỐ HỘ":"11","CHỨNG NHẬN ATTP":"Cam kết ATTP","layer_id":267,"fid":77,"label":"NGUYỄN THÀNH QUÍ"}},{"type":"Feature","id":137,"geometry":{"type":"Polygon","coordinates":[[[106.04698,9.971404],[106.045465,9.968166],[106.045476,9.970558],[106.045465,9.962419],[106.041792,9.966994],[106.04698,9.971404]]]},"properties":{"TÊN VÙNG TRỒNG":"HTX CAM SÀNH THẮM TÀI (THUẬN THỚI)","ĐỊA CHỈ":"Ấp Giồng Gòn, xã Thuận Thới, huyện Trà Ôn, tỉnh Vĩnh Long.","NGƯỜI ĐẠI DIỆN":"Lê Văn Tài","SỐ ĐIỆN THOẠI":"0984747432","LOẠI CÂY":"Cam ","DIỆN TÍCH":"5","SỐ HỘ":"1","CHỨNG NHẬN ATTP":"Cam kết ATTP","layer_id":267,"fid":137,"label":"HTX CAM SÀNH THẮM TÀI (THUẬN THỚI)"}},{"type":"Feature","id":138,"geometry":{"type":"Polygon","coordinates":[[[105.95845,9.981953],[105.961371,9.979762],[105.959672,9.979888],[105.960238,9.978094],[105.957455,9.979556],[105.95845,9.981953]]]},"properties":{"TÊN VÙNG TRỒNG":"HTX CAM SÀNH THẮM TÀI (TÂN MỸ)","ĐỊA CHỈ":"ấp Sóc Ruộng, xã Tân Mỹ, huyện Trà Ôn, VL","NGƯỜI ĐẠI DIỆN":"Lê Văn Tài","SỐ ĐIỆN THOẠI":"0984747432","LOẠI CÂY":"Cam ","DIỆN TÍCH":"12","SỐ HỘ":"1","CHỨNG NHẬN ATTP":"Cam kết ATTP","layer_id":267,"fid":138,"label":"HTX CAM SÀNH THẮM TÀI (TÂN MỸ)"}},{"type":"Feature","id":173,"geometry":{"type":"Polygon","coordinates":[[[105.887218,10.16689],[105.88937,10.16067],[105.88276,10.16346],[105.881069,10.17003],[105.88313,10.165212],[105.887218,10.16689]]]},"properties":{"TÊN VÙNG TRỒNG":"Tổ hợp tác sản xuất lúa ấp Hòa Thạnh 2","ĐỊA CHỈ":"Ấp Hòa Thạnh 2, xã Thạnh Quới, huyện Long Hồ","NGƯỜI ĐẠI DIỆN":"Nguyễn Văn Út","SỐ ĐIỆN THOẠI":"0939932768","LOẠI CÂY":"lúa","DIỆN TÍCH":"32.12","SỐ HỘ":"41","CHỨNG NHẬN ATTP":"Cam kết ATTP","layer_id":267,"fid":173,"label":"Tổ hợp tác sản xuất lúa ấp Hòa Thạnh 2"}},{"type":"Feature","id":79,"geometry":{"type":"Polygon","coordinates":[[[105.919801,10.02307],[105.920266,10.023155],[105.919821,10.025169],[105.919368,10.024972],[105.919827,10.024045],[105.919801,10.02307]]]},"properties":{"TÊN VÙNG TRỒNG":"NGUYỄN TIẾN HOAN","ĐỊA CHỈ":"Ấp An Hòa B, Xã Bình Ninh, Huyện Tam Bình, Tỉnh Vĩnh Long","NGƯỜI ĐẠI DIỆN":"NGUYỄN TIẾN HOAN","SỐ ĐIỆN THOẠI":"0765316563","LOẠI CÂY":"Cam","DIỆN TÍCH":"1","SỐ HỘ":"1","CHỨNG NHẬN ATTP":"Cam kết ATTP","layer_id":267,"fid":79,"label":"NGUYỄN TIẾN HOAN"}},{"type":"Feature","id":78,"geometry":{"type":"Polygon","coordinates":[[[105.8221884,10.0990458],[105.8215651,10.0992649],[105.8210525,10.0969167],[105.8210374,10.0992613],[105.8207883,10.0995141],[105.8221884,10.0990458]]]},"properties":{"TÊN VÙNG TRỒNG":"THT SX CẢI XÀ LÁCH XOANG THUẬN THÀNH 1 ","ĐỊA CHỈ":"ấp Thuận Thành, xã Thuận An, Bình Minh, VL","NGƯỜI ĐẠI DIỆN":"TRƯƠNG VĂN ĐẦY","SỐ ĐIỆN THOẠI":"0862877077","LOẠI CÂY":"cải xà lách xoang","DIỆN TÍCH":"2.95","SỐ HỘ":"7","CHỨNG NHẬN ATTP":"Cam kết ATTP","layer_id":267,"fid":78,"label":"THT SX CẢI XÀ LÁCH XOANG THUẬN THÀNH 1 "}},{"type":"Feature","id":139,"geometry":{"type":"Polygon","coordinates":[[[105.9928888,9.967769],[105.996514,9.968144],[105.993349,9.966198],[105.9963,9.96029],[105.992013,9.96743],[105.9928888,9.967769]]]},"properties":{"TÊN VÙNG TRỒNG":"HTX CAM SÀNH PHƯƠNG THÚY TRÀ ÔN (VĨNH XUÂN)","ĐỊA CHỈ":"ấp Vĩnh Thành, xã Thuận Thới, huyện Trà Ôn, VL","NGƯỜI ĐẠI DIỆN":"Nguyễn Tấn Phương","SỐ ĐIỆN THOẠI":"0939925999","LOẠI CÂY":"Cam ","DIỆN TÍCH":"22","SỐ HỘ":"1","CHỨNG NHẬN ATTP":"Cam kết ATTP","layer_id":267,"fid":139,"label":"HTX CAM SÀNH PHƯƠNG THÚY TRÀ ÔN (VĨNH XUÂN)"}},{"type":"Feature","id":81,"geometry":{"type":"Polygon","coordinates":[[[105.969684,10.06235],[105.979143,10.058645],[105.969419,10.052674],[105.968742,10.055735],[105.972055,10.056848],[105.969684,10.06235]]]},"properties":{"TÊN VÙNG TRỒNG":"TỔ HỢP TÁC SẦU RIÊNG SỐ 2 ẤP MỸ THÀNH XÃ MỸ THẠNH TRUNG","ĐỊA CHỈ":"Ấp Mỹ Thành, Xã Thạnh Trung, Huyện Tam Bình,Vĩnh Long","NGƯỜI ĐẠI DIỆN":"NGUYỄN THANH ÂN","SỐ ĐIỆN THOẠI":"0975377105","LOẠI CÂY":"Sầu riêng","DIỆN TÍCH":"13.7","SỐ HỘ":"22","CHỨNG NHẬN ATTP":"Cam kết ATTP","layer_id":267,"fid":81,"label":"TỔ HỢP TÁC SẦU RIÊNG SỐ 2 ẤP MỸ THÀNH XÃ MỸ THẠNH TRUNG"}},{"type":"Feature","id":80,"geometry":{"type":"Polygon","coordinates":[[[105.968084,10.07293],[105.973436,10.070632],[105.971563,10.057051],[105.966734,10.066449],[105.970106,10.067457],[105.968084,10.07293]]]},"properties":{"TÊN VÙNG TRỒNG":"TỔ HỢP TÁC SẦU RIÊNG SỐ 1 ẤP MỸ THÀNH XÃ MỸ THẠNH TRUNG","ĐỊA CHỈ":"Ấp Mỹ Thành, Xã Thạnh Trung, Huyện Tam Bình,Vĩnh Long","NGƯỜI ĐẠI DIỆN":"NGUYỄN THÀNH CÔNG","SỐ ĐIỆN THOẠI":"0396494539","LOẠI CÂY":"Sầu riêng","DIỆN TÍCH":"18","SỐ HỘ":"26","CHỨNG NHẬN ATTP":"Cam kết ATTP","layer_id":267,"fid":80,"label":"TỔ HỢP TÁC SẦU RIÊNG SỐ 1 ẤP MỸ THÀNH XÃ MỸ THẠNH TRUNG"}},{"type":"Feature","id":174,"geometry":{"type":"Polygon","coordinates":[[[105.89144,10.16754],[105.89794,10.16364],[105.89096,10.1547],[105.88633,10.15671],[105.89189,10.15959],[105.89144,10.16754]]]},"properties":{"TÊN VÙNG TRỒNG":"Tổ hợp tác sản xuất lúa ấp Thạnh Phú","ĐỊA CHỈ":"Ấp Thạnh Phú, xã Thạnh Quới, huyện Long Hồ","NGƯỜI ĐẠI DIỆN":"Đinh Văn Dân","SỐ ĐIỆN THOẠI":"0799696437","LOẠI CÂY":"lúa","DIỆN TÍCH":"39","SỐ HỘ":"43","CHỨNG NHẬN ATTP":"Cam kết ATTP","layer_id":267,"fid":174,"label":"Tổ hợp tác sản xuất lúa ấp Thạnh Phú"}},{"type":"Feature","id":141,"geometry":{"type":"Polygon","coordinates":[[[106.026727,10.209852],[106.025947,10.2112],[106.02663,10.210692],[106.035932,10.207529],[106.026727,10.209852]]]},"properties":{"TÊN VÙNG TRỒNG":"THT SẦU RIÊNG ẤP BÌNH TỊNH A,XÃ HÒA TỊNH","ĐỊA CHỈ":"ấp Bình Tịnh A, xã Hòa Tịnh, Mang Thít, VL","NGƯỜI ĐẠI DIỆN":"Nguyễn Văn Thành","SỐ ĐIỆN THOẠI":"0947777919","LOẠI CÂY":"Sầu riêng","DIỆN TÍCH":"3.2","SỐ HỘ":"5","CHỨNG NHẬN ATTP":"Cam kết ATTP","layer_id":267,"fid":141,"label":"THT SẦU RIÊNG ẤP BÌNH TỊNH A,XÃ HÒA TỊNH"}},{"type":"Feature","id":82,"geometry":{"type":"Polygon","coordinates":[[[106.034569,10.127729],[106.068308,10.11108],[106.070289,10.102239],[106.030375,10.12304],[106.041627,10.120806],[106.034569,10.127729]]]},"properties":{"TÊN VÙNG TRỒNG":"THT SẦU RIÊNG XÃ HÒA THẠNH","ĐỊA CHỈ":"Ấp 3, xã Hòa Thạnh, Tam Bình, Vĩnh Long","NGƯỜI ĐẠI DIỆN":"LÊ VĨNH TRÀ","SỐ ĐIỆN THOẠI":"0932243432","LOẠI CÂY":"Sầu riêng","DIỆN TÍCH":"13.4","SỐ HỘ":"12","CHỨNG NHẬN ATTP":"Cam kết ATTP","layer_id":267,"fid":82,"label":"THT SẦU RIÊNG XÃ HÒA THẠNH"}},{"type":"Feature","id":140,"geometry":{"type":"Polygon","coordinates":[[[105.980642,9.96881],[105.981183,9.970138],[105.987768,9.969232],[105.994011,9.974078],[105.991671,9.97447],[105.980642,9.96881]]]},"properties":{"TÊN VÙNG TRỒNG":"HTX CAM SÀNH PHƯƠNG THÚY TRÀ ÔN (TÂN MỸ)","ĐỊA CHỈ":"ấp Gia Kiết, xã Tân Mỹ, huyện Trà Ôn, VL","NGƯỜI ĐẠI DIỆN":"Nguyễn Tấn Phương","SỐ ĐIỆN THOẠI":"0939925999","LOẠI CÂY":"Cam ","DIỆN TÍCH":"25","SỐ HỘ":"1","CHỨNG NHẬN ATTP":"Cam kết ATTP","layer_id":267,"fid":140,"label":"HTX CAM SÀNH PHƯƠNG THÚY TRÀ ÔN (TÂN MỸ)"}},{"type":"Feature","id":84,"geometry":{"type":"Polygon","coordinates":[[[105.888248,10.101952],[105.900059,10.083253],[105.862982,10.067203],[105.860906,10.085732],[105.872986,10.080295],[105.888248,10.101952]]]},"properties":{"TÊN VÙNG TRỒNG":"THT SẦU RIÊNG TÂN PHÚ","ĐỊA CHỈ":"Ấp Phú Yên, xã Tân Phú, huyện Tam Bình, Vĩnh Long","NGƯỜI ĐẠI DIỆN":"LÊ VĂN HÀO","SỐ ĐIỆN THOẠI":"0927050090","LOẠI CÂY":"Sầu riêng","DIỆN TÍCH":"14.3","SỐ HỘ":"23","CHỨNG NHẬN ATTP":"Cam kết ATTP","layer_id":267,"fid":84,"label":"THT SẦU RIÊNG TÂN PHÚ"}},{"type":"Feature","id":142,"geometry":{"type":"Polygon","coordinates":[[[105.93339,10.190033],[105.933378,10.189832],[105.932168,10.190272],[105.931287,10.190622],[105.931204,10.190042],[105.93339,10.190033]]]},"properties":{"TÊN VÙNG TRỒNG":"NGUYỄN TẤN THÀNH","ĐỊA CHỈ":"ấp Phước Bình,xã Hòa Lộc, Long Hồ, VL","NGƯỜI ĐẠI DIỆN":"Nguyễn Tấn Thành","SỐ ĐIỆN THOẠI":"0971408138","LOẠI CÂY":"Lúa","DIỆN TÍCH":"0.4","SỐ HỘ":"1","CHỨNG NHẬN ATTP":"Cam kết ATTP","layer_id":267,"fid":142,"label":"NGUYỄN TẤN THÀNH"}},{"type":"Feature","id":86,"geometry":{"type":"Polygon","coordinates":[[[106.102414,10.172138],[106.085602,10.162795],[106.092393,10.158138],[106.081055,10.151136],[106.07853,10.145215],[106.102414,10.172138]]]},"properties":{"TÊN VÙNG TRỒNG":"VÙNG TRỒNG SẦU RIÊNG XÃ TÂN AN HỘI","ĐỊA CHỈ":"Ấp Tân Thiềng, xã Tân An Hội, huyện Mang Thít, tỉnh Vĩnh Long, Xã Tân An Hội, Huyện Mang Thít, Tỉnh Vĩnh Long","NGƯỜI ĐẠI DIỆN":"NGUYỄN VĂN DŨNG","SỐ ĐIỆN THOẠI":"0918661611","LOẠI CÂY":"Sầu riêng","DIỆN TÍCH":"15.3","SỐ HỘ":"19","CHỨNG NHẬN ATTP":"Cam kết ATTP","layer_id":267,"fid":86,"label":"VÙNG TRỒNG SẦU RIÊNG XÃ TÂN AN HỘI"}},{"type":"Feature","id":175,"geometry":{"type":"Polygon","coordinates":[[[105.937251,10.154975],[105.933937,10.145306],[105.944917,10.145583],[105.946323,10.154177],[105.937251,10.154975]]]},"properties":{"TÊN VÙNG TRỒNG":"Tổ hợp tác sản xuất lúa ấp Hòa Hưng","ĐỊA CHỈ":"Ấp Hòa Hưng, xã Hòa Phú, huyện Long Hồ","NGƯỜI ĐẠI DIỆN":"Lê Văn Dũng","SỐ ĐIỆN THOẠI":"0918311375","LOẠI CÂY":"lúa","DIỆN TÍCH":"44.37","SỐ HỘ":"55","CHỨNG NHẬN ATTP":"Cam kết ATTP","layer_id":267,"fid":175,"label":"Tổ hợp tác sản xuất lúa ấp Hòa Hưng"}},{"type":"Feature","id":85,"geometry":{"type":"Polygon","coordinates":[[[105.960072,10.107798],[105.947867,10.096102],[105.944498,10.094816],[105.939991,10.096723],[105.939954,10.099835],[105.960072,10.107798]]]},"properties":{"TÊN VÙNG TRỒNG":"THT SẦU RIÊNG ẤP CÂY ĐIỀU","ĐỊA CHỈ":"Ấp 4, ấp Cây Điều, xã Phú Lộc, huyện Tam Bình, Vĩnh Long","NGƯỜI ĐẠI DIỆN":"NGUYỄN VĂN SÁU","SỐ ĐIỆN THOẠI":"0902288372","LOẠI CÂY":"Sầu riêng","DIỆN TÍCH":"12.96","SỐ HỘ":"23","CHỨNG NHẬN ATTP":"VietGap","layer_id":267,"fid":85,"label":"THT SẦU RIÊNG ẤP CÂY ĐIỀU"}},{"type":"Feature","id":83,"geometry":{"type":"Polygon","coordinates":[[[105.943987,10.044726],[105.961217,10.010772],[105.917238,10.048706],[105.917795,10.054465],[105.921608,10.045953],[105.943987,10.044726]]]},"properties":{"TÊN VÙNG TRỒNG":"THT SẦU RIÊNG ẤP BÌNH PHÚ XÃ LOAN MỸ","ĐỊA CHỈ":"Ấp Bình Phú, xã Loan Mỹ, Tam Bình, Vĩnh Long","NGƯỜI ĐẠI DIỆN":"NGUYỄN VŨ LINH","SỐ ĐIỆN THOẠI":"0762811907","LOẠI CÂY":"Sầu riêng","DIỆN TÍCH":"12.6","SỐ HỘ":"15","CHỨNG NHẬN ATTP":"Cam kết ATTP","layer_id":267,"fid":83,"label":"THT SẦU RIÊNG ẤP BÌNH PHÚ XÃ LOAN MỸ"}},{"type":"Feature","id":90,"geometry":{"type":"Polygon","coordinates":[[[106.081102,10.202692],[106.105447,10.199067],[106.110045,10.1915],[106.113438,10.178022],[106.075871,10.173051],[106.081102,10.202692]]]},"properties":{"TÊN VÙNG TRỒNG":"THT SẦU RIÊNG THỊ TRẤN CÁI NHUM","ĐỊA CHỈ":"Khóm 6, TT Cái Nhum, MT, VL","NGƯỜI ĐẠI DIỆN":"NGUYỄN THÀNH TRIỆU","SỐ ĐIỆN THOẠI":"0989191997","LOẠI CÂY":"Sầu riêng","DIỆN TÍCH":"26.22","SỐ HỘ":"30","CHỨNG NHẬN ATTP":"Cam kết ATTP","layer_id":267,"fid":90,"label":"THT SẦU RIÊNG THỊ TRẤN CÁI NHUM"}},{"type":"Feature","id":143,"geometry":{"type":"Polygon","coordinates":[[[106.0408454,10.1486885],[106.0402815,10.1481627],[106.0402318,10.1518191],[106.0392441,10.1506759],[106.0369502,10.1547085],[106.0408454,10.1486885]]]},"properties":{"TÊN VÙNG TRỒNG":"VT DỪA ẤP TÂN HIỆP ","ĐỊA CHỈ":"ấp Tân Hiệp, xã Tân Long, Mang Thít","NGƯỜI ĐẠI DIỆN":"Nguyễn Đức Hoàng","SỐ ĐIỆN THOẠI":"0796969648","LOẠI CÂY":"Dừa","DIỆN TÍCH":"3.3","SỐ HỘ":"5","CHỨNG NHẬN ATTP":"ATTP","layer_id":267,"fid":143,"label":"VT DỪA ẤP TÂN HIỆP "}},{"type":"Feature","id":145,"geometry":{"type":"Polygon","coordinates":[[[106.050971,10.117959],[106.073181,10.105546],[106.0594,10.10065],[106.063629,10.094023],[106.050945,10.111259],[106.050971,10.117959]]]},"properties":{"TÊN VÙNG TRỒNG":"THT BƯỞI XÃ HÒA THẠNH","ĐỊA CHỈ":"Ấp 2, ấp 3, ấp Thạnh Hiệp, Xã Hòa Thạnh, Huyện Tam Bình, Tỉnh Vĩnh Long","NGƯỜI ĐẠI DIỆN":"Nguyễn Văn Phương","SỐ ĐIỆN THOẠI":"0345461942","LOẠI CÂY":"Bưởi","DIỆN TÍCH":"10.3","SỐ HỘ":"15","CHỨNG NHẬN ATTP":"Cam kết ATTP","layer_id":267,"fid":145,"label":"THT BƯỞI XÃ HÒA THẠNH"}},{"type":"Feature","id":88,"geometry":{"type":"Polygon","coordinates":[[[106.151521,10.157911],[106.134448,10.165691],[106.162326,10.165803],[106.156712,10.185409],[106.151428,10.173958],[106.151521,10.157911]]]},"properties":{"TÊN VÙNG TRỒNG":"TỔ HỢP TÁC SẦU RIÊNG CHÁNH AN 1","ĐỊA CHỈ":"Chánh An, Mang Thít, Vĩnh Long, Xã Chánh An, Huyện Mang Thít, Tỉnh Vĩnh Long","NGƯỜI ĐẠI DIỆN":"ĐẶNG TRƯƠNG HOÀI LINH","SỐ ĐIỆN THOẠI":"0908184757","LOẠI CÂY":"Sầu riêng","DIỆN TÍCH":"50.9","SỐ HỘ":"51","CHỨNG NHẬN ATTP":"ATTP","layer_id":267,"fid":88,"label":"TỔ HỢP TÁC SẦU RIÊNG CHÁNH AN 1"}},{"type":"Feature","id":144,"geometry":{"type":"Polygon","coordinates":[[[106.010909,10.226904],[106.005832,10.226477],[106.006854,10.220269],[106.017891,10.226537],[106.014955,10.225711],[106.010909,10.226904]]]},"properties":{"TÊN VÙNG TRỒNG":"THT CỦ CẢI XÃ LONG MỸ","ĐỊA CHỈ":"ấp Long Phước, xã Long Mỹ, Mang Thít","NGƯỜI ĐẠI DIỆN":"Nguyễn Hoài Linh","SỐ ĐIỆN THOẠI":"0944399965","LOẠI CÂY":"Củ cải trắng","DIỆN TÍCH":"9.763","SỐ HỘ":"24","CHỨNG NHẬN ATTP":"ATTP","layer_id":267,"fid":144,"label":"THT CỦ CẢI XÃ LONG MỸ"}},{"type":"Feature","id":176,"geometry":{"type":"Polygon","coordinates":[[[105.995692,10.149441],[105.985694,10.152736],[105.998003,10.179288],[105.995232,10.178627],[105.992296,10.1639],[105.995692,10.149441]]]},"properties":{"TÊN VÙNG TRỒNG":"Tổ hợp tác sản xuất lúa ấp Thông Quan","ĐỊA CHỈ":"Ấp Thông Quan, xã Phú Đức, huyện Long Hồ","NGƯỜI ĐẠI DIỆN":"Huỳnh Ngọc Tấn","SỐ ĐIỆN THOẠI":"0939152941","LOẠI CÂY":"lúa","DIỆN TÍCH":"145","SỐ HỘ":"245","CHỨNG NHẬN ATTP":"Cam kết ATTP","layer_id":267,"fid":176,"label":"Tổ hợp tác sản xuất lúa ấp Thông Quan"}},{"type":"Feature","id":89,"geometry":{"type":"Polygon","coordinates":[[[106.042111,10.221548],[106.036708,10.229439],[106.031504,10.226539],[106.03715,10.238307],[106.02856,10.246891],[106.042111,10.221548]]]},"properties":{"TÊN VÙNG TRỒNG":"TỔ HỢP TÁC SẦU RIÊNG SỐ 1 MỸ AN","ĐỊA CHỈ":"Ấp An Hương 2Mỹ An, Mang Thít, Vĩnh Long, Xã Mỹ An, Huyện Mang Thít, Tỉnh Vĩnh Long","NGƯỜI ĐẠI DIỆN":"TRẦN VĂN TÁM","SỐ ĐIỆN THOẠI":"0384739557","LOẠI CÂY":"Sầu riêng","DIỆN TÍCH":"22.32","SỐ HỘ":"46","CHỨNG NHẬN ATTP":"Cam kết ATTP","layer_id":267,"fid":89,"label":"TỔ HỢP TÁC SẦU RIÊNG SỐ 1 MỸ AN"}},{"type":"Feature","id":91,"geometry":{"type":"Polygon","coordinates":[[[106.119352,10.218697],[106.110688,10.22024],[106.106265,10.222238],[106.111199,10.211816],[106.106957,10.216587],[106.119352,10.218697]]]},"properties":{"TÊN VÙNG TRỒNG":"THT SẦU RIÊNG ẤP ĐỊNH THỚI B, XÃ AN PHƯỚC","ĐỊA CHỈ":"Ấp Định Thới B, xã An Phước, MT, VL ","NGƯỜI ĐẠI DIỆN":"PHAN VĂN LỰC","SỐ ĐIỆN THOẠI":"0384984871","LOẠI CÂY":"Sầu riêng","DIỆN TÍCH":"31.1","SỐ HỘ":"42","CHỨNG NHẬN ATTP":"Cam kết ATTP","layer_id":267,"fid":91,"label":"THT SẦU RIÊNG ẤP ĐỊNH THỚI B, XÃ AN PHƯỚC"}},{"type":"Feature","id":177,"geometry":{"type":"Polygon","coordinates":[[[105.98425,10.170123],[105.986812,10.167014],[105.986129,10.161249],[105.979831,10.16412],[105.983786,10.165704],[105.98425,10.170123]]]},"properties":{"TÊN VÙNG TRỒNG":"Tổ hợp tác sản xuất lúa ấp An Hòa","ĐỊA CHỈ":"Ấp An Hòa, xã Phú Đức, huyện Long Hồ, tỉnh Vĩnh Long.","NGƯỜI ĐẠI DIỆN":"Nguyễn Văn Dũng","SỐ ĐIỆN THOẠI":"0528842028","LOẠI CÂY":"lúa","DIỆN TÍCH":"56.34","SỐ HỘ":"92","CHỨNG NHẬN ATTP":"Cam kết ATTP","layer_id":267,"fid":177,"label":"Tổ hợp tác sản xuất lúa ấp An Hòa"}},{"type":"Feature","id":94,"geometry":{"type":"Polygon","coordinates":[[[105.956958,10.214868],[105.957334,10.214868],[105.95935,10.215],[105.9701,10.21582],[105.965,10.22286],[105.956958,10.214868]]]},"properties":{"TÊN VÙNG TRỒNG":"HỢP TÁC XÃ SẢN XUẤT VÀ TIÊU THỤ RAU AN TOÀN PHƯỚC HẬU","ĐỊA CHỈ":"ấp Phước Hanh B, Xã Phước Hậu, Huyện Long Hồ, Tỉnh Vĩnh Long","NGƯỜI ĐẠI DIỆN":"NGUYỄN HOÀNG MINH CHÍ","SỐ ĐIỆN THOẠI":"0978164156","LOẠI CÂY":"Rau","DIỆN TÍCH":"4.5","SỐ HỘ":"12","CHỨNG NHẬN ATTP":"Cam kết ATTP","layer_id":267,"fid":94,"label":"HỢP TÁC XÃ SẢN XUẤT VÀ TIÊU THỤ RAU AN TOÀN PHƯỚC HẬU"}},{"type":"Feature","id":146,"geometry":{"type":"Polygon","coordinates":[[[105.901925,9.989784],[105.913086,9.977977],[105.906306,9.973611],[105.889415,9.981247],[105.903232,9.980518],[105.901925,9.989784]]]},"properties":{"TÊN VÙNG TRỒNG":"TỔ HỢP TÁC CHANH KHÔNG HẠT ĐÔNG HẬU - NGÃI TỨ","ĐỊA CHỈ":"Ấp Đông Hậu, Xã Ngãi Tứ, Huyện Tam Bình, Tỉnh Vĩnh Long","NGƯỜI ĐẠI DIỆN":"Lê Hồng Phúc","SỐ ĐIỆN THOẠI":"0978200939","LOẠI CÂY":"Chanh","DIỆN TÍCH":"30","SỐ HỘ":"53","CHỨNG NHẬN ATTP":"Cam kết ATTP","layer_id":267,"fid":146,"label":"TỔ HỢP TÁC CHANH KHÔNG HẠT ĐÔNG HẬU - NGÃI TỨ"}},{"type":"Feature","id":95,"geometry":{"type":"Polygon","coordinates":[[[105.9673348,10.1690553],[105.9666029,10.1680122],[105.9593713,10.1709175],[105.9596345,10.1725854],[105.9622191,10.1701962],[105.9673348,10.1690553]]]},"properties":{"TÊN VÙNG TRỒNG":"HTX DVNN HÒA PHÚ","ĐỊA CHỈ":"ấp Thạnh Phú, xã Hòa Phú, huyện Long Hồ, tỉnh Vĩnh Long","NGƯỜI ĐẠI DIỆN":"VÕ VĂN DŨNG","SỐ ĐIỆN THOẠI":"0763991666","LOẠI CÂY":"Lúa","DIỆN TÍCH":"7.2","SỐ HỘ":"4","CHỨNG NHẬN ATTP":"ATTP","layer_id":267,"fid":95,"label":"HTX DVNN HÒA PHÚ"}},{"type":"Feature","id":179,"geometry":{"type":"Polygon","coordinates":[[[105.896858,10.25517],[105.896229,10.249429],[105.890917,10.252919],[105.897596,10.250587],[105.896858,10.25517]]]},"properties":{"TÊN VÙNG TRỒNG":"Tổ sản xuất sầu riêng Tân Hội","ĐỊA CHỈ":"khóm Tân Bình, phường Tân Hội, TP. Vĩnh Long, tỉnh Vĩnh Long.","NGƯỜI ĐẠI DIỆN":"Trần Thị Thủy Tiên","SỐ ĐIỆN THOẠI":"0984141306","LOẠI CÂY":"Sầu riêng","DIỆN TÍCH":"1.99","SỐ HỘ":"4","CHỨNG NHẬN ATTP":"Cam kết ATTP","layer_id":267,"fid":179,"label":"Tổ sản xuất sầu riêng Tân Hội"}},{"type":"Feature","id":178,"geometry":{"type":"Polygon","coordinates":[[[105.847778,10.045583],[105.847278,10.053611],[105.843051,10.053926],[105.848074,10.043461],[105.847369,10.047836],[105.847778,10.045583]]]},"properties":{"TÊN VÙNG TRỒNG":"Tổ hợp tác sản xuất chanh không hạt Phù Ly","ĐỊA CHỈ":"Ấp Phù Ly, xã Đông Bình, thị xã Bình Minh, tỉnh Vĩnh Long.","NGƯỜI ĐẠI DIỆN":"Bạch Sơn Dương","SỐ ĐIỆN THOẠI":"0939175142","LOẠI CÂY":"Chanh","DIỆN TÍCH":"2","SỐ HỘ":"2","CHỨNG NHẬN ATTP":"Cam kết ATTP","layer_id":267,"fid":178,"label":"Tổ hợp tác sản xuất chanh không hạt Phù Ly"}},{"type":"Feature","id":93,"geometry":{"type":"Polygon","coordinates":[[[106.050949,10.24103],[106.058859,10.236939],[106.055152,10.234451],[106.050636,10.241328],[106.050951,10.226514],[106.050949,10.24103]]]},"properties":{"TÊN VÙNG TRỒNG":"THT SẦU RIÊNG SỐ 2 XÃ MỸ AN","ĐỊA CHỈ":"Ấp Chợ, ấp Hòa Long, ấp Hòa Mỹ 2, xã Mỹ An, huyện Mang Thít, tỉnh Vĩnh Long.","NGƯỜI ĐẠI DIỆN":"PHAN THỊ MỸ HẠNH","SỐ ĐIỆN THOẠI":"0939497567","LOẠI CÂY":"Sầu riêng","DIỆN TÍCH":"12.62","SỐ HỘ":"20","CHỨNG NHẬN ATTP":"Cam kết ATTP","layer_id":267,"fid":93,"label":"THT SẦU RIÊNG SỐ 2 XÃ MỸ AN"}},{"type":"Feature","id":92,"geometry":{"type":"Polygon","coordinates":[[[106.101308,10.221127],[106.097474,10.222212],[106.097152,10.222838],[106.091552,10.225558],[106.091175,10.222711],[106.101308,10.221127]]]},"properties":{"TÊN VÙNG TRỒNG":"THT SX SẦU RIÊNG ẤP MỸ PHÚ XÃ MỸ PHƯỚC","ĐỊA CHỈ":"Ấp Mỹ Phú, xã Mỹ Phước, MT, VL ","NGƯỜI ĐẠI DIỆN":"PHAN MINH TRÍ","SỐ ĐIỆN THOẠI":"0763933970","LOẠI CÂY":"Sầu riêng","DIỆN TÍCH":"13.8","SỐ HỘ":"16","CHỨNG NHẬN ATTP":"Cam kết ATTP","layer_id":267,"fid":92,"label":"THT SX SẦU RIÊNG ẤP MỸ PHÚ XÃ MỸ PHƯỚC"}},{"type":"Feature","id":96,"geometry":{"type":"Polygon","coordinates":[[[105.985302,10.184896],[105.985525,10.184752],[105.985684,10.184974],[105.985454,10.185076],[105.985544,10.184947],[105.985302,10.184896]]]},"properties":{"TÊN VÙNG TRỒNG":"VT NGUYỄN TRƯỜNG ÁI","ĐỊA CHỈ":"ấp Phú Thạnh, xã Phú Đức, huyện Long Hồ, tỉnh Vĩnh Long","NGƯỜI ĐẠI DIỆN":"NGUYỄN TRƯỜNG ÁI","SỐ ĐIỆN THOẠI":"0979665442","LOẠI CÂY":"Cây Đinh lăng","DIỆN TÍCH":"0.12","SỐ HỘ":"1","CHỨNG NHẬN ATTP":"ATTP","layer_id":267,"fid":96,"label":"VT NGUYỄN TRƯỜNG ÁI"}},{"type":"Feature","id":98,"geometry":{"type":"Polygon","coordinates":[[[106.154102,10.115724],[106.163791,10.120628],[106.168068,10.111942],[106.160049,10.11172],[106.161649,10.113506],[106.154102,10.115724]]]},"properties":{"TÊN VÙNG TRỒNG":"TSX BƯỞI ẤP QUANG MINH XÃ QUỚI AN bưởi ấp Quang Minh xã Quới An","ĐỊA CHỈ":"ấp Quang Minh,xã Quới An,huyện Vũng Liêm, tỉnh vĩnh Long","NGƯỜI ĐẠI DIỆN":"NGUYỄN VĂN PHÙNG","SỐ ĐIỆN THOẠI":"0382117575","LOẠI CÂY":"Bưởi","DIỆN TÍCH":"10","SỐ HỘ":"23","CHỨNG NHẬN ATTP":"Cam kết ATTP","layer_id":267,"fid":98,"label":"TSX BƯỞI ẤP QUANG MINH XÃ QUỚI AN bưởi ấp Quang Minh xã Quới An"}},{"type":"Feature","id":180,"geometry":{"type":"Polygon","coordinates":[[[105.906504,10.249315],[105.901528,10.253562],[105.900724,10.253529],[105.900832,10.25848],[105.906504,10.249315]]]},"properties":{"TÊN VÙNG TRỒNG":"Tổ sản xuất sầu riêng Tân Hòa","ĐỊA CHỈ":"khóm Tân Phú, phường Tân Hòa, TP. Vĩnh Long, tỉnh Vĩnh Long.","NGƯỜI ĐẠI DIỆN":"Lê Quang Huỳnh","SỐ ĐIỆN THOẠI":"0986201509","LOẠI CÂY":"Sầu riêng","DIỆN TÍCH":"1.5","SỐ HỘ":"3","CHỨNG NHẬN ATTP":"Cam kết ATTP","layer_id":267,"fid":180,"label":"Tổ sản xuất sầu riêng Tân Hòa"}},{"type":"Feature","id":181,"geometry":{"type":"Polygon","coordinates":[[[106.002663,10.090118],[106.019385,10.113949],[106.019801,10.122185],[106.018028,10.136466],[106.014499,10.123873],[106.002663,10.090118]]]},"properties":{"TÊN VÙNG TRỒNG":"Tổ hợp tác trồng mít xã Hòa Lộc ","ĐỊA CHỈ":"Ấp Hòa An, xã Hòa Lộc, huyện Tam Bình, tỉnh Vĩnh Long","NGƯỜI ĐẠI DIỆN":"Nguyễn Văn Bé Thao","SỐ ĐIỆN THOẠI":"0355902537","LOẠI CÂY":"Mít","DIỆN TÍCH":"11.1","SỐ HỘ":"7","CHỨNG NHẬN ATTP":"Cam kết ATTP","layer_id":267,"fid":181,"label":"Tổ hợp tác trồng mít xã Hòa Lộc "}},{"type":"Feature","id":182,"geometry":{"type":"Polygon","coordinates":[[[105.870352,10.152357],[105.869632,10.149999],[105.8843397,10.130075],[105.89099,10.126935],[105.896751,10.149049],[105.870352,10.152357]]]},"properties":{"TÊN VÙNG TRỒNG":"Tổ hợp tác mít xã Phú Thịnh","ĐỊA CHỈ":"Ấp Phú Hữu Đông, Phú Hòa, Phú Bình, xã Phú Thịnh, huyện Tam Bình, tỉnh Vĩnh Long.","NGƯỜI ĐẠI DIỆN":"Lê Văn Tý","SỐ ĐIỆN THOẠI":"0984539213","LOẠI CÂY":"Mít","DIỆN TÍCH":"23.15","SỐ HỘ":"13","CHỨNG NHẬN ATTP":"Cam kết ATTP","layer_id":267,"fid":182,"label":"Tổ hợp tác mít xã Phú Thịnh"}},{"type":"Feature","id":97,"geometry":{"type":"Polygon","coordinates":[[[106.099474,10.009126],[106.093227,10.031758],[106.109467,10.004706],[106.134386,10.006047],[106.112063,9.99967],[106.099474,10.009126]]]},"properties":{"TÊN VÙNG TRỒNG":"VT CAM SÀNH XÃ HIẾU NHƠN cam sành xã Hiếu Nhơn","ĐỊA CHỈ":"ấp Hiếu Hòa A, Hiếu Thủ, Ngã Chánh, Ngã Phú. Xã Hiếu Nhơn, huyện Vũng Liêm, tỉnh vĩnh Long","NGƯỜI ĐẠI DIỆN":"VÕ VĂN HẢI","SỐ ĐIỆN THOẠI":"0768804800","LOẠI CÂY":"Cam sành","DIỆN TÍCH":"10","SỐ HỘ":"10","CHỨNG NHẬN ATTP":"Cam kết ATTP","layer_id":267,"fid":97,"label":"VT CAM SÀNH XÃ HIẾU NHƠN cam sành xã Hiếu Nhơn"}},{"type":"Feature","id":148,"geometry":{"type":"Polygon","coordinates":[[[105.84219,10.11803],[105.84278,10.11724],[105.83998,10.11379],[105.83923,10.11302],[105.83925,10.11282],[105.84219,10.11803]]]},"properties":{"TÊN VÙNG TRỒNG":"Vùng trồng ấp Mỹ Thạnh A","ĐỊA CHỈ":"Ấp Mỹ Thạnh A, xã Mỹ Thuận, huyện Bình Tân, tỉnh Vĩnh Long.","NGƯỜI ĐẠI DIỆN":"Nguyễn Thanh Sơn","SỐ ĐIỆN THOẠI":"0989217811","LOẠI CÂY":"Lúa","DIỆN TÍCH":"4.4","SỐ HỘ":"3","CHỨNG NHẬN ATTP":"Cam kết ATTP","layer_id":267,"fid":148,"label":"Vùng trồng ấp Mỹ Thạnh A"}},{"type":"Feature","id":99,"geometry":{"type":"Polygon","coordinates":[[[106.174451,10.038888],[106.192767,10.031943],[106.184684,10.037535],[106.182643,10.042344],[106.189793,10.04328],[106.174451,10.038888]]]},"properties":{"TÊN VÙNG TRỒNG":"VT  LÚA ẤP 2 TRUNG NGÃI Lúa ấp 2 Trung Ngãi","ĐỊA CHỈ":"ấp 2, xã Trung Ngãi, huyện Vũng Liêm, VL","NGƯỜI ĐẠI DIỆN":"NGUYỄN VĂN HẢI","SỐ ĐIỆN THOẠI":"0346451415","LOẠI CÂY":"Lúa","DIỆN TÍCH":"24.8","SỐ HỘ":"23","CHỨNG NHẬN ATTP":"Cam kết ATTP","layer_id":267,"fid":99,"label":"VT  LÚA ẤP 2 TRUNG NGÃI Lúa ấp 2 Trung Ngãi"}},{"type":"Feature","id":100,"geometry":{"type":"Polygon","coordinates":[[[106.211773,10.12259],[106.216661,10.119528],[106.210825,10.115412],[106.216859,10.112552],[106.213654,10.116628],[106.211773,10.12259]]]},"properties":{"TÊN VÙNG TRỒNG":"HTX BƯỞI DA XANH VŨNG LIÊM Bưởi da xanh Vũng Liêm","ĐỊA CHỈ":"ấp Thanh Tân, xã Thanh Bình, huyện Vũng Liêm, VL","NGƯỜI ĐẠI DIỆN":"NGUYỄN VĂN NHỰT","SỐ ĐIỆN THOẠI":"0334418366","LOẠI CÂY":"Bưởi","DIỆN TÍCH":"17","SỐ HỘ":"17","CHỨNG NHẬN ATTP":"Cam kết ATTP","layer_id":267,"fid":100,"label":"HTX BƯỞI DA XANH VŨNG LIÊM Bưởi da xanh Vũng Liêm"}},{"type":"Feature","id":102,"geometry":{"type":"Polygon","coordinates":[[[106.241733,10.086259],[106.246929,10.089171],[106.243793,10.087658],[106.250952,10.083034],[106.252632,10.080922],[106.241733,10.086259]]]},"properties":{"TÊN VÙNG TRỒNG":"VT BƯỞI ẤP CÁI DỨA ","ĐỊA CHỈ":"ấp Cái Dứa, xã Thanh Bình, huyện Vũng Liêm, VL","NGƯỜI ĐẠI DIỆN":"TRẦN VĂN CẦN","SỐ ĐIỆN THOẠI":"0392758627","LOẠI CÂY":"Bưởi","DIỆN TÍCH":"14.6","SỐ HỘ":"33","CHỨNG NHẬN ATTP":"ATTP","layer_id":267,"fid":102,"label":"VT BƯỞI ẤP CÁI DỨA "}},{"type":"Feature","id":104,"geometry":{"type":"Polygon","coordinates":[[[106.095621,10.09488],[106.092493,10.079413],[106.084432,10.079163],[106.096018,10.08738],[106.093609,10.08455],[106.095621,10.09488]]]},"properties":{"TÊN VÙNG TRỒNG":"VT DỪA ẤP QUANG PHÚ XÃ HIẾU PHỤNG","ĐỊA CHỈ":"Ấp Quang Phú, xã Hiếu Phụng, VL, VL ","NGƯỜI ĐẠI DIỆN":"LÊ VĂN ÚT","SỐ ĐIỆN THOẠI":"0343533799","LOẠI CÂY":"Dừa","DIỆN TÍCH":"21.65","SỐ HỘ":"42","CHỨNG NHẬN ATTP":"ATTP","layer_id":267,"fid":104,"label":"VT DỪA ẤP QUANG PHÚ XÃ HIẾU PHỤNG"}},{"type":"Feature","id":101,"geometry":{"type":"Polygon","coordinates":[[[106.217625,10.035522],[106.206015,10.04504],[106.20706,10.041665],[106.206963,10.035768],[106.210989,10.036917],[106.217625,10.035522]]]},"properties":{"TÊN VÙNG TRỒNG":"VT DỪA ẤP PHÚ TÂN Dừa ấp Phú Tân","ĐỊA CHỈ":"ấp Phú Tân, xã Trung Nghĩa, Vũng Liêm, VL","NGƯỜI ĐẠI DIỆN":"NGUYỄN THÀNH TRUNG","SỐ ĐIỆN THOẠI":"0968520798","LOẠI CÂY":"Dừa","DIỆN TÍCH":"10.25","SỐ HỘ":"18","CHỨNG NHẬN ATTP":"Cam kết ATTP","layer_id":267,"fid":101,"label":"VT DỪA ẤP PHÚ TÂN Dừa ấp Phú Tân"}},{"type":"Feature","id":150,"geometry":{"type":"Polygon","coordinates":[[[105.82594,10.11676],[105.82493,10.12125],[105.82491,10.12115],[105.82206,10.12342],[105.82206,10.12342],[105.82019,10.11475],[105.82594,10.11676]]]},"properties":{"TÊN VÙNG TRỒNG":"Vùng trồng ấp Mỹ Thạnh B","ĐỊA CHỈ":"Ấp Mỹ Thạnh B, xã Mỹ Thuận, huyện Bình Tân, tỉnh Vĩnh Long","NGƯỜI ĐẠI DIỆN":"Lê Văn Tý","SỐ ĐIỆN THOẠI":"0766818526  ","LOẠI CÂY":"Lúa","DIỆN TÍCH":"11.42","SỐ HỘ":"17","CHỨNG NHẬN ATTP":"cam kết ATTP","layer_id":267,"fid":150,"label":"Vùng trồng ấp Mỹ Thạnh B"}},{"type":"Feature","id":149,"geometry":{"type":"Polygon","coordinates":[[[105.84179,10.11825],[105.84252,10.11831],[105.84256,10.11868],[105.84257,10.11883],[105.8424,10.11836],[105.84179,10.11825]]]},"properties":{"TÊN VÙNG TRỒNG":"Vùng trồng ấp Mỹ Thạnh A-01","ĐỊA CHỈ":"Ấp Mỹ Thạnh A, xã Mỹ Thuận, huyện Bình Tân, tỉnh Vĩnh Long.","NGƯỜI ĐẠI DIỆN":"Trương Thanh Huỳnh","SỐ ĐIỆN THOẠI":"0358829695","LOẠI CÂY":"Lúa","DIỆN TÍCH":"1.8","SỐ HỘ":"1","CHỨNG NHẬN ATTP":"Cam kết ATTP","layer_id":267,"fid":149,"label":"Vùng trồng ấp Mỹ Thạnh A-01"}},{"type":"Feature","id":106,"geometry":{"type":"Polygon","coordinates":[[[106.128207,10.082227],[106.117902,10.089188],[106.122151,10.086408],[106.124352,10.087882],[106.117149,10.086977],[106.128207,10.082227]]]},"properties":{"TÊN VÙNG TRỒNG":"VT DỪA ẤP NHƠN NGÃI XÃ HIẾU PHỤNG","ĐỊA CHỈ":"ấp Nhơn Ngãi, xã Hiếu Phụng, huyện Vũng Liêm, Vl","NGƯỜI ĐẠI DIỆN":"LÊ VĂN BẢY","SỐ ĐIỆN THOẠI":"0339626198","LOẠI CÂY":"Dừa","DIỆN TÍCH":"20.66","SỐ HỘ":"36","CHỨNG NHẬN ATTP":"Cam kết ATTP","layer_id":267,"fid":106,"label":"VT DỪA ẤP NHƠN NGÃI XÃ HIẾU PHỤNG"}},{"type":"Feature","id":107,"geometry":{"type":"Polygon","coordinates":[[[106.093227,10.0639],[106.112591,10.07941],[106.11544,10.072212],[106.094497,10.0696],[106.10965,10.073399],[106.093227,10.0639]]]},"properties":{"TÊN VÙNG TRỒNG":"VT DỪA ẤP QUANG HUY XÃ HIẾU PHỤNG","ĐỊA CHỈ":"ấp Quang Huy, xã Hiếu Phụng, huyện Vũng Liêm, VL","NGƯỜI ĐẠI DIỆN":"NGUYỄN NGỌC THÌNH","SỐ ĐIỆN THOẠI":"0984372414","LOẠI CÂY":"Dừa","DIỆN TÍCH":"11.8","SỐ HỘ":"19","CHỨNG NHẬN ATTP":"Cam kết ATTP","layer_id":267,"fid":107,"label":"VT DỪA ẤP QUANG HUY XÃ HIẾU PHỤNG"}},{"type":"Feature","id":105,"geometry":{"type":"Polygon","coordinates":[[[106.117345,10.067629],[106.106045,10.07827],[106.103516,10.089111],[106.122405,10.083901],[106.118872,10.070676],[106.117345,10.067629]]]},"properties":{"TÊN VÙNG TRỒNG":"VT DỪA ẤP TÂN HUY VÀ QUANG THẠNH","ĐỊA CHỈ":"ấp Tân Huy và Quang Thạnh, huyện Vũng Liêm, VL","NGƯỜI ĐẠI DIỆN":"NGUYỄN THÀNH LONG","SỐ ĐIỆN THOẠI":"0392062848","LOẠI CÂY":"Dừa","DIỆN TÍCH":"10.3","SỐ HỘ":"19","CHỨNG NHẬN ATTP":"Cam kết ATTP","layer_id":267,"fid":105,"label":"VT DỪA ẤP TÂN HUY VÀ QUANG THẠNH"}},{"type":"Feature","id":108,"geometry":{"type":"Polygon","coordinates":[[[106.131888,10.053191],[106.128513,10.045964],[106.13976,10.042739],[106.126174,10.028872],[106.131054,10.045511],[106.131888,10.053191]]]},"properties":{"TÊN VÙNG TRỒNG":"VT DỪA ẤP AN HẬU","ĐỊA CHỈ":"ấp An Hậu, xã Trung An, huyện Vũng Liêm, VL","NGƯỜI ĐẠI DIỆN":"DƯƠNG VĂN ẨN","SỐ ĐIỆN THOẠI":"0363935532","LOẠI CÂY":"Dừa","DIỆN TÍCH":"10.2","SỐ HỘ":"16","CHỨNG NHẬN ATTP":"Cam kết ATTP","layer_id":267,"fid":108,"label":"VT DỪA ẤP AN HẬU"}},{"type":"Feature","id":183,"geometry":{"type":"Polygon","coordinates":[[[106.059096,10.130094],[106.061216,10.129568],[106.062877,10.126376],[106.0596,10.125312],[106.062393,10.121903],[106.059096,10.130094]]]},"properties":{"TÊN VÙNG TRỒNG":"Tổ hợp tác sản xuất lúa ấp Cầu Ván","ĐỊA CHỈ":"Ấp Cầu Ván, xã Tân Long Hội, huyện Mang Thít, tỉnh Vĩnh Long.","NGƯỜI ĐẠI DIỆN":"Phước Văn Điểm","SỐ ĐIỆN THOẠI":"0988940213","LOẠI CÂY":"Lúa","DIỆN TÍCH":"11.45","SỐ HỘ":"19","CHỨNG NHẬN ATTP":"Cam kết ATTP","layer_id":267,"fid":183,"label":"Tổ hợp tác sản xuất lúa ấp Cầu Ván"}},{"type":"Feature","id":109,"geometry":{"type":"Polygon","coordinates":[[[106.117563,10.099276],[106.124967,10.096262],[106.12339,10.090507],[106.108294,10.089212],[106.118341,10.094166],[106.117563,10.099276]]]},"properties":{"TÊN VÙNG TRỒNG":"VT DỪA ẤP NHƠN NGHĨA XÃ HIẾU PHỤNG","ĐỊA CHỈ":"Ấp Nhơn Nghĩa, xã Hiếu Phụng, VL, VL","NGƯỜI ĐẠI DIỆN":"HUỲNH VĂN SƠN","SỐ ĐIỆN THOẠI":"0935158654","LOẠI CÂY":"Dừa","DIỆN TÍCH":"13.85","SỐ HỘ":"27","CHỨNG NHẬN ATTP":"Cam kết ATTP","layer_id":267,"fid":109,"label":"VT DỪA ẤP NHƠN NGHĨA XÃ HIẾU PHỤNG"}},{"type":"Feature","id":155,"geometry":{"type":"Polygon","coordinates":[[[105.948796,9.983457],[105.948866,9.982428],[105.949277,9.985134],[105.950072,9.984987],[105.956935,9.975033],[105.948796,9.983457]]]},"properties":{"TÊN VÙNG TRỒNG":"HTX NN TÂN MỸ","ĐỊA CHỈ":"ấp Sóc Ruộng, xã Tân Mỹ, huyện Trà Ôn","NGƯỜI ĐẠI DIỆN":"Thạch Đa Ra","SỐ ĐIỆN THOẠI":"0799586495","LOẠI CÂY":"Măng cụt","DIỆN TÍCH":"4.8","SỐ HỘ":"7","CHỨNG NHẬN ATTP":"CHỨNG NHẬN ATTP","layer_id":267,"fid":155,"label":"HTX NN TÂN MỸ"}},{"type":"Feature","id":110,"geometry":{"type":"Polygon","coordinates":[[[106.112,10.082333],[106.097404,10.094743],[106.113157,10.097426],[106.115855,10.093351],[106.115115,10.088712],[106.112,10.082333]]]},"properties":{"TÊN VÙNG TRỒNG":"VT DỪA ẤP HIẾU HIỆP VÀ TÂN KHÁNH","ĐỊA CHỈ":"Ấp Hiếu Hiệp, Tân Khánh, xã Hiếu Phụng, VL, VL","NGƯỜI ĐẠI DIỆN":"NGUYỄN VĂN TÒNG","SỐ ĐIỆN THOẠI":"0364297305","LOẠI CÂY":"Dừa","DIỆN TÍCH":"12.95","SỐ HỘ":"27","CHỨNG NHẬN ATTP":"Cam kết ATTP","layer_id":267,"fid":110,"label":"VT DỪA ẤP HIẾU HIỆP VÀ TÂN KHÁNH"}},{"type":"Feature","id":111,"geometry":{"type":"Polygon","coordinates":[[[106.086065,10.085516],[106.082071,10.07972],[106.079772,10.082357],[106.083173,10.088283],[106.082721,10.08435],[106.086065,10.085516]]]},"properties":{"TÊN VÙNG TRỒNG":"TỔ SX LÚA ẤP ĐẬP SẬY","ĐỊA CHỈ":"Ấp Đập Sậy, xã Tân An Luông , VL, VL","NGƯỜI ĐẠI DIỆN":"LÊ HOÀNG NAM","SỐ ĐIỆN THOẠI":"0389483279","LOẠI CÂY":"Lúa","DIỆN TÍCH":"22.7","SỐ HỘ":"28","CHỨNG NHẬN ATTP":"ATTP","layer_id":267,"fid":111,"label":"TỔ SX LÚA ẤP ĐẬP SẬY"}},{"type":"Feature","id":112,"geometry":{"type":"Polygon","coordinates":[[[106.252321,10.096451],[106.258784,10.091222],[106.26012,10.086515],[106.259321,10.078344],[106.266762,10.079847],[106.252321,10.096451]]]},"properties":{"TÊN VÙNG TRỒNG":"VT BƯỞI THANH PHONG THÔNG LƯU","ĐỊA CHỈ":"Ấp Thông lưu, Thanh Phong, xã Thanh Bình, VL, VL ","NGƯỜI ĐẠI DIỆN":"VÕ VĂN VIỄN","SỐ ĐIỆN THOẠI":"0339263229","LOẠI CÂY":"Bưởi","DIỆN TÍCH":"16.15","SỐ HỘ":"27","CHỨNG NHẬN ATTP":"ATTP","layer_id":267,"fid":112,"label":"VT BƯỞI THANH PHONG THÔNG LƯU"}},{"type":"Feature","id":114,"geometry":{"type":"Polygon","coordinates":[[[106.132321,10.089173],[106.138965,10.096062],[106.139892,10.091167],[106.134874,10.084303],[106.138065,10.092953],[106.132321,10.089173]]]},"properties":{"TÊN VÙNG TRỒNG":"TSX LÚA ẤP MƯỚP SÁT XÃ TRUNG HIỆP","ĐỊA CHỈ":"Ấp Mướp Sát, xã Trung Hiệp, huyện Vũng Liêm, tỉnh Vĩnh Long.","NGƯỜI ĐẠI DIỆN":"TRẦN VĂN HƯỞNG","SỐ ĐIỆN THOẠI":"0939817188   ","LOẠI CÂY":"Lúa","DIỆN TÍCH":"22.85","SỐ HỘ":"19","CHỨNG NHẬN ATTP":"Cam kết ATTP","layer_id":267,"fid":114,"label":"TSX LÚA ẤP MƯỚP SÁT XÃ TRUNG HIỆP"}},{"type":"Feature","id":184,"geometry":{"type":"Polygon","coordinates":[[[106.03062,10.21793],[106.02007,10.21515],[106.01944,10.22384],[106.02678,10.22253],[106.03062,10.21793]]]},"properties":{"TÊN VÙNG TRỒNG":"Hợp tác xã khoai mỡ Thành Vinh","ĐỊA CHỈ":"Ấp Long Hòa 1, Long Hòa 2, An Hưng, xã Long Mỹ, huyện Mang Thít, tỉnh Vĩnh Long","NGƯỜI ĐẠI DIỆN":"Nguyễn Thành Vinh","SỐ ĐIỆN THOẠI":"078781319","LOẠI CÂY":"Khoai mỡ","DIỆN TÍCH":"8.5","SỐ HỘ":"10","CHỨNG NHẬN ATTP":"ATTP","layer_id":267,"fid":184,"label":"Hợp tác xã khoai mỡ Thành Vinh"}},{"type":"Feature","id":113,"geometry":{"type":"Polygon","coordinates":[[[106.204764,10.120855],[106.205393,10.120096],[106.209326,10.123584],[106.205142,10.126616],[106.204007,10.12663],[106.204764,10.120855]]]},"properties":{"TÊN VÙNG TRỒNG":"TSX BƯỞI ẤP PHƯỚC BÌNH","ĐỊA CHỈ":"Ấp Phước Bình, xã Qưới An, VL, VL ","NGƯỜI ĐẠI DIỆN":"HỒ SƠN ĐÁ","SỐ ĐIỆN THOẠI":"0359426457","LOẠI CÂY":"Bưởi","DIỆN TÍCH":"15.15","SỐ HỘ":"18","CHỨNG NHẬN ATTP":"Cam kết ATTP","layer_id":267,"fid":113,"label":"TSX BƯỞI ẤP PHƯỚC BÌNH"}},{"type":"Feature","id":159,"geometry":{"type":"Polygon","coordinates":[[[105.948796,9.983457],[105.948866,9.982428],[105.949277,9.985134],[105.950072,9.984987],[105.956935,9.975033],[105.948796,9.983457]]]},"properties":{"TÊN VÙNG TRỒNG":"HTX NN TÂN MỸ","ĐỊA CHỈ":"ấp Sóc Ruộng, xã Tân Mỹ, huyện Trà Ôn","NGƯỜI ĐẠI DIỆN":"Thạch Đa Ra","SỐ ĐIỆN THOẠI":"0799586495","LOẠI CÂY":"Măng cụt","DIỆN TÍCH":"4.8","SỐ HỘ":"7","CHỨNG NHẬN ATTP":"CHỨNG NHẬN ATTP","layer_id":267,"fid":159,"label":"HTX NN TÂN MỸ"}},{"type":"Feature","id":162,"geometry":{"type":"Polygon","coordinates":[[[106.137181,10.121154],[106.152895,10.124273],[106.155088,10.121322],[106.149805,10.120456],[106.13793,10.119895],[106.137181,10.121154]]]},"properties":{"TÊN VÙNG TRỒNG":"TỔ SẢN XUẤT BƯỞI ẤP QUANG ĐỨC XÃ TRUNG CHÁNH","ĐỊA CHỈ":"Ấp Quang Đức, xã Trung Chánh, huyện Vũng Liêm","NGƯỜI ĐẠI DIỆN":"Lê vĩnh Tuấn","SỐ ĐIỆN THOẠI":"0988946139","LOẠI CÂY":"Bưởi","DIỆN TÍCH":"5","SỐ HỘ":"12","CHỨNG NHẬN ATTP":"Cam kết ATTP","layer_id":267,"fid":162,"label":"TỔ SẢN XUẤT BƯỞI ẤP QUANG ĐỨC XÃ TRUNG CHÁNH"}},{"type":"Feature","id":118,"geometry":{"type":"Polygon","coordinates":[[[106.077853,9.994918],[106.084744,9.994714],[106.0958,9.988681],[106.089754,9.982294],[106.086537,9.99015],[106.077853,9.994918]]]},"properties":{"TÊN VÙNG TRỒNG":"HTX CAM SÀNH VINFARM VŨNG LIÊM","ĐỊA CHỈ":"Ấp Hiếu Ngãi, xã Hiếu Thành, huyện Vũng Liêm, tỉnh Vĩnh Long.","NGƯỜI ĐẠI DIỆN":"NGÔ THANH TÙNG","SỐ ĐIỆN THOẠI":"0939117127  ","LOẠI CÂY":"Cam sành","DIỆN TÍCH":"18.7","SỐ HỘ":"10","CHỨNG NHẬN ATTP":"Cam kết ATTP","layer_id":267,"fid":118,"label":"HTX CAM SÀNH VINFARM VŨNG LIÊM"}},{"type":"Feature","id":119,"geometry":{"type":"Polygon","coordinates":[[[106.082572,10.000492],[106.086654,9.994444],[106.091264,9.992878],[106.095101,9.993817],[106.087025,9.997449],[106.082572,10.000492]]]},"properties":{"TÊN VÙNG TRỒNG":"VT CAM SÀNH HIẾU THẠNH","ĐỊA CHỈ":"Ấp Hiếu Thạnh, xã Hiếu Thành, huyện Vũng Liêm, tỉnh Vĩnh Long.","NGƯỜI ĐẠI DIỆN":"ĐÀO VĂN TẤN AN","SỐ ĐIỆN THOẠI":"0987458753     ","LOẠI CÂY":"Cam sành","DIỆN TÍCH":"9.2","SỐ HỘ":"10","CHỨNG NHẬN ATTP":"Cam kết ATTP","layer_id":267,"fid":119,"label":"VT CAM SÀNH HIẾU THẠNH"}},{"type":"Feature","id":116,"geometry":{"type":"Polygon","coordinates":[[[106.167755,10.114836],[106.167816,10.109089],[106.168015,10.108257],[106.172804,10.109147],[106.171312,10.115302],[106.167755,10.114836]]]},"properties":{"TÊN VÙNG TRỒNG":"TSX BƯỞI ẤP HÒA HIỆP","ĐỊA CHỈ":"Ấp Hòa Hiệp, xã Trung Thành Tây, huyện Vũng Liêm, tỉnh Vĩnh Long.","NGƯỜI ĐẠI DIỆN":"BÙI VĂN TRỌNG","SỐ ĐIỆN THOẠI":"0939459988 ","LOẠI CÂY":"Bưởi","DIỆN TÍCH":"6.9","SỐ HỘ":"16","CHỨNG NHẬN ATTP":"Cam kết ATTP","layer_id":267,"fid":116,"label":"TSX BƯỞI ẤP HÒA HIỆP"}},{"type":"Feature","id":115,"geometry":{"type":"Polygon","coordinates":[[[106.124463,10.160867],[106.121088,10.17325],[106.117113,10.17716],[106.111202,10.172369],[106.103884,10.163349],[106.124463,10.160867]]]},"properties":{"TÊN VÙNG TRỒNG":"TSX BƯỞI CÁI TRÔM","ĐỊA CHỈ":"Ấp Cái Trôm, xã Tân Quới Trung, huyện Vũng Liêm, tỉnh Vĩnh Long.","NGƯỜI ĐẠI DIỆN":"NGUYỄN THIỆN DANH","SỐ ĐIỆN THOẠI":"0939798689    ","LOẠI CÂY":"Bưởi","DIỆN TÍCH":"11.5","SỐ HỘ":"19","CHỨNG NHẬN ATTP":"Cam kết ATTP","layer_id":267,"fid":115,"label":"TSX BƯỞI CÁI TRÔM"}},{"type":"Feature","id":117,"geometry":{"type":"Polygon","coordinates":[[[106.07853,10.001706],[106.077006,9.992742],[106.091758,9.97671],[106.09582,9.988661],[106.085931,9.988894],[106.07853,10.001706]]]},"properties":{"TÊN VÙNG TRỒNG":"VT CAM SÀNH HIẾU NGÃI","ĐỊA CHỈ":"Ấp Hiếu Ngãi, xã Hiếu Thành, huyện Vũng Liêm, tỉnh Vĩnh Long.","NGƯỜI ĐẠI DIỆN":"NGUYỄN VĂN MY SEL","SỐ ĐIỆN THOẠI":"0707252542","LOẠI CÂY":"Cam sành","DIỆN TÍCH":"18.85","SỐ HỘ":"17","CHỨNG NHẬN ATTP":"Cam kết ATTP","layer_id":267,"fid":117,"label":"VT CAM SÀNH HIẾU NGÃI"}},{"type":"Feature","id":163,"geometry":{"type":"Polygon","coordinates":[[[105.82546,10.133391],[105.82846,10.135086],[105.82615,10.13953],[105.83024,10.140368],[105.82882,10.138045],[105.82546,10.133391]]]},"properties":{"TÊN VÙNG TRỒNG":"VÙNG TRỒNG LÚA ẤP HÒA THỚI ","ĐỊA CHỈ":"ấp Hòa Thới, xã Nguyễn Văn Thảnh, Bình Tân","NGƯỜI ĐẠI DIỆN":"Nguyễn Văn Danh ","SỐ ĐIỆN THOẠI":"0939936834","LOẠI CÂY":"lúa","DIỆN TÍCH":"19","SỐ HỘ":"27","CHỨNG NHẬN ATTP":"Cam kết APTP ","layer_id":267,"fid":163,"label":"VÙNG TRỒNG LÚA ẤP HÒA THỚI "}},{"type":"Feature","id":122,"geometry":{"type":"Polygon","coordinates":[[[106.173348,10.079874],[106.170528,10.07883],[106.166373,10.074326],[106.17151,10.071169],[106.17,10.075154],[106.173348,10.079874]]]},"properties":{"TÊN VÙNG TRỒNG":"VT LÚA ẤP AN ĐIỀN 1","ĐỊA CHỈ":"Ấp An Điền 1, xã Trung Hiếu, huyện Vũng Liêm, tỉnh Vĩnh Long.","NGƯỜI ĐẠI DIỆN":"LÊ VĂN HUỆ","SỐ ĐIỆN THOẠI":"0786929434","LOẠI CÂY":"Lúa","DIỆN TÍCH":"17.31","SỐ HỘ":"22","CHỨNG NHẬN ATTP":"Cam kết ATTP","layer_id":267,"fid":122,"label":"VT LÚA ẤP AN ĐIỀN 1"}},{"type":"Feature","id":166,"geometry":{"type":"Polygon","coordinates":[[[105.804785,10.091156],[105.8156,10.0802],[105.834411,10.074403],[105.8497,10.1047],[105.844205,10.087583],[105.804785,10.091156]]]},"properties":{"TÊN VÙNG TRỒNG":"TỔ HỢP TÁC SẦU RIÊNG XÃ THUẬN AN ","ĐỊA CHỈ":"Ấp Thuận Phú A, Thuận Phú B, Thuận Tiến A, Thuận Tiến B, Thuận Tân A, Thuận Tân B, Thuận Nghĩa, Thuận Thành, xã Thuận An, thị xã Bình Minh, tỉnh Vĩnh Long","NGƯỜI ĐẠI DIỆN":"Nguyễn Tấn Phú","SỐ ĐIỆN THOẠI":"\"0362409319","LOẠI CÂY":"Sầu riêng","DIỆN TÍCH":"11.05","SỐ HỘ":"19","CHỨNG NHẬN ATTP":"Cam kết ATTP","layer_id":267,"fid":166,"label":"TỔ HỢP TÁC SẦU RIÊNG XÃ THUẬN AN "}},{"type":"Feature","id":121,"geometry":{"type":"Polygon","coordinates":[[[106.140267,10.092386],[106.143068,10.093719],[106.146152,10.091893],[106.14448,10.086641],[106.139164,10.084288],[106.140267,10.092386]]]},"properties":{"TÊN VÙNG TRỒNG":"TSX LÚA ẤP BÌNH PHỤNG XÃ TRUNG HIỆP","ĐỊA CHỈ":"Ấp Bình Phụng, xã Trung Hiệp, huyện Vũng Liêm, tỉnh Vĩnh Long.","NGƯỜI ĐẠI DIỆN":"HỒ VĂN SẴNG","SỐ ĐIỆN THOẠI":"0376323800 ","LOẠI CÂY":"Lúa","DIỆN TÍCH":"12.6","SỐ HỘ":"20","CHỨNG NHẬN ATTP":"Cam kết ATTP","layer_id":267,"fid":121,"label":"TSX LÚA ẤP BÌNH PHỤNG XÃ TRUNG HIỆP"}},{"type":"Feature","id":120,"geometry":{"type":"Polygon","coordinates":[[[106.090655,9.971017],[106.083199,9.964535],[106.097762,9.968201],[106.103961,9.971274],[106.091966,9.969428],[106.090655,9.971017]]]},"properties":{"TÊN VÙNG TRỒNG":"TSX CAM SÀNH ẤP HIẾU VĂN","ĐỊA CHỈ":"Ấp Hiếu Văn, xã Hiếu Nghĩa, huyện Vũng Liêm, tỉnh Vĩnh Long.","NGƯỜI ĐẠI DIỆN":"NGUYỄN THÀNH TUẤN","SỐ ĐIỆN THOẠI":"0703115205","LOẠI CÂY":"Cam sành","DIỆN TÍCH":"14.9","SỐ HỘ":"20","CHỨNG NHẬN ATTP":"Cam kết ATTP","layer_id":267,"fid":120,"label":"TSX CAM SÀNH ẤP HIẾU VĂN"}},{"type":"Feature","id":164,"geometry":{"type":"Polygon","coordinates":[[[105.83669,10.133361],[105.84077,10.132929],[105.83811,10.129253],[105.83774,10.131682],[105.83669,10.133361]]]},"properties":{"TÊN VÙNG TRỒNG":"HỢP TÁC XÃ SẢN XUẤT DỊCH VỤ NÔNG NGHIỆP THANH BÌNH","ĐỊA CHỈ":"ấp Hòa Thạnh, xã Nguyễn Văn Thảnh, Bình Tân ","NGƯỜI ĐẠI DIỆN":"Nguyễn Văn Di","SỐ ĐIỆN THOẠI":"0907299739","LOẠI CÂY":"lúa","DIỆN TÍCH":"23.3","SỐ HỘ":"16","CHỨNG NHẬN ATTP":"Cam kết ATTP","layer_id":267,"fid":164,"label":"HỢP TÁC XÃ SẢN XUẤT DỊCH VỤ NÔNG NGHIỆP THANH BÌNH"}}]}
