{"type":"FeatureCollection","name":"Mã số vùng trồng xuất khẩu","metadata":{"source":"https://hatang.vinhlong.gov.vn/","downloaded_at":"2026-07-20T01:13:58+00:00","layer_id":268,"layer_name":"Mã số vùng trồng xuất khẩu","catalog_endpoints":["/map/publicLayers2?inputs=bvtv"],"requested_bbox":[104.0,8.0,108.0,12.0],"tile_size":0.0,"tile_count":1,"tile_errors":[],"feature_count":122,"coordinate_order":"x,y (thường là longitude,latitude theo cấu hình EPSG:4326 của WebGIS)"},"features":[{"type":"Feature","id":275,"geometry":{"type":"Polygon","coordinates":[[[105.8497357,10.0099045],[105.8243459,10.0308474],[105.8258992,10.0261367],[105.8211287,10.02517],[105.8345433,10.0246117],[105.8497357,10.0099045]]]},"properties":{"TÊN VÙNG TRỒNG":"Hợp tác xã trái cây sinh học OCOP","ĐỊA CHỈ":"Ấp Mỹ Hưng 2, Mỹ Thới 1, xã Mỹ Hòa, thị xã Bình Minh, tỉnh Vĩnh Long","NGƯỜI ĐẠI DIỆN ":"Nguyễn Văn Đửng","SỐ ĐIỆN THOẠI":"0763278678","TÊN HÀNG HÓA":"Bưởi ","layer_id":268,"fid":275,"label":"Hợp tác xã trái cây sinh học OCOP"}},{"type":"Feature","id":277,"geometry":{"type":"Polygon","coordinates":[[[105.852047,10.002791],[105.840702,10.006085],[105.84147,10.005971],[105.853939,9.997179],[105.859036,9.999296],[105.852047,10.002791]]]},"properties":{"TÊN VÙNG TRỒNG":"Công ty TNHH MTV Hương Bưởi Mỹ Hòa","ĐỊA CHỈ":"ấp Mỹ Phước 2, ấp Mỹ An, xã Mỹ Hòa, thị xã Bình Minh, Vĩnh Long ","NGƯỜI ĐẠI DIỆN ":"Võ Thị Thùy Trang","SỐ ĐIỆN THOẠI":"0945307529","TÊN HÀNG HÓA":"Bưởi ","layer_id":268,"fid":277,"label":"Công ty TNHH MTV Hương Bưởi Mỹ Hòa"}},{"type":"Feature","id":278,"geometry":{"type":"Polygon","coordinates":[[[105.844516,10.004176],[105.843972,10.011726],[105.846457,10.002411],[105.869419,9.993911],[105.830895,10.016805],[105.844516,10.004176]]]},"properties":{"TÊN VÙNG TRỒNG":"Công ty TNHH MTV Hương Bưởi Mỹ Hòa","ĐỊA CHỈ":"ấp Mỹ Phước 1, ấp Mỹ Thới 2, ấp Mỹ An, xã Mỹ Hòa, thị xã Bình Minh, Vĩnh Long ","NGƯỜI ĐẠI DIỆN ":"Võ Thị Thùy Trang","SỐ ĐIỆN THOẠI":"0945307529","TÊN HÀNG HÓA":"Bưởi ","layer_id":268,"fid":278,"label":"Công ty TNHH MTV Hương Bưởi Mỹ Hòa"}},{"type":"Feature","id":274,"geometry":{"type":"Polygon","coordinates":[[[105.8497357,10.0099045],[105.8243459,10.0308474],[105.8258992,10.0261367],[105.8211287,10.02517],[105.8345433,10.0246117],[105.8497357,10.0099045]]]},"properties":{"TÊN VÙNG TRỒNG":"Hợp tác xã trái cây sinh học OCOP","ĐỊA CHỈ":"Ấp Mỹ Hưng 2, Mỹ Thới 1, xã Mỹ Hòa, thị xã Bình Minh, tỉnh Vĩnh Long","NGƯỜI ĐẠI DIỆN ":"Nguyễn Văn Đửng","SỐ ĐIỆN THOẠI":"0763278678","TÊN HÀNG HÓA":"Bưởi ","layer_id":268,"fid":274,"label":"Hợp tác xã trái cây sinh học OCOP"}},{"type":"Feature","id":279,"geometry":{"type":"Polygon","coordinates":[[[105.8584789,10.0007811],[105.8539247,10.0010935],[105.8487809,10.000485],[105.8541396,10.0010005],[105.8585843,9.9995429],[105.8584789,10.0007811]]]},"properties":{"TÊN VÙNG TRỒNG":"Công ty TNHH MTV Hương Bưởi Mỹ Hòa","ĐỊA CHỈ":"ấp Mỹ Phước 1, ấp Mỹ Thới 2, ấp Mỹ An, xã Mỹ Hòa, thị xã Bình Minh, Vĩnh Long ","NGƯỜI ĐẠI DIỆN ":"Võ Thị Thùy Trang","SỐ ĐIỆN THOẠI":"0945307529","TÊN HÀNG HÓA":"Bưởi ","layer_id":268,"fid":279,"label":"Công ty TNHH MTV Hương Bưởi Mỹ Hòa"}},{"type":"Feature","id":276,"geometry":{"type":"Polygon","coordinates":[[[105.8497357,10.0099045],[105.8243459,10.0308474],[105.8258992,10.0261367],[105.8211287,10.02517],[105.8345433,10.0246117],[105.8497357,10.0099045]]]},"properties":{"TÊN VÙNG TRỒNG":"Hợp tác xã trái cây sinh học OCOP","ĐỊA CHỈ":"Ấp Mỹ Hưng 2, Mỹ Thới 1, xã Mỹ Hòa, thị xã Bình Minh, tỉnh Vĩnh Long","NGƯỜI ĐẠI DIỆN ":"Nguyễn Văn Đửng","SỐ ĐIỆN THOẠI":"0763278678","TÊN HÀNG HÓA":"Bưởi ","layer_id":268,"fid":276,"label":"Hợp tác xã trái cây sinh học OCOP"}},{"type":"Feature","id":280,"geometry":{"type":"Polygon","coordinates":[[[105.824723,10.057594],[105.82203,10.060982],[105.815584,10.044666],[105.820684,10.04401],[105.816598,10.055574],[105.824723,10.057594]]]},"properties":{"TÊN VÙNG TRỒNG":"Chi nhánh Công ty CP VINAGREENCO","ĐỊA CHỈ":"ấp Mỹ Khánh 2, Mỹ Hưng 1, xã Mỹ Hòa, thị xã Bình Minh, Vĩnh Long ","NGƯỜI ĐẠI DIỆN ":"Lê Thanh Tú","SỐ ĐIỆN THOẠI":"0911199990","TÊN HÀNG HÓA":"Bưởi ","layer_id":268,"fid":280,"label":"Chi nhánh Công ty CP VINAGREENCO"}},{"type":"Feature","id":281,"geometry":{"type":"Polygon","coordinates":[[[105.843404,10.003836],[105.839993,10.021912],[105.85105,9.998544],[105.850318,10.009938],[105.862688,10.003292],[105.843404,10.003836]]]},"properties":{"TÊN VÙNG TRỒNG":"Chi nhánh Công ty CP VINAGREENCO","ĐỊA CHỈ":"ấp Mỹ An, Mỹ Thới 1, xã Mỹ Hòa, thị xã Bình Minh, vĩnh Long ","NGƯỜI ĐẠI DIỆN ":"Lê Thanh Tú","SỐ ĐIỆN THOẠI":"0911199990","TÊN HÀNG HÓA":"Bưởi ","layer_id":268,"fid":281,"label":"Chi nhánh Công ty CP VINAGREENCO"}},{"type":"Feature","id":393,"geometry":{"type":"Polygon","coordinates":[[[106.089123,10.092995],[106.088627,10.088653],[106.08355,10.078299],[106.082457,10.07995],[106.084879,10.083423],[106.089123,10.092995]]]},"properties":{"TÊN VÙNG TRỒNG":"Vùng trồng dừa ấp Đập Sậy 1","ĐỊA CHỈ":"Ấp Đập Sậy, xã Tân An Luông, huyện Vũng Liêm, tỉnh Vĩnh Long","NGƯỜI ĐẠI DIỆN ":"Lê Hoàng Nam","SỐ ĐIỆN THOẠI":"0389483279","TÊN HÀNG HÓA":"Dừa","layer_id":268,"fid":393,"label":"Vùng trồng dừa ấp Đập Sậy 1"}},{"type":"Feature","id":282,"geometry":{"type":"Polygon","coordinates":[[[105.843588,10.012472],[105.838174,10.003843],[105.82276,10.022518],[105.827465,10.03152],[105.835248,10.022955],[105.843588,10.012472]]]},"properties":{"TÊN VÙNG TRỒNG":"Chi nhánh Công ty CP VINAGREENCO","ĐỊA CHỈ":"ấp Mỹ Hưng 2, ấp Mỹ An, thị xã Bình Minh, Vĩnh Long  ","NGƯỜI ĐẠI DIỆN ":"Lê Thanh Tú","SỐ ĐIỆN THOẠI":"0911199990","TÊN HÀNG HÓA":"Bưởi ","layer_id":268,"fid":282,"label":"Chi nhánh Công ty CP VINAGREENCO"}},{"type":"Feature","id":394,"geometry":{"type":"Polygon","coordinates":[[[105.97833,10.091141],[105.9742,10.092678],[105.97321,10.089681],[105.975825,10.08805],[105.975374,10.090535],[105.97833,10.091141]]]},"properties":{"TÊN VÙNG TRỒNG":"Hợp tác xã Nông nghiệp Tân Tiến","ĐỊA CHỈ":"ấp 9, xã Mỹ Lộc, huyện Tam Bình, Vĩnh Long ","NGƯỜI ĐẠI DIỆN ":"Nguyễn Hữu Phước","SỐ ĐIỆN THOẠI":"0975377191","TÊN HÀNG HÓA":"Lúa","layer_id":268,"fid":394,"label":"Hợp tác xã Nông nghiệp Tân Tiến"}},{"type":"Feature","id":283,"geometry":{"type":"Polygon","coordinates":[[[105.852556,10.008528],[105.852722,10.008611],[105.830897,10.010383],[105.828255,10.025141],[105.846727,10.008508],[105.852556,10.008528]]]},"properties":{"TÊN VÙNG TRỒNG":"Công ty cổ phần rau quả Bình Minh","ĐỊA CHỈ":"ấp Mỹ Thới 1, ấp Mỹ An, Mỹ Hưng 2, xã Mỹ Hòa ","NGƯỜI ĐẠI DIỆN ":"Nguyễn Văn Đức","SỐ ĐIỆN THOẠI":"0908673105","TÊN HÀNG HÓA":"Bưởi ","layer_id":268,"fid":283,"label":"Công ty cổ phần rau quả Bình Minh"}},{"type":"Feature","id":395,"geometry":{"type":"Polygon","coordinates":[[[106.213864,10.126661],[106.214502,10.128924],[106.214328,10.129614],[106.215126,10.130594],[106.21725,10.129183],[106.213864,10.126661]]]},"properties":{"TÊN VÙNG TRỒNG":"Tổ sản xuất Sầu Riêng ấp Thanh Lương, xã Thanh Bình","ĐỊA CHỈ":"ấp Thanh Lương, Thanh Bình, Huyện Vũng Liêm, Tỉnh Vĩnh Long","NGƯỜI ĐẠI DIỆN ":"Dương Văn Săng","SỐ ĐIỆN THOẠI":"0939618408","TÊN HÀNG HÓA":"Sầu riêng","layer_id":268,"fid":395,"label":"Tổ sản xuất Sầu Riêng ấp Thanh Lương, xã Thanh Bình"}},{"type":"Feature","id":284,"geometry":{"type":"Polygon","coordinates":[[[105.852556,10.008528],[105.852722,10.008611],[105.830897,10.010383],[105.828255,10.025141],[105.846727,10.008508],[105.852556,10.008528]]]},"properties":{"TÊN VÙNG TRỒNG":"Công ty cổ phần rau quả Bình Minh","ĐỊA CHỈ":"ấp Mỹ Phước 1, ấp Đồng Hưng 2, Mỹ Hưng 2, xã Mỹ Hòa ","NGƯỜI ĐẠI DIỆN ":"Nguyễn Văn Đức","SỐ ĐIỆN THOẠI":"02703765558","TÊN HÀNG HÓA":"Bưởi ","layer_id":268,"fid":284,"label":"Công ty cổ phần rau quả Bình Minh"}},{"type":"Feature","id":285,"geometry":{"type":"Polygon","coordinates":[[[106.034492,10.085263],[106.042717,10.083281],[106.036705,10.078977],[106.044412,10.088331],[106.041031,10.089512],[106.039222,10.083864],[106.034492,10.085263]]]},"properties":{"TÊN VÙNG TRỒNG":"Vùng trồng bưởi xã Hòa Hiệp","ĐỊA CHỈ":"Ấp 7, xã Hòa Hiệp, Tam Bình","NGƯỜI ĐẠI DIỆN ":"Nguyễn Văn Hòa","SỐ ĐIỆN THOẠI":"0859599996","TÊN HÀNG HÓA":"Bưởi ","layer_id":268,"fid":285,"label":"Vùng trồng bưởi xã Hòa Hiệp"}},{"type":"Feature","id":396,"geometry":{"type":"Polygon","coordinates":[[[105.999305,10.290018],[106.001279,10.2836191],[106.026172,10.278283],[106.0205354,10.2908308],[106.018662,10.281841],[105.999305,10.290018]]]},"properties":{"TÊN VÙNG TRỒNG":"HTX Chôm chôm Bình Hòa Phước","ĐỊA CHỈ":"Ấp Bình Hòa 1, Bình Hòa 2, Phú  An 1, Phú  An 2, Xã Bình Hòa Phước, Huyện Long Hồ, Tỉnh Vĩnh Long","NGƯỜI ĐẠI DIỆN ":"Nguyễn Ngọc Nhân","SỐ ĐIỆN THOẠI":"'0902937051","TÊN HÀNG HÓA":"Chôm chôm","layer_id":268,"fid":396,"label":"HTX Chôm chôm Bình Hòa Phước"}},{"type":"Feature","id":286,"geometry":{"type":"Polygon","coordinates":[[[105.887331,10.001539],[105.872099,10.004698],[105.877762,10.016731],[105.874265,10.006682],[105.876392,10.001865],[105.887331,10.001539]]]},"properties":{"TÊN VÙNG TRỒNG":"Công ty TNHH MTV The Fruit Republic Cần Thơ","ĐỊA CHỈ":"Ấp Đông Hòa 2, Đông Hòa 1, Hóa Thành 2, Hóa Thành, Xã Đông Thành, thị xã Bình Minh, tỉnh Vĩnh Long","NGƯỜI ĐẠI DIỆN ":"Marteen Siebe Van Wijk","SỐ ĐIỆN THOẠI":"0912346134","TÊN HÀNG HÓA":"Bưởi ","layer_id":268,"fid":286,"label":"Công ty TNHH MTV The Fruit Republic Cần Thơ"}},{"type":"Feature","id":397,"geometry":{"type":"Polygon","coordinates":[[[105.999305,10.290018],[106.001279,10.2836191],[106.026172,10.278283],[106.0205354,10.2908308],[106.018662,10.281841],[105.999305,10.290018]]]},"properties":{"TÊN VÙNG TRỒNG":"HTX Chôm chôm Bình Hòa Phước","ĐỊA CHỈ":"Ấp Bình Hòa 1, Bình Hòa 2, Phú  An 1, Phú  An 2, Xã Bình Hòa Phước, Huyện Long Hồ, Tỉnh Vĩnh Long","NGƯỜI ĐẠI DIỆN ":"Nguyễn Ngọc Nhân","SỐ ĐIỆN THOẠI":"'0902937051","TÊN HÀNG HÓA":"Chôm chôm","layer_id":268,"fid":397,"label":"HTX Chôm chôm Bình Hòa Phước"}},{"type":"Feature","id":287,"geometry":{"type":"Polygon","coordinates":[[[105.887331,10.001539],[105.872099,10.004698],[105.877762,10.016731],[105.874265,10.006682],[105.876392,10.001865],[105.887331,10.001539]]]},"properties":{"TÊN VÙNG TRỒNG":"Công ty TNHH MTV The Fruit Republic Cần Thơ","ĐỊA CHỈ":"Ấp Đông Hòa 2, Đông Hòa 1, Hóa Thành 2, Hóa Thành, Xã Đông Thành, thị xã Bình Minh, tỉnh Vĩnh Long","NGƯỜI ĐẠI DIỆN ":"Marteen Siebe Van Wijk ","SỐ ĐIỆN THOẠI":"0912346134","TÊN HÀNG HÓA":"Bưởi ","layer_id":268,"fid":287,"label":"Công ty TNHH MTV The Fruit Republic Cần Thơ"}},{"type":"Feature","id":288,"geometry":{"type":"Polygon","coordinates":[[[105.887331,10.001539],[105.872099,10.004698],[105.877762,10.016731],[105.874265,10.006682],[105.876392,10.001865],[105.887331,10.001539]]]},"properties":{"TÊN VÙNG TRỒNG":"Công ty TNHH MTV The Fruit Republic Cần Thơ","ĐỊA CHỈ":"Ấp Đông Hòa 2, Đông Hòa 1, Hóa Thành 2, Hóa Thành, Xã Đông Thành, thị xã Bình Minh, tỉnh Vĩnh Long","NGƯỜI ĐẠI DIỆN ":"Marteen Siebe Van Wijk ","SỐ ĐIỆN THOẠI":"0912346134","TÊN HÀNG HÓA":"Bưởi ","layer_id":268,"fid":288,"label":"Công ty TNHH MTV The Fruit Republic Cần Thơ"}},{"type":"Feature","id":398,"geometry":{"type":"Polygon","coordinates":[[[106.001721,10.287972],[106.013662,10.276697],[106.026996,10.281164],[106.027412,10.2926461],[106.020644,10.287236],[106.001721,10.287972]]]},"properties":{"TÊN VÙNG TRỒNG":"HTX Chôm chôm Bình Hòa Phước","ĐỊA CHỈ":"Ấp Bình Hòa 1, Bình Hòa 2, Phú  An 1, Phú  An 2, Xã Bình Hòa Phước, Huyện Long Hồ, Tỉnh Vĩnh Long","NGƯỜI ĐẠI DIỆN ":"Nguyễn Ngọc Nhân","SỐ ĐIỆN THOẠI":"'0902937051","TÊN HÀNG HÓA":"Chôm chôm","layer_id":268,"fid":398,"label":"HTX Chôm chôm Bình Hòa Phước"}},{"type":"Feature","id":289,"geometry":{"type":"Polygon","coordinates":[[[105.887331,10.001539],[105.872099,10.004698],[105.877762,10.016731],[105.874265,10.006682],[105.876392,10.001865],[105.887331,10.001539]]]},"properties":{"TÊN VÙNG TRỒNG":"Công ty TNHH MTV The Fruit Republic Cần Thơ","ĐỊA CHỈ":"Ấp Đông Hòa 2, Đông Hòa 1, Hóa Thành 2, Hóa Thành, Xã Đông Thành, thị xã Bình Minh, tỉnh Vĩnh Long","NGƯỜI ĐẠI DIỆN ":"Marteen Siebe Van Wijk ","SỐ ĐIỆN THOẠI":"0912346134","TÊN HÀNG HÓA":"Bưởi ","layer_id":268,"fid":289,"label":"Công ty TNHH MTV The Fruit Republic Cần Thơ"}},{"type":"Feature","id":400,"geometry":{"type":"Polygon","coordinates":[[[106.029444,10.294159],[106.00503,10.271149],[106.024223,10.267944],[106.004524,10.272123],[106.026097,10.27999],[106.029444,10.294159]]]},"properties":{"TÊN VÙNG TRỒNG":"Tổ hợp tác sầu riêng  Bình Hòa Phước ","ĐỊA CHỈ":"Ấp Bình Hòa 2, Xã Bình Hòa Phước, huyện Long Hồ, tỉnh Vĩnh Long","NGƯỜI ĐẠI DIỆN ":"Trần Văn Thơi","SỐ ĐIỆN THOẠI":"0939702233","TÊN HÀNG HÓA":"Sầu riêng","layer_id":268,"fid":400,"label":"Tổ hợp tác sầu riêng  Bình Hòa Phước "}},{"type":"Feature","id":290,"geometry":{"type":"Polygon","coordinates":[[[105.887331,10.001539],[105.872099,10.004698],[105.877762,10.016731],[105.874265,10.006682],[105.876392,10.001865],[105.887331,10.001539]]]},"properties":{"TÊN VÙNG TRỒNG":"Công ty TNHH MTV The Fruit Republic Cần Thơ","ĐỊA CHỈ":"Ấp Đông Hòa 2, Đông Hòa 1, Hóa Thành 2, Hóa Thành, Xã Đông Thành, thị xã Bình Minh, tỉnh Vĩnh Long","NGƯỜI ĐẠI DIỆN ":"Marteen Siebe Van Wijk ","SỐ ĐIỆN THOẠI":"0912346134","TÊN HÀNG HÓA":"Bưởi ","layer_id":268,"fid":290,"label":"Công ty TNHH MTV The Fruit Republic Cần Thơ"}},{"type":"Feature","id":291,"geometry":{"type":"Polygon","coordinates":[[[105.82276,10.025222],[105.819819,10.059318],[105.849834,10.008653],[105.842558,10.002107],[105.832054,10.023404],[105.82276,10.025222]]]},"properties":{"TÊN VÙNG TRỒNG":"Công ty TNHH MTV The Fruit Republic Cần Thơ","ĐỊA CHỈ":"Ấp Mỹ Hưng 2, Mỹ Phước, Mỹ Phước 1, Mỹ Phước 2, Mỹ An, Mỹ Lợi, Mỹ Thới 1, Xã Mỹ Hòa, thị xã Bình Minh, tỉnh Vĩnh Long","NGƯỜI ĐẠI DIỆN ":"Marteen Siebe Van Wijk ","SỐ ĐIỆN THOẠI":"0912346134","TÊN HÀNG HÓA":"Bưởi ","layer_id":268,"fid":291,"label":"Công ty TNHH MTV The Fruit Republic Cần Thơ"}},{"type":"Feature","id":292,"geometry":{"type":"Polygon","coordinates":[[[105.82276,10.025222],[105.819819,10.059318],[105.849834,10.008653],[105.842558,10.002107],[105.832054,10.023404],[105.82276,10.025222]]]},"properties":{"TÊN VÙNG TRỒNG":"Công ty TNHH MTV The Fruit Republic Cần Thơ","ĐỊA CHỈ":"Ấp Mỹ Hưng 2, Mỹ Phước, Mỹ Phước 1, Mỹ Phước 2, Mỹ An, Mỹ Lợi, Mỹ Thới 1, Xã Mỹ Hòa, thị xã Bình Minh, tỉnh Vĩnh Long","NGƯỜI ĐẠI DIỆN ":"Marteen Siebe Van Wijk ","SỐ ĐIỆN THOẠI":"0912346134","TÊN HÀNG HÓA":"Bưởi ","layer_id":268,"fid":292,"label":"Công ty TNHH MTV The Fruit Republic Cần Thơ"}},{"type":"Feature","id":293,"geometry":{"type":"Polygon","coordinates":[[[105.82276,10.025222],[105.819819,10.059318],[105.849834,10.008653],[105.842558,10.002107],[105.832054,10.023404],[105.82276,10.025222]]]},"properties":{"TÊN VÙNG TRỒNG":"Công ty TNHH MTV The Fruit Republic Cần Thơ","ĐỊA CHỈ":"Ấp Mỹ Hưng 2, Mỹ Phước, Mỹ Phước 1, Mỹ Phước 2, Mỹ An, Mỹ Lợi, Mỹ Thới 1, Xã Mỹ Hòa, thị xã Bình Minh, tỉnh Vĩnh Long","NGƯỜI ĐẠI DIỆN ":"Marteen Siebe Van Wijk ","SỐ ĐIỆN THOẠI":"0912346134","TÊN HÀNG HÓA":"Bưởi ","layer_id":268,"fid":293,"label":"Công ty TNHH MTV The Fruit Republic Cần Thơ"}},{"type":"Feature","id":294,"geometry":{"type":"Polygon","coordinates":[[[105.82276,10.025222],[105.819819,10.059318],[105.849834,10.008653],[105.842558,10.002107],[105.832054,10.023404],[105.82276,10.025222]]]},"properties":{"TÊN VÙNG TRỒNG":"Công ty TNHH MTV The Fruit Republic Cần Thơ","ĐỊA CHỈ":"Ấp Mỹ Hưng 2, Mỹ Phước, Mỹ Phước 1, Mỹ Phước 2, Mỹ An, Mỹ Lợi, Mỹ Thới 1, Xã Mỹ Hòa, thị xã Bình Minh, tỉnh Vĩnh Long","NGƯỜI ĐẠI DIỆN ":"Marteen Siebe Van Wijk ","SỐ ĐIỆN THOẠI":"0912346134","TÊN HÀNG HÓA":"Bưởi ","layer_id":268,"fid":294,"label":"Công ty TNHH MTV The Fruit Republic Cần Thơ"}},{"type":"Feature","id":295,"geometry":{"type":"Polygon","coordinates":[[[105.82276,10.025222],[105.819819,10.059318],[105.849834,10.008653],[105.842558,10.002107],[105.832054,10.023404],[105.82276,10.025222]]]},"properties":{"TÊN VÙNG TRỒNG":"Công ty TNHH MTV The Fruit Republic Cần Thơ","ĐỊA CHỈ":"Ấp Mỹ Hưng 2, Mỹ Phước, Mỹ Phước 1, Mỹ Phước 2, Mỹ An, Mỹ Lợi, Mỹ Thới 1, Xã Mỹ Hòa, thị xã Bình Minh, tỉnh Vĩnh Long","NGƯỜI ĐẠI DIỆN ":"Marteen Siebe Van Wijk ","SỐ ĐIỆN THOẠI":"0912346134","TÊN HÀNG HÓA":"Bưởi ","layer_id":268,"fid":295,"label":"Công ty TNHH MTV The Fruit Republic Cần Thơ"}},{"type":"Feature","id":296,"geometry":{"type":"Polygon","coordinates":[[[105.992247,10.145091],[105.993561,10.1431],[105.991642,10.1430004],[105.990054,10.14307],[105.991176,10.140979],[105.992247,10.145091]]]},"properties":{"TÊN VÙNG TRỒNG":"Tổ hợp tác số 5 ấp 9 xã Tân Lộc","ĐỊA CHỈ":"ấp 9, xã Tân Lộc, huyện Tam Bình, Vĩnh long ","NGƯỜI ĐẠI DIỆN ":"Nguyễn Văn Tấn","SỐ ĐIỆN THOẠI":"0358709474","TÊN HÀNG HÓA":"Lúa","layer_id":268,"fid":296,"label":"Tổ hợp tác số 5 ấp 9 xã Tân Lộc"}},{"type":"Feature","id":297,"geometry":{"type":"Polygon","coordinates":[[[105.992247,10.145091],[105.993561,10.1431],[105.991642,10.1430004],[105.990054,10.14307],[105.991176,10.140979],[105.992247,10.145091]]]},"properties":{"TÊN VÙNG TRỒNG":"Tổ hợp tác số 5 ấp 9 xã Tân Lộc","ĐỊA CHỈ":"ấp 9, xã Tân Lộc, huyện Tam Bình, Vĩnh long ","NGƯỜI ĐẠI DIỆN ":"Nguyễn Văn Tấn","SỐ ĐIỆN THOẠI":"0358709474","TÊN HÀNG HÓA":"Lúa","layer_id":268,"fid":297,"label":"Tổ hợp tác số 5 ấp 9 xã Tân Lộc"}},{"type":"Feature","id":399,"geometry":{"type":"Polygon","coordinates":[[[105.999305,10.290018],[106.001279,10.283619],[106.026172,10.278283],[106.0205354,10.2908308],[106.018662,10.281841],[105.999305,10.290018]]]},"properties":{"TÊN VÙNG TRỒNG":"HTX Chôm chôm Bình Hòa Phước","ĐỊA CHỈ":"Ấp Bình Hòa 1, Bình Hòa 2, Phú  An 1, Phú  An 2, Xã Bình Hòa Phước, Huyện Long Hồ, Tỉnh Vĩnh Long","NGƯỜI ĐẠI DIỆN ":"Nguyễn Ngọc Nhân","SỐ ĐIỆN THOẠI":"'0902937051","TÊN HÀNG HÓA":"Chôm chôm","layer_id":268,"fid":399,"label":"HTX Chôm chôm Bình Hòa Phước"}},{"type":"Feature","id":299,"geometry":{"type":"Polygon","coordinates":[[[106.187038,10.028397],[106.177705,10.026725],[106.180456,10.031359],[106.187549,10.034302],[106.182338,10.029408],[106.187038,10.028397]]]},"properties":{"TÊN VÙNG TRỒNG":"Vùng trồng lúa Hợp Tác Xã Sản Xuất Dịch Vụ Nông Nghiệp Tấn Đạt","ĐỊA CHỈ":"ấp Kinh, xã Trung Ngãi, huyện Vũng Liêm","NGƯỜI ĐẠI DIỆN ":"Đoàn Văn Tài","SỐ ĐIỆN THOẠI":"0377750999","TÊN HÀNG HÓA":"Lúa","layer_id":268,"fid":299,"label":"Vùng trồng lúa Hợp Tác Xã Sản Xuất Dịch Vụ Nông Nghiệp Tấn Đạt"}},{"type":"Feature","id":300,"geometry":{"type":"Polygon","coordinates":[[[105.925392,10.2117],[105.925643,10.229204],[105.942764,10.236615],[105.93153,10.211414],[105.930411,10.226081],[105.925392,10.2117]]]},"properties":{"TÊN VÙNG TRỒNG":"Tổ hợp tác nhãn tiêu da bò Tân Hạnh","ĐỊA CHỈ":"ấp Tân An, Tân Thuận, Tân Hòa, xã Tân Hạnh, huyện Long Hồ","NGƯỜI ĐẠI DIỆN ":"Nguyễn Văn Ba","SỐ ĐIỆN THOẠI":"0778925792","TÊN HÀNG HÓA":"Nhãn","layer_id":268,"fid":300,"label":"Tổ hợp tác nhãn tiêu da bò Tân Hạnh"}},{"type":"Feature","id":401,"geometry":{"type":"Polygon","coordinates":[[[105.990446,10.326836],[105.995964,10.315138],[105.997235,10.302365],[106.013566,10.306347],[105.969122,10.31196],[105.990446,10.326836]]]},"properties":{"TÊN VÙNG TRỒNG":"Vùng trồng sầu riêng Đồng Phú","ĐỊA CHỈ":"Ấp Phú Thạnh 1, Phú Thuận 1,Phú Mỹ 1, Phú Mỹ 2, Phú Thạnh 4, Thuận Long,Phú Hòa 2, xã Đồng phú, Huyện Long Hồ, Tỉnh Vĩnh Long","NGƯỜI ĐẠI DIỆN ":"Nguyễn Minh Hậu","SỐ ĐIỆN THOẠI":"0983112267","TÊN HÀNG HÓA":"Sầu riêng","layer_id":268,"fid":401,"label":"Vùng trồng sầu riêng Đồng Phú"}},{"type":"Feature","id":301,"geometry":{"type":"Polygon","coordinates":[[[105.925392,10.2117],[105.925643,10.229204],[105.942764,10.236615],[105.93153,10.211414],[105.930411,10.226081],[105.925392,10.2117]]]},"properties":{"TÊN VÙNG TRỒNG":"Tổ hợp tác nhãn tiêu da bò Tân Hạnh","ĐỊA CHỈ":"ấp Tân An, Tân Thuận, Tân Hòa, xã Tân Hạnh, huyện Long Hồ","NGƯỜI ĐẠI DIỆN ":"Nguyễn Văn Ba","SỐ ĐIỆN THOẠI":"0778925792","TÊN HÀNG HÓA":"Nhãn","layer_id":268,"fid":301,"label":"Tổ hợp tác nhãn tiêu da bò Tân Hạnh"}},{"type":"Feature","id":302,"geometry":{"type":"Polygon","coordinates":[[[105.9714637,10.27728148],[105.9793534,10.2647578],[105.971685,10.2627516],[105.964921,10.272251],[105.9740795,10.2656882],[105.9714637,10.27728148]]]},"properties":{"TÊN VÙNG TRỒNG":"Tổ sản xuất nhãn ấp An Thành, xã An Bình","ĐỊA CHỈ":"ấp An Thành, xã An Bình, huyện Long Hồ","NGƯỜI ĐẠI DIỆN ":"Nguyễn Thành Thống","SỐ ĐIỆN THOẠI":"0908577891","TÊN HÀNG HÓA":"Nhãn","layer_id":268,"fid":302,"label":"Tổ sản xuất nhãn ấp An Thành, xã An Bình"}},{"type":"Feature","id":305,"geometry":{"type":"Polygon","coordinates":[[[105.899713,9.959974],[105.900188,9.960107],[105.90255,9.962223],[105.912781,9.962488],[105.905293,9.959761],[105.899713,9.959974]]]},"properties":{"TÊN VÙNG TRỒNG":"Hợp tác xã Nông nghiệp Lục Sĩ Thành","ĐỊA CHỈ":"ấpTân Thạnh, xã Lục Sĩ Thành, Huyện Trà Ôn, Tỉnh Vĩnh Long","NGƯỜI ĐẠI DIỆN ":"Bùi Minh Trung","SỐ ĐIỆN THOẠI":"0374764158","TÊN HÀNG HÓA":"Nhãn","layer_id":268,"fid":305,"label":"Hợp tác xã Nông nghiệp Lục Sĩ Thành"}},{"type":"Feature","id":306,"geometry":{"type":"Polygon","coordinates":[[[105.912439,10.243521],[105.91469,10.238752],[105.919926,10.237823],[105.914947,10.24004],[105.914111,10.235648],[105.912439,10.243521]]]},"properties":{"TÊN VÙNG TRỒNG":"Công ty THHH TMDV Ánh Dương Sao","ĐỊA CHỈ":"Ấp Vĩnh Bình, Vĩnh Phú, xã Tân Ngãi, TP, Vĩnh Long, tỉnh Vĩnh Long","NGƯỜI ĐẠI DIỆN ":"Phan Nhật Tú","SỐ ĐIỆN THOẠI":"'0902466887","TÊN HÀNG HÓA":"Chôm chôm","layer_id":268,"fid":306,"label":"Công ty THHH TMDV Ánh Dương Sao"}},{"type":"Feature","id":307,"geometry":{"type":"Polygon","coordinates":[[[105.912439,10.243521],[105.91469,10.238752],[105.919926,10.237823],[105.914947,10.24004],[105.914111,10.235648],[105.912439,10.243521]]]},"properties":{"TÊN VÙNG TRỒNG":"Công ty THHH TMDV Ánh Dương Sao","ĐỊA CHỈ":"Ấp Vĩnh Bình, Vĩnh Phú, xã Tân Ngãi, TP, Vĩnh Long, tỉnh Vĩnh Long","NGƯỜI ĐẠI DIỆN ":"Phan Nhật Tú","SỐ ĐIỆN THOẠI":"'0902466887","TÊN HÀNG HÓA":"Chôm chôm","layer_id":268,"fid":307,"label":"Công ty THHH TMDV Ánh Dương Sao"}},{"type":"Feature","id":308,"geometry":{"type":"Polygon","coordinates":[[[105.912439,10.243521],[105.91469,10.238752],[105.919926,10.237823],[105.914947,10.24004],[105.914111,10.235648],[105.912439,10.243521]]]},"properties":{"TÊN VÙNG TRỒNG":"Công ty THHH TMDV Ánh Dương Sao","ĐỊA CHỈ":"Ấp Vĩnh Bình, Vĩnh Phú, xã Tân Ngãi, TP, Vĩnh Long, tỉnh Vĩnh Long","NGƯỜI ĐẠI DIỆN ":"Phan Nhật Tú","SỐ ĐIỆN THOẠI":"'0902466887","TÊN HÀNG HÓA":"Chôm chôm","layer_id":268,"fid":308,"label":"Công ty THHH TMDV Ánh Dương Sao"}},{"type":"Feature","id":304,"geometry":{"type":"Polygon","coordinates":[[[105.972697,9.926543],[105.965642,9.929844],[105.964252,9.921926],[105.973428,9.915484],[105.974044,9.919115],[105.972697,9.926543]]]},"properties":{"TÊN VÙNG TRỒNG":"Hợp tác xã nhãn Tích Phước - Tích Thiện","ĐỊA CHỈ":"ấp Tích Phước, Cây Gòn, Tích Lộc, Tích Khánh, Tích Phú; Đục Dong; Vĩnh Khánh, Tích Thiện, Thiện Mỹ, Vĩnh Xuân, Huyện Trà Ôn, Tỉnh Vĩnh Long","NGƯỜI ĐẠI DIỆN ":"Nguyễn Văn Phát","SỐ ĐIỆN THOẠI":"0363696143","TÊN HÀNG HÓA":"Nhãn","layer_id":268,"fid":304,"label":"Hợp tác xã nhãn Tích Phước - Tích Thiện"}},{"type":"Feature","id":403,"geometry":{"type":"Polygon","coordinates":[[[105.9621149,10.2992731],[105.9641118,10.2912096],[105.968526,10.289881],[105.9762,10.280705],[105.9762595,10.2919617],[105.9621149,10.2992731]]]},"properties":{"TÊN VÙNG TRỒNG":"Hợp tác xã kinh tế vườn Hòa Ninh","ĐỊA CHỈ":"ấp Hòa Lợi, xã Hòa Ninh, huyện Long Hồ, tỉnh vĩnh Long ","NGƯỜI ĐẠI DIỆN ":"Nguyễn Văn Cường","SỐ ĐIỆN THOẠI":"0984339524","TÊN HÀNG HÓA":"Nhãn","layer_id":268,"fid":403,"label":"Hợp tác xã kinh tế vườn Hòa Ninh"}},{"type":"Feature","id":406,"geometry":{"type":"Polygon","coordinates":[[[105.969298,10.276084],[105.975525,10.279211],[105.965085,10.287994],[105.96725,10.282065],[105.967411,10.284937],[105.969298,10.276084]]]},"properties":{"TÊN VÙNG TRỒNG":"Tổ sản xuất chôm chôm ấp An Thới, xã An Bình","ĐỊA CHỈ":"Ấp An Thới, xã An Bình, huyện Long Hồ, tỉnh Vĩnh Long","NGƯỜI ĐẠI DIỆN ":"Trịnh Văn Hoàng","SỐ ĐIỆN THOẠI":"0772832898","TÊN HÀNG HÓA":"Chôm Chôm ","layer_id":268,"fid":406,"label":"Tổ sản xuất chôm chôm ấp An Thới, xã An Bình"}},{"type":"Feature","id":309,"geometry":{"type":"Polygon","coordinates":[[[105.916087,10.243521],[105.913345,10.237626],[105.920684,10.23758],[105.921049,10.241951],[105.917229,10.241001],[105.916087,10.243521]]]},"properties":{"TÊN VÙNG TRỒNG":"Công ty THHH TMDV Ánh Dương Sao","ĐỊA CHỈ":"Ấp Vĩnh Bình, Vĩnh Phú, xã Tân Ngãi, TP, Vĩnh Long, tỉnh Vĩnh Long","NGƯỜI ĐẠI DIỆN ":"Phan Nhật Tú","SỐ ĐIỆN THOẠI":"'0902466887","TÊN HÀNG HÓA":"Nhãn","layer_id":268,"fid":309,"label":"Công ty THHH TMDV Ánh Dương Sao"}},{"type":"Feature","id":407,"geometry":{"type":"Polygon","coordinates":[[[105.969298,10.276084],[105.975525,10.279211],[105.965085,10.287994],[105.96725,10.282065],[105.967411,10.284937],[105.969298,10.276084]]]},"properties":{"TÊN VÙNG TRỒNG":"Tổ sản xuất chôm chôm ấp An Thới, xã An Bình","ĐỊA CHỈ":"Ấp An Thới, xã An Bình, huyện Long Hồ, tỉnh Vĩnh Long","NGƯỜI ĐẠI DIỆN ":"Trịnh Văn Hoàng","SỐ ĐIỆN THOẠI":"0772832898","TÊN HÀNG HÓA":"Chôm Chôm ","layer_id":268,"fid":407,"label":"Tổ sản xuất chôm chôm ấp An Thới, xã An Bình"}},{"type":"Feature","id":310,"geometry":{"type":"Polygon","coordinates":[[[105.916087,10.243521],[105.913345,10.237626],[105.920684,10.23758],[105.921049,10.241951],[105.917229,10.241001],[105.916087,10.243521]]]},"properties":{"TÊN VÙNG TRỒNG":"Công ty THHH TMDV Ánh Dương Sao","ĐỊA CHỈ":"Ấp Vĩnh Bình, Vĩnh Phú, xã Tân Ngãi, TP, Vĩnh Long, tỉnh Vĩnh Long","NGƯỜI ĐẠI DIỆN ":"Phan Nhật Tú","SỐ ĐIỆN THOẠI":"'0902466887","TÊN HÀNG HÓA":"Nhãn","layer_id":268,"fid":310,"label":"Công ty THHH TMDV Ánh Dương Sao"}},{"type":"Feature","id":311,"geometry":{"type":"Polygon","coordinates":[[[105.999305,10.290018],[106.001279,10.2836191],[106.026172,10.278283],[106.0205354,10.2908308],[106.018662,10.281841],[105.999305,10.290018]]]},"properties":{"TÊN VÙNG TRỒNG":"HTX Chôm chôm Bình Hòa Phước","ĐỊA CHỈ":"Ấp Bình Hòa 1, Bình Hòa 2, Phú  An 1, Phú  An 2, Xã Bình Hòa Phước, Huyện Long Hồ, Tỉnh Vĩnh Long","NGƯỜI ĐẠI DIỆN ":"Nguyễn Ngọc Nhân","SỐ ĐIỆN THOẠI":"'0902937051","TÊN HÀNG HÓA":"Chôm chôm","layer_id":268,"fid":311,"label":"HTX Chôm chôm Bình Hòa Phước"}},{"type":"Feature","id":312,"geometry":{"type":"Polygon","coordinates":[[[105.999305,10.290018],[106.001279,10.2836191],[106.026172,10.278283],[106.0205354,10.2908308],[106.018662,10.281841],[105.999305,10.290018]]]},"properties":{"TÊN VÙNG TRỒNG":"HTX Chôm chôm Bình Hòa Phước","ĐỊA CHỈ":"Ấp Bình Hòa 1, Bình Hòa 2, Phú  An 1, Phú  An 2, Xã Bình Hòa Phước, Huyện Long Hồ, Tỉnh Vĩnh Long","NGƯỜI ĐẠI DIỆN ":"Nguyễn Ngọc Nhân","SỐ ĐIỆN THOẠI":"'0902937051","TÊN HÀNG HÓA":"Chôm chôm","layer_id":268,"fid":312,"label":"HTX Chôm chôm Bình Hòa Phước"}},{"type":"Feature","id":408,"geometry":{"type":"Polygon","coordinates":[[[105.967504,10.300188],[105.965046,10.29718],[105.978215,10.292597],[105.983634,10.301973],[105.974077,10.29675],[105.967504,10.300188]]]},"properties":{"TÊN VÙNG TRỒNG":"Tổ hợp tác trồng và mua bán chôm chôm ấp Hòa Thuận","ĐỊA CHỈ":"Ấp Hòa Thuận, xã Hòa Ninh, huyện Long Hồ, tỉnh Vĩnh Long","NGƯỜI ĐẠI DIỆN ":"Lê Văn Hoàng","SỐ ĐIỆN THOẠI":"0937605484","TÊN HÀNG HÓA":"Chôm Chôm ","layer_id":268,"fid":408,"label":"Tổ hợp tác trồng và mua bán chôm chôm ấp Hòa Thuận"}},{"type":"Feature","id":322,"geometry":{"type":"Polygon","coordinates":[[[105.7681,10.1597],[105.7631,10.1503],[105.7571,10.1532],[105.7628,10.1641],[105.7623,10.1567],[105.7681,10.1597]]]},"properties":{"TÊN VÙNG TRỒNG":"Vùng trồng khoai lang Tân Mỹ","ĐỊA CHỈ":"Ấp Tân Mỹ, xã Tân Thành. Huyện Bình Tân, tỉnh Vĩnh Long","NGƯỜI ĐẠI DIỆN ":"Nguyễn Văn Nhu","SỐ ĐIỆN THOẠI":"0949997039","TÊN HÀNG HÓA":"Khoai lang","layer_id":268,"fid":322,"label":"Vùng trồng khoai lang Tân Mỹ"}},{"type":"Feature","id":315,"geometry":{"type":"Polygon","coordinates":[[[105.961734,9.923925],[105.962431,9.922745],[105.95295,9.925596],[105.954017,9.92431],[105.95797,9.923661],[105.961734,9.923925]]]},"properties":{"TÊN VÙNG TRỒNG":"Hợp tác xã chôm chôm Java Tân Khánh","ĐỊA CHỈ":"Ấp Tích Khánh, Xã Tích Thiện, Huyện Trà Ôn, Tỉnh Vĩnh Long","NGƯỜI ĐẠI DIỆN ":"Võ Văn Bê ","SỐ ĐIỆN THOẠI":"'0797111239","TÊN HÀNG HÓA":"Chôm chôm","layer_id":268,"fid":315,"label":"Hợp tác xã chôm chôm Java Tân Khánh"}},{"type":"Feature","id":313,"geometry":{"type":"Polygon","coordinates":[[[106.001721,10.287972],[106.013662,10.276697],[106.026996,10.281164],[106.027412,10.2926461],[106.020644,10.287236],[106.001721,10.287972]]]},"properties":{"TÊN VÙNG TRỒNG":"HTX Chôm chôm Bình Hòa Phước","ĐỊA CHỈ":"Ấp Bình Hòa 1, Bình Hòa 2, Phú  An 1, Phú  An 2, Xã Bình Hòa Phước, Huyện Long Hồ, Tỉnh Vĩnh Long","NGƯỜI ĐẠI DIỆN ":"Nguyễn Ngọc Nhân","SỐ ĐIỆN THOẠI":"'0902937051","TÊN HÀNG HÓA":"Chôm chôm","layer_id":268,"fid":313,"label":"HTX Chôm chôm Bình Hòa Phước"}},{"type":"Feature","id":316,"geometry":{"type":"Polygon","coordinates":[[[105.961734,9.923925],[105.962431,9.922745],[105.95295,9.925596],[105.954017,9.92431],[105.95797,9.923661],[105.961734,9.923925]]]},"properties":{"TÊN VÙNG TRỒNG":"Hợp tác xã chôm chôm Java Tân Khánh","ĐỊA CHỈ":"Ấp Tích Khánh, Xã Tích Thiện, Huyện Trà Ôn, Tỉnh Vĩnh Long","NGƯỜI ĐẠI DIỆN ":"Võ Văn Bê ","SỐ ĐIỆN THOẠI":"'0797111239","TÊN HÀNG HÓA":"Chôm chôm","layer_id":268,"fid":316,"label":"Hợp tác xã chôm chôm Java Tân Khánh"}},{"type":"Feature","id":317,"geometry":{"type":"Polygon","coordinates":[[[105.899202,10.027254],[105.896977,10.022225],[105.894282,10.022231],[105.896032,10.024825],[105.895844,10.025849],[105.899202,10.027254]]]},"properties":{"TÊN VÙNG TRỒNG":"Công ty TNHH MTV The Fruit Republic Cần Thơ","ĐỊA CHỈ":"Ấp An Phong, Bình Quí, xã Ngãi Tứ, huyện Tam Bình, tỉnh Vĩnh Long","NGƯỜI ĐẠI DIỆN ":"Marteen Siebe Van Wijk ","SỐ ĐIỆN THOẠI":"'0912346134","TÊN HÀNG HÓA":"Chanh không hạt","layer_id":268,"fid":317,"label":"Công ty TNHH MTV The Fruit Republic Cần Thơ"}},{"type":"Feature","id":318,"geometry":{"type":"Polygon","coordinates":[[[105.899202,10.027254],[105.896977,10.022225],[105.894282,10.022231],[105.896032,10.024825],[105.895844,10.025849],[105.899202,10.027254]]]},"properties":{"TÊN VÙNG TRỒNG":"Công ty TNHH MTV The Fruit Republic Cần Thơ","ĐỊA CHỈ":"Ấp An Phong, Bình Quí, xã Ngãi Tứ, huyện Tam Bình, tỉnh Vĩnh Long","NGƯỜI ĐẠI DIỆN ":"Marteen Siebe Van Wijk ","SỐ ĐIỆN THOẠI":"'0912346134","TÊN HÀNG HÓA":"Chanh không hạt","layer_id":268,"fid":318,"label":"Công ty TNHH MTV The Fruit Republic Cần Thơ"}},{"type":"Feature","id":319,"geometry":{"type":"Polygon","coordinates":[[[105.7876,10.156],[105.7898,10.1532],[105.7871,10.1508],[105.7815,10.1538],[105.7929,10.1468],[105.7876,10.156]]]},"properties":{"TÊN VÙNG TRỒNG":"Tổ hợp tác số 2A ấp Thành Hiếu","ĐỊA CHỈ":"Ấp Thành Hiếu, xã Thành Trung, huyện Bì,nh Tân, tỉnh Vĩnh Long","NGƯỜI ĐẠI DIỆN ":"Nguyễn Minh Luân","SỐ ĐIỆN THOẠI":"0917740940","TÊN HÀNG HÓA":"Khoai lang","layer_id":268,"fid":319,"label":"Tổ hợp tác số 2A ấp Thành Hiếu"}},{"type":"Feature","id":320,"geometry":{"type":"Polygon","coordinates":[[[105.7676,10.1755],[105.7522,10.1446],[105.7459,10.1501],[105.7598,10.1815],[105.757,10.1627],[105.7676,10.1755]]]},"properties":{"TÊN VÙNG TRỒNG":"Tổ hợp tác số 3 ấp Tân Yên","ĐỊA CHỈ":"Ấp Tân Yên, xã Tân thành, huyện Bình Tân, tỉnh Vĩnh Long","NGƯỜI ĐẠI DIỆN ":"Phạm Văn Ngân","SỐ ĐIỆN THOẠI":"0987320551","TÊN HÀNG HÓA":"Khoai lang","layer_id":268,"fid":320,"label":"Tổ hợp tác số 3 ấp Tân Yên"}},{"type":"Feature","id":321,"geometry":{"type":"Polygon","coordinates":[[[105.7743,10.1674],[105.7534,10.155],[105.7693,10.1551],[105.7681,10.149],[105.7647,10.1499],[105.7743,10.1674]]]},"properties":{"TÊN VÙNG TRỒNG":"Vùng trồng khoai lang ấp Tân Mỹ","ĐỊA CHỈ":"Ấp Tân Mỹ, xã Tân Thành. Huyện Bình Tân, tỉnh Vĩnh Long","NGƯỜI ĐẠI DIỆN ":"Phạm Ngọc Dũ","SỐ ĐIỆN THOẠI":"0918124822","TÊN HÀNG HÓA":"Khoai lang","layer_id":268,"fid":321,"label":"Vùng trồng khoai lang ấp Tân Mỹ"}},{"type":"Feature","id":323,"geometry":{"type":"Polygon","coordinates":[[[105.7752,10.1624],[105.7809,10.1021],[105.7752,10.1692],[105.7773,10.1691],[105.7811,10.1647],[105.7752,10.1624]]]},"properties":{"TÊN VÙNG TRỒNG":"Tổ Hợp tác số 2 ấp Thành Lộc","ĐỊA CHỈ":"Ấp Thành Lộc, xã Thành Trung, huyện Bình Tân, tỉnh Vĩnh Long","NGƯỜI ĐẠI DIỆN ":"Lê Văn Thanh","SỐ ĐIỆN THOẠI":"0932891133","TÊN HÀNG HÓA":"Khoai lang","layer_id":268,"fid":323,"label":"Tổ Hợp tác số 2 ấp Thành Lộc"}},{"type":"Feature","id":324,"geometry":{"type":"Polygon","coordinates":[[[105.7869,10.157],[105.7843,10.1546],[105.7838,10.1476],[105.7871,10.1504],[105.7767,10.1707],[105.7869,10.157]]]},"properties":{"TÊN VÙNG TRỒNG":"Tổ Hợp tác số 1A ấp Thành Lộc","ĐỊA CHỈ":"Ấp Thành Lộc, xã Thành Trung, huyện Bình Tân, tỉnh Vĩnh Long","NGƯỜI ĐẠI DIỆN ":"Võ Hoàng Long","SỐ ĐIỆN THOẠI":"0766892399","TÊN HÀNG HÓA":"Khoai lang","layer_id":268,"fid":324,"label":"Tổ Hợp tác số 1A ấp Thành Lộc"}},{"type":"Feature","id":325,"geometry":{"type":"Polygon","coordinates":[[[105.7931,10.1271],[105.7923,10.1244],[105.7826,10.1274],[105.7838,10.128],[105.7843,10.1286],[105.7931,10.1271]]]},"properties":{"TÊN VÙNG TRỒNG":"Tổ hợp tác số 1 ấp Thành Qúi","ĐỊA CHỈ":"Ấp Thành Qúi, xã Thành Trung, huyện Bình Tân, tỉnh Vĩnh Long","NGƯỜI ĐẠI DIỆN ":"Lê Trường Giang","SỐ ĐIỆN THOẠI":"0939641409","TÊN HÀNG HÓA":"Khoai lang","layer_id":268,"fid":325,"label":"Tổ hợp tác số 1 ấp Thành Qúi"}},{"type":"Feature","id":326,"geometry":{"type":"Polygon","coordinates":[[[105.7749,10.1425],[105.7738,10.1229],[105.7757,10.1224],[105.7856,10.1315],[105.7787,10.1317],[105.7749,10.1425]]]},"properties":{"TÊN VÙNG TRỒNG":"Tổ hợp tác số 1 ấp Thành Hưng","ĐỊA CHỈ":"Ấp Thành Hưng, xã Thành Trung, huyện Bình Tân, tỉnh Vĩnh Long","NGƯỜI ĐẠI DIỆN ":"Lê Văn Sáng","SỐ ĐIỆN THOẠI":"0948666303","TÊN HÀNG HÓA":"Khoai lang","layer_id":268,"fid":326,"label":"Tổ hợp tác số 1 ấp Thành Hưng"}},{"type":"Feature","id":327,"geometry":{"type":"Polygon","coordinates":[[[105.7751,10.1758],[105.7793,10.1699],[105.7855,10.1745],[105.7754,10.1873],[105.7791,10.1783],[105.7751,10.1758]]]},"properties":{"TÊN VÙNG TRỒNG":"Vùng trồng khoai Tân Lập 1","ĐỊA CHỈ":"Ấp Tân Lập, xã Tân Thành. Huyện Bình Tân, tỉnh Vĩnh Long","NGƯỜI ĐẠI DIỆN ":"Nguyễn Chí Dũng","SỐ ĐIỆN THOẠI":"0972079973","TÊN HÀNG HÓA":"Khoai lang","layer_id":268,"fid":327,"label":"Vùng trồng khoai Tân Lập 1"}},{"type":"Feature","id":328,"geometry":{"type":"Polygon","coordinates":[[[105.7692319,10.1748637],[105.7742764,10.1788147],[105.77429159,10.18132677],[105.7691873,10.1757432],[105.7723301,10.1823961],[105.7692319,10.1748637]]]},"properties":{"TÊN VÙNG TRỒNG":"Vùng trồng khoai Tân Lập 2","ĐỊA CHỈ":"Ấp Tân Lập, xã Tân Thành. Huyện Bình Tân, tỉnh Vĩnh Long","NGƯỜI ĐẠI DIỆN ":"Lê Văn Quang","SỐ ĐIỆN THOẠI":"0776803030","TÊN HÀNG HÓA":"Khoai lang","layer_id":268,"fid":328,"label":"Vùng trồng khoai Tân Lập 2"}},{"type":"Feature","id":329,"geometry":{"type":"Polygon","coordinates":[[[105.7542,10.1634],[105.7555,10.1753],[105.757,10.1752],[105.7572,10.1675],[105.7578,10.1672],[105.7542,10.1634]]]},"properties":{"TÊN VÙNG TRỒNG":"Vùng trồng khoai Tân Dương 1","ĐỊA CHỈ":"Ấp Tân Dương, xã Tân Thành. Huyện Bình Tân, tỉnh Vĩnh Long","NGƯỜI ĐẠI DIỆN ":"Trần Trung Thủy","SỐ ĐIỆN THOẠI":"0706897817","TÊN HÀNG HÓA":"Khoai lang","layer_id":268,"fid":329,"label":"Vùng trồng khoai Tân Dương 1"}},{"type":"Feature","id":330,"geometry":{"type":"Polygon","coordinates":[[[105.768,10.1489],[105.7627,10.1472],[105.7591,10.1392],[105.7646,10.1496],[105.764,10.1432],[105.768,10.1489]]]},"properties":{"TÊN VÙNG TRỒNG":"Vùng trồng khoai Tân Dương 2","ĐỊA CHỈ":"Ấp Tân Dương, xã Tân Thành. Huyện Bình Tân, tỉnh Vĩnh Long","NGƯỜI ĐẠI DIỆN ":"Lương Hiếu Thảo","SỐ ĐIỆN THOẠI":"0932887607","TÊN HÀNG HÓA":"Khoai lang","layer_id":268,"fid":330,"label":"Vùng trồng khoai Tân Dương 2"}},{"type":"Feature","id":331,"geometry":{"type":"Polygon","coordinates":[[[105.7536,10.1361],[105.7494,10.1358],[105.7472,10.1333],[105.7461,10.1327],[105.748,10.1347],[105.7536,10.1361]]]},"properties":{"TÊN VÙNG TRỒNG":"Vùng trồng khoai Tân Phú","ĐỊA CHỈ":"Ấp Tân Phú, xã Tân Bình, huyện Bình Tân, tỉnh Vĩnh Long","NGƯỜI ĐẠI DIỆN ":"Võ Văn Hai","SỐ ĐIỆN THOẠI":"0935168387","TÊN HÀNG HÓA":"Khoai lang","layer_id":268,"fid":331,"label":"Vùng trồng khoai Tân Phú"}},{"type":"Feature","id":332,"geometry":{"type":"Polygon","coordinates":[[[105.7471,10.1426],[105.7485,10.1418],[105.7467,10.1418],[105.7429,10.142],[105.7436,10.1425],[105.7471,10.1426]]]},"properties":{"TÊN VÙNG TRỒNG":"VT Khoai lang ấp Tân Biên 2","ĐỊA CHỈ":"Ấp Tân Biên, xã Tân Bình, huyện Bình Tân, tỉnh Vĩnh Long","NGƯỜI ĐẠI DIỆN ":"Nguyễn Anh Dũng","SỐ ĐIỆN THOẠI":"0772852998","TÊN HÀNG HÓA":"Khoai lang","layer_id":268,"fid":332,"label":"VT Khoai lang ấp Tân Biên 2"}},{"type":"Feature","id":333,"geometry":{"type":"Polygon","coordinates":[[[105.7449,10.1336],[105.7463,10.1361],[105.7437,10.1342],[105.745,10.1367],[105.7475,10.1308],[105.7449,10.1336]]]},"properties":{"TÊN VÙNG TRỒNG":"VT Khoai lang ấp Tân Biên 3","ĐỊA CHỈ":"Ấp Tân Biên, xã Tân Bình, huyện Bình Tân, tỉnh Vĩnh Long","NGƯỜI ĐẠI DIỆN ":"Nguyễn Anh Dũng","SỐ ĐIỆN THOẠI":"0772852998","TÊN HÀNG HÓA":"Khoai lang","layer_id":268,"fid":333,"label":"VT Khoai lang ấp Tân Biên 3"}},{"type":"Feature","id":334,"geometry":{"type":"Polygon","coordinates":[[[105.7451,10.1475],[105.7505,10.1458],[105.7488,10.142],[105.7489,10.1418],[105.7486,10.1455],[105.7451,10.1475]]]},"properties":{"TÊN VÙNG TRỒNG":"VT Khoai lang ấp Tân Biên 1","ĐỊA CHỈ":"Ấp Tân Biên, xã Tân Bình, huyện Bình Tân, tỉnh Vĩnh Long","NGƯỜI ĐẠI DIỆN ":"Nguyễn Anh Dũng","SỐ ĐIỆN THOẠI":"0772852998","TÊN HÀNG HÓA":"Khoai lang","layer_id":268,"fid":334,"label":"VT Khoai lang ấp Tân Biên 1"}},{"type":"Feature","id":335,"geometry":{"type":"Polygon","coordinates":[[[105.80313,10.13209],[105.81057,10.12761],[105.80702,10.15267],[105.80877,10.1526],[105.81074,10.14132],[105.80313,10.13209]]]},"properties":{"TÊN VÙNG TRỒNG":"Vùng trồng khoai lang Nguyễn Văn Thảnh","ĐỊA CHỈ":"Ấp Mỹ Hòa, xã Nguyễn Văn Thảnh, huyện Bình Tân, tỉnh Vĩnh Long","NGƯỜI ĐẠI DIỆN ":"Nguyễn Thị Thu","SỐ ĐIỆN THOẠI":"0766878190","TÊN HÀNG HÓA":"Khoai lang","layer_id":268,"fid":335,"label":"Vùng trồng khoai lang Nguyễn Văn Thảnh"}},{"type":"Feature","id":336,"geometry":{"type":"Polygon","coordinates":[[[105.7745,10.1247],[105.7773,10.1264],[105.7796,10.1264],[105.7774,10.1241],[105.7747,10.1207],[105.7745,10.1247]]]},"properties":{"TÊN VÙNG TRỒNG":"Vùng Trồng khoai lang ấp Thành Hưng","ĐỊA CHỈ":"Ấp Thành Hưng, xã Thành Trung, huyện Bình Tân, tỉnh Vĩnh Long","NGƯỜI ĐẠI DIỆN ":"Nguyễn Tấn Tính","SỐ ĐIỆN THOẠI":"0794902131","TÊN HÀNG HÓA":"Khoai lang","layer_id":268,"fid":336,"label":"Vùng Trồng khoai lang ấp Thành Hưng"}},{"type":"Feature","id":337,"geometry":{"type":"Polygon","coordinates":[[[105.760428,10.122427],[105.762475,10.119716],[105.766996,10.124224],[105.762187,10.125547],[105.762782,10.122033],[105.760428,10.122427]]]},"properties":{"TÊN VÙNG TRỒNG":"Vùng trồng khoai lang ấp Thành An 1","ĐỊA CHỈ":"Ấp Thành An, xã Thành Lợi, huyện Bình Tân, tỉnh Vĩnh Long","NGƯỜI ĐẠI DIỆN ":"Nguyễn Tấn Hiền","SỐ ĐIỆN THOẠI":"0988003322","TÊN HÀNG HÓA":"Khoai lang","layer_id":268,"fid":337,"label":"Vùng trồng khoai lang ấp Thành An 1"}},{"type":"Feature","id":338,"geometry":{"type":"Polygon","coordinates":[[[105.7986,10.1314],[105.8045,10.1317],[105.8033,10.1299],[105.7987,10.1334],[105.8005,10.1321],[105.7986,10.1314]]]},"properties":{"TÊN VÙNG TRỒNG":"Hợp tác xã Nông nghiệp hữu cơ Bình Tân","ĐỊA CHỈ":"Ấp Mỹ Hòa, xã Nguyễn Văn Thảnh, huyện Bình Tân, tỉnh Vĩnh Long","NGƯỜI ĐẠI DIỆN ":"Trần Hữu Việt","SỐ ĐIỆN THOẠI":"0979314545","TÊN HÀNG HÓA":"Khoai lang","layer_id":268,"fid":338,"label":"Hợp tác xã Nông nghiệp hữu cơ Bình Tân"}},{"type":"Feature","id":339,"geometry":{"type":"Polygon","coordinates":[[[105.7667,10.1726],[105.7666,10.1731],[105.7608,10.1617],[105.7659,10.171],[105.7639,10.1678],[105.7667,10.1726]]]},"properties":{"TÊN VÙNG TRỒNG":"Vùng trồng khoai lang ấp Tân Yên 4","ĐỊA CHỈ":"Ấp Tân Yên, xã Tân Thành, huyện Bình Tân, tỉnh Vĩnh Long","NGƯỜI ĐẠI DIỆN ":"Lê Minh Phương","SỐ ĐIỆN THOẠI":"0931070709","TÊN HÀNG HÓA":"Khoai lang","layer_id":268,"fid":339,"label":"Vùng trồng khoai lang ấp Tân Yên 4"}},{"type":"Feature","id":340,"geometry":{"type":"Polygon","coordinates":[[[105.7573,10.1677],[105.7619,10.1642],[105.7483,10.1578],[105.761,10.1806],[105.7617,10.1752],[105.7573,10.1677]]]},"properties":{"TÊN VÙNG TRỒNG":"Vùng trồng khoai lang ấp Tân Yên 5","ĐỊA CHỈ":"Ấp Tân Yên, xã Tân Thành, huyện Bình Tân, tỉnh Vĩnh Long","NGƯỜI ĐẠI DIỆN ":"Nguyễn Văn Tây","SỐ ĐIỆN THOẠI":"0776821115","TÊN HÀNG HÓA":"Khoai lang","layer_id":268,"fid":340,"label":"Vùng trồng khoai lang ấp Tân Yên 5"}},{"type":"Feature","id":341,"geometry":{"type":"Polygon","coordinates":[[[105.7542,10.1634],[105.7555,10.1753],[105.757,10.1752],[105.7572,10.1675],[105.7578,10.1672],[105.7542,10.1634]]]},"properties":{"TÊN VÙNG TRỒNG":"Vùng trồng khoai lang ấp Tân Yên 6","ĐỊA CHỈ":"Ấp Tân Yên, xã Tân Thành, huyện Bình Tân, tỉnh Vĩnh Long","NGƯỜI ĐẠI DIỆN ":"Trần Hồng Châu Long","SỐ ĐIỆN THOẠI":"0931074817","TÊN HÀNG HÓA":"Khoai lang","layer_id":268,"fid":341,"label":"Vùng trồng khoai lang ấp Tân Yên 6"}},{"type":"Feature","id":342,"geometry":{"type":"Polygon","coordinates":[[[105.7664,10.1397],[105.7728,10.1396],[105.7734,10.1486],[105.7733,10.1497],[105.7732,10.1433],[105.7664,10.1397]]]},"properties":{"TÊN VÙNG TRỒNG":"Vùng trồng khoai lang ấp Thành Tân 3","ĐỊA CHỈ":"Ấp Thành Tân, xã Tân Thành, huyện Bình Tân, tỉnh Vĩnh Long","NGƯỜI ĐẠI DIỆN ":"Đào Kim Tài","SỐ ĐIỆN THOẠI":"0917145481","TÊN HÀNG HÓA":"Khoai lang","layer_id":268,"fid":342,"label":"Vùng trồng khoai lang ấp Thành Tân 3"}},{"type":"Feature","id":343,"geometry":{"type":"Polygon","coordinates":[[[105.7491,10.1503],[105.7495,10.148],[105.7493,10.1475],[105.7468,10.1524],[105.7474,10.1532],[105.7491,10.1503]]]},"properties":{"TÊN VÙNG TRỒNG":"Vùng trồng khoai lang ấp Tân Yên 2","ĐỊA CHỈ":"Ấp Tân Yên, xã Tân Thành, huyện Bình Tân, tỉnh Vĩnh Long","NGƯỜI ĐẠI DIỆN ":"Nguyễn Văn Lem","SỐ ĐIỆN THOẠI":"0767044482","TÊN HÀNG HÓA":"Khoai lang","layer_id":268,"fid":343,"label":"Vùng trồng khoai lang ấp Tân Yên 2"}},{"type":"Feature","id":344,"geometry":{"type":"Polygon","coordinates":[[[105.7725,10.1354],[105.7698,10.1361],[105.7663,10.1387],[105.7662,10.1391],[105.7725,10.1365],[105.7725,10.1354]]]},"properties":{"TÊN VÙNG TRỒNG":"Vùng trồng khoai lang ấp Thành Tân 2","ĐỊA CHỈ":"Ấp Thành Tân, xã Tân Thành, huyện Bình Tân, tỉnh Vĩnh Long","NGƯỜI ĐẠI DIỆN ":"Nguyễn Văn Mười","SỐ ĐIỆN THOẠI":"0793998954","TÊN HÀNG HÓA":"Khoai lang","layer_id":268,"fid":344,"label":"Vùng trồng khoai lang ấp Thành Tân 2"}},{"type":"Feature","id":345,"geometry":{"type":"Polygon","coordinates":[[[105.7733,10.1491],[105.7684,10.1492],[105.7695,10.1548],[105.7737,10.1558],[105.7736,10.1534],[105.7733,10.1491]]]},"properties":{"TÊN VÙNG TRỒNG":"Vùng trồng khoai lang ấp Thành Tân 4","ĐỊA CHỈ":"Ấp Thành Tân, xã Tân Thành, huyện Bình Tân, tỉnh Vĩnh Long","NGƯỜI ĐẠI DIỆN ":"Lê Tấn Công","SỐ ĐIỆN THOẠI":"0398057348","TÊN HÀNG HÓA":"Khoai lang","layer_id":268,"fid":345,"label":"Vùng trồng khoai lang ấp Thành Tân 4"}},{"type":"Feature","id":346,"geometry":{"type":"Polygon","coordinates":[[[105.7695,10.1232],[105.7656,10.1273],[105.7664,10.1336],[105.7725,10.1341],[105.7666,10.1293],[105.7695,10.1232]]]},"properties":{"TÊN VÙNG TRỒNG":"Vùng trồng khoai lang ấp Thành Tân 1","ĐỊA CHỈ":"Ấp Thành Tân, xã Tân Thành, huyện Bình Tân, tỉnh Vĩnh Long","NGƯỜI ĐẠI DIỆN ":"Nguyễn Huỳnh Khắc Trung","SỐ ĐIỆN THOẠI":"0918712851","TÊN HÀNG HÓA":"Khoai lang","layer_id":268,"fid":346,"label":"Vùng trồng khoai lang ấp Thành Tân 1"}},{"type":"Feature","id":347,"geometry":{"type":"Polygon","coordinates":[[[105.7572,10.1542],[105.7567,10.1531],[105.7568,10.1535],[105.7563,10.1522],[105.7563,10.1523],[105.7572,10.1542]]]},"properties":{"TÊN VÙNG TRỒNG":"Vùng trồng khoai lang ấp Tân Dương 3","ĐỊA CHỈ":"Ấp Tân Dương, xã Tân Thành, huyện Bình Tân, tỉnh Vĩnh Long","NGƯỜI ĐẠI DIỆN ":"Nguyễn Văn Tư","SỐ ĐIỆN THOẠI":"0944087366","TÊN HÀNG HÓA":"Khoai lang","layer_id":268,"fid":347,"label":"Vùng trồng khoai lang ấp Tân Dương 3"}},{"type":"Feature","id":348,"geometry":{"type":"Polygon","coordinates":[[[105.7754,10.18],[105.7791,10.1784],[105.7752,10.1796],[105.7753,10.1797],[105.7797,10.1818],[105.7754,10.18]]]},"properties":{"TÊN VÙNG TRỒNG":"Vùng trồng khoai lang ấp Tân Lập 3","ĐỊA CHỈ":"Ấp Tân Lập, xã Tân Thành, huyện Bình Tân, tỉnh Vĩnh Long","NGƯỜI ĐẠI DIỆN ":"Lê Văn Sáu","SỐ ĐIỆN THOẠI":"0363843395","TÊN HÀNG HÓA":"Khoai lang","layer_id":268,"fid":348,"label":"Vùng trồng khoai lang ấp Tân Lập 3"}},{"type":"Feature","id":349,"geometry":{"type":"Polygon","coordinates":[[[105.7451,10.1551],[105.745,10.155],[105.752,10.1644],[105.7525,10.1658],[105.7509,10.1617],[105.7451,10.1551]]]},"properties":{"TÊN VÙNG TRỒNG":"Vùng trồng khoai lang ấp Tân Yên 3","ĐỊA CHỈ":"Ấp Tân Yên, xã Tân Thành, huyện Bình Tân, tỉnh Vĩnh Long","NGƯỜI ĐẠI DIỆN ":"Lê Văn Bé Tư","SỐ ĐIỆN THOẠI":"0939973167","TÊN HÀNG HÓA":"Khoai lang","layer_id":268,"fid":349,"label":"Vùng trồng khoai lang ấp Tân Yên 3"}},{"type":"Feature","id":350,"geometry":{"type":"Polygon","coordinates":[[[105.7491,10.1569],[105.7531,10.154],[105.7526,10.1615],[105.7522,10.1611],[105.7496,10.1567],[105.7491,10.1569]]]},"properties":{"TÊN VÙNG TRỒNG":"Vùng trồng khoai lang ấp Tân Yên 1","ĐỊA CHỈ":"Ấp Tân Yên, xã Tân Thành, huyện Bình Tân, tỉnh Vĩnh Long","NGƯỜI ĐẠI DIỆN ":"Nguyễn Văn Hoặt","SỐ ĐIỆN THOẠI":"0763953999","TÊN HÀNG HÓA":"Khoai lang","layer_id":268,"fid":350,"label":"Vùng trồng khoai lang ấp Tân Yên 1"}},{"type":"Feature","id":352,"geometry":{"type":"Polygon","coordinates":[[[106.134448,10.165691],[106.151521,10.157911],[106.162326,10.165803],[106.156712,10.185409],[106.151428,10.173958],[106.134448,10.165691]]]},"properties":{"TÊN VÙNG TRỒNG":"Tổ hợp tác Sầu riêng Chánh An 1","ĐỊA CHỈ":"Ấp Mỹ Chánh, Tân Mỹ, Mỹ Hạnh, Tân An, xã Chánh An, huyện Mang Thít, tỉnh Vĩnh Long","NGƯỜI ĐẠI DIỆN ":"Phùng Thị Thùy Trang","SỐ ĐIỆN THOẠI":"0939307353","TÊN HÀNG HÓA":"Sầu riêng","layer_id":268,"fid":352,"label":"Tổ hợp tác Sầu riêng Chánh An 1"}},{"type":"Feature","id":357,"geometry":{"type":"Polygon","coordinates":[[[105.9866447,10.1992718],[105.981068,10.193615],[105.9843058,10.1969864],[105.984214,10.202677],[105.986441,10.200616],[105.9866447,10.1992718]]]},"properties":{"TÊN VÙNG TRỒNG":"Tổ hợp tác Cây Ăn Trái Phước Trinh B","ĐỊA CHỈ":"Ấp Phước Trinh B, xã Long Phước, Long Hồ, Vĩnh Long ","NGƯỜI ĐẠI DIỆN ":"Nguyễn Thị Loan","SỐ ĐIỆN THOẠI":"0944707900","TÊN HÀNG HÓA":"Mít","layer_id":268,"fid":357,"label":"Tổ hợp tác Cây Ăn Trái Phước Trinh B"}},{"type":"Feature","id":353,"geometry":{"type":"Polygon","coordinates":[[[106.142441,10.18393],[106.139642,10.176649],[106.110083,10.186377],[106.152995,10.158174],[106.093986,10.217276],[106.142441,10.18393]]]},"properties":{"TÊN VÙNG TRỒNG":"HTX sầu riêng Chánh An ","ĐỊA CHỈ":"Ấp An Hòa, Mỹ Hạnh, Tân Mỹ, Tân An, Mỹ Long, Mỹ Chánh, xã Chánh An; Ấp Phước Thủy, Hòa Phú, Định Thới A, Phú An, xã An Phước; Ấp Phú Thọ, xã Nhơn Phú; Khóm 4, Thị trấn Cái Nhum, huyện Mang Thít, tỉnh Vĩnh Long","NGƯỜI ĐẠI DIỆN ":"Nguyễn Văn Trưng","SỐ ĐIỆN THOẠI":"0909203020","TÊN HÀNG HÓA":"Sầu riêng","layer_id":268,"fid":353,"label":"HTX sầu riêng Chánh An "}},{"type":"Feature","id":354,"geometry":{"type":"Polygon","coordinates":[[[106.211235,10.137161],[106.209551,10.131696],[106.220754,10.1364],[106.211837,10.143853],[106.206022,10.138228],[106.211235,10.137161]]]},"properties":{"TÊN VÙNG TRỒNG":"Tổ sản xuất sầu riêng ấp Bình Lương, xã Quới Thiện, huyện Vũng Liêm","ĐỊA CHỈ":"Ấp Bình Lương, xã Quới Thiện, huyện Vũng Liêm, tỉnh Vĩnh Long","NGƯỜI ĐẠI DIỆN ":"Huỳnh Chí Cường","SỐ ĐIỆN THOẠI":"0398979404","TÊN HÀNG HÓA":"Sầu riêng","layer_id":268,"fid":354,"label":"Tổ sản xuất sầu riêng ấp Bình Lương, xã Quới Thiện, huyện Vũng Liêm"}},{"type":"Feature","id":356,"geometry":{"type":"Polygon","coordinates":[[[106.233914,10.105299],[106.231998,10.101359],[106.239053,10.090078],[106.240766,10.099282],[106.235296,10.102],[106.233914,10.105299]]]},"properties":{"TÊN VÙNG TRỒNG":"HTX Sầu Riêng ấp Lăng, xã Thanh Bình","ĐỊA CHỈ":"Ấp Lăng, Thái Bình, Thanh Khê, Cái Dứa, Thanh Bình, huyện Vũng Liêm, tỉnh Vĩnh Long","NGƯỜI ĐẠI DIỆN ":"Phẩm Văn Tiếu","SỐ ĐIỆN THOẠI":"0358186866","TÊN HÀNG HÓA":"Sầu riêng","layer_id":268,"fid":356,"label":"HTX Sầu Riêng ấp Lăng, xã Thanh Bình"}},{"type":"Feature","id":358,"geometry":{"type":"Polygon","coordinates":[[[105.965646,10.139442],[105.972335,10.115389],[105.999366,10.108293],[105.982361,10.138833],[105.974595,10.136466],[105.965646,10.139442]]]},"properties":{"TÊN VÙNG TRỒNG":"Hợp tác xã Thanh Long Hậu Lộc","ĐỊA CHỈ":"Ấp 7, xã Hậu Lộc, huyện Tam Bình, Vĩnh Long ","NGƯỜI ĐẠI DIỆN ":"Lưu Văn Chính","SỐ ĐIỆN THOẠI":"0917461357","TÊN HÀNG HÓA":"Mít","layer_id":268,"fid":358,"label":"Hợp tác xã Thanh Long Hậu Lộc"}},{"type":"Feature","id":359,"geometry":{"type":"Polygon","coordinates":[[[105.972697,9.926543],[105.965642,9.929844],[105.964252,9.921926],[105.973428,9.915484],[105.974044,9.919115],[105.972697,9.926543]]]},"properties":{"TÊN VÙNG TRỒNG":"Hợp tác xã nhãn Tích Phước","ĐỊA CHỈ":"Ấp Tích Phước, xã Tích Thiện, huyện Trà Ôn, tỉnh Vĩnh Long","NGƯỜI ĐẠI DIỆN ":"Nguyễn Văn Công","SỐ ĐIỆN THOẠI":"0914480419","TÊN HÀNG HÓA":"Nhãn","layer_id":268,"fid":359,"label":"Hợp tác xã nhãn Tích Phước"}},{"type":"Feature","id":363,"geometry":{"type":"Polygon","coordinates":[[[105.992272,10.281706],[105.991684,10.281324],[105.993096,10.280843],[105.992609,10.278878],[105.992302,10.280694],[105.992272,10.281706]]]},"properties":{"TÊN VÙNG TRỒNG":"Tổ hợp tác trồng, mua bán chôm chôm ấp Bình Thuận 1","ĐỊA CHỈ":"Ấp Bình Thuận 1, xã Hòa Ninh, huyện Long Hồ, tỉnh Vĩnh Long","NGƯỜI ĐẠI DIỆN ":"Lê Hồng Hiệp","SỐ ĐIỆN THOẠI":"0768068067","TÊN HÀNG HÓA":"Chôm chôm","layer_id":268,"fid":363,"label":"Tổ hợp tác trồng, mua bán chôm chôm ấp Bình Thuận 1"}},{"type":"Feature","id":364,"geometry":{"type":"Polygon","coordinates":[[[105.7738,10.1564],[105.7717,10.1239],[105.7665,10.1407],[105.7667,10.1404],[105.7725,10.1354],[105.7738,10.1564]]]},"properties":{"TÊN VÙNG TRỒNG":"Vùng trồng mít Thành Tân 1","ĐỊA CHỈ":"Ấp Thành Tân, xã Tân Thành, huyện Bình Tân, tỉnh Vĩnh Long","NGƯỜI ĐẠI DIỆN ":"Huỳnh Thanh Hải","SỐ ĐIỆN THOẠI":"0832671212","TÊN HÀNG HÓA":"Mít","layer_id":268,"fid":364,"label":"Vùng trồng mít Thành Tân 1"}},{"type":"Feature","id":365,"geometry":{"type":"Polygon","coordinates":[[[105.7563,10.1746],[105.7687,10.1773],[105.7636,10.1672],[105.7553,10.1652],[105.7605,10.1758],[105.7563,10.1746]]]},"properties":{"TÊN VÙNG TRỒNG":"Vùng trồng mít Tân Yên 1","ĐỊA CHỈ":"Ấp Tân Yên, xã Tân thành, huyện Bình Tân, tỉnh Vĩnh Long","NGƯỜI ĐẠI DIỆN ":"Võ Văn Ngàn","SỐ ĐIỆN THOẠI":"0906827366","TÊN HÀNG HÓA":"Mít","layer_id":268,"fid":365,"label":"Vùng trồng mít Tân Yên 1"}},{"type":"Feature","id":367,"geometry":{"type":"Polygon","coordinates":[[[106.194654,10.15131],[106.190865,10.149708],[106.191935,10.147229],[106.197195,10.1469],[106.193147,10.148739],[106.194654,10.15131]]]},"properties":{"TÊN VÙNG TRỒNG":"Tổ sản xuất Sầu Riêng ấp Phước Lý Nhất, xã Quới Thiện","ĐỊA CHỈ":"ấp Phước Lý Nhất, Quới Thiện, Huyện Vũng Liêm, Tỉnh Vĩnh Long","NGƯỜI ĐẠI DIỆN ":"Huỳnh Lê Chí Thanh","SỐ ĐIỆN THOẠI":"0326629285","TÊN HÀNG HÓA":"Sầu riêng","layer_id":268,"fid":367,"label":"Tổ sản xuất Sầu Riêng ấp Phước Lý Nhất, xã Quới Thiện"}},{"type":"Feature","id":366,"geometry":{"type":"Polygon","coordinates":[[[106.195711,10.153298],[106.200334,10.157306],[106.195742,10.158036],[106.198958,10.159388],[106.196223,10.158049],[106.195711,10.153298]]]},"properties":{"TÊN VÙNG TRỒNG":"Tổ sản xuất sầu riêng ấp Rạch Sâu, xã Quới Thiện","ĐỊA CHỈ":"ấp Rạch Sâu, Quới Thiện, Huyện Vũng Liêm, Tỉnh Vĩnh Long","NGƯỜI ĐẠI DIỆN ":"Nguyễn Quốc Việt","SỐ ĐIỆN THOẠI":"0363527919","TÊN HÀNG HÓA":"Sầu riêng","layer_id":268,"fid":366,"label":"Tổ sản xuất sầu riêng ấp Rạch Sâu, xã Quới Thiện"}},{"type":"Feature","id":368,"geometry":{"type":"Polygon","coordinates":[[[106.209776,10.147433],[106.206036,10.142307],[106.212896,10.142626],[106.217881,10.145048],[106.207554,10.141044],[106.209776,10.147433]]]},"properties":{"TÊN VÙNG TRỒNG":"Tổ sản xuất sầu riêng ấp Phú Thới-xã Quới Thiện","ĐỊA CHỈ":"ấp Phú Thới, Quới Thiện, Huyện Vũng Liêm, Tỉnh Vĩnh Long","NGƯỜI ĐẠI DIỆN ":"Huỳnh Văn Tân ","SỐ ĐIỆN THOẠI":"0934694396","TÊN HÀNG HÓA":"Sầu riêng","layer_id":268,"fid":368,"label":"Tổ sản xuất sầu riêng ấp Phú Thới-xã Quới Thiện"}},{"type":"Feature","id":369,"geometry":{"type":"Polygon","coordinates":[[[106.230434,10.124744],[106.228863,10.121758],[106.230269,10.128091],[106.225779,10.13401],[106.224127,10.136224],[106.230434,10.124744]]]},"properties":{"TÊN VÙNG TRỒNG":"Tổ sản xuất Sầu riêng ấp Thanh Bình, xã Thanh Bình","ĐỊA CHỈ":"ấp Thanh Bình, Thanh Bình, Huyện Vũng Liêm, Tỉnh Vĩnh Long","NGƯỜI ĐẠI DIỆN ":"Nguyễn Thanh Hùng","SỐ ĐIỆN THOẠI":"0985985221","TÊN HÀNG HÓA":"Sầu riêng","layer_id":268,"fid":369,"label":"Tổ sản xuất Sầu riêng ấp Thanh Bình, xã Thanh Bình"}},{"type":"Feature","id":371,"geometry":{"type":"Polygon","coordinates":[[[106.217482,10.130887],[106.225219,10.12022],[106.221063,10.131261],[106.225325,10.127769],[106.219291,10.128225],[106.217482,10.130887]]]},"properties":{"TÊN VÙNG TRỒNG":"Vùng sản xuất Sầu Riêng ấp Tân Bình, xã Thanh Bình, huyện Vũng Liêm, tỉnh Vĩnh Long","ĐỊA CHỈ":"ấp Tân Bình, Thanh Bình, Huyện Vũng Liêm, Tỉnh Vĩnh Long","NGƯỜI ĐẠI DIỆN ":"Trần Văn Khanh","SỐ ĐIỆN THOẠI":"0931066389","TÊN HÀNG HÓA":"Sầu riêng","layer_id":268,"fid":371,"label":"Vùng sản xuất Sầu Riêng ấp Tân Bình, xã Thanh Bình, huyện Vũng Liêm, tỉnh Vĩnh Long"}},{"type":"Feature","id":372,"geometry":{"type":"Polygon","coordinates":[[[106.229157,10.102498],[106.234648,10.099175],[106.23393,10.09547],[106.231045,10.101907],[106.22883,10.10352],[106.229157,10.102498]]]},"properties":{"TÊN VÙNG TRỒNG":"Vùng sản xuất sầu riêng ấp Lăng, xã Thanh Bình, huyện Vũng Liêm, tỉnh Vĩnh Long","ĐỊA CHỈ":"ấp Lăng, Thanh Bình, Huyện Vũng Liêm, Tỉnh Vĩnh Long","NGƯỜI ĐẠI DIỆN ":"Phạm Quốc Thanh ","SỐ ĐIỆN THOẠI":"0399339280","TÊN HÀNG HÓA":"Sầu riêng","layer_id":268,"fid":372,"label":"Vùng sản xuất sầu riêng ấp Lăng, xã Thanh Bình, huyện Vũng Liêm, tỉnh Vĩnh Long"}},{"type":"Feature","id":373,"geometry":{"type":"Polygon","coordinates":[[[105.7354,10.1508],[105.727,10.1545],[105.7221,10.1475],[105.724,10.1496],[105.724,10.1467],[105.7354,10.1508]]]},"properties":{"TÊN VÙNG TRỒNG":"Tổ hợp tác Sầu Riêng ấp Tân Khánh","ĐỊA CHỈ":"ấp Tân Khánh, Tân Lược, Huyện Bình Tân, Tỉnh Vĩnh Long","NGƯỜI ĐẠI DIỆN ":"Đào Thanh Liêm ","SỐ ĐIỆN THOẠI":"0939316604","TÊN HÀNG HÓA":"Sầu riêng","layer_id":268,"fid":373,"label":"Tổ hợp tác Sầu Riêng ấp Tân Khánh"}},{"type":"Feature","id":374,"geometry":{"type":"Polygon","coordinates":[[[106.171036,10.146455],[106.162207,10.128738],[106.156837,10.154124],[106.165274,10.160417],[106.158931,10.152843],[106.171036,10.146455]]]},"properties":{"TÊN VÙNG TRỒNG":"Vùng trồng sầu riêng xã Quới An","ĐỊA CHỈ":"ấp Nhất, xã Quới An, Huyện Vũng Liêm, Tỉnh Vĩnh Long","NGƯỜI ĐẠI DIỆN ":"Nguyễn Văn Thân ","SỐ ĐIỆN THOẠI":"0985870653","TÊN HÀNG HÓA":"Sầu riêng","layer_id":268,"fid":374,"label":"Vùng trồng sầu riêng xã Quới An"}},{"type":"Feature","id":377,"geometry":{"type":"Polygon","coordinates":[[[106.226003,10.110371],[106.221142,10.107595],[106.220821,10.11085],[106.221877,10.117372],[106.221332,10.116921],[106.226003,10.110371]]]},"properties":{"TÊN VÙNG TRỒNG":"Tổ sản xuất Sầu Riêng  số 2 ấp Thanh Lương, xã Thanh Bình","ĐỊA CHỈ":"ấp Thanh Lương, Thanh Bình, Huyện Vũng Liêm, Tỉnh Vĩnh Long","NGƯỜI ĐẠI DIỆN ":"Nguyễn Bá Cường","SỐ ĐIỆN THOẠI":"0984916661","TÊN HÀNG HÓA":"Sầu riêng","layer_id":268,"fid":377,"label":"Tổ sản xuất Sầu Riêng  số 2 ấp Thanh Lương, xã Thanh Bình"}},{"type":"Feature","id":375,"geometry":{"type":"Polygon","coordinates":[[[106.217583,10.149902],[106.205607,10.122687],[106.186461,10.143262],[106.205025,10.140112],[106.196443,10.161038],[106.217583,10.149902]]]},"properties":{"TÊN VÙNG TRỒNG":"Vùng trồng sầu riêng xã Quới Thiện","ĐỊA CHỈ":"ấp Phú Thới, Phước Bình, Phước Lý Nhất, Rạch Sâu, xã Quới Thiện, Huyện Vũng Liêm, Tỉnh Vĩnh Long","NGƯỜI ĐẠI DIỆN ":"Huỳnh Văn Mười Anh ","SỐ ĐIỆN THOẠI":"0937872759","TÊN HÀNG HÓA":"Sầu riêng","layer_id":268,"fid":375,"label":"Vùng trồng sầu riêng xã Quới Thiện"}},{"type":"Feature","id":376,"geometry":{"type":"Polygon","coordinates":[[[106.239902,10.109638],[106.231601,10.115325],[106.232908,10.112417],[106.23738,10.113355],[106.235485,10.108461],[106.239902,10.109638]]]},"properties":{"TÊN VÙNG TRỒNG":"Tổ sản xuất sầu riêng ấp Thái An, xã Thanh Bình","ĐỊA CHỈ":"ấp Thái An, Thanh Bình, Huyện Vũng Liêm, Tỉnh Vĩnh Long","NGƯỜI ĐẠI DIỆN ":"Huỳnh Hữu Phước","SỐ ĐIỆN THOẠI":"0978778414","TÊN HÀNG HÓA":"Sầu riêng","layer_id":268,"fid":376,"label":"Tổ sản xuất sầu riêng ấp Thái An, xã Thanh Bình"}},{"type":"Feature","id":378,"geometry":{"type":"Polygon","coordinates":[[[106.185188,10.157917],[106.191432,10.159221],[106.181885,10.168638],[106.185242,10.163164],[106.1879,10.152476],[106.185188,10.157917]]]},"properties":{"TÊN VÙNG TRỒNG":"Tổ sản xuất sầu riêng ấp Thanh Khê, xã Thanh Bình ","ĐỊA CHỈ":"ấp Thanh Khê,  Xã Thanh Bình, Huyện Vũng Liêm, Tỉnh Vĩnh Long","NGƯỜI ĐẠI DIỆN ":"Trương Hữu Phước","SỐ ĐIỆN THOẠI":"0336451955","TÊN HÀNG HÓA":"Sầu riêng","layer_id":268,"fid":378,"label":"Tổ sản xuất sầu riêng ấp Thanh Khê, xã Thanh Bình "}},{"type":"Feature","id":379,"geometry":{"type":"Polygon","coordinates":[[[106.22841,10.126918],[106.227972,10.124071],[106.228614,10.120515],[106.231312,10.116179],[106.228597,10.12535],[106.22841,10.126918]]]},"properties":{"TÊN VÙNG TRỒNG":"Tổ sản xuất sầu riêng số 2 ấp Thanh Bình, xã Thanh Bình","ĐỊA CHỈ":"ấp Thanh Bình, xã Thanh Bình, Huyện Vũng Liêm, Tỉnh Vĩnh Long","NGƯỜI ĐẠI DIỆN ":"Mai Văn Lối","SỐ ĐIỆN THOẠI":"0706349464","TÊN HÀNG HÓA":"Sầu riêng","layer_id":268,"fid":379,"label":"Tổ sản xuất sầu riêng số 2 ấp Thanh Bình, xã Thanh Bình"}},{"type":"Feature","id":380,"geometry":{"type":"Polygon","coordinates":[[[106.050971,10.117959],[106.073181,10.105546],[106.0594,10.10065],[106.063629,10.094023],[106.050945,10.111259],[106.050971,10.117959]]]},"properties":{"TÊN VÙNG TRỒNG":"TỔ HỢP TÁC BƯỞI XÃ HÒA THẠNH","ĐỊA CHỈ":"ấp 2, 3, Thạnh Hiệp, xã Hòa Thạnh,Tam Bình","NGƯỜI ĐẠI DIỆN ":"Nguyễn Văn Phương","SỐ ĐIỆN THOẠI":"'0345461942","TÊN HÀNG HÓA":"Bưởi ","layer_id":268,"fid":380,"label":"TỔ HỢP TÁC BƯỞI XÃ HÒA THẠNH"}},{"type":"Feature","id":381,"geometry":{"type":"Polygon","coordinates":[[[106.050971,10.117959],[106.073181,10.105546],[106.0594,10.10065],[106.063629,10.094023],[106.050945,10.111259],[106.050971,10.117959]]]},"properties":{"TÊN VÙNG TRỒNG":"TỔ HỢP TÁC BƯỞI XÃ HÒA THẠNH","ĐỊA CHỈ":"ấp 2, 3, Thạnh Hiệp, xã Hòa Thạnh,Tam Bình","NGƯỜI ĐẠI DIỆN ":"Nguyễn Văn Phương","SỐ ĐIỆN THOẠI":"'0345461942","TÊN HÀNG HÓA":"Bưởi ","layer_id":268,"fid":381,"label":"TỔ HỢP TÁC BƯỞI XÃ HÒA THẠNH"}},{"type":"Feature","id":382,"geometry":{"type":"Polygon","coordinates":[[[106.050971,10.117959],[106.073181,10.105546],[106.0594,10.10065],[106.063629,10.094023],[106.050945,10.111259],[106.050971,10.117959]]]},"properties":{"TÊN VÙNG TRỒNG":"TỔ HỢP TÁC BƯỞI XÃ HÒA THẠNH","ĐỊA CHỈ":"Ấp 2, ấp 3, ấp Thạnh Hiệp, xã Hòa Thạnh, huyện Tam Bình, tỉnh Vĩnh Long","NGƯỜI ĐẠI DIỆN ":"Nguyễn Văn Phương","SỐ ĐIỆN THOẠI":"'0345461942","TÊN HÀNG HÓA":"Bưởi ","layer_id":268,"fid":382,"label":"TỔ HỢP TÁC BƯỞI XÃ HÒA THẠNH"}},{"type":"Feature","id":383,"geometry":{"type":"Polygon","coordinates":[[[105.901925,9.989784],[105.913086,9.977977],[105.906306,9.973611],[105.889415,9.981247],[105.903232,9.980518],[105.901925,9.989784]]]},"properties":{"TÊN VÙNG TRỒNG":"Tổ hợp tác chanh không hạt Đông Hậu-Ngãi Tứ","ĐỊA CHỈ":"Ấp Đông Hậu, xã Ngãi Tứ, huyện Tam Bình, tỉnh Vĩnh Long","NGƯỜI ĐẠI DIỆN ":"Lê Hồng Phúc","SỐ ĐIỆN THOẠI":"0978200939","TÊN HÀNG HÓA":"Chanh không hạt","layer_id":268,"fid":383,"label":"Tổ hợp tác chanh không hạt Đông Hậu-Ngãi Tứ"}},{"type":"Feature","id":384,"geometry":{"type":"Polygon","coordinates":[[[105.905666,10.007091],[105.909829,10.008094],[105.906958,10.003688],[105.90399,9.996755],[105.902722,10.000047],[105.905666,10.007091]]]},"properties":{"TÊN VÙNG TRỒNG":"Hợp tác xã trái cây sinh học OCOP","ĐỊA CHỈ":"Ấp Ngã Cái, xã Ngãi Tứ, huyện Tam Bình, tỉnh Vĩnh Long","NGƯỜI ĐẠI DIỆN ":"Nguyễn Văn Đửng","SỐ ĐIỆN THOẠI":"'0829352282","TÊN HÀNG HÓA":"Bưởi ","layer_id":268,"fid":384,"label":"Hợp tác xã trái cây sinh học OCOP"}},{"type":"Feature","id":385,"geometry":{"type":"Polygon","coordinates":[[[105.905666,10.007091],[105.909829,10.008094],[105.906958,10.003688],[105.90399,9.996755],[105.902722,10.000047],[105.905666,10.007091]]]},"properties":{"TÊN VÙNG TRỒNG":"Hợp tác xã trái cây sinh học OCOP","ĐỊA CHỈ":"Ấp Ngã Cái, xã Ngãi Tứ, huyện Tam Bình, tỉnh Vĩnh Long","NGƯỜI ĐẠI DIỆN ":"Nguyễn Văn Đửng","SỐ ĐIỆN THOẠI":"'0829352282","TÊN HÀNG HÓA":"Bưởi ","layer_id":268,"fid":385,"label":"Hợp tác xã trái cây sinh học OCOP"}},{"type":"Feature","id":386,"geometry":{"type":"Polygon","coordinates":[[[106.217625,10.035522],[106.206015,10.04504],[106.20706,10.041665],[106.206963,10.035768],[106.210989,10.036917],[106.217625,10.035522]]]},"properties":{"TÊN VÙNG TRỒNG":"Vùng trồng dừa ấp Phú Tân","ĐỊA CHỈ":"Ấp Phú Tân, xã Trung Nghĩa, huyện Vũng Liêm, tỉnh Vĩnh Long","NGƯỜI ĐẠI DIỆN ":"Nguyễn Thành Trung","SỐ ĐIỆN THOẠI":"0968520798","TÊN HÀNG HÓA":"Dừa","layer_id":268,"fid":386,"label":"Vùng trồng dừa ấp Phú Tân"}},{"type":"Feature","id":387,"geometry":{"type":"Polygon","coordinates":[[[106.076016,10.087602],[106.075139,10.087043],[106.072168,10.089655],[106.071932,10.095286],[106.078319,10.097467],[106.076016,10.087602]]]},"properties":{"TÊN VÙNG TRỒNG":"Vùng trồng dừa ấp Nước Xoáy","ĐỊA CHỈ":"Ấp Nước Xoáy, xã Tân An Luông, huyện Vũng Liêm, tỉnh Vĩnh Long","NGƯỜI ĐẠI DIỆN ":"Nguyễn Tấn Tiến","SỐ ĐIỆN THOẠI":"0703758966","TÊN HÀNG HÓA":"Dừa","layer_id":268,"fid":387,"label":"Vùng trồng dừa ấp Nước Xoáy"}},{"type":"Feature","id":389,"geometry":{"type":"Polygon","coordinates":[[[106.080924,10.080814],[106.08179,10.079644],[106.079481,10.08235],[106.075046,10.086419],[106.076144,10.087405],[106.080924,10.080814]]]},"properties":{"TÊN VÙNG TRỒNG":"Vùng trồng dừa ấp Đập Sậy 2","ĐỊA CHỈ":"Ấp Đập Sậy, xã Tân An Luông, huyện Vũng Liêm, tỉnh Vĩnh Long","NGƯỜI ĐẠI DIỆN ":"Lê Văn Thanh","SỐ ĐIỆN THOẠI":"0795484029","TÊN HÀNG HÓA":"Dừa","layer_id":268,"fid":389,"label":"Vùng trồng dừa ấp Đập Sậy 2"}},{"type":"Feature","id":390,"geometry":{"type":"Polygon","coordinates":[[[106.112263,10.140347],[106.107074,10.137007],[106.109373,10.135959],[106.112,10.128371],[106.106421,10.130956],[106.112263,10.140347]]]},"properties":{"TÊN VÙNG TRỒNG":"Vùng trồng dừa ấp 3","ĐỊA CHỈ":"Ấp 3, xã Tân An Luông, huyện Vũng Liêm, tỉnh Vĩnh Long","NGƯỜI ĐẠI DIỆN ":"Đặng Văn Vượng","SỐ ĐIỆN THOẠI":"0976348334","TÊN HÀNG HÓA":"Dừa","layer_id":268,"fid":390,"label":"Vùng trồng dừa ấp 3"}},{"type":"Feature","id":391,"geometry":{"type":"Polygon","coordinates":[[[106.106915,10.121954],[106.1059,10.129116],[106.099701,10.120995],[106.105841,10.116449],[106.114353,10.12141],[106.106915,10.121954]]]},"properties":{"TÊN VÙNG TRỒNG":"Vùng trồng dừa ấp 4","ĐỊA CHỈ":"Ấp 4, xã Tân An Luông, huyện Vũng Liêm, tỉnh Vĩnh Long","NGƯỜI ĐẠI DIỆN ":"Mai Văn Cường","SỐ ĐIỆN THOẠI":"0395658823","TÊN HÀNG HÓA":"Dừa","layer_id":268,"fid":391,"label":"Vùng trồng dừa ấp 4"}},{"type":"Feature","id":392,"geometry":{"type":"Polygon","coordinates":[[[106.094433,10.095307],[106.097562,10.095791],[106.092736,10.09989],[106.0916,10.105292],[106.097939,10.105443],[106.094433,10.095307]]]},"properties":{"TÊN VÙNG TRỒNG":"Vùng trồng dừa ấp 6","ĐỊA CHỈ":"Ấp 6, xã Tân An Luông, huyện Vũng Liêm, tỉnh Vĩnh Long","NGƯỜI ĐẠI DIỆN ":"Đỗ Thanh Hào","SỐ ĐIỆN THOẠI":"0907890954","TÊN HÀNG HÓA":"Dừa","layer_id":268,"fid":392,"label":"Vùng trồng dừa ấp 6"}}]}
