{"type":"FeatureCollection","name":"Cơ sở chế biến Thủy sản ","metadata":{"source":"https://hatang.vinhlong.gov.vn/","downloaded_at":"2026-07-20T01:14:04+00:00","layer_id":273,"layer_name":"Cơ sở chế biến Thủy sản ","catalog_endpoints":["/map/publicLayers2?inputs=thuy_san"],"requested_bbox":[104.0,8.0,108.0,12.0],"tile_size":0.0,"tile_count":1,"tile_errors":[],"feature_count":2,"coordinate_order":"x,y (thường là longitude,latitude theo cấu hình EPSG:4326 của WebGIS)"},"features":[{"type":"Feature","id":7,"geometry":{"type":"Point","coordinates":[106.1415664,10.2020058]},"properties":{"Tên công ty":"Công ty TNHH MTV Chế biến thủy sản Cát Tường ","Mã cơ sở":"DL 712","Địa chỉ sản xuất":"Tổ 5, ấp Thanh Thủy, xã Cái Nhum, tỉnh Vĩnh Long","Giấy chứng nhận ĐKKD/ĐKDN":"số 1500444076 do Sở KH&ĐT tỉnh Vĩnh Long cấp lần đầu ngày 11/5/2004","Số điện thoại liên lạc":"0978500038","Địa chỉ Website":"https://cattuongseafood.com.vn","Sản phẩm sản xuất":"Cá tra, cá ba sa đông lạnh dạng phi lê, cắt khúc, cắt miếng, nguyên con xẻ bướm…","Chứng nhận (ISO, HACCP...)":"HACCP, HALAL, ASC","Tình trạng hoạt động":"Đang hoạt động","Ghi chú":"","layer_id":273,"fid":7,"label":"Công ty TNHH MTV Chế biến thủy sản Cát Tường "}},{"type":"Feature","id":8,"geometry":{"type":"Point","coordinates":[106.0044621,10.2569744]},"properties":{"Tên công ty":"Công ty Cổ phẩn thủy sản Lộc Kim Chi ","Mã cơ sở":"DL 888","Địa chỉ sản xuất":"Tổ 2, ấp Thanh Mỹ, phường Thanh Đức, tỉnh Vĩnh Long","Giấy chứng nhận ĐKKD/ĐKDN":"số 1801658970 do Sở KH&ĐT tỉnh Vĩnh Long cấp ngày 09/5/2023","Số điện thoại liên lạc":"0917676767; 0939793979","Địa chỉ Website":"https://lockimchi.com","Sản phẩm sản xuất":"Cá tra đông lạnh dạng phi lê, cắt khúc, cắt miếng, nguyên con xẻ bướm, nguyên con bỏ đầu bỏ nội tạng…","Chứng nhận (ISO, HACCP...)":"HACCP, ISO 22000, HALAL, IFS, BRC, ASC, BAP","Tình trạng hoạt động":"Đang hoạt động","Ghi chú":"","layer_id":273,"fid":8,"label":"Công ty Cổ phẩn thủy sản Lộc Kim Chi "}}]}
