{"type":"FeatureCollection","name":"Thủy sản quý hiêm ","metadata":{"source":"https://hatang.vinhlong.gov.vn/","downloaded_at":"2026-07-20T01:14:13+00:00","layer_id":275,"layer_name":"Thủy sản quý hiêm ","catalog_endpoints":["/map/publicLayers2?inputs=thuy_san"],"requested_bbox":[104.0,8.0,108.0,12.0],"tile_size":0.0,"tile_count":1,"tile_errors":[],"feature_count":9,"coordinate_order":"x,y (thường là longitude,latitude theo cấu hình EPSG:4326 của WebGIS)"},"features":[{"type":"Feature","id":17,"geometry":{"type":"Point","coordinates":[105.9370013,10.2525555]},"properties":{"Tên cơ sở":"Trại nuôi Cua đinh Sáu Thư","Địa chỉ trụ sở chính":"Số 122A, khóm Tân Quới Hưng, phường Long Châu, tỉnh Vĩnh Long","Địa chỉ sản xuất":"Số 122A, khóm Tân Quới Hưng, phường Trường An, TP.Vĩnh Long","Số chứng nhận ĐKKD/ĐKDN":"IIB-N-VLG-001","Đối tượng thủy sản nuôi":"Cua đinh","Nguồn gốc":"Hậu Giang","Mục đích nuôi":"Thương mại trong nước","Tình trạng hoạt động":"Đang hoạt động","layer_id":275,"fid":17,"label":"Trại nuôi Cua đinh Sáu Thư"}},{"type":"Feature","id":18,"geometry":{"type":"Point","coordinates":[105.9370013,10.2525555]},"properties":{"Tên cơ sở":"Trại nuôi Cua đinh Sáu Thư","Địa chỉ trụ sở chính":"Số 122A, khóm Tân Quới Hưng, phường Long Châu, tỉnh Vĩnh Long","Địa chỉ sản xuất":"Số 122A, khóm Tân Quới Hưng, phường Trường An, TP.Vĩnh Long","Số chứng nhận ĐKKD/ĐKDN":"IIB-N-VLG-001","Đối tượng thủy sản nuôi":"Cua đinh","Nguồn gốc":"Hậu Giang","Mục đích nuôi":"Thương mại trong nước","Tình trạng hoạt động":"Đang hoạt động","layer_id":275,"fid":18,"label":"Trại nuôi Cua đinh Sáu Thư"}},{"type":"Feature","id":19,"geometry":{"type":"Point","coordinates":[105.9373024,10.2530478]},"properties":{"Tên cơ sở":"Lê Mình Thành","Địa chỉ trụ sở chính":"Số 122, khóm Tân Quới Hưng, phường Long Châu, tỉnh Vĩnh Long","Địa chỉ sản xuất":"Số 122, khóm Tân Quới Hưng, phường Trường An, TP.Vĩnh Long","Số chứng nhận ĐKKD/ĐKDN":"IIB-N-VLG-002","Đối tượng thủy sản nuôi":"Cua đinh","Nguồn gốc":"Hậu Giang","Mục đích nuôi":"Thương mại trong nước","Tình trạng hoạt động":"Đang hoạt động","layer_id":275,"fid":19,"label":"Lê Mình Thành"}},{"type":"Feature","id":20,"geometry":{"type":"Point","coordinates":[105.9538966,10.2559326]},"properties":{"Tên cơ sở":"Trại nuôi Cua đinh Minh Quân","Địa chỉ trụ sở chính":"Số 164/20, đường Phạm Hùng, khóm 4, phường Long Châu, tỉnh Vĩnh Long","Địa chỉ sản xuất":"Số 164/20, đường Phạm Hùng, khóm 4, phường 9, TP.Vĩnh Long","Số chứng nhận ĐKKD/ĐKDN":"IIB-N-VLG-003","Đối tượng thủy sản nuôi":"Cua đinh","Nguồn gốc":"Hậu Giang","Mục đích nuôi":"Thương mại trong nước","Tình trạng hoạt động":"Đang hoạt động","layer_id":275,"fid":20,"label":"Trại nuôi Cua đinh Minh Quân"}},{"type":"Feature","id":21,"geometry":{"type":"Point","coordinates":[105.9838191,10.2683099]},"properties":{"Tên cơ sở":"Nguyễn Văn Hiền","Địa chỉ trụ sở chính":"Số 123A/9, ấp An Thạnh, xã An Bình, tỉnh Vĩnh Long","Địa chỉ sản xuất":"Số 123A/9, ấp An Thạnh, xã An Bình, huyện Long Hồ","Số chứng nhận ĐKKD/ĐKDN":"IIB-N-VLG-004","Đối tượng thủy sản nuôi":"Cua đinh","Nguồn gốc":"Hậu Giang","Mục đích nuôi":"Thương mại trong nước","Tình trạng hoạt động":"Đang hoạt động","layer_id":275,"fid":21,"label":"Nguyễn Văn Hiền"}},{"type":"Feature","id":22,"geometry":{"type":"Point","coordinates":[105.9394258,10.0668287]},"properties":{"Tên cơ sở":"Công ty TNHH MTV Thủy sản Huy Hoàng Vĩnh Long","Địa chỉ trụ sở chính":"số 64N, đường Phan Văn Đáng, khóm 5, phường Long Châu, tỉnh Vĩnh Long","Địa chỉ sản xuất":"ấp Mỹ Phú Tân, xã Mỹ Thạnh Trung, huyện Tam Bình","Số chứng nhận ĐKKD/ĐKDN":"IIB-N-VLG-005","Đối tượng thủy sản nuôi":"Cá chình Châu Âu","Nguồn gốc":"Châu Âu","Mục đích nuôi":"Thương mại trong và ngoài nước","Tình trạng hoạt động":"Đang hoạt động","layer_id":275,"fid":22,"label":"Công ty TNHH MTV Thủy sản Huy Hoàng Vĩnh Long"}},{"type":"Feature","id":23,"geometry":{"type":"Point","coordinates":[105.9248558,10.0449497]},"properties":{"Tên cơ sở":"Công ty TNHH MTV Thủy sản Huy Hoàng Vĩnh Long","Địa chỉ trụ sở chính":"số 64N, đường Phan Văn Đáng, khóm 5, phường Long Châu, tỉnh Vĩnh Long","Địa chỉ sản xuất":"ấp Tổng Hưng B, xã Loan Mỹ, huyện Tam Bình","Số chứng nhận ĐKKD/ĐKDN":"IIB-N-VLG-005","Đối tượng thủy sản nuôi":"Cá chình Châu Âu","Nguồn gốc":"Châu Âu","Mục đích nuôi":"Thương mại trong và ngoài nước","Tình trạng hoạt động":"Đang hoạt động","layer_id":275,"fid":23,"label":"Công ty TNHH MTV Thủy sản Huy Hoàng Vĩnh Long"}},{"type":"Feature","id":24,"geometry":{"type":"Point","coordinates":[106.224313,10.083187]},"properties":{"Tên cơ sở":"Cơ sở nuôi Cua đinh Hồ Trung Kháng","Địa chỉ trụ sở chính":"ấp Đại Nghĩa, xã Trung Ngãi, tỉnh Vĩnh Long","Địa chỉ sản xuất":"ấp Đại Nghĩa, xã Trung Ngãi","Số chứng nhận ĐKKD/ĐKDN":"IIB-N-VLG-006","Đối tượng thủy sản nuôi":"Cua đinh","Nguồn gốc":"Trà vinh","Mục đích nuôi":"Thương mại trong nước","Tình trạng hoạt động":"Đang hoạt động","layer_id":275,"fid":24,"label":"Cơ sở nuôi Cua đinh Hồ Trung Kháng"}},{"type":"Feature","id":25,"geometry":{"type":"Point","coordinates":[105.9771971,10.1594948]},"properties":{"Tên cơ sở":"Cơ sở nuôi Cua đinh Lộc Phát","Địa chỉ trụ sở chính":"Số 166, tổ 15, ấp Thông Quan, xã Long Hồ, tỉnh Vĩnh Long","Địa chỉ sản xuất":"Số 166, tổ 15, ấp Thông Quan, xã Phú Đức, huyện Long Hồ","Số chứng nhận ĐKKD/ĐKDN":"IIB-N-VLG-007","Đối tượng thủy sản nuôi":"Cua đinh","Nguồn gốc":"Hậu Giang","Mục đích nuôi":"Thương mại trong nước","Tình trạng hoạt động":"Đang hoạt động","layer_id":275,"fid":25,"label":"Cơ sở nuôi Cua đinh Lộc Phát"}}]}
