{"type":"FeatureCollection","name":"Cơ sở sản xuất giống thủy sản ","metadata":{"source":"https://hatang.vinhlong.gov.vn/","downloaded_at":"2026-07-20T01:14:18+00:00","layer_id":276,"layer_name":"Cơ sở sản xuất giống thủy sản ","catalog_endpoints":["/map/publicLayers2?inputs=thuy_san"],"requested_bbox":[104.0,8.0,108.0,12.0],"tile_size":0.0,"tile_count":1,"tile_errors":[],"feature_count":135,"coordinate_order":"x,y (thường là longitude,latitude theo cấu hình EPSG:4326 của WebGIS)"},"features":[{"type":"Feature","id":63,"geometry":{"type":"Point","coordinates":[105.8895836,10.2691453]},"properties":{"Tên cơ sở":"Trại Giống Thuy sản - Trung tâm giống nông nghiệp","Loại hình":"Nhà nước","Địa chỉ sản xuất":"Khóm Tân Hạnh, phường Tân Ngãi, tỉnh Vĩnh Long","Đối tượng sản xuất":"Cá tra, cá bông lau, chạch lấu, tôm càng xanh, điêu hồng","Hình thức sản xuất (SXG, ương dưỡng)":"Sản xuất, ương dưỡng","Tổng diện tích (m2)":"46000","Chứng nhận (ASC, BAP, GlobalGAP, VietGAP...)":"GlobalGAP","Số giấy chứng nhận cơ sở đủ điều kiện sản ":"GTS860001","Ngày cấp giấy chứng nhận":"03/08/2020","Đối tượng thủy sản sản xuất":null,"Tình trạng hoạt động":"Đang hoạt động","Ghi chú":"","layer_id":276,"fid":63,"label":"Trại Giống Thuy sản - Trung tâm giống nông nghiệp"}},{"type":"Feature","id":64,"geometry":{"type":"Point","coordinates":[105.8895836,10.2691453]},"properties":{"Tên cơ sở":"Trại Giống Thuy sản - Trung tâm giống nông nghiệp","Loại hình":"Nhà nước","Địa chỉ sản xuất":"Khóm Tân Hạnh, phường Tân Ngãi, tỉnh Vĩnh Long","Đối tượng sản xuất":"Cá basa, tôm càng xanh, lươn","Hình thức sản xuất (SXG, ương dưỡng)":"Ương dưỡng","Tổng diện tích (m2)":"46000","Chứng nhận (ASC, BAP, GlobalGAP, VietGAP...)":"GlobalGAP","Số giấy chứng nhận cơ sở đủ điều kiện sản ":"GTS860001","Ngày cấp giấy chứng nhận":"03/08/2020","Đối tượng thủy sản sản xuất":null,"Tình trạng hoạt động":"Đang hoạt động","Ghi chú":"","layer_id":276,"fid":64,"label":"Trại Giống Thuy sản - Trung tâm giống nông nghiệp"}},{"type":"Feature","id":65,"geometry":{"type":"Point","coordinates":[105.9592368,10.0864608]},"properties":{"Tên cơ sở":"Lê Văn Thảo ","Loại hình":"Hộ sản xuất","Địa chỉ sản xuất":"Ấp Mỹ Tân, xã Cái Ngang, tỉnh Vĩnh Long","Đối tượng sản xuất":"Lươn","Hình thức sản xuất (SXG, ương dưỡng)":"Sản xuất","Tổng diện tích (m2)":"10000","Chứng nhận (ASC, BAP, GlobalGAP, VietGAP...)":"","Số giấy chứng nhận cơ sở đủ điều kiện sản ":"","Ngày cấp giấy chứng nhận":"","Đối tượng thủy sản sản xuất":null,"Tình trạng hoạt động":"Đang hoạt động","Ghi chú":"","layer_id":276,"fid":65,"label":"Lê Văn Thảo "}},{"type":"Feature","id":66,"geometry":{"type":"Point","coordinates":[105.881692,9.953356]},"properties":{"Tên cơ sở":"Công ty CP xuất nhập khẩu thủy sản Cần Thơ","Loại hình":"Doanh nghiệp","Địa chỉ sản xuất":"Ấp Phú Long, xã Phú Thành, huyện Trà Ôn","Đối tượng sản xuất":"Cá tra","Hình thức sản xuất (SXG, ương dưỡng)":"Sản xuất, ương dưỡng","Tổng diện tích (m2)":"45000","Chứng nhận (ASC, BAP, GlobalGAP, VietGAP...)":"BAP","Số giấy chứng nhận cơ sở đủ điều kiện sản ":"GTS860002","Ngày cấp giấy chứng nhận":"05/08/2020","Đối tượng thủy sản sản xuất":null,"Tình trạng hoạt động":"Đang hoạt động","Ghi chú":"","layer_id":276,"fid":66,"label":"Công ty CP xuất nhập khẩu thủy sản Cần Thơ"}},{"type":"Feature","id":67,"geometry":{"type":"Point","coordinates":[105.9162072,10.1304987]},"properties":{"Tên cơ sở":"Trại cá giống Năm Nu","Loại hình":"Hộ sản xuất","Địa chỉ sản xuất":"Ấp Phú An, xã Song Phú, tỉnh Vĩnh Long","Đối tượng sản xuất":"Cá trê vàng","Hình thức sản xuất (SXG, ương dưỡng)":"Sản xuất","Tổng diện tích (m2)":"4000","Chứng nhận (ASC, BAP, GlobalGAP, VietGAP...)":"","Số giấy chứng nhận cơ sở đủ điều kiện sản ":"GTS860003","Ngày cấp giấy chứng nhận":"06/08/2020","Đối tượng thủy sản sản xuất":null,"Tình trạng hoạt động":"Đang hoạt động","Ghi chú":"","layer_id":276,"fid":67,"label":"Trại cá giống Năm Nu"}},{"type":"Feature","id":68,"geometry":{"type":"Point","coordinates":[105.9505027,10.0270514]},"properties":{"Tên cơ sở":"Thạch Cua ","Loại hình":"Hộ sản xuất","Địa chỉ sản xuất":"Ấp CầnSúc, xã Ngãi Tứ, tỉnh Vĩnh Long","Đối tượng sản xuất":"Lươn","Hình thức sản xuất (SXG, ương dưỡng)":"Sản xuất","Tổng diện tích (m2)":"2000","Chứng nhận (ASC, BAP, GlobalGAP, VietGAP...)":"","Số giấy chứng nhận cơ sở đủ điều kiện sản ":"","Ngày cấp giấy chứng nhận":"","Đối tượng thủy sản sản xuất":null,"Tình trạng hoạt động":"Đang hoạt động","Ghi chú":"","layer_id":276,"fid":68,"label":"Thạch Cua "}},{"type":"Feature","id":69,"geometry":{"type":"Point","coordinates":[105.916858,10.133087]},"properties":{"Tên cơ sở":"Cơ sở cá giống Trung Hào","Loại hình":"Hộ sản xuất","Địa chỉ sản xuất":"Ấp Phú Lợi, xã Song Phú, tỉnh Vĩnh Long","Đối tượng sản xuất":"Cá tra, mè hoa, trắm cỏ, cá chép, trê lai, sặc rằn","Hình thức sản xuất (SXG, ương dưỡng)":"Ương dưỡng","Tổng diện tích (m2)":"4000","Chứng nhận (ASC, BAP, GlobalGAP, VietGAP...)":"","Số giấy chứng nhận cơ sở đủ điều kiện sản ":"GTS860004","Ngày cấp giấy chứng nhận":"06/11/2023","Đối tượng thủy sản sản xuất":null,"Tình trạng hoạt động":"Đang hoạt động","Ghi chú":"","layer_id":276,"fid":69,"label":"Cơ sở cá giống Trung Hào"}},{"type":"Feature","id":70,"geometry":{"type":"Point","coordinates":[105.8804386,10.0997606]},"properties":{"Tên cơ sở":"Võ Văn Luyến ","Loại hình":"Hộ sản xuất","Địa chỉ sản xuất":"Ấp Phú Hữu Tây, xã Song Phú, tỉnh Vĩnh Long","Đối tượng sản xuất":"Cá tra, cá trắng các loại","Hình thức sản xuất (SXG, ương dưỡng)":"Ương dưỡng","Tổng diện tích (m2)":"34000","Chứng nhận (ASC, BAP, GlobalGAP, VietGAP...)":"","Số giấy chứng nhận cơ sở đủ điều kiện sản ":"","Ngày cấp giấy chứng nhận":"","Đối tượng thủy sản sản xuất":"","Tình trạng hoạt động":"Đang hoạt động","Ghi chú":"","layer_id":276,"fid":70,"label":"Võ Văn Luyến "}},{"type":"Feature","id":71,"geometry":{"type":"Point","coordinates":[105.8799298,10.0995023]},"properties":{"Tên cơ sở":"Võ Nguyễn Chí Trung ","Loại hình":"Hộ sản xuất","Địa chỉ sản xuất":"Ấp Phú Hữu Tây, xã Song Phú, tỉnh Vĩnh Long","Đối tượng sản xuất":"Cá trắng các loại","Hình thức sản xuất (SXG, ương dưỡng)":"Ương dưỡng","Tổng diện tích (m2)":"17000","Chứng nhận (ASC, BAP, GlobalGAP, VietGAP...)":"","Số giấy chứng nhận cơ sở đủ điều kiện sản ":"","Ngày cấp giấy chứng nhận":"","Đối tượng thủy sản sản xuất":"","Tình trạng hoạt động":"Đang hoạt động","Ghi chú":"","layer_id":276,"fid":71,"label":"Võ Nguyễn Chí Trung "}},{"type":"Feature","id":72,"geometry":{"type":"Point","coordinates":[105.8814714,10.1098886]},"properties":{"Tên cơ sở":"Phạm Văn Chôm ","Loại hình":"Hộ sản xuất","Địa chỉ sản xuất":"Ấp Phú Hữu Tây, xã Song Phú, tỉnh Vĩnh Long","Đối tượng sản xuất":"Cá tra, cá trắng các loại","Hình thức sản xuất (SXG, ương dưỡng)":"Ương dưỡng","Tổng diện tích (m2)":"10000","Chứng nhận (ASC, BAP, GlobalGAP, VietGAP...)":"","Số giấy chứng nhận cơ sở đủ điều kiện sản ":"","Ngày cấp giấy chứng nhận":"","Đối tượng thủy sản sản xuất":"","Tình trạng hoạt động":"Đang hoạt động","Ghi chú":"","layer_id":276,"fid":72,"label":"Phạm Văn Chôm "}},{"type":"Feature","id":73,"geometry":{"type":"Point","coordinates":[105.8682637,10.1147005]},"properties":{"Tên cơ sở":"Lê Văn Bắc ","Loại hình":"Hộ sản xuất","Địa chỉ sản xuất":"Ấp Phú Hưng, xã Song Phú, tỉnh Vĩnh Long","Đối tượng sản xuất":"Cá tra, cá trắng các loại","Hình thức sản xuất (SXG, ương dưỡng)":"Ương dưỡng","Tổng diện tích (m2)":"18500","Chứng nhận (ASC, BAP, GlobalGAP, VietGAP...)":"","Số giấy chứng nhận cơ sở đủ điều kiện sản ":"","Ngày cấp giấy chứng nhận":"","Đối tượng thủy sản sản xuất":"","Tình trạng hoạt động":"Đang hoạt động","Ghi chú":"","layer_id":276,"fid":73,"label":"Lê Văn Bắc "}},{"type":"Feature","id":74,"geometry":{"type":"Point","coordinates":[105.910665,10.128537]},"properties":{"Tên cơ sở":"Đoàn Tiến Dũng ","Loại hình":"Hộ sản xuất","Địa chỉ sản xuất":"Ấp Phú An, xã Song Phú, tỉnh Vĩnh Long","Đối tượng sản xuất":"Cá trắng các loại","Hình thức sản xuất (SXG, ương dưỡng)":"Ương dưỡng","Tổng diện tích (m2)":"80000","Chứng nhận (ASC, BAP, GlobalGAP, VietGAP...)":"","Số giấy chứng nhận cơ sở đủ điều kiện sản ":"","Ngày cấp giấy chứng nhận":"","Đối tượng thủy sản sản xuất":"","Tình trạng hoạt động":"Đang hoạt động","Ghi chú":"","layer_id":276,"fid":74,"label":"Đoàn Tiến Dũng "}},{"type":"Feature","id":75,"geometry":{"type":"Point","coordinates":[106.0032941,10.0991847]},"properties":{"Tên cơ sở":"Nguyễn Minh Hiếu","Loại hình":"Hộ sản xuất","Địa chỉ sản xuất":"Ấp 7, xã Hòa Hiệp, tỉnh Vĩnh Long","Đối tượng sản xuất":"Cá tra, cá trắng các loại","Hình thức sản xuất (SXG, ương dưỡng)":"Ương dưỡng","Tổng diện tích (m2)":"7000","Chứng nhận (ASC, BAP, GlobalGAP, VietGAP...)":"","Số giấy chứng nhận cơ sở đủ điều kiện sản ":"","Ngày cấp giấy chứng nhận":"","Đối tượng thủy sản sản xuất":"","Tình trạng hoạt động":"Đang hoạt động","Ghi chú":"","layer_id":276,"fid":75,"label":"Nguyễn Minh Hiếu"}},{"type":"Feature","id":76,"geometry":{"type":"Point","coordinates":[106.045735,10.0840161]},"properties":{"Tên cơ sở":"Cao Huỳnh Lân","Loại hình":"Hộ sản xuất","Địa chỉ sản xuất":"Ấp 7, xã Hòa Hiệp, tỉnh Vĩnh Long","Đối tượng sản xuất":"Cá tra, cá trắng các loại","Hình thức sản xuất (SXG, ương dưỡng)":"Ương dưỡng","Tổng diện tích (m2)":"6000","Chứng nhận (ASC, BAP, GlobalGAP, VietGAP...)":"","Số giấy chứng nhận cơ sở đủ điều kiện sản ":"","Ngày cấp giấy chứng nhận":"","Đối tượng thủy sản sản xuất":"","Tình trạng hoạt động":"Đang hoạt động","Ghi chú":"","layer_id":276,"fid":76,"label":"Cao Huỳnh Lân"}},{"type":"Feature","id":77,"geometry":{"type":"Point","coordinates":[106.0034053,10.0885622]},"properties":{"Tên cơ sở":"Dương Phúc","Loại hình":"Hộ sản xuất","Địa chỉ sản xuất":"Ấp 7, xã Hòa Hiệp, tỉnh Vĩnh Long","Đối tượng sản xuất":"Lươn","Hình thức sản xuất (SXG, ương dưỡng)":"Sản xuất","Tổng diện tích (m2)":"20000","Chứng nhận (ASC, BAP, GlobalGAP, VietGAP...)":"","Số giấy chứng nhận cơ sở đủ điều kiện sản ":"","Ngày cấp giấy chứng nhận":"","Đối tượng thủy sản sản xuất":"","Tình trạng hoạt động":"Đang hoạt động","Ghi chú":"","layer_id":276,"fid":77,"label":"Dương Phúc"}},{"type":"Feature","id":78,"geometry":{"type":"Point","coordinates":[105.9673396,10.1116514]},"properties":{"Tên cơ sở":"Nguyễn Minh Đời ","Loại hình":"Hộ sản xuất","Địa chỉ sản xuất":"Ấp 8, xã Cái Ngang, tỉnh Vĩnh Long","Đối tượng sản xuất":"Lươn","Hình thức sản xuất (SXG, ương dưỡng)":"Sản xuất","Tổng diện tích (m2)":"15000","Chứng nhận (ASC, BAP, GlobalGAP, VietGAP...)":"","Số giấy chứng nhận cơ sở đủ điều kiện sản ":"","Ngày cấp giấy chứng nhận":"","Đối tượng thủy sản sản xuất":"","Tình trạng hoạt động":"Đang hoạt động","Ghi chú":"","layer_id":276,"fid":78,"label":"Nguyễn Minh Đời "}},{"type":"Feature","id":79,"geometry":{"type":"Point","coordinates":[105.9493716,9.9974604]},"properties":{"Tên cơ sở":"Nguyễn Hồng Quân","Loại hình":"Hộ sản xuất","Địa chỉ sản xuất":"Ấp 8, xã Cái Ngang, tỉnh Vĩnh Long","Đối tượng sản xuất":"Baba","Hình thức sản xuất (SXG, ương dưỡng)":"Sản xuất","Tổng diện tích (m2)":"15000","Chứng nhận (ASC, BAP, GlobalGAP, VietGAP...)":"","Số giấy chứng nhận cơ sở đủ điều kiện sản ":"","Ngày cấp giấy chứng nhận":"","Đối tượng thủy sản sản xuất":"","Tình trạng hoạt động":"Đang hoạt động","Ghi chú":"","layer_id":276,"fid":79,"label":"Nguyễn Hồng Quân"}},{"type":"Feature","id":80,"geometry":{"type":"Point","coordinates":[105.9606976,10.0684481]},"properties":{"Tên cơ sở":"Lê Hữu Nhân ","Loại hình":"Hộ sản xuất","Địa chỉ sản xuất":"Ấp Cây Bàng, xã Tam Bình, tỉnh Vĩnh Long","Đối tượng sản xuất":"Ếch","Hình thức sản xuất (SXG, ương dưỡng)":"Sản xuất","Tổng diện tích (m2)":"2000","Chứng nhận (ASC, BAP, GlobalGAP, VietGAP...)":"","Số giấy chứng nhận cơ sở đủ điều kiện sản ":"","Ngày cấp giấy chứng nhận":"","Đối tượng thủy sản sản xuất":"","Tình trạng hoạt động":"Đang hoạt động","Ghi chú":"","layer_id":276,"fid":80,"label":"Lê Hữu Nhân "}},{"type":"Feature","id":81,"geometry":{"type":"Point","coordinates":[105.9229093,10.2379614]},"properties":{"Tên cơ sở":"Thạch Quốc Thanh","Loại hình":"Hộ sản xuất","Địa chỉ sản xuất":"Khóm Vĩnh Bình, phường Tân Ngãi, tỉnh Vĩnh Long","Đối tượng sản xuất":"Cá điêu hồng","Hình thức sản xuất (SXG, ương dưỡng)":"Ương dưỡng","Tổng diện tích (m2)":"2000","Chứng nhận (ASC, BAP, GlobalGAP, VietGAP...)":"","Số giấy chứng nhận cơ sở đủ điều kiện sản ":"","Ngày cấp giấy chứng nhận":"","Đối tượng thủy sản sản xuất":"","Tình trạng hoạt động":"Đang hoạt động","Ghi chú":"","layer_id":276,"fid":81,"label":"Thạch Quốc Thanh"}},{"type":"Feature","id":82,"geometry":{"type":"Point","coordinates":[105.9231283,10.238295]},"properties":{"Tên cơ sở":"Phạm Quang Tuân","Loại hình":"Hộ sản xuất","Địa chỉ sản xuất":"Khóm Vĩnh Bình, phường Tân Ngãi, tỉnh Vĩnh Long","Đối tượng sản xuất":"cá các loại","Hình thức sản xuất (SXG, ương dưỡng)":"Ương dưỡng","Tổng diện tích (m2)":"9000","Chứng nhận (ASC, BAP, GlobalGAP, VietGAP...)":"","Số giấy chứng nhận cơ sở đủ điều kiện sản ":"","Ngày cấp giấy chứng nhận":"","Đối tượng thủy sản sản xuất":"","Tình trạng hoạt động":"Đang hoạt động","Ghi chú":"","layer_id":276,"fid":82,"label":"Phạm Quang Tuân"}},{"type":"Feature","id":83,"geometry":{"type":"Point","coordinates":[105.894147,10.27111]},"properties":{"Tên cơ sở":"Nguyễn Hoàng Tánh","Loại hình":"Hộ sản xuất","Địa chỉ sản xuất":" Khóm Mỹ Thuận, phường Tân Ngãi tỉnh Vĩnh Long","Đối tượng sản xuất":"Cá điêu hồng","Hình thức sản xuất (SXG, ương dưỡng)":"Ương dưỡng","Tổng diện tích (m2)":"2200","Chứng nhận (ASC, BAP, GlobalGAP, VietGAP...)":"","Số giấy chứng nhận cơ sở đủ điều kiện sản ":"","Ngày cấp giấy chứng nhận":"","Đối tượng thủy sản sản xuất":"","Tình trạng hoạt động":"Đang hoạt động","Ghi chú":"","layer_id":276,"fid":83,"label":"Nguyễn Hoàng Tánh"}},{"type":"Feature","id":84,"geometry":{"type":"Point","coordinates":[105.89421,10.2702943]},"properties":{"Tên cơ sở":"Nguyễn Hoàng Na","Loại hình":"Hộ sản xuất","Địa chỉ sản xuất":" Khóm Mỹ Thuận, phường Tân Ngãi, tỉnh Vĩnh Long","Đối tượng sản xuất":"Cá điêu hồng","Hình thức sản xuất (SXG, ương dưỡng)":"Ương dưỡng","Tổng diện tích (m2)":"5000","Chứng nhận (ASC, BAP, GlobalGAP, VietGAP...)":"","Số giấy chứng nhận cơ sở đủ điều kiện sản ":"","Ngày cấp giấy chứng nhận":"","Đối tượng thủy sản sản xuất":"","Tình trạng hoạt động":"Đang hoạt động","Ghi chú":"","layer_id":276,"fid":84,"label":"Nguyễn Hoàng Na"}},{"type":"Feature","id":85,"geometry":{"type":"Point","coordinates":[105.8888171,10.2509501]},"properties":{"Tên cơ sở":"Lê Văn Minh","Loại hình":"Hộ sản xuất","Địa chỉ sản xuất":"Khóm Tân An, phường Tân Ngãi, tỉnh Vĩnh Long","Đối tượng sản xuất":"Cá điêu hồng","Hình thức sản xuất (SXG, ương dưỡng)":"Ương dưỡng","Tổng diện tích (m2)":"5500","Chứng nhận (ASC, BAP, GlobalGAP, VietGAP...)":"","Số giấy chứng nhận cơ sở đủ điều kiện sản ":"","Ngày cấp giấy chứng nhận":"","Đối tượng thủy sản sản xuất":"","Tình trạng hoạt động":"Đang hoạt động","Ghi chú":"","layer_id":276,"fid":85,"label":"Lê Văn Minh"}},{"type":"Feature","id":86,"geometry":{"type":"Point","coordinates":[105.9475312,10.2491762]},"properties":{"Tên cơ sở":"Đỗ Trung Hiếu","Loại hình":"Hộ sản xuất","Địa chỉ sản xuất":"Khóm 3, phường Long Châu, tỉnh Vĩnh Long","Đối tượng sản xuất":"Cá tra, cá trê, cá điêu hồng","Hình thức sản xuất (SXG, ương dưỡng)":"Ương dưỡng","Tổng diện tích (m2)":"7500","Chứng nhận (ASC, BAP, GlobalGAP, VietGAP...)":"","Số giấy chứng nhận cơ sở đủ điều kiện sản ":"","Ngày cấp giấy chứng nhận":"","Đối tượng thủy sản sản xuất":"","Tình trạng hoạt động":"Đang hoạt động","Ghi chú":"","layer_id":276,"fid":86,"label":"Đỗ Trung Hiếu"}},{"type":"Feature","id":87,"geometry":{"type":"Point","coordinates":[105.936217,10.243779]},"properties":{"Tên cơ sở":"Chu Văn An","Loại hình":"Hộ sản xuất","Địa chỉ sản xuất":"Khóm Tân Quới Hưng, phường Long Châu, tỉnh Vĩnh Long","Đối tượng sản xuất":"Cá Koi, cá basa","Hình thức sản xuất (SXG, ương dưỡng)":"Ương dưỡng","Tổng diện tích (m2)":"8000","Chứng nhận (ASC, BAP, GlobalGAP, VietGAP...)":"","Số giấy chứng nhận cơ sở đủ điều kiện sản ":"","Ngày cấp giấy chứng nhận":"","Đối tượng thủy sản sản xuất":"","Tình trạng hoạt động":"Đang hoạt động","Ghi chú":"","layer_id":276,"fid":87,"label":"Chu Văn An"}},{"type":"Feature","id":88,"geometry":{"type":"Point","coordinates":[105.91143,10.26759]},"properties":{"Tên cơ sở":"Nguyễn Thế Khoa","Loại hình":"Hộ sản xuất","Địa chỉ sản xuất":"Khóm Tân Phú, phường Tân Ngãi, tỉnh Vĩnh Long","Đối tượng sản xuất":"Ếch","Hình thức sản xuất (SXG, ương dưỡng)":"Ương dưỡng","Tổng diện tích (m2)":"1000","Chứng nhận (ASC, BAP, GlobalGAP, VietGAP...)":"","Số giấy chứng nhận cơ sở đủ điều kiện sản ":"","Ngày cấp giấy chứng nhận":"","Đối tượng thủy sản sản xuất":"","Tình trạng hoạt động":"Đang hoạt động","Ghi chú":"","layer_id":276,"fid":88,"label":"Nguyễn Thế Khoa"}},{"type":"Feature","id":89,"geometry":{"type":"Point","coordinates":[105.937407,10.2529475]},"properties":{"Tên cơ sở":"Lê Minh Thành","Loại hình":"Hộ sản xuất","Địa chỉ sản xuất":"Khóm Tân Quới Hưng, phường Long Châu, tỉnh Vĩnh Long","Đối tượng sản xuất":"Baba","Hình thức sản xuất (SXG, ương dưỡng)":"Ương dưỡng","Tổng diện tích (m2)":"600","Chứng nhận (ASC, BAP, GlobalGAP, VietGAP...)":"","Số giấy chứng nhận cơ sở đủ điều kiện sản ":"","Ngày cấp giấy chứng nhận":"","Đối tượng thủy sản sản xuất":"","Tình trạng hoạt động":"Đang hoạt động","Ghi chú":"","layer_id":276,"fid":89,"label":"Lê Minh Thành"}},{"type":"Feature","id":90,"geometry":{"type":"Point","coordinates":[105.938332,10.2551758]},"properties":{"Tên cơ sở":"Tống Quốc Thắng","Loại hình":"Hộ sản xuất","Địa chỉ sản xuất":"Khóm Tân Quới Hưng, phường Long Châu, tỉnh Vĩnh Long","Đối tượng sản xuất":"Lươn","Hình thức sản xuất (SXG, ương dưỡng)":"Ương dưỡng","Tổng diện tích (m2)":"5000","Chứng nhận (ASC, BAP, GlobalGAP, VietGAP...)":"","Số giấy chứng nhận cơ sở đủ điều kiện sản ":"","Ngày cấp giấy chứng nhận":"","Đối tượng thủy sản sản xuất":"","Tình trạng hoạt động":"Đang hoạt động","Ghi chú":"","layer_id":276,"fid":90,"label":"Tống Quốc Thắng"}},{"type":"Feature","id":91,"geometry":{"type":"Point","coordinates":[105.92042,10.250661]},"properties":{"Tên cơ sở":"Võ Minh Phú","Loại hình":"Hộ sản xuất","Địa chỉ sản xuất":"Khóm Tân Quới Tây, phường Long Châu, tỉnh Vĩnh Long","Đối tượng sản xuất":"Ốc","Hình thức sản xuất (SXG, ương dưỡng)":"Ương dưỡng","Tổng diện tích (m2)":"160","Chứng nhận (ASC, BAP, GlobalGAP, VietGAP...)":"","Số giấy chứng nhận cơ sở đủ điều kiện sản ":"","Ngày cấp giấy chứng nhận":"","Đối tượng thủy sản sản xuất":"","Tình trạng hoạt động":"Đang hoạt động","Ghi chú":"","layer_id":276,"fid":91,"label":"Võ Minh Phú"}},{"type":"Feature","id":92,"geometry":{"type":"Point","coordinates":[105.8959005,10.2570761]},"properties":{"Tên cơ sở":"Phạm Thị Thùy Dương","Loại hình":"Hộ sản xuất","Địa chỉ sản xuất":"Khóm Tân Bình, phường Tân Ngãi, tỉnh Vĩnh Long","Đối tượng sản xuất":"Ốc","Hình thức sản xuất (SXG, ương dưỡng)":"Ương dưỡng","Tổng diện tích (m2)":"1200","Chứng nhận (ASC, BAP, GlobalGAP, VietGAP...)":"","Số giấy chứng nhận cơ sở đủ điều kiện sản ":"","Ngày cấp giấy chứng nhận":"","Đối tượng thủy sản sản xuất":"","Tình trạng hoạt động":"Đang hoạt động","Ghi chú":"","layer_id":276,"fid":92,"label":"Phạm Thị Thùy Dương"}},{"type":"Feature","id":93,"geometry":{"type":"Point","coordinates":[105.9279549,10.0981261]},"properties":{"Tên cơ sở":"Nguyễn Minh Tân","Loại hình":"Hộ sản xuất","Địa chỉ sản xuất":"Ấp Cây Điều, xã Cái Ngang, tỉnh Vĩnh Long","Đối tượng sản xuất":"Ếch","Hình thức sản xuất (SXG, ương dưỡng)":"Ương dưỡng","Tổng diện tích (m2)":"100","Chứng nhận (ASC, BAP, GlobalGAP, VietGAP...)":null,"Số giấy chứng nhận cơ sở đủ điều kiện sản ":null,"Ngày cấp giấy chứng nhận":null,"Đối tượng thủy sản sản xuất":null,"Tình trạng hoạt động":"Đang hoạt động","Ghi chú":"","layer_id":276,"fid":93,"label":"Nguyễn Minh Tân"}},{"type":"Feature","id":94,"geometry":{"type":"Point","coordinates":[106.0582459,10.0851127]},"properties":{"Tên cơ sở":"Nguyễn Đông Xuân","Loại hình":"Hộ sản xuất","Địa chỉ sản xuất":"Ấp Thạnh Hiệp, xã Hoà Hiệp, tỉnh Vĩnh Long","Đối tượng sản xuất":"Ốc","Hình thức sản xuất (SXG, ương dưỡng)":"Sản xuất","Tổng diện tích (m2)":"3000","Chứng nhận (ASC, BAP, GlobalGAP, VietGAP...)":null,"Số giấy chứng nhận cơ sở đủ điều kiện sản ":null,"Ngày cấp giấy chứng nhận":null,"Đối tượng thủy sản sản xuất":null,"Tình trạng hoạt động":"Đang hoạt động","Ghi chú":"","layer_id":276,"fid":94,"label":"Nguyễn Đông Xuân"}},{"type":"Feature","id":95,"geometry":{"type":"Point","coordinates":[105.9540474,10.009895]},"properties":{"Tên cơ sở":"Thạch Quân","Loại hình":"Hộ sản xuất","Địa chỉ sản xuất":"Ấp Sóc Rừng, xã Ngãi Tứ, tỉnh Vĩnh Long","Đối tượng sản xuất":"Ếch","Hình thức sản xuất (SXG, ương dưỡng)":"Ương dưỡng","Tổng diện tích (m2)":"40","Chứng nhận (ASC, BAP, GlobalGAP, VietGAP...)":null,"Số giấy chứng nhận cơ sở đủ điều kiện sản ":null,"Ngày cấp giấy chứng nhận":null,"Đối tượng thủy sản sản xuất":null,"Tình trạng hoạt động":"Đang hoạt động","Ghi chú":"","layer_id":276,"fid":95,"label":"Thạch Quân"}},{"type":"Feature","id":97,"geometry":{"type":"Point","coordinates":[105.8721811,10.1093699]},"properties":{"Tên cơ sở":"Phạm Văn Khoẻ","Loại hình":"Hộ sản xuất","Địa chỉ sản xuất":"Ấp Phú Hữu Tây, xã Song Phú, tỉnh Vĩnh Long","Đối tượng sản xuất":"cá tra, cá trắm","Hình thức sản xuất (SXG, ương dưỡng)":"Ương dưỡng","Tổng diện tích (m2)":"10000","Chứng nhận (ASC, BAP, GlobalGAP, VietGAP...)":null,"Số giấy chứng nhận cơ sở đủ điều kiện sản ":null,"Ngày cấp giấy chứng nhận":null,"Đối tượng thủy sản sản xuất":null,"Tình trạng hoạt động":"Đang hoạt động","Ghi chú":null,"layer_id":276,"fid":97,"label":"Phạm Văn Khoẻ"}},{"type":"Feature","id":96,"geometry":{"type":"Point","coordinates":[106.040025,10.1217479]},"properties":{"Tên cơ sở":"Nguyễn Tấn Lợi","Loại hình":"Hộ sản xuất","Địa chỉ sản xuất":"Ấp 2, xã Hoà Hiệp, tỉnh Vĩnh Long","Đối tượng sản xuất":"Cá giống các loại","Hình thức sản xuất (SXG, ương dưỡng)":"Ương dưỡng","Tổng diện tích (m2)":"10000","Chứng nhận (ASC, BAP, GlobalGAP, VietGAP...)":null,"Số giấy chứng nhận cơ sở đủ điều kiện sản ":null,"Ngày cấp giấy chứng nhận":null,"Đối tượng thủy sản sản xuất":null,"Tình trạng hoạt động":"Đang hoạt động","Ghi chú":"","layer_id":276,"fid":96,"label":"Nguyễn Tấn Lợi"}},{"type":"Feature","id":98,"geometry":{"type":"Point","coordinates":[105.8742682,10.1007744]},"properties":{"Tên cơ sở":"Lê Văn Liêm","Loại hình":"Hộ sản xuất","Địa chỉ sản xuất":"Ấp Phú Hữu Tây, xã Song Phú, tỉnh Vĩnh Long","Đối tượng sản xuất":"cá chim","Hình thức sản xuất (SXG, ương dưỡng)":"Ương dưỡng","Tổng diện tích (m2)":"6000","Chứng nhận (ASC, BAP, GlobalGAP, VietGAP...)":null,"Số giấy chứng nhận cơ sở đủ điều kiện sản ":null,"Ngày cấp giấy chứng nhận":null,"Đối tượng thủy sản sản xuất":null,"Tình trạng hoạt động":"Đang hoạt động","Ghi chú":"","layer_id":276,"fid":98,"label":"Lê Văn Liêm"}},{"type":"Feature","id":99,"geometry":{"type":"Point","coordinates":[105.8815839,10.099091]},"properties":{"Tên cơ sở":"Hồ Văn Nho","Loại hình":"Hộ sản xuất","Địa chỉ sản xuất":"Ấp Phú Nghĩa, xã Song Phú, tỉnh Vĩnh Long","Đối tượng sản xuất":"Cá giống các loại","Hình thức sản xuất (SXG, ương dưỡng)":"Ương dưỡng","Tổng diện tích (m2)":"10000","Chứng nhận (ASC, BAP, GlobalGAP, VietGAP...)":null,"Số giấy chứng nhận cơ sở đủ điều kiện sản ":null,"Ngày cấp giấy chứng nhận":null,"Đối tượng thủy sản sản xuất":null,"Tình trạng hoạt động":"Đang hoạt động","Ghi chú":"","layer_id":276,"fid":99,"label":"Hồ Văn Nho"}},{"type":"Feature","id":100,"geometry":{"type":"Point","coordinates":[105.8814491,10.0998023]},"properties":{"Tên cơ sở":"Võ Thanh Hoà","Loại hình":"Hộ sản xuất","Địa chỉ sản xuất":"Ấp Phú Nghĩa, xã Song Phú, tỉnh Vĩnh Long","Đối tượng sản xuất":"Cá giống các loại","Hình thức sản xuất (SXG, ương dưỡng)":"Ương dưỡng","Tổng diện tích (m2)":"6000","Chứng nhận (ASC, BAP, GlobalGAP, VietGAP...)":null,"Số giấy chứng nhận cơ sở đủ điều kiện sản ":null,"Ngày cấp giấy chứng nhận":null,"Đối tượng thủy sản sản xuất":null,"Tình trạng hoạt động":"Đang hoạt động","Ghi chú":"","layer_id":276,"fid":100,"label":"Võ Thanh Hoà"}},{"type":"Feature","id":101,"geometry":{"type":"Point","coordinates":[105.8816868,10.0990335]},"properties":{"Tên cơ sở":"Nguyễn Thị Tâm","Loại hình":"Hộ sản xuất","Địa chỉ sản xuất":"Ấp Phú Nghĩa, xã Song Phú, tỉnh Vĩnh Long","Đối tượng sản xuất":"Cá giống các loại","Hình thức sản xuất (SXG, ương dưỡng)":"Ương dưỡng","Tổng diện tích (m2)":"6000","Chứng nhận (ASC, BAP, GlobalGAP, VietGAP...)":null,"Số giấy chứng nhận cơ sở đủ điều kiện sản ":null,"Ngày cấp giấy chứng nhận":null,"Đối tượng thủy sản sản xuất":null,"Tình trạng hoạt động":"Đang hoạt động","Ghi chú":"","layer_id":276,"fid":101,"label":"Nguyễn Thị Tâm"}},{"type":"Feature","id":141,"geometry":{"type":"Point","coordinates":[106090230.0,10210198.0]},"properties":{"Tên cơ sở":"Huỳnh Kim Thùy","Loại hình":"Hộ sản xuất","Địa chỉ sản xuất":"Phú Hòa, Nhơn Phú, tỉnh Vĩnh Long","Đối tượng sản xuất":"Lươn","Hình thức sản xuất (SXG, ương dưỡng)":"Sản xuất","Tổng diện tích (m2)":"300","Chứng nhận (ASC, BAP, GlobalGAP, VietGAP...)":null,"Số giấy chứng nhận cơ sở đủ điều kiện sản ":null,"Ngày cấp giấy chứng nhận":null,"Đối tượng thủy sản sản xuất":null,"Tình trạng hoạt động":"Đang hoạt động","Ghi chú":null,"layer_id":276,"fid":141,"label":"Huỳnh Kim Thùy"}},{"type":"Feature","id":102,"geometry":{"type":"Point","coordinates":[105.8826651,10.0966348]},"properties":{"Tên cơ sở":"Nguyễn Minh Đức","Loại hình":"Hộ sản xuất","Địa chỉ sản xuất":"Ấp Phú Nghĩa, xã Song Phú, tỉnh Vĩnh Long","Đối tượng sản xuất":"Cá giống các loại","Hình thức sản xuất (SXG, ương dưỡng)":"Ương dưỡng","Tổng diện tích (m2)":"16000","Chứng nhận (ASC, BAP, GlobalGAP, VietGAP...)":null,"Số giấy chứng nhận cơ sở đủ điều kiện sản ":null,"Ngày cấp giấy chứng nhận":null,"Đối tượng thủy sản sản xuất":null,"Tình trạng hoạt động":"Đang hoạt động","Ghi chú":"","layer_id":276,"fid":102,"label":"Nguyễn Minh Đức"}},{"type":"Feature","id":103,"geometry":{"type":"Point","coordinates":[105.8780906,10.0973174]},"properties":{"Tên cơ sở":"Lê Văn Út","Loại hình":"Hộ sản xuất","Địa chỉ sản xuất":"Ấp Phú Nghĩa, xã Song Phú, tỉnh Vĩnh Long","Đối tượng sản xuất":"Cá giống các loại","Hình thức sản xuất (SXG, ương dưỡng)":"Ương dưỡng","Tổng diện tích (m2)":"5000","Chứng nhận (ASC, BAP, GlobalGAP, VietGAP...)":null,"Số giấy chứng nhận cơ sở đủ điều kiện sản ":null,"Ngày cấp giấy chứng nhận":null,"Đối tượng thủy sản sản xuất":null,"Tình trạng hoạt động":"Đang hoạt động","Ghi chú":"","layer_id":276,"fid":103,"label":"Lê Văn Út"}},{"type":"Feature","id":104,"geometry":{"type":"Point","coordinates":[105.8763056,10.0992748]},"properties":{"Tên cơ sở":"Phan Hoàng Cảnh","Loại hình":"Hộ sản xuất","Địa chỉ sản xuất":"Ấp Phú Hữu Tây, xã Song Phú, tỉnh Vĩnh Long","Đối tượng sản xuất":"Cá giống các loại","Hình thức sản xuất (SXG, ương dưỡng)":"Ương dưỡng","Tổng diện tích (m2)":"7000","Chứng nhận (ASC, BAP, GlobalGAP, VietGAP...)":null,"Số giấy chứng nhận cơ sở đủ điều kiện sản ":null,"Ngày cấp giấy chứng nhận":null,"Đối tượng thủy sản sản xuất":null,"Tình trạng hoạt động":"Đang hoạt động","Ghi chú":"","layer_id":276,"fid":104,"label":"Phan Hoàng Cảnh"}},{"type":"Feature","id":105,"geometry":{"type":"Point","coordinates":[105.8663077,10.1153698]},"properties":{"Tên cơ sở":"Trần Quang Khải","Loại hình":"Hộ sản xuất","Địa chỉ sản xuất":"Ấp Phú Hưng, xã Song Phú, tỉnh Vĩnh Long","Đối tượng sản xuất":"Cá giống các loại","Hình thức sản xuất (SXG, ương dưỡng)":"Ương dưỡng","Tổng diện tích (m2)":"6000","Chứng nhận (ASC, BAP, GlobalGAP, VietGAP...)":null,"Số giấy chứng nhận cơ sở đủ điều kiện sản ":null,"Ngày cấp giấy chứng nhận":null,"Đối tượng thủy sản sản xuất":null,"Tình trạng hoạt động":"Đang hoạt động","Ghi chú":"","layer_id":276,"fid":105,"label":"Trần Quang Khải"}},{"type":"Feature","id":106,"geometry":{"type":"Point","coordinates":[105.8799487,10.099256]},"properties":{"Tên cơ sở":"Hồ Thị Bích Liên","Loại hình":"Hộ sản xuất","Địa chỉ sản xuất":"Ấp Phú Nghĩa, xã Song Phú, tỉnh Vĩnh Long","Đối tượng sản xuất":"Cá giống các loại","Hình thức sản xuất (SXG, ương dưỡng)":"Ương dưỡng","Tổng diện tích (m2)":"8000","Chứng nhận (ASC, BAP, GlobalGAP, VietGAP...)":null,"Số giấy chứng nhận cơ sở đủ điều kiện sản ":null,"Ngày cấp giấy chứng nhận":null,"Đối tượng thủy sản sản xuất":null,"Tình trạng hoạt động":"Đang hoạt động","Ghi chú":"","layer_id":276,"fid":106,"label":"Hồ Thị Bích Liên"}},{"type":"Feature","id":107,"geometry":{"type":"Point","coordinates":[105.8866757,10.0347124]},"properties":{"Tên cơ sở":"Nguyễn Tuấn Phong","Loại hình":"Hộ sản xuất","Địa chỉ sản xuất":"Ấp Bình Quí, xã Ngãi Tứ, tỉnh Vĩnh Long","Đối tượng sản xuất":"Lươn ếch","Hình thức sản xuất (SXG, ương dưỡng)":"Ương dưỡng","Tổng diện tích (m2)":"4000","Chứng nhận (ASC, BAP, GlobalGAP, VietGAP...)":null,"Số giấy chứng nhận cơ sở đủ điều kiện sản ":null,"Ngày cấp giấy chứng nhận":null,"Đối tượng thủy sản sản xuất":null,"Tình trạng hoạt động":"Đang hoạt động","Ghi chú":"","layer_id":276,"fid":107,"label":"Nguyễn Tuấn Phong"}},{"type":"Feature","id":108,"geometry":{"type":"Point","coordinates":[105.9435332,10.00463]},"properties":{"Tên cơ sở":"Nguyễn Văn Em","Loại hình":"Hộ sản xuất","Địa chỉ sản xuất":"Ấp An Thạnh B, xã Ngãi Tứ, tỉnh Vĩnh Long","Đối tượng sản xuất":"Lươn","Hình thức sản xuất (SXG, ương dưỡng)":"Ương dưỡng","Tổng diện tích (m2)":"2000","Chứng nhận (ASC, BAP, GlobalGAP, VietGAP...)":null,"Số giấy chứng nhận cơ sở đủ điều kiện sản ":null,"Ngày cấp giấy chứng nhận":null,"Đối tượng thủy sản sản xuất":null,"Tình trạng hoạt động":"Đang hoạt động","Ghi chú":"","layer_id":276,"fid":108,"label":"Nguyễn Văn Em"}},{"type":"Feature","id":109,"geometry":{"type":"Point","coordinates":[106.162304,10.077369]},"properties":{"Tên cơ sở":"Toàn Phát","Loại hình":"Hộ sản xuất","Địa chỉ sản xuất":"Ấp An Thành Tây, xã Trung Thành, tỉnh Vĩnh Long","Đối tượng sản xuất":"Cá chép, trê, rô phi, tai tương, cá rô","Hình thức sản xuất (SXG, ương dưỡng)":"Ương dưỡng","Tổng diện tích (m2)":"5000","Chứng nhận (ASC, BAP, GlobalGAP, VietGAP...)":"","Số giấy chứng nhận cơ sở đủ điều kiện sản ":"","Ngày cấp giấy chứng nhận":"","Đối tượng thủy sản sản xuất":"","Tình trạng hoạt động":"Đang hoạt động","Ghi chú":"","layer_id":276,"fid":109,"label":"Toàn Phát"}},{"type":"Feature","id":110,"geometry":{"type":"Point","coordinates":[106.10079,10.002019]},"properties":{"Tên cơ sở":"Nguyễn Văn Đảo ","Loại hình":"Hộ sản xuất","Địa chỉ sản xuất":"Ấp Hiếu Thọ, xã Hiếu Thành,tỉnh Vĩnh Long","Đối tượng sản xuất":"Cá chép, trê, rô phi,tai tương, cá rô","Hình thức sản xuất (SXG, ương dưỡng)":"Ương dưỡng","Tổng diện tích (m2)":"2000","Chứng nhận (ASC, BAP, GlobalGAP, VietGAP...)":"","Số giấy chứng nhận cơ sở đủ điều kiện sản ":"","Ngày cấp giấy chứng nhận":"","Đối tượng thủy sản sản xuất":"","Tình trạng hoạt động":"Đang hoạt động","Ghi chú":"","layer_id":276,"fid":110,"label":"Nguyễn Văn Đảo "}},{"type":"Feature","id":111,"geometry":{"type":"Point","coordinates":[106.092625,10.060588]},"properties":{"Tên cơ sở":"Trại giống Minh Hiếu","Loại hình":"Hộ sản xuất","Địa chỉ sản xuất":"Ấp Quang Mỹ, xã  Hiếu Phụng,tỉnh Vĩnh Long","Đối tượng sản xuất":"Lươn","Hình thức sản xuất (SXG, ương dưỡng)":"Sản xuất","Tổng diện tích (m2)":"10","Chứng nhận (ASC, BAP, GlobalGAP, VietGAP...)":"","Số giấy chứng nhận cơ sở đủ điều kiện sản ":"","Ngày cấp giấy chứng nhận":"","Đối tượng thủy sản sản xuất":"","Tình trạng hoạt động":"Đang hoạt động","Ghi chú":"","layer_id":276,"fid":111,"label":"Trại giống Minh Hiếu"}},{"type":"Feature","id":112,"geometry":{"type":"Point","coordinates":[106.174807,10.144183]},"properties":{"Tên cơ sở":"Lê Quang Khiêm","Loại hình":"Hộ sản xuất","Địa chỉ sản xuất":"Ấp Phước Thọ, xã Quới An,tỉnh Vĩnh Long","Đối tượng sản xuất":"Lươn","Hình thức sản xuất (SXG, ương dưỡng)":"Sản xuất","Tổng diện tích (m2)":"3000","Chứng nhận (ASC, BAP, GlobalGAP, VietGAP...)":"","Số giấy chứng nhận cơ sở đủ điều kiện sản ":"","Ngày cấp giấy chứng nhận":"","Đối tượng thủy sản sản xuất":"","Tình trạng hoạt động":"Đang hoạt động","Ghi chú":"","layer_id":276,"fid":112,"label":"Lê Quang Khiêm"}},{"type":"Feature","id":113,"geometry":{"type":"Point","coordinates":[106.173251,10.146659]},"properties":{"Tên cơ sở":"Đặng Văn Ngoan","Loại hình":"Hộ sản xuất","Địa chỉ sản xuất":"Ấp Phước Thọ, xã Quới An,tỉnh Vĩnh Long","Đối tượng sản xuất":"Lươn","Hình thức sản xuất (SXG, ương dưỡng)":"Sản xuất","Tổng diện tích (m2)":"4000","Chứng nhận (ASC, BAP, GlobalGAP, VietGAP...)":"","Số giấy chứng nhận cơ sở đủ điều kiện sản ":"","Ngày cấp giấy chứng nhận":"","Đối tượng thủy sản sản xuất":"","Tình trạng hoạt động":"Đang hoạt động","Ghi chú":"","layer_id":276,"fid":113,"label":"Đặng Văn Ngoan"}},{"type":"Feature","id":114,"geometry":{"type":"Point","coordinates":[106.172503,10.147469]},"properties":{"Tên cơ sở":"Lê Văn Công","Loại hình":"Hộ sản xuất","Địa chỉ sản xuất":"Ấp Phước Thọ, xã Quới An,tỉnh Vĩnh Long","Đối tượng sản xuất":"Lươn","Hình thức sản xuất (SXG, ương dưỡng)":"Sản xuất","Tổng diện tích (m2)":"3000","Chứng nhận (ASC, BAP, GlobalGAP, VietGAP...)":"","Số giấy chứng nhận cơ sở đủ điều kiện sản ":"","Ngày cấp giấy chứng nhận":"","Đối tượng thủy sản sản xuất":"","Tình trạng hoạt động":"Đang hoạt động","Ghi chú":"","layer_id":276,"fid":114,"label":"Lê Văn Công"}},{"type":"Feature","id":115,"geometry":{"type":"Point","coordinates":[106.163334,10.07805]},"properties":{"Tên cơ sở":"3 Mỹ","Loại hình":"Hộ sản xuất","Địa chỉ sản xuất":"Ấp An Điền, Xã Trung Thành, tỉnh Vĩnh Long","Đối tượng sản xuất":"Cá chép, trê, rô phi, tai tương, cá rô","Hình thức sản xuất (SXG, ương dưỡng)":"Ương dưỡng","Tổng diện tích (m2)":"5000","Chứng nhận (ASC, BAP, GlobalGAP, VietGAP...)":null,"Số giấy chứng nhận cơ sở đủ điều kiện sản ":null,"Ngày cấp giấy chứng nhận":null,"Đối tượng thủy sản sản xuất":null,"Tình trạng hoạt động":"Đang hoạt động","Ghi chú":null,"layer_id":276,"fid":115,"label":"3 Mỹ"}},{"type":"Feature","id":116,"geometry":{"type":"Point","coordinates":[106.199838,10.050525]},"properties":{"Tên cơ sở":"Trần Văn Minh","Loại hình":"Hộ sản xuất","Địa chỉ sản xuất":"Ấp Phú Nhuận, xã Trung Ngãi,tỉnh Vĩnh Long","Đối tượng sản xuất":"Cá chép, trê, rô phi, tai tương, cá rô","Hình thức sản xuất (SXG, ương dưỡng)":"Ương dưỡng","Tổng diện tích (m2)":"5000","Chứng nhận (ASC, BAP, GlobalGAP, VietGAP...)":null,"Số giấy chứng nhận cơ sở đủ điều kiện sản ":null,"Ngày cấp giấy chứng nhận":null,"Đối tượng thủy sản sản xuất":null,"Tình trạng hoạt động":"Đang hoạt động","Ghi chú":null,"layer_id":276,"fid":116,"label":"Trần Văn Minh"}},{"type":"Feature","id":117,"geometry":{"type":"Point","coordinates":[106.100312,10.00115]},"properties":{"Tên cơ sở":"Thanh Sông","Loại hình":"Hộ sản xuất","Địa chỉ sản xuất":"Ấp Hiếu Xuân Đông, xã Hiếu Thành, tỉnh Vĩnh Long","Đối tượng sản xuất":"Cá chép, trê, rô phi, tai tương, cá rô","Hình thức sản xuất (SXG, ương dưỡng)":"Ương dưỡng","Tổng diện tích (m2)":"1000","Chứng nhận (ASC, BAP, GlobalGAP, VietGAP...)":null,"Số giấy chứng nhận cơ sở đủ điều kiện sản ":null,"Ngày cấp giấy chứng nhận":null,"Đối tượng thủy sản sản xuất":null,"Tình trạng hoạt động":"Đang hoạt động","Ghi chú":null,"layer_id":276,"fid":117,"label":"Thanh Sông"}},{"type":"Feature","id":118,"geometry":{"type":"Point","coordinates":[106.187221,10.121586]},"properties":{"Tên cơ sở":"Trần Thanh Long","Loại hình":"Hộ sản xuất","Địa chỉ sản xuất":"Ấp Trường Thọ, xã Quới An, tỉnh Vĩnh Long","Đối tượng sản xuất":"Lươn, ếch","Hình thức sản xuất (SXG, ương dưỡng)":"Sản xuất","Tổng diện tích (m2)":"320","Chứng nhận (ASC, BAP, GlobalGAP, VietGAP...)":null,"Số giấy chứng nhận cơ sở đủ điều kiện sản ":null,"Ngày cấp giấy chứng nhận":null,"Đối tượng thủy sản sản xuất":null,"Tình trạng hoạt động":"Đang hoạt động","Ghi chú":null,"layer_id":276,"fid":118,"label":"Trần Thanh Long"}},{"type":"Feature","id":119,"geometry":{"type":"Point","coordinates":[10605254.0,10140378.0]},"properties":{"Tên cơ sở":"Nguyễn Hoàng Minh","Loại hình":"Hộ sản xuất","Địa chỉ sản xuất":"Ấp Thân Bình, xã Tân Long Hội, tỉnh Vĩnh Long","Đối tượng sản xuất":"Cá tra","Hình thức sản xuất (SXG, ương dưỡng)":"Ương dưỡng","Tổng diện tích (m2)":"10000","Chứng nhận (ASC, BAP, GlobalGAP, VietGAP...)":null,"Số giấy chứng nhận cơ sở đủ điều kiện sản ":null,"Ngày cấp giấy chứng nhận":null,"Đối tượng thủy sản sản xuất":null,"Tình trạng hoạt động":"Đang hoạt động","Ghi chú":null,"layer_id":276,"fid":119,"label":"Nguyễn Hoàng Minh"}},{"type":"Feature","id":120,"geometry":{"type":"Point","coordinates":[106095772.0,10126713.0]},"properties":{"Tên cơ sở":"Võ Văn Nghĩa","Loại hình":"Hộ sản xuất","Địa chỉ sản xuất":"Ấp Tân Hội, xã Tân Long Hội, tỉnh Vĩnh Long","Đối tượng sản xuất":"Cá tra","Hình thức sản xuất (SXG, ương dưỡng)":"Ương dưỡng","Tổng diện tích (m2)":"2000","Chứng nhận (ASC, BAP, GlobalGAP, VietGAP...)":null,"Số giấy chứng nhận cơ sở đủ điều kiện sản ":null,"Ngày cấp giấy chứng nhận":null,"Đối tượng thủy sản sản xuất":null,"Tình trạng hoạt động":"Đang hoạt động","Ghi chú":null,"layer_id":276,"fid":120,"label":"Võ Văn Nghĩa"}},{"type":"Feature","id":121,"geometry":{"type":"Point","coordinates":[106056627.0,10132872.0]},"properties":{"Tên cơ sở":"Thái Thanh Thông","Loại hình":"Hộ sản xuất","Địa chỉ sản xuất":"Ấp Cầu Ván, xã Tân Long Hội, tỉnh Vĩnh Long","Đối tượng sản xuất":"Cá tra","Hình thức sản xuất (SXG, ương dưỡng)":"Ương dưỡng","Tổng diện tích (m2)":"6600","Chứng nhận (ASC, BAP, GlobalGAP, VietGAP...)":null,"Số giấy chứng nhận cơ sở đủ điều kiện sản ":null,"Ngày cấp giấy chứng nhận":null,"Đối tượng thủy sản sản xuất":null,"Tình trạng hoạt động":"Đang hoạt động","Ghi chú":null,"layer_id":276,"fid":121,"label":"Thái Thanh Thông"}},{"type":"Feature","id":122,"geometry":{"type":"Point","coordinates":[106004731.0,10218813.0]},"properties":{"Tên cơ sở":"Huỳnh Trung Hiếu","Loại hình":"Hộ sản xuất","Địa chỉ sản xuất":"Ấp Long Phước, xã Bình Phước, tỉnh Vĩnh Long","Đối tượng sản xuất":"Cá tra","Hình thức sản xuất (SXG, ương dưỡng)":"Ương dưỡng","Tổng diện tích (m2)":"17000","Chứng nhận (ASC, BAP, GlobalGAP, VietGAP...)":null,"Số giấy chứng nhận cơ sở đủ điều kiện sản ":null,"Ngày cấp giấy chứng nhận":null,"Đối tượng thủy sản sản xuất":null,"Tình trạng hoạt động":"Đang hoạt động","Ghi chú":null,"layer_id":276,"fid":122,"label":"Huỳnh Trung Hiếu"}},{"type":"Feature","id":123,"geometry":{"type":"Point","coordinates":[106037557.0,10198632.0]},"properties":{"Tên cơ sở":"Lê Văn Sang\n","Loại hình":"Hộ sản xuất","Địa chỉ sản xuất":"Ấp Thiềng Long 1, xã Bình Phước, tỉnh Vĩnh Long","Đối tượng sản xuất":"Cá tra","Hình thức sản xuất (SXG, ương dưỡng)":"Ương dưỡng","Tổng diện tích (m2)":"12000","Chứng nhận (ASC, BAP, GlobalGAP, VietGAP...)":null,"Số giấy chứng nhận cơ sở đủ điều kiện sản ":null,"Ngày cấp giấy chứng nhận":null,"Đối tượng thủy sản sản xuất":null,"Tình trạng hoạt động":"Đang hoạt động","Ghi chú":null,"layer_id":276,"fid":123,"label":"Lê Văn Sang\n"}},{"type":"Feature","id":124,"geometry":{"type":"Point","coordinates":[106024198.0,10202596.0]},"properties":{"Tên cơ sở":"Nguyễn Văn Nga","Loại hình":"Hộ sản xuất","Địa chỉ sản xuất":"Ấp Bình Tịnh B, xã Hòa Tịnh, huyện Mang Thít","Đối tượng sản xuất":"Cá tra","Hình thức sản xuất (SXG, ương dưỡng)":"Ương dưỡng","Tổng diện tích (m2)":"1500","Chứng nhận (ASC, BAP, GlobalGAP, VietGAP...)":null,"Số giấy chứng nhận cơ sở đủ điều kiện sản ":null,"Ngày cấp giấy chứng nhận":null,"Đối tượng thủy sản sản xuất":null,"Tình trạng hoạt động":"Đang hoạt động","Ghi chú":null,"layer_id":276,"fid":124,"label":"Nguyễn Văn Nga"}},{"type":"Feature","id":125,"geometry":{"type":"Point","coordinates":[106022461.0,10202827.0]},"properties":{"Tên cơ sở":"Phạm Hoàng Tuấn","Loại hình":"Hộ sản xuất","Địa chỉ sản xuất":"Ấp Bình Tịnh B, xã Bình Phước, tỉnh Vĩnh Long","Đối tượng sản xuất":"Cá tra","Hình thức sản xuất (SXG, ương dưỡng)":"Ương dưỡng","Tổng diện tích (m2)":"3000","Chứng nhận (ASC, BAP, GlobalGAP, VietGAP...)":null,"Số giấy chứng nhận cơ sở đủ điều kiện sản ":null,"Ngày cấp giấy chứng nhận":null,"Đối tượng thủy sản sản xuất":null,"Tình trạng hoạt động":"Đang hoạt động","Ghi chú":null,"layer_id":276,"fid":125,"label":"Phạm Hoàng Tuấn"}},{"type":"Feature","id":126,"geometry":{"type":"Point","coordinates":[106100574.0,10172988.0]},"properties":{"Tên cơ sở":"Năm Liên Xô","Loại hình":"Hộ sản xuất","Địa chỉ sản xuất":"Khóm 3, xã Cái Nhum, tỉnh Vĩnh Long","Đối tượng sản xuất":"Cá trê, lóc, tai tượng, rô phi","Hình thức sản xuất (SXG, ương dưỡng)":"Kinh doanh","Tổng diện tích (m2)":"500","Chứng nhận (ASC, BAP, GlobalGAP, VietGAP...)":null,"Số giấy chứng nhận cơ sở đủ điều kiện sản ":null,"Ngày cấp giấy chứng nhận":null,"Đối tượng thủy sản sản xuất":null,"Tình trạng hoạt động":"Đang hoạt động","Ghi chú":null,"layer_id":276,"fid":126,"label":"Năm Liên Xô"}},{"type":"Feature","id":127,"geometry":{"type":"Point","coordinates":[106161189.0,10167334.0]},"properties":{"Tên cơ sở":"Công ty TNHH SX Lươn giống, lươn bột Song Phú","Loại hình":"Hộ sản xuất","Địa chỉ sản xuất":"Ấp Mỹ Chánh, xã Cái Nhum, tỉnh Vĩnh Long","Đối tượng sản xuất":"Lươn","Hình thức sản xuất (SXG, ương dưỡng)":"Sản xuất","Tổng diện tích (m2)":"13000","Chứng nhận (ASC, BAP, GlobalGAP, VietGAP...)":null,"Số giấy chứng nhận cơ sở đủ điều kiện sản ":null,"Ngày cấp giấy chứng nhận":null,"Đối tượng thủy sản sản xuất":null,"Tình trạng hoạt động":"Đang hoạt động","Ghi chú":null,"layer_id":276,"fid":127,"label":"Công ty TNHH SX Lươn giống, lươn bột Song Phú"}},{"type":"Feature","id":128,"geometry":{"type":"Point","coordinates":[106160368.0,10166678.0]},"properties":{"Tên cơ sở":"Nguyễn Uy Nghi","Loại hình":"Hộ sản xuất","Địa chỉ sản xuất":"ấp Tân An, xã Cái Nhum, tỉnh Vĩnh Long","Đối tượng sản xuất":"Lươn","Hình thức sản xuất (SXG, ương dưỡng)":"Sản xuất","Tổng diện tích (m2)":"4000","Chứng nhận (ASC, BAP, GlobalGAP, VietGAP...)":null,"Số giấy chứng nhận cơ sở đủ điều kiện sản ":null,"Ngày cấp giấy chứng nhận":null,"Đối tượng thủy sản sản xuất":null,"Tình trạng hoạt động":"Đang hoạt động","Ghi chú":null,"layer_id":276,"fid":128,"label":"Nguyễn Uy Nghi"}},{"type":"Feature","id":129,"geometry":{"type":"Point","coordinates":[106138899.0,10175605.0]},"properties":{"Tên cơ sở":"Phạm Văn Tảo","Loại hình":"Hộ sản xuất","Địa chỉ sản xuất":"ấp Tân Mỹ, xã Cái Nhum, tỉnh Vĩnh Long","Đối tượng sản xuất":"Lươn","Hình thức sản xuất (SXG, ương dưỡng)":"Sản xuất","Tổng diện tích (m2)":"3000","Chứng nhận (ASC, BAP, GlobalGAP, VietGAP...)":null,"Số giấy chứng nhận cơ sở đủ điều kiện sản ":null,"Ngày cấp giấy chứng nhận":null,"Đối tượng thủy sản sản xuất":null,"Tình trạng hoạt động":"Đang hoạt động","Ghi chú":null,"layer_id":276,"fid":129,"label":"Phạm Văn Tảo"}},{"type":"Feature","id":130,"geometry":{"type":"Point","coordinates":[106102879.0,10167900.0]},"properties":{"Tên cơ sở":"Nguyễn Minh Hoàng\n","Loại hình":"Hộ sản xuất","Địa chỉ sản xuất":"ấp Mỹ Chánh, xã Cái Nhum, tỉnh Vĩnh Long","Đối tượng sản xuất":"Lươn","Hình thức sản xuất (SXG, ương dưỡng)":"Sản xuất","Tổng diện tích (m2)":"2000","Chứng nhận (ASC, BAP, GlobalGAP, VietGAP...)":null,"Số giấy chứng nhận cơ sở đủ điều kiện sản ":null,"Ngày cấp giấy chứng nhận":null,"Đối tượng thủy sản sản xuất":null,"Tình trạng hoạt động":"Đang hoạt động","Ghi chú":null,"layer_id":276,"fid":130,"label":"Nguyễn Minh Hoàng\n"}},{"type":"Feature","id":131,"geometry":{"type":"Point","coordinates":[106162105.0,10168473.0]},"properties":{"Tên cơ sở":"Nguyễn Văn Thiện\n","Loại hình":"Hộ sản xuất","Địa chỉ sản xuất":"ấp Mỹ Chánh, xã Cái Nhum, tỉnh Vĩnh Long","Đối tượng sản xuất":"Lươn","Hình thức sản xuất (SXG, ương dưỡng)":"Sản xuất","Tổng diện tích (m2)":"1000","Chứng nhận (ASC, BAP, GlobalGAP, VietGAP...)":null,"Số giấy chứng nhận cơ sở đủ điều kiện sản ":null,"Ngày cấp giấy chứng nhận":null,"Đối tượng thủy sản sản xuất":null,"Tình trạng hoạt động":"Đang hoạt động","Ghi chú":null,"layer_id":276,"fid":131,"label":"Nguyễn Văn Thiện\n"}},{"type":"Feature","id":132,"geometry":{"type":"Point","coordinates":[106162585.0,10167920.0]},"properties":{"Tên cơ sở":"Nguyễn Văn Chơn","Loại hình":"Hộ sản xuất","Địa chỉ sản xuất":"ấp Mỹ Chánh, xã Cái Nhum, tỉnh Vĩnh Long","Đối tượng sản xuất":"Lươn","Hình thức sản xuất (SXG, ương dưỡng)":"Sản xuất","Tổng diện tích (m2)":"3000","Chứng nhận (ASC, BAP, GlobalGAP, VietGAP...)":null,"Số giấy chứng nhận cơ sở đủ điều kiện sản ":null,"Ngày cấp giấy chứng nhận":null,"Đối tượng thủy sản sản xuất":null,"Tình trạng hoạt động":"Đang hoạt động","Ghi chú":null,"layer_id":276,"fid":132,"label":"Nguyễn Văn Chơn"}},{"type":"Feature","id":133,"geometry":{"type":"Point","coordinates":[106159960.0,10172163.0]},"properties":{"Tên cơ sở":"Phan Anh Kiệt\n","Loại hình":"Hộ sản xuất","Địa chỉ sản xuất":"ấp Tân Mỹ, xã Cái Nhum, tỉnh Vĩnh Long","Đối tượng sản xuất":"Lươn","Hình thức sản xuất (SXG, ương dưỡng)":"Sản xuất","Tổng diện tích (m2)":"1500","Chứng nhận (ASC, BAP, GlobalGAP, VietGAP...)":null,"Số giấy chứng nhận cơ sở đủ điều kiện sản ":null,"Ngày cấp giấy chứng nhận":null,"Đối tượng thủy sản sản xuất":null,"Tình trạng hoạt động":"Đang hoạt động","Ghi chú":null,"layer_id":276,"fid":133,"label":"Phan Anh Kiệt\n"}},{"type":"Feature","id":134,"geometry":{"type":"Point","coordinates":[106136103.0,10173677.0]},"properties":{"Tên cơ sở":"Lê Văn So ","Loại hình":"Hộ sản xuất","Địa chỉ sản xuất":"ấp Tân Mỹ, xã Cái Nhum, tỉnh Vĩnh Long","Đối tượng sản xuất":"Lươn","Hình thức sản xuất (SXG, ương dưỡng)":"Sản xuất","Tổng diện tích (m2)":"1000","Chứng nhận (ASC, BAP, GlobalGAP, VietGAP...)":null,"Số giấy chứng nhận cơ sở đủ điều kiện sản ":null,"Ngày cấp giấy chứng nhận":null,"Đối tượng thủy sản sản xuất":null,"Tình trạng hoạt động":"Đang hoạt động","Ghi chú":null,"layer_id":276,"fid":134,"label":"Lê Văn So "}},{"type":"Feature","id":135,"geometry":{"type":"Point","coordinates":[106135681.0,10173234.0]},"properties":{"Tên cơ sở":"Lê Hoàng Danh","Loại hình":"Hộ sản xuất","Địa chỉ sản xuất":"ấp Tân Mỹ, xã Cái Nhum, tỉnh Vĩnh Long","Đối tượng sản xuất":"Lươn","Hình thức sản xuất (SXG, ương dưỡng)":"Sản xuất","Tổng diện tích (m2)":"1000","Chứng nhận (ASC, BAP, GlobalGAP, VietGAP...)":null,"Số giấy chứng nhận cơ sở đủ điều kiện sản ":null,"Ngày cấp giấy chứng nhận":null,"Đối tượng thủy sản sản xuất":null,"Tình trạng hoạt động":"Đang hoạt động","Ghi chú":null,"layer_id":276,"fid":135,"label":"Lê Hoàng Danh"}},{"type":"Feature","id":136,"geometry":{"type":"Point","coordinates":[106157911.0,10166682.0]},"properties":{"Tên cơ sở":"Nguyễn Thành Tâm ","Loại hình":"Hộ sản xuất","Địa chỉ sản xuất":"ấp Tân Mỹ, xã Cái Nhum, tỉnh Vĩnh Long","Đối tượng sản xuất":"Lươn","Hình thức sản xuất (SXG, ương dưỡng)":"Sản xuất","Tổng diện tích (m2)":"4000","Chứng nhận (ASC, BAP, GlobalGAP, VietGAP...)":null,"Số giấy chứng nhận cơ sở đủ điều kiện sản ":null,"Ngày cấp giấy chứng nhận":null,"Đối tượng thủy sản sản xuất":null,"Tình trạng hoạt động":"Đang hoạt động","Ghi chú":null,"layer_id":276,"fid":136,"label":"Nguyễn Thành Tâm "}},{"type":"Feature","id":137,"geometry":{"type":"Point","coordinates":[106161250.0,10166575.0]},"properties":{"Tên cơ sở":"Phạm Hoàng Minh\n","Loại hình":"Hộ sản xuất","Địa chỉ sản xuất":"ấp Tân Mỹ, xã Cái Nhum, tỉnh Vĩnh Long","Đối tượng sản xuất":"Lươn","Hình thức sản xuất (SXG, ương dưỡng)":"Sản xuất","Tổng diện tích (m2)":"1000","Chứng nhận (ASC, BAP, GlobalGAP, VietGAP...)":null,"Số giấy chứng nhận cơ sở đủ điều kiện sản ":null,"Ngày cấp giấy chứng nhận":null,"Đối tượng thủy sản sản xuất":null,"Tình trạng hoạt động":"Đang hoạt động","Ghi chú":null,"layer_id":276,"fid":137,"label":"Phạm Hoàng Minh\n"}},{"type":"Feature","id":138,"geometry":{"type":"Point","coordinates":[106159448.0,10172313.0]},"properties":{"Tên cơ sở":"Lê Thanh Quang\n","Loại hình":"Hộ sản xuất","Địa chỉ sản xuất":"ấp Mỹ Chánh, xã Cái Nhum, tỉnh Vĩnh Long","Đối tượng sản xuất":"Lươn","Hình thức sản xuất (SXG, ương dưỡng)":"Sản xuất","Tổng diện tích (m2)":"5500","Chứng nhận (ASC, BAP, GlobalGAP, VietGAP...)":null,"Số giấy chứng nhận cơ sở đủ điều kiện sản ":null,"Ngày cấp giấy chứng nhận":null,"Đối tượng thủy sản sản xuất":null,"Tình trạng hoạt động":"Đang hoạt động","Ghi chú":null,"layer_id":276,"fid":138,"label":"Lê Thanh Quang\n"}},{"type":"Feature","id":139,"geometry":{"type":"Point","coordinates":[106135681.0,10173234.0]},"properties":{"Tên cơ sở":"Nguyễn Trúc Phim\n\n","Loại hình":"Hộ sản xuất","Địa chỉ sản xuất":"ấp Tân Mỹ, xã Cái Nhum, tỉnh Vĩnh Long","Đối tượng sản xuất":"Lươn","Hình thức sản xuất (SXG, ương dưỡng)":"Sản xuất","Tổng diện tích (m2)":"500","Chứng nhận (ASC, BAP, GlobalGAP, VietGAP...)":null,"Số giấy chứng nhận cơ sở đủ điều kiện sản ":null,"Ngày cấp giấy chứng nhận":null,"Đối tượng thủy sản sản xuất":null,"Tình trạng hoạt động":"Đang hoạt động","Ghi chú":null,"layer_id":276,"fid":139,"label":"Nguyễn Trúc Phim\n\n"}},{"type":"Feature","id":140,"geometry":{"type":"Point","coordinates":[106157890.0,10166771.0]},"properties":{"Tên cơ sở":"\nNguyễn Anh Kiệt\n","Loại hình":"Hộ sản xuất","Địa chỉ sản xuất":"ấp Mỹ Chánh + Tân Mỹ, xã Cái Nhum, tỉnh Vĩnh Long","Đối tượng sản xuất":"Lươn","Hình thức sản xuất (SXG, ương dưỡng)":"Sản xuất","Tổng diện tích (m2)":"3600","Chứng nhận (ASC, BAP, GlobalGAP, VietGAP...)":null,"Số giấy chứng nhận cơ sở đủ điều kiện sản ":null,"Ngày cấp giấy chứng nhận":null,"Đối tượng thủy sản sản xuất":null,"Tình trạng hoạt động":"Đang hoạt động","Ghi chú":null,"layer_id":276,"fid":140,"label":"\nNguyễn Anh Kiệt\n"}},{"type":"Feature","id":142,"geometry":{"type":"Point","coordinates":[106090525.0,10209999.0]},"properties":{"Tên cơ sở":"Huỳnh Văn Nhã","Loại hình":"Hộ sản xuất","Địa chỉ sản xuất":"Phú Thọ, Nhơn Phú, tỉnh Vĩnh Long","Đối tượng sản xuất":"Lươn","Hình thức sản xuất (SXG, ương dưỡng)":"Sản xuất","Tổng diện tích (m2)":"150","Chứng nhận (ASC, BAP, GlobalGAP, VietGAP...)":null,"Số giấy chứng nhận cơ sở đủ điều kiện sản ":null,"Ngày cấp giấy chứng nhận":null,"Đối tượng thủy sản sản xuất":null,"Tình trạng hoạt động":"Đang hoạt động","Ghi chú":null,"layer_id":276,"fid":142,"label":"Huỳnh Văn Nhã"}},{"type":"Feature","id":143,"geometry":{"type":"Point","coordinates":[106090523.0,10209879.0]},"properties":{"Tên cơ sở":"Bạch Thi Tuyết Nga\n","Loại hình":"Hộ sản xuất","Địa chỉ sản xuất":"Phú Thọ, Nhơn Phú, tỉnh Vĩnh Long","Đối tượng sản xuất":"Lươn","Hình thức sản xuất (SXG, ương dưỡng)":"Sản xuất","Tổng diện tích (m2)":"150","Chứng nhận (ASC, BAP, GlobalGAP, VietGAP...)":null,"Số giấy chứng nhận cơ sở đủ điều kiện sản ":null,"Ngày cấp giấy chứng nhận":null,"Đối tượng thủy sản sản xuất":null,"Tình trạng hoạt động":"Đang hoạt động","Ghi chú":null,"layer_id":276,"fid":143,"label":"Bạch Thi Tuyết Nga\n"}},{"type":"Feature","id":144,"geometry":{"type":"Point","coordinates":[106090403.0,10210127.0]},"properties":{"Tên cơ sở":"Nguyễn Thị Thủy","Loại hình":"Hộ sản xuất","Địa chỉ sản xuất":"Nhơn Phú, tỉnh Vĩnh Long","Đối tượng sản xuất":"Lươn","Hình thức sản xuất (SXG, ương dưỡng)":"Sản xuất","Tổng diện tích (m2)":"450","Chứng nhận (ASC, BAP, GlobalGAP, VietGAP...)":null,"Số giấy chứng nhận cơ sở đủ điều kiện sản ":null,"Ngày cấp giấy chứng nhận":null,"Đối tượng thủy sản sản xuất":null,"Tình trạng hoạt động":"Đang hoạt động","Ghi chú":null,"layer_id":276,"fid":144,"label":"Nguyễn Thị Thủy"}},{"type":"Feature","id":145,"geometry":{"type":"Point","coordinates":[106004279.0,10218277.0]},"properties":{"Tên cơ sở":"Nguyễn Thị Bé Sáu","Loại hình":"Hộ sản xuất","Địa chỉ sản xuất":"Long Hòa 2, xã Bình Phước, tỉnh Vĩnh Long","Đối tượng sản xuất":"Lươn","Hình thức sản xuất (SXG, ương dưỡng)":"Sản xuất","Tổng diện tích (m2)":"720","Chứng nhận (ASC, BAP, GlobalGAP, VietGAP...)":null,"Số giấy chứng nhận cơ sở đủ điều kiện sản ":null,"Ngày cấp giấy chứng nhận":null,"Đối tượng thủy sản sản xuất":null,"Tình trạng hoạt động":"Đang hoạt động","Ghi chú":null,"layer_id":276,"fid":145,"label":"Nguyễn Thị Bé Sáu"}},{"type":"Feature","id":146,"geometry":{"type":"Point","coordinates":[106004713.0,10218271.0]},"properties":{"Tên cơ sở":"Nguyễn Duy Khanh","Loại hình":"Hộ sản xuất","Địa chỉ sản xuất":"Long Hòa 2, xã Bình Phước, tỉnh Vĩnh Long","Đối tượng sản xuất":"Lươn","Hình thức sản xuất (SXG, ương dưỡng)":"Sản xuất","Tổng diện tích (m2)":"1000","Chứng nhận (ASC, BAP, GlobalGAP, VietGAP...)":null,"Số giấy chứng nhận cơ sở đủ điều kiện sản ":null,"Ngày cấp giấy chứng nhận":null,"Đối tượng thủy sản sản xuất":null,"Tình trạng hoạt động":"Đang hoạt động","Ghi chú":null,"layer_id":276,"fid":146,"label":"Nguyễn Duy Khanh"}},{"type":"Feature","id":147,"geometry":{"type":"Point","coordinates":[106002422.0,10229018.0]},"properties":{"Tên cơ sở":"\nCơ Sở SX Lươn giống, Thành Phương\n\n","Loại hình":"Hộ sản xuất","Địa chỉ sản xuất":"ấp Long Phước, xã Bình Phước, tỉnh Vĩnh Long","Đối tượng sản xuất":"Lươn","Hình thức sản xuất (SXG, ương dưỡng)":"Sản xuất","Tổng diện tích (m2)":"7000","Chứng nhận (ASC, BAP, GlobalGAP, VietGAP...)":null,"Số giấy chứng nhận cơ sở đủ điều kiện sản ":null,"Ngày cấp giấy chứng nhận":null,"Đối tượng thủy sản sản xuất":null,"Tình trạng hoạt động":"Đang hoạt động","Ghi chú":null,"layer_id":276,"fid":147,"label":"\nCơ Sở SX Lươn giống, Thành Phương\n\n"}},{"type":"Feature","id":148,"geometry":{"type":"Point","coordinates":[106011192.0,10213705.0]},"properties":{"Tên cơ sở":"Lê Bá Khiêm\n","Loại hình":"Hộ sản xuất","Địa chỉ sản xuất":"ấp Long Hòa 1, xã Bình Phước, tỉnh Vĩnh Long","Đối tượng sản xuất":"cá chạch lấu","Hình thức sản xuất (SXG, ương dưỡng)":"Sản xuất","Tổng diện tích (m2)":"2000","Chứng nhận (ASC, BAP, GlobalGAP, VietGAP...)":null,"Số giấy chứng nhận cơ sở đủ điều kiện sản ":null,"Ngày cấp giấy chứng nhận":null,"Đối tượng thủy sản sản xuất":null,"Tình trạng hoạt động":"Đang hoạt động","Ghi chú":null,"layer_id":276,"fid":148,"label":"Lê Bá Khiêm\n"}},{"type":"Feature","id":149,"geometry":{"type":"Point","coordinates":[106047574.0,10181535.0]},"properties":{"Tên cơ sở":"Hồ Văn Chính\n","Loại hình":"Hộ sản xuất","Địa chỉ sản xuất":"Phước Thới, Bình Phước, tỉnh Vĩnh Long","Đối tượng sản xuất":"Lươn","Hình thức sản xuất (SXG, ương dưỡng)":"Sản xuất","Tổng diện tích (m2)":"150","Chứng nhận (ASC, BAP, GlobalGAP, VietGAP...)":null,"Số giấy chứng nhận cơ sở đủ điều kiện sản ":null,"Ngày cấp giấy chứng nhận":null,"Đối tượng thủy sản sản xuất":null,"Tình trạng hoạt động":"Đang hoạt động","Ghi chú":null,"layer_id":276,"fid":149,"label":"Hồ Văn Chính\n"}},{"type":"Feature","id":150,"geometry":{"type":"Point","coordinates":[106045992.0,10181756.0]},"properties":{"Tên cơ sở":"Đặng Ngọc Anh\n","Loại hình":"Hộ sản xuất","Địa chỉ sản xuất":"Phước Thới, Bình Phước, tỉnh Vĩnh Long","Đối tượng sản xuất":"Lươn","Hình thức sản xuất (SXG, ương dưỡng)":"Sản xuất","Tổng diện tích (m2)":"150","Chứng nhận (ASC, BAP, GlobalGAP, VietGAP...)":null,"Số giấy chứng nhận cơ sở đủ điều kiện sản ":null,"Ngày cấp giấy chứng nhận":null,"Đối tượng thủy sản sản xuất":null,"Tình trạng hoạt động":"Đang hoạt động","Ghi chú":null,"layer_id":276,"fid":150,"label":"Đặng Ngọc Anh\n"}},{"type":"Feature","id":151,"geometry":{"type":"Point","coordinates":[106079555.0,10137945.0]},"properties":{"Tên cơ sở":"Nguyễn Văn Bé Ba","Loại hình":"Hộ sản xuất","Địa chỉ sản xuất":"Tân Long Hội, tỉnh Vĩnh Long","Đối tượng sản xuất":"Lươn","Hình thức sản xuất (SXG, ương dưỡng)":"Sản xuất","Tổng diện tích (m2)":"450","Chứng nhận (ASC, BAP, GlobalGAP, VietGAP...)":null,"Số giấy chứng nhận cơ sở đủ điều kiện sản ":null,"Ngày cấp giấy chứng nhận":null,"Đối tượng thủy sản sản xuất":null,"Tình trạng hoạt động":"Đang hoạt động","Ghi chú":null,"layer_id":276,"fid":151,"label":"Nguyễn Văn Bé Ba"}},{"type":"Feature","id":152,"geometry":{"type":"Point","coordinates":[106134694.0,10204117.0]},"properties":{"Tên cơ sở":"Nguyễn Huy Cường\n","Loại hình":"Hộ sản xuất","Địa chỉ sản xuất":"Ấp Thanh Thủy, xã Cái Nhum, tỉnh Vĩnh Long","Đối tượng sản xuất":"Cua Đinh","Hình thức sản xuất (SXG, ương dưỡng)":"Sản xuất","Tổng diện tích (m2)":"150","Chứng nhận (ASC, BAP, GlobalGAP, VietGAP...)":null,"Số giấy chứng nhận cơ sở đủ điều kiện sản ":null,"Ngày cấp giấy chứng nhận":null,"Đối tượng thủy sản sản xuất":null,"Tình trạng hoạt động":"Đang hoạt động","Ghi chú":null,"layer_id":276,"fid":152,"label":"Nguyễn Huy Cường\n"}},{"type":"Feature","id":153,"geometry":{"type":"Point","coordinates":[106079550.0,10236842.0]},"properties":{"Tên cơ sở":"Đoàn Tấn Đỉnh\n","Loại hình":"Hộ sản xuất","Địa chỉ sản xuất":"ấp Cái Tranh, xã Nhơn Phú, tỉnh Vĩnh Long","Đối tượng sản xuất":"Ếch","Hình thức sản xuất (SXG, ương dưỡng)":"Sản xuất","Tổng diện tích (m2)":"250","Chứng nhận (ASC, BAP, GlobalGAP, VietGAP...)":null,"Số giấy chứng nhận cơ sở đủ điều kiện sản ":null,"Ngày cấp giấy chứng nhận":null,"Đối tượng thủy sản sản xuất":null,"Tình trạng hoạt động":"Đang hoạt động","Ghi chú":null,"layer_id":276,"fid":153,"label":"Đoàn Tấn Đỉnh\n"}},{"type":"Feature","id":154,"geometry":{"type":"Point","coordinates":[106073014.0,10239378.0]},"properties":{"Tên cơ sở":"Đoàn Văn Tâm\n","Loại hình":"Hộ sản xuất","Địa chỉ sản xuất":"ấp Mỹ Điền, xã Nhơn Phú, tỉnh Vĩnh Long","Đối tượng sản xuất":"Ếch","Hình thức sản xuất (SXG, ương dưỡng)":"Sản xuất","Tổng diện tích (m2)":"1000","Chứng nhận (ASC, BAP, GlobalGAP, VietGAP...)":null,"Số giấy chứng nhận cơ sở đủ điều kiện sản ":null,"Ngày cấp giấy chứng nhận":null,"Đối tượng thủy sản sản xuất":null,"Tình trạng hoạt động":"Đang hoạt động","Ghi chú":null,"layer_id":276,"fid":154,"label":"Đoàn Văn Tâm\n"}},{"type":"Feature","id":155,"geometry":{"type":"Point","coordinates":[105.925171,10.190985]},"properties":{"Tên cơ sở":"Biện Công Tiến","Loại hình":"Kinh Doanh","Địa chỉ sản xuất":"  ấp Phước Hiệp, xã Phú Quới, tỉnh Vĩnh Long","Đối tượng sản xuất":"Cá trê vàng, chiêm trắng","Hình thức sản xuất (SXG, ương dưỡng)":"Ương dưỡng","Tổng diện tích (m2)":"9000","Chứng nhận (ASC, BAP, GlobalGAP, VietGAP...)":null,"Số giấy chứng nhận cơ sở đủ điều kiện sản ":"0.8","Ngày cấp giấy chứng nhận":null,"Đối tượng thủy sản sản xuất":null,"Tình trạng hoạt động":"Đang hoạt động","Ghi chú":null,"layer_id":276,"fid":155,"label":"Biện Công Tiến"}},{"type":"Feature","id":156,"geometry":{"type":"Point","coordinates":[105.926395,10.191669]},"properties":{"Tên cơ sở":"Trương Hoàng Anh ","Loại hình":"Kinh Doanh","Địa chỉ sản xuất":"  ấp Phước Hiệp, xã Phú Quới, tỉnh Vĩnh Long","Đối tượng sản xuất":"Cá mè trắng, Cá trôi, hường","Hình thức sản xuất (SXG, ương dưỡng)":"Ương dưỡng","Tổng diện tích (m2)":"4500","Chứng nhận (ASC, BAP, GlobalGAP, VietGAP...)":null,"Số giấy chứng nhận cơ sở đủ điều kiện sản ":"0.6","Ngày cấp giấy chứng nhận":null,"Đối tượng thủy sản sản xuất":null,"Tình trạng hoạt động":"Đang hoạt động","Ghi chú":null,"layer_id":276,"fid":156,"label":"Trương Hoàng Anh "}},{"type":"Feature","id":157,"geometry":{"type":"Point","coordinates":[105.9093898,10.1768886]},"properties":{"Tên cơ sở":"Nguyễn Văn Thiểu Em","Loại hình":"Kinh Doanh","Địa chỉ sản xuất":"ấp Phước Bình B,xã Phú Quới, tỉnh Vĩnh Long","Đối tượng sản xuất":"Cá trê","Hình thức sản xuất (SXG, ương dưỡng)":"Ương dưỡng","Tổng diện tích (m2)":"10000","Chứng nhận (ASC, BAP, GlobalGAP, VietGAP...)":null,"Số giấy chứng nhận cơ sở đủ điều kiện sản ":"1.2","Ngày cấp giấy chứng nhận":null,"Đối tượng thủy sản sản xuất":null,"Tình trạng hoạt động":"Đang hoạt động","Ghi chú":null,"layer_id":276,"fid":157,"label":"Nguyễn Văn Thiểu Em"}},{"type":"Feature","id":158,"geometry":{"type":"Point","coordinates":[105.9149504,10.1758345]},"properties":{"Tên cơ sở":"Nguyễn Văn Thành ","Loại hình":"Kinh Doanh","Địa chỉ sản xuất":"ấp Phước Bình B,xã Phú Quới, tỉnh Vĩnh Long","Đối tượng sản xuất":"Cá điêu hồng","Hình thức sản xuất (SXG, ương dưỡng)":"Ương dưỡng","Tổng diện tích (m2)":"5000","Chứng nhận (ASC, BAP, GlobalGAP, VietGAP...)":null,"Số giấy chứng nhận cơ sở đủ điều kiện sản ":"0.6","Ngày cấp giấy chứng nhận":null,"Đối tượng thủy sản sản xuất":null,"Tình trạng hoạt động":"Đang hoạt động","Ghi chú":null,"layer_id":276,"fid":158,"label":"Nguyễn Văn Thành "}},{"type":"Feature","id":159,"geometry":{"type":"Point","coordinates":[105.914219,10.152618]},"properties":{"Tên cơ sở":"Lâm Văn Diêm","Loại hình":"Kinh Doanh","Địa chỉ sản xuất":"ấp  Phú Long A, xã Phú Quới, tỉnh Vĩnh Long","Đối tượng sản xuất":"Cá ĐH,chép","Hình thức sản xuất (SXG, ương dưỡng)":"Ương dưỡng","Tổng diện tích (m2)":"9000","Chứng nhận (ASC, BAP, GlobalGAP, VietGAP...)":null,"Số giấy chứng nhận cơ sở đủ điều kiện sản ":"1.5","Ngày cấp giấy chứng nhận":null,"Đối tượng thủy sản sản xuất":null,"Tình trạng hoạt động":"Đang hoạt động","Ghi chú":null,"layer_id":276,"fid":159,"label":"Lâm Văn Diêm"}},{"type":"Feature","id":160,"geometry":{"type":"Point","coordinates":[105.9209554,10.181817]},"properties":{"Tên cơ sở":"Nguyễn Thanh Long ","Loại hình":"Kinh Doanh","Địa chỉ sản xuất":"ấp Phước Bình A, xã Phú Quới, tỉnh Vĩnh Long","Đối tượng sản xuất":"Cá điêu hồng","Hình thức sản xuất (SXG, ương dưỡng)":"Ương dưỡng","Tổng diện tích (m2)":"10000","Chứng nhận (ASC, BAP, GlobalGAP, VietGAP...)":null,"Số giấy chứng nhận cơ sở đủ điều kiện sản ":"1.6","Ngày cấp giấy chứng nhận":null,"Đối tượng thủy sản sản xuất":null,"Tình trạng hoạt động":"Đang hoạt động","Ghi chú":null,"layer_id":276,"fid":160,"label":"Nguyễn Thanh Long "}},{"type":"Feature","id":161,"geometry":{"type":"Point","coordinates":[105.9171354,10.1774953]},"properties":{"Tên cơ sở":"Phạm Văn Bạc ","Loại hình":"Kinh Doanh","Địa chỉ sản xuất":"ấp Phước Bình A, xã Phú Quới, tỉnh Vĩnh Long","Đối tượng sản xuất":"Cá điêu hồng","Hình thức sản xuất (SXG, ương dưỡng)":"Ương dưỡng","Tổng diện tích (m2)":"4000","Chứng nhận (ASC, BAP, GlobalGAP, VietGAP...)":null,"Số giấy chứng nhận cơ sở đủ điều kiện sản ":"0.5","Ngày cấp giấy chứng nhận":null,"Đối tượng thủy sản sản xuất":null,"Tình trạng hoạt động":"Đang hoạt động","Ghi chú":null,"layer_id":276,"fid":161,"label":"Phạm Văn Bạc "}},{"type":"Feature","id":162,"geometry":{"type":"Point","coordinates":[105.9158079,10.1751409]},"properties":{"Tên cơ sở":"Trần Văn Văn ","Loại hình":"Kinh Doanh","Địa chỉ sản xuất":"ấp  Phước Yên A, xã Phú Quới, tỉnh Vĩnh Long","Đối tượng sản xuất":"Cá điêu hồng","Hình thức sản xuất (SXG, ương dưỡng)":"Ương dưỡng","Tổng diện tích (m2)":"4000","Chứng nhận (ASC, BAP, GlobalGAP, VietGAP...)":null,"Số giấy chứng nhận cơ sở đủ điều kiện sản ":"0.6","Ngày cấp giấy chứng nhận":null,"Đối tượng thủy sản sản xuất":null,"Tình trạng hoạt động":"Đang hoạt động","Ghi chú":null,"layer_id":276,"fid":162,"label":"Trần Văn Văn "}},{"type":"Feature","id":163,"geometry":{"type":"Point","coordinates":[105.9069084,10.1529438]},"properties":{"Tên cơ sở":"Nguyễn Thế Dũng ","Loại hình":"Kinh Doanh","Địa chỉ sản xuất":"ấp  Phú Long B, xã Phú Quới, tỉnh Vĩnh Long","Đối tượng sản xuất":"Cá rô","Hình thức sản xuất (SXG, ương dưỡng)":"Ương dưỡng","Tổng diện tích (m2)":"3000","Chứng nhận (ASC, BAP, GlobalGAP, VietGAP...)":null,"Số giấy chứng nhận cơ sở đủ điều kiện sản ":"0.3","Ngày cấp giấy chứng nhận":null,"Đối tượng thủy sản sản xuất":null,"Tình trạng hoạt động":"Đang hoạt động","Ghi chú":null,"layer_id":276,"fid":163,"label":"Nguyễn Thế Dũng "}},{"type":"Feature","id":164,"geometry":{"type":"Point","coordinates":[105.9169243,10.1746386]},"properties":{"Tên cơ sở":"Nguyễn Chí Linh Em","Loại hình":"Kinh Doanh","Địa chỉ sản xuất":"ấp Phước Bình A, xã Phú Quới, tỉnh Vĩnh Long","Đối tượng sản xuất":"Cá điêu hồng","Hình thức sản xuất (SXG, ương dưỡng)":"Ương dưỡng","Tổng diện tích (m2)":"4000","Chứng nhận (ASC, BAP, GlobalGAP, VietGAP...)":null,"Số giấy chứng nhận cơ sở đủ điều kiện sản ":"0.5","Ngày cấp giấy chứng nhận":null,"Đối tượng thủy sản sản xuất":null,"Tình trạng hoạt động":"Đang hoạt động","Ghi chú":null,"layer_id":276,"fid":164,"label":"Nguyễn Chí Linh Em"}},{"type":"Feature","id":165,"geometry":{"type":"Point","coordinates":[105.9232207,10.1732383]},"properties":{"Tên cơ sở":"Nguyễn Văn Hảo","Loại hình":"Kinh Doanh","Địa chỉ sản xuất":"ấp  Phước Yên B, xã Phú Quới, tỉnh Vĩnh Long","Đối tượng sản xuất":"Cá điêu hồng","Hình thức sản xuất (SXG, ương dưỡng)":"Ương dưỡng","Tổng diện tích (m2)":"15000","Chứng nhận (ASC, BAP, GlobalGAP, VietGAP...)":null,"Số giấy chứng nhận cơ sở đủ điều kiện sản ":"1.8","Ngày cấp giấy chứng nhận":null,"Đối tượng thủy sản sản xuất":null,"Tình trạng hoạt động":"Đang hoạt động","Ghi chú":null,"layer_id":276,"fid":165,"label":"Nguyễn Văn Hảo"}},{"type":"Feature","id":166,"geometry":{"type":"Point","coordinates":[105.9242223,10.1781988]},"properties":{"Tên cơ sở":"Nguyễn Văn Mực","Loại hình":"Kinh Doanh","Địa chỉ sản xuất":"ấp  Phước Yên B, xã Phú Quới, tỉnh Vĩnh Long","Đối tượng sản xuất":"Cá điêu hồng","Hình thức sản xuất (SXG, ương dưỡng)":"Ương dưỡng","Tổng diện tích (m2)":"5000","Chứng nhận (ASC, BAP, GlobalGAP, VietGAP...)":null,"Số giấy chứng nhận cơ sở đủ điều kiện sản ":"0.6","Ngày cấp giấy chứng nhận":null,"Đối tượng thủy sản sản xuất":null,"Tình trạng hoạt động":"Đang hoạt động","Ghi chú":null,"layer_id":276,"fid":166,"label":"Nguyễn Văn Mực"}},{"type":"Feature","id":167,"geometry":{"type":"Point","coordinates":[105.9540997,10.1733695]},"properties":{"Tên cơ sở":"Nguyễn Văn Giúp","Loại hình":"Kinh Doanh","Địa chỉ sản xuất":"ấp Phước Lộc, xã Phú Quới, tỉnh Vĩnh Long","Đối tượng sản xuất":"Cá tra , cá trê","Hình thức sản xuất (SXG, ương dưỡng)":"Ương dưỡng","Tổng diện tích (m2)":"7000","Chứng nhận (ASC, BAP, GlobalGAP, VietGAP...)":null,"Số giấy chứng nhận cơ sở đủ điều kiện sản ":"1","Ngày cấp giấy chứng nhận":null,"Đối tượng thủy sản sản xuất":null,"Tình trạng hoạt động":"Đang hoạt động","Ghi chú":null,"layer_id":276,"fid":167,"label":"Nguyễn Văn Giúp"}},{"type":"Feature","id":168,"geometry":{"type":"Point","coordinates":[105.9277403,10.1479513]},"properties":{"Tên cơ sở":"Trần Văn Được","Loại hình":"Kinh Doanh","Địa chỉ sản xuất":"ấp Phú Hưng, xã Phú Quới, tỉnh Vĩnh Long","Đối tượng sản xuất":"Cá trê","Hình thức sản xuất (SXG, ương dưỡng)":"Ương dưỡng","Tổng diện tích (m2)":"5000","Chứng nhận (ASC, BAP, GlobalGAP, VietGAP...)":null,"Số giấy chứng nhận cơ sở đủ điều kiện sản ":"0.6","Ngày cấp giấy chứng nhận":null,"Đối tượng thủy sản sản xuất":null,"Tình trạng hoạt động":"Đang hoạt động","Ghi chú":null,"layer_id":276,"fid":168,"label":"Trần Văn Được"}},{"type":"Feature","id":169,"geometry":{"type":"Point","coordinates":[105.9235812,10.1492967]},"properties":{"Tên cơ sở":"CS Giống Hoàng Thiện","Loại hình":"Kinh Doanh","Địa chỉ sản xuất":"ấp Phú Hưng, xã Phú Quới, tỉnh Vĩnh Long","Đối tượng sản xuất":"Cá trê","Hình thức sản xuất (SXG, ương dưỡng)":"Ương dưỡng","Tổng diện tích (m2)":"15000","Chứng nhận (ASC, BAP, GlobalGAP, VietGAP...)":null,"Số giấy chứng nhận cơ sở đủ điều kiện sản ":"1.7","Ngày cấp giấy chứng nhận":null,"Đối tượng thủy sản sản xuất":null,"Tình trạng hoạt động":"Đang hoạt động","Ghi chú":null,"layer_id":276,"fid":169,"label":"CS Giống Hoàng Thiện"}},{"type":"Feature","id":170,"geometry":{"type":"Point","coordinates":[105.9246394,10.1485271]},"properties":{"Tên cơ sở":"Phan Văn Hùng","Loại hình":"Kinh Doanh","Địa chỉ sản xuất":"ấp Phú Hưng, xã Phú Quới, tỉnh Vĩnh Long","Đối tượng sản xuất":" Cá trê","Hình thức sản xuất (SXG, ương dưỡng)":"Ương dưỡng","Tổng diện tích (m2)":"4000","Chứng nhận (ASC, BAP, GlobalGAP, VietGAP...)":null,"Số giấy chứng nhận cơ sở đủ điều kiện sản ":"0.5","Ngày cấp giấy chứng nhận":null,"Đối tượng thủy sản sản xuất":null,"Tình trạng hoạt động":"Đang hoạt động","Ghi chú":null,"layer_id":276,"fid":170,"label":"Phan Văn Hùng"}},{"type":"Feature","id":171,"geometry":{"type":"Point","coordinates":[105.9292624,10.1495038]},"properties":{"Tên cơ sở":"Trần Hiếu Ân","Loại hình":"Kinh Doanh","Địa chỉ sản xuất":"ấp Phú Hưng, xã Phú Quới, tỉnh Vĩnh Long","Đối tượng sản xuất":"Cá trắm cỏ","Hình thức sản xuất (SXG, ương dưỡng)":"Ương dưỡng","Tổng diện tích (m2)":"3500","Chứng nhận (ASC, BAP, GlobalGAP, VietGAP...)":null,"Số giấy chứng nhận cơ sở đủ điều kiện sản ":"0.4","Ngày cấp giấy chứng nhận":null,"Đối tượng thủy sản sản xuất":null,"Tình trạng hoạt động":"Đang hoạt động","Ghi chú":null,"layer_id":276,"fid":171,"label":"Trần Hiếu Ân"}},{"type":"Feature","id":172,"geometry":{"type":"Point","coordinates":[105.9294566,10.1471172]},"properties":{"Tên cơ sở":"Lâm Văn Nghĩa","Loại hình":"Kinh Doanh","Địa chỉ sản xuất":"ấp Phú Hưng, xã Phú Quới, tỉnh Vĩnh Long","Đối tượng sản xuất":"Cá trắm cỏ, rô đồng","Hình thức sản xuất (SXG, ương dưỡng)":"Ương dưỡng","Tổng diện tích (m2)":"9000","Chứng nhận (ASC, BAP, GlobalGAP, VietGAP...)":null,"Số giấy chứng nhận cơ sở đủ điều kiện sản ":"0.7","Ngày cấp giấy chứng nhận":null,"Đối tượng thủy sản sản xuất":null,"Tình trạng hoạt động":"Đang hoạt động","Ghi chú":null,"layer_id":276,"fid":172,"label":"Lâm Văn Nghĩa"}},{"type":"Feature","id":173,"geometry":{"type":"Point","coordinates":[105.9294566,10.1471172]},"properties":{"Tên cơ sở":"Phan Văn Bảy","Loại hình":"Kinh Doanh","Địa chỉ sản xuất":"ấp Phú Hưng, xã Phú Quới, tỉnh Vĩnh Long","Đối tượng sản xuất":"Điêu hồng, cá phi","Hình thức sản xuất (SXG, ương dưỡng)":"Ương dưỡng","Tổng diện tích (m2)":"3000","Chứng nhận (ASC, BAP, GlobalGAP, VietGAP...)":null,"Số giấy chứng nhận cơ sở đủ điều kiện sản ":"0.3","Ngày cấp giấy chứng nhận":null,"Đối tượng thủy sản sản xuất":null,"Tình trạng hoạt động":"Đang hoạt động","Ghi chú":null,"layer_id":276,"fid":173,"label":"Phan Văn Bảy"}},{"type":"Feature","id":174,"geometry":{"type":"Point","coordinates":[105.9292624,10.1495038]},"properties":{"Tên cơ sở":"Phạm Hồng Vũ","Loại hình":"Kinh Doanh","Địa chỉ sản xuất":"ấp Phú Hưng, xã Phú Quới, tỉnh Vĩnh Long","Đối tượng sản xuất":"Cá rô phi","Hình thức sản xuất (SXG, ương dưỡng)":"Ương dưỡng","Tổng diện tích (m2)":"2000","Chứng nhận (ASC, BAP, GlobalGAP, VietGAP...)":null,"Số giấy chứng nhận cơ sở đủ điều kiện sản ":"0.3","Ngày cấp giấy chứng nhận":null,"Đối tượng thủy sản sản xuất":null,"Tình trạng hoạt động":"Đang hoạt động","Ghi chú":null,"layer_id":276,"fid":174,"label":"Phạm Hồng Vũ"}},{"type":"Feature","id":175,"geometry":{"type":"Point","coordinates":[105.9294079,10.1474496]},"properties":{"Tên cơ sở":"Phan Văn Ba","Loại hình":"Kinh Doanh","Địa chỉ sản xuất":"ấp Phú Hưng, xã Phú Quới, tỉnh Vĩnh Long","Đối tượng sản xuất":"Cá tai tượng, rô đồng","Hình thức sản xuất (SXG, ương dưỡng)":"Ương dưỡng","Tổng diện tích (m2)":"6000","Chứng nhận (ASC, BAP, GlobalGAP, VietGAP...)":null,"Số giấy chứng nhận cơ sở đủ điều kiện sản ":"0.3","Ngày cấp giấy chứng nhận":null,"Đối tượng thủy sản sản xuất":null,"Tình trạng hoạt động":"Đang hoạt động","Ghi chú":null,"layer_id":276,"fid":175,"label":"Phan Văn Ba"}},{"type":"Feature","id":176,"geometry":{"type":"Point","coordinates":[105.9273162,10.148601]},"properties":{"Tên cơ sở":"Hồng Hữu Sơn","Loại hình":"Kinh Doanh","Địa chỉ sản xuất":"ấp Phú Hưng, xã Phú Quới, tỉnh Vĩnh Long","Đối tượng sản xuất":"Cá tai tượng","Hình thức sản xuất (SXG, ương dưỡng)":"Ương dưỡng","Tổng diện tích (m2)":"4000","Chứng nhận (ASC, BAP, GlobalGAP, VietGAP...)":null,"Số giấy chứng nhận cơ sở đủ điều kiện sản ":"0.5","Ngày cấp giấy chứng nhận":null,"Đối tượng thủy sản sản xuất":null,"Tình trạng hoạt động":"Đang hoạt động","Ghi chú":null,"layer_id":276,"fid":176,"label":"Hồng Hữu Sơn"}},{"type":"Feature","id":177,"geometry":{"type":"Point","coordinates":[105.9292625,10.1487103]},"properties":{"Tên cơ sở":"Hồng Bảo Trường","Loại hình":"Kinh Doanh","Địa chỉ sản xuất":"ấp Phú Hưng, xã Phú Quới, tỉnh Vĩnh Long","Đối tượng sản xuất":"Cá mè","Hình thức sản xuất (SXG, ương dưỡng)":"Ương dưỡng","Tổng diện tích (m2)":"4000","Chứng nhận (ASC, BAP, GlobalGAP, VietGAP...)":null,"Số giấy chứng nhận cơ sở đủ điều kiện sản ":"0.5","Ngày cấp giấy chứng nhận":null,"Đối tượng thủy sản sản xuất":null,"Tình trạng hoạt động":"Đang hoạt động","Ghi chú":null,"layer_id":276,"fid":177,"label":"Hồng Bảo Trường"}},{"type":"Feature","id":178,"geometry":{"type":"Point","coordinates":[105.9292624,10.1495038]},"properties":{"Tên cơ sở":"Trương Văn Tâm","Loại hình":"Kinh Doanh","Địa chỉ sản xuất":"ấp Phú Hưng, xã Phú Quới, tỉnh Vĩnh Long","Đối tượng sản xuất":"Cá trê","Hình thức sản xuất (SXG, ương dưỡng)":"Ương dưỡng","Tổng diện tích (m2)":"7000","Chứng nhận (ASC, BAP, GlobalGAP, VietGAP...)":null,"Số giấy chứng nhận cơ sở đủ điều kiện sản ":"0.8","Ngày cấp giấy chứng nhận":null,"Đối tượng thủy sản sản xuất":null,"Tình trạng hoạt động":"Đang hoạt động","Ghi chú":null,"layer_id":276,"fid":178,"label":"Trương Văn Tâm"}},{"type":"Feature","id":179,"geometry":{"type":"Point","coordinates":[105.924437,10.1489337]},"properties":{"Tên cơ sở":"Phan Văn Sanh","Loại hình":"Kinh Doanh","Địa chỉ sản xuất":"ấp Phú Hưng, xã Phú Quới, tỉnh Vĩnh Long","Đối tượng sản xuất":"Cá tai tượng, trôi","Hình thức sản xuất (SXG, ương dưỡng)":"Ương dưỡng","Tổng diện tích (m2)":"10000","Chứng nhận (ASC, BAP, GlobalGAP, VietGAP...)":null,"Số giấy chứng nhận cơ sở đủ điều kiện sản ":"1","Ngày cấp giấy chứng nhận":null,"Đối tượng thủy sản sản xuất":null,"Tình trạng hoạt động":"Đang hoạt động","Ghi chú":null,"layer_id":276,"fid":179,"label":"Phan Văn Sanh"}},{"type":"Feature","id":180,"geometry":{"type":"Point","coordinates":[105.9247667,10.148964]},"properties":{"Tên cơ sở":"Phan Văn Nhí","Loại hình":"Kinh Doanh","Địa chỉ sản xuất":"ấp Phú Hưng, xã Phú Quới, tỉnh Vĩnh Long","Đối tượng sản xuất":"Cá phi","Hình thức sản xuất (SXG, ương dưỡng)":"Ương dưỡng","Tổng diện tích (m2)":"10000","Chứng nhận (ASC, BAP, GlobalGAP, VietGAP...)":null,"Số giấy chứng nhận cơ sở đủ điều kiện sản ":"1","Ngày cấp giấy chứng nhận":null,"Đối tượng thủy sản sản xuất":null,"Tình trạng hoạt động":"Đang hoạt động","Ghi chú":null,"layer_id":276,"fid":180,"label":"Phan Văn Nhí"}},{"type":"Feature","id":181,"geometry":{"type":"Point","coordinates":[105.9292624,10.1495038]},"properties":{"Tên cơ sở":"Nguyễn Văn Vẹn","Loại hình":"Kinh Doanh","Địa chỉ sản xuất":"ấp Phú Hưng, xã Phú Quới, tỉnh Vĩnh Long","Đối tượng sản xuất":"Cá trê, cá trắm","Hình thức sản xuất (SXG, ương dưỡng)":"Ương dưỡng","Tổng diện tích (m2)":"7000","Chứng nhận (ASC, BAP, GlobalGAP, VietGAP...)":null,"Số giấy chứng nhận cơ sở đủ điều kiện sản ":"0.5","Ngày cấp giấy chứng nhận":null,"Đối tượng thủy sản sản xuất":null,"Tình trạng hoạt động":"Đang hoạt động","Ghi chú":null,"layer_id":276,"fid":181,"label":"Nguyễn Văn Vẹn"}},{"type":"Feature","id":182,"geometry":{"type":"Point","coordinates":[105.9241743,10.1484561]},"properties":{"Tên cơ sở":"Nguyễn Văn Phú","Loại hình":"Kinh Doanh","Địa chỉ sản xuất":"ấp Phú Hưng, xã Phú Quới, tỉnh Vĩnh Long","Đối tượng sản xuất":"Cá trê","Hình thức sản xuất (SXG, ương dưỡng)":"Ương dưỡng","Tổng diện tích (m2)":"6000","Chứng nhận (ASC, BAP, GlobalGAP, VietGAP...)":null,"Số giấy chứng nhận cơ sở đủ điều kiện sản ":"0.7","Ngày cấp giấy chứng nhận":null,"Đối tượng thủy sản sản xuất":null,"Tình trạng hoạt động":"Đang hoạt động","Ghi chú":null,"layer_id":276,"fid":182,"label":"Nguyễn Văn Phú"}},{"type":"Feature","id":183,"geometry":{"type":"Point","coordinates":[105.920738,10.1447238]},"properties":{"Tên cơ sở":"Nguyễn Chí Linh","Loại hình":"Kinh Doanh","Địa chỉ sản xuất":"ấp Phú Hưng, xã Phú Quới, tỉnh Vĩnh Long","Đối tượng sản xuất":"Cá tra","Hình thức sản xuất (SXG, ương dưỡng)":"Ương dưỡng","Tổng diện tích (m2)":"10000","Chứng nhận (ASC, BAP, GlobalGAP, VietGAP...)":null,"Số giấy chứng nhận cơ sở đủ điều kiện sản ":"2","Ngày cấp giấy chứng nhận":null,"Đối tượng thủy sản sản xuất":null,"Tình trạng hoạt động":"Đang hoạt động","Ghi chú":null,"layer_id":276,"fid":183,"label":"Nguyễn Chí Linh"}},{"type":"Feature","id":184,"geometry":{"type":"Point","coordinates":[105.927666,10.1473799]},"properties":{"Tên cơ sở":"Phạm Văn Bảy","Loại hình":"Kinh Doanh","Địa chỉ sản xuất":"ấp Phú Hưng, xã Phú Quới, tỉnh Vĩnh Long","Đối tượng sản xuất":"Cá chép","Hình thức sản xuất (SXG, ương dưỡng)":"Ương dưỡng","Tổng diện tích (m2)":"4000","Chứng nhận (ASC, BAP, GlobalGAP, VietGAP...)":null,"Số giấy chứng nhận cơ sở đủ điều kiện sản ":"0.5","Ngày cấp giấy chứng nhận":null,"Đối tượng thủy sản sản xuất":null,"Tình trạng hoạt động":"Đang hoạt động","Ghi chú":null,"layer_id":276,"fid":184,"label":"Phạm Văn Bảy"}},{"type":"Feature","id":185,"geometry":{"type":"Point","coordinates":[105.9284122,10.147166]},"properties":{"Tên cơ sở":"Phan Đình Thảo","Loại hình":"Kinh Doanh","Địa chỉ sản xuất":"ấp Phú Hưng, xã Phú Quới, tỉnh Vĩnh Long","Đối tượng sản xuất":"Cá chép","Hình thức sản xuất (SXG, ương dưỡng)":"Ương dưỡng","Tổng diện tích (m2)":"10000","Chứng nhận (ASC, BAP, GlobalGAP, VietGAP...)":null,"Số giấy chứng nhận cơ sở đủ điều kiện sản ":"1.2","Ngày cấp giấy chứng nhận":null,"Đối tượng thủy sản sản xuất":null,"Tình trạng hoạt động":"Đang hoạt động","Ghi chú":null,"layer_id":276,"fid":185,"label":"Phan Đình Thảo"}},{"type":"Feature","id":186,"geometry":{"type":"Point","coordinates":[105.947511,10.292623]},"properties":{"Tên cơ sở":"Hồ Thanh Thế ","Loại hình":"Kinh Doanh","Địa chỉ sản xuất":"ấp An Long, xã An Bình, tỉnh Vĩnh Long","Đối tượng sản xuất":"Cá điêu hồng","Hình thức sản xuất (SXG, ương dưỡng)":"Ương dưỡng","Tổng diện tích (m2)":"4000","Chứng nhận (ASC, BAP, GlobalGAP, VietGAP...)":null,"Số giấy chứng nhận cơ sở đủ điều kiện sản ":"0.5","Ngày cấp giấy chứng nhận":null,"Đối tượng thủy sản sản xuất":null,"Tình trạng hoạt động":"Đang hoạt động","Ghi chú":null,"layer_id":276,"fid":186,"label":"Hồ Thanh Thế "}},{"type":"Feature","id":187,"geometry":{"type":"Point","coordinates":[105.947092,10.293459]},"properties":{"Tên cơ sở":"Đỗ Văn Năm ","Loại hình":"Kinh Doanh","Địa chỉ sản xuất":"ấp An Long, xã An Bình, tỉnh Vĩnh Long","Đối tượng sản xuất":"Cá điêu hồng","Hình thức sản xuất (SXG, ương dưỡng)":"Ương dưỡng","Tổng diện tích (m2)":"3000","Chứng nhận (ASC, BAP, GlobalGAP, VietGAP...)":null,"Số giấy chứng nhận cơ sở đủ điều kiện sản ":"0.4","Ngày cấp giấy chứng nhận":null,"Đối tượng thủy sản sản xuất":null,"Tình trạng hoạt động":"Đang hoạt động","Ghi chú":null,"layer_id":276,"fid":187,"label":"Đỗ Văn Năm "}},{"type":"Feature","id":188,"geometry":{"type":"Point","coordinates":[105.947416,10.292365]},"properties":{"Tên cơ sở":"Trần Minh Tiến","Loại hình":"Kinh Doanh","Địa chỉ sản xuất":"ấp An Long, xã An Bình, tỉnh Vĩnh Long","Đối tượng sản xuất":"Cá điêu hồng","Hình thức sản xuất (SXG, ương dưỡng)":"Ương dưỡng","Tổng diện tích (m2)":"2000","Chứng nhận (ASC, BAP, GlobalGAP, VietGAP...)":null,"Số giấy chứng nhận cơ sở đủ điều kiện sản ":"0.3","Ngày cấp giấy chứng nhận":null,"Đối tượng thủy sản sản xuất":null,"Tình trạng hoạt động":"Đang hoạt động","Ghi chú":null,"layer_id":276,"fid":188,"label":"Trần Minh Tiến"}},{"type":"Feature","id":189,"geometry":{"type":"Point","coordinates":[105.946515,10.29608]},"properties":{"Tên cơ sở":"Phạm Ngọc Tân ","Loại hình":"Kinh Doanh","Địa chỉ sản xuất":"ấp An Long, xã An Bình, tỉnh Vĩnh Long","Đối tượng sản xuất":"Cá điêu hồng","Hình thức sản xuất (SXG, ương dưỡng)":"Ương dưỡng","Tổng diện tích (m2)":"5000","Chứng nhận (ASC, BAP, GlobalGAP, VietGAP...)":null,"Số giấy chứng nhận cơ sở đủ điều kiện sản ":"0.6","Ngày cấp giấy chứng nhận":null,"Đối tượng thủy sản sản xuất":null,"Tình trạng hoạt động":"Đang hoạt động","Ghi chú":null,"layer_id":276,"fid":189,"label":"Phạm Ngọc Tân "}},{"type":"Feature","id":190,"geometry":{"type":"Point","coordinates":[105.948697,10.297374]},"properties":{"Tên cơ sở":"Hồ Tấn Bình ","Loại hình":"Kinh Doanh","Địa chỉ sản xuất":"ấp An Long, xã An Bình, tỉnh Vĩnh Long","Đối tượng sản xuất":"Cá điêu hồng","Hình thức sản xuất (SXG, ương dưỡng)":"Ương dưỡng","Tổng diện tích (m2)":"2000","Chứng nhận (ASC, BAP, GlobalGAP, VietGAP...)":null,"Số giấy chứng nhận cơ sở đủ điều kiện sản ":"0.35","Ngày cấp giấy chứng nhận":null,"Đối tượng thủy sản sản xuất":null,"Tình trạng hoạt động":"Đang hoạt động","Ghi chú":null,"layer_id":276,"fid":190,"label":"Hồ Tấn Bình "}},{"type":"Feature","id":191,"geometry":{"type":"Point","coordinates":[105.949024,10.296896]},"properties":{"Tên cơ sở":"Hà Tấn Phong ","Loại hình":"Kinh Doanh","Địa chỉ sản xuất":"ấp An Thới, xã An Bình, tỉnh Vĩnh Long","Đối tượng sản xuất":"Cá điêu hồng","Hình thức sản xuất (SXG, ương dưỡng)":"Ương dưỡng","Tổng diện tích (m2)":"1500","Chứng nhận (ASC, BAP, GlobalGAP, VietGAP...)":null,"Số giấy chứng nhận cơ sở đủ điều kiện sản ":"0.36","Ngày cấp giấy chứng nhận":null,"Đối tượng thủy sản sản xuất":null,"Tình trạng hoạt động":"Đang hoạt động","Ghi chú":null,"layer_id":276,"fid":191,"label":"Hà Tấn Phong "}},{"type":"Feature","id":192,"geometry":{"type":"Point","coordinates":[105.938446,10.285614]},"properties":{"Tên cơ sở":"Phạm Văn Đức","Loại hình":"Kinh Doanh","Địa chỉ sản xuất":"ấp An Long, xã An Bình, tỉnh Vĩnh Long","Đối tượng sản xuất":"Cá điêu hồng","Hình thức sản xuất (SXG, ương dưỡng)":"Ương dưỡng","Tổng diện tích (m2)":"1000","Chứng nhận (ASC, BAP, GlobalGAP, VietGAP...)":null,"Số giấy chứng nhận cơ sở đủ điều kiện sản ":"0.2","Ngày cấp giấy chứng nhận":null,"Đối tượng thủy sản sản xuất":null,"Tình trạng hoạt động":"Đang hoạt động","Ghi chú":null,"layer_id":276,"fid":192,"label":"Phạm Văn Đức"}},{"type":"Feature","id":193,"geometry":{"type":"Point","coordinates":[105.9761246,10.1706717]},"properties":{"Tên cơ sở":"Nguyễn Hoàng Phú","Loại hình":"Kinh Doanh","Địa chỉ sản xuất":"ấp An Thành, xã Long Hồ, tỉnh Vĩnh Long","Đối tượng sản xuất":"Chạch lấu","Hình thức sản xuất (SXG, ương dưỡng)":"Ương dưỡng","Tổng diện tích (m2)":"3000","Chứng nhận (ASC, BAP, GlobalGAP, VietGAP...)":null,"Số giấy chứng nhận cơ sở đủ điều kiện sản ":"0.4","Ngày cấp giấy chứng nhận":null,"Đối tượng thủy sản sản xuất":null,"Tình trạng hoạt động":"Đang hoạt động","Ghi chú":null,"layer_id":276,"fid":193,"label":"Nguyễn Hoàng Phú"}},{"type":"Feature","id":194,"geometry":{"type":"Point","coordinates":[105.9782214,10.1698817]},"properties":{"Tên cơ sở":"Trương Văn Năm","Loại hình":"Kinh Doanh","Địa chỉ sản xuất":"ấp An Thành, xã Long Hồ, tỉnh Vĩnh Long","Đối tượng sản xuất":"Cá tra","Hình thức sản xuất (SXG, ương dưỡng)":"Ương dưỡng","Tổng diện tích (m2)":"2000","Chứng nhận (ASC, BAP, GlobalGAP, VietGAP...)":null,"Số giấy chứng nhận cơ sở đủ điều kiện sản ":"0.4","Ngày cấp giấy chứng nhận":null,"Đối tượng thủy sản sản xuất":null,"Tình trạng hoạt động":"Đang hoạt động","Ghi chú":null,"layer_id":276,"fid":194,"label":"Trương Văn Năm"}},{"type":"Feature","id":195,"geometry":{"type":"Point","coordinates":[105.9904746,10.1864208]},"properties":{"Tên cơ sở":"Lê Tấn Kiệt","Loại hình":"Kinh Doanh","Địa chỉ sản xuất":"ấp An Thành, xã Long Hồ, tỉnh Vĩnh Long","Đối tượng sản xuất":"Cá tra","Hình thức sản xuất (SXG, ương dưỡng)":"Ương dưỡng","Tổng diện tích (m2)":"10000","Chứng nhận (ASC, BAP, GlobalGAP, VietGAP...)":null,"Số giấy chứng nhận cơ sở đủ điều kiện sản ":"1.6","Ngày cấp giấy chứng nhận":null,"Đối tượng thủy sản sản xuất":null,"Tình trạng hoạt động":"Đang hoạt động","Ghi chú":null,"layer_id":276,"fid":195,"label":"Lê Tấn Kiệt"}},{"type":"Feature","id":196,"geometry":{"type":"Point","coordinates":[105.9931763,10.2039577]},"properties":{"Tên cơ sở":"Trần Minh Lộc","Loại hình":"Kinh Doanh","Địa chỉ sản xuất":"ấp An Thành, xã Long Hồ, tỉnh Vĩnh Long","Đối tượng sản xuất":"Cá tra","Hình thức sản xuất (SXG, ương dưỡng)":"Ương dưỡng","Tổng diện tích (m2)":"7000","Chứng nhận (ASC, BAP, GlobalGAP, VietGAP...)":null,"Số giấy chứng nhận cơ sở đủ điều kiện sản ":"0.9","Ngày cấp giấy chứng nhận":null,"Đối tượng thủy sản sản xuất":null,"Tình trạng hoạt động":"Đang hoạt động","Ghi chú":null,"layer_id":276,"fid":196,"label":"Trần Minh Lộc"}},{"type":"Feature","id":197,"geometry":{"type":"Point","coordinates":[105.9574934,10.192805]},"properties":{"Tên cơ sở":"Phạm Bát Huy","Loại hình":"Kinh Doanh","Địa chỉ sản xuất":"ấp Phước Lợi C, phường Phước Hậu, tỉnh Vĩnh Long","Đối tượng sản xuất":"Cá điêu hồng","Hình thức sản xuất (SXG, ương dưỡng)":"Ương dưỡng","Tổng diện tích (m2)":"7000","Chứng nhận (ASC, BAP, GlobalGAP, VietGAP...)":null,"Số giấy chứng nhận cơ sở đủ điều kiện sản ":"0.9","Ngày cấp giấy chứng nhận":null,"Đối tượng thủy sản sản xuất":null,"Tình trạng hoạt động":"Đang hoạt động","Ghi chú":null,"layer_id":276,"fid":197,"label":"Phạm Bát Huy"}}]}
