{"type":"FeatureCollection","name":"Cơ sở nuôi cá tra ","metadata":{"source":"https://hatang.vinhlong.gov.vn/","downloaded_at":"2026-07-20T01:14:23+00:00","layer_id":277,"layer_name":"Cơ sở nuôi cá tra ","catalog_endpoints":["/map/publicLayers2?inputs=thuy_san"],"requested_bbox":[104.0,8.0,108.0,12.0],"tile_size":0.0,"tile_count":1,"tile_errors":[],"feature_count":105,"coordinate_order":"x,y (thường là longitude,latitude theo cấu hình EPSG:4326 của WebGIS)"},"features":[{"type":"Feature","id":111,"geometry":{"type":"Point","coordinates":[105.8869389,10.2668095]},"properties":{"Tên cơ sở":"Ngô Thị Bé Chín","Loại hình":"Hộ nuôi","Địa chỉ sản xuất":"khóm Tân Thạnh, phường Tân Ngãi, tỉnh Vĩnh Long","Mã số nhận diện cơ sở":"86-01-002","Chủ cơ sở / Người đại diện":"Ngô Thị Bé Chín","Tổng diện tích":"1.39","Đang nuôi thả (diện tích mặt nước)":"1.39","Chưa thả lại (diện tích mặt nước)":"0","Số lượng ao nuôi":"3","Sản lượng dự kiến":"416","Chứng nhận  (ASC,BAP....)":"","Kết quả thẩm định theo TT38":"","Ngày thẩm định ":"","Ngày cấp Giấy chứng nhận ATTP ":"","Số Giấy chứng nhận ATTP ":"","Ngày hết hạn Giấy chứng nhận ATTP ":"","Ghi chú":"","layer_id":277,"fid":111,"label":"Ngô Thị Bé Chín"}},{"type":"Feature","id":112,"geometry":{"type":"Point","coordinates":[105.895595,9.97647]},"properties":{"Tên cơ sở":"Công ty CPTS Mekong","Loại hình":"Doanh nghiệp","Địa chỉ sản xuất":"Khóm Mỹ Thới 2, phường Cái Vồn, tỉnh Vĩnh Long","Mã số nhận diện cơ sở":"86-01-0109","Chủ cơ sở / Người đại diện":"Lương Hoàng Mãnh","Tổng diện tích":"8.5","Đang nuôi thả (diện tích mặt nước)":"8.5","Chưa thả lại (diện tích mặt nước)":"0","Số lượng ao nuôi":"10","Sản lượng dự kiến":"","Chứng nhận  (ASC,BAP....)":"","Kết quả thẩm định theo TT38":"B2","Ngày thẩm định ":"11/8/22 12:00:00 AM","Ngày cấp Giấy chứng nhận ATTP ":"","Số Giấy chứng nhận ATTP ":"","Ngày hết hạn Giấy chứng nhận ATTP ":"","Ghi chú":"","layer_id":277,"fid":112,"label":"Công ty CPTS Mekong"}},{"type":"Feature","id":113,"geometry":{"type":"Point","coordinates":[105.891186,9.979562]},"properties":{"Tên cơ sở":"Công ty TNHH Thủy sản Quang Minh","Loại hình":"Doanh nghiệp","Địa chỉ sản xuất":"Khóm Mỹ Thới 2, phường Cái Vồn, tỉnh Vĩnh Long","Mã số nhận diện cơ sở":"86-01-0106","Chủ cơ sở / Người đại diện":"Phạm Sơn Hải","Tổng diện tích":"5.35","Đang nuôi thả (diện tích mặt nước)":"5.35","Chưa thả lại (diện tích mặt nước)":"0","Số lượng ao nuôi":"7","Sản lượng dự kiến":"","Chứng nhận  (ASC,BAP....)":"","Kết quả thẩm định theo TT38":"B2","Ngày thẩm định ":"11/8/22 12:00:00 AM","Ngày cấp Giấy chứng nhận ATTP ":"","Số Giấy chứng nhận ATTP ":"01/2022/NN&PTNT-VL-TS","Ngày hết hạn Giấy chứng nhận ATTP ":"","Ghi chú":"","layer_id":277,"fid":113,"label":"Công ty TNHH Thủy sản Quang Minh"}},{"type":"Feature","id":114,"geometry":{"type":"Point","coordinates":[105.89432,9.979205]},"properties":{"Tên cơ sở":"Dương Hoàng Vũ","Loại hình":"Hộ nuôi","Địa chỉ sản xuất":"Khóm Mỹ Thới 2, phường Cái Vồn, tỉnh Vĩnh Long","Mã số nhận diện cơ sở":"86-01-000188","Chủ cơ sở / Người đại diện":"Dương Hoàng Vũ","Tổng diện tích":"1.65","Đang nuôi thả (diện tích mặt nước)":"1.65","Chưa thả lại (diện tích mặt nước)":"0","Số lượng ao nuôi":"2","Sản lượng dự kiến":"","Chứng nhận  (ASC,BAP....)":"","Kết quả thẩm định theo TT38":"","Ngày thẩm định ":"","Ngày cấp Giấy chứng nhận ATTP ":"","Số Giấy chứng nhận ATTP ":"","Ngày hết hạn Giấy chứng nhận ATTP ":"","Ghi chú":"","layer_id":277,"fid":114,"label":"Dương Hoàng Vũ"}},{"type":"Feature","id":115,"geometry":{"type":"Point","coordinates":[105.837844,10.002512]},"properties":{"Tên cơ sở":"Công Ty CPXNK Thủy Sản Cần Thơ            ","Loại hình":"Doanh nghiệp","Địa chỉ sản xuất":"Khóm Mỹ An, phường Cái Vồn, tỉnh Vĩnh Long","Mã số nhận diện cơ sở":"86-01-0012","Chủ cơ sở / Người đại diện":"Đặng Tư","Tổng diện tích":"9.76","Đang nuôi thả (diện tích mặt nước)":"9.76","Chưa thả lại (diện tích mặt nước)":"0","Số lượng ao nuôi":"13","Sản lượng dự kiến":"1995","Chứng nhận  (ASC,BAP....)":"","Kết quả thẩm định theo TT38":"A2","Ngày thẩm định ":"12/1/22 12:00:00 AM","Ngày cấp Giấy chứng nhận ATTP ":"","Số Giấy chứng nhận ATTP ":"","Ngày hết hạn Giấy chứng nhận ATTP ":"","Ghi chú":"","layer_id":277,"fid":115,"label":"Công Ty CPXNK Thủy Sản Cần Thơ            "}},{"type":"Feature","id":116,"geometry":{"type":"Point","coordinates":[105.904436,9.941458]},"properties":{"Tên cơ sở":"Công ty TNHH Thủy Sản Biển Đông","Loại hình":"Doanh nghiệp","Địa chỉ sản xuất":"ấp Phú Long, xã Lục Sĩ Thành, tỉnh Vĩnh Long","Mã số nhận diện cơ sở":"86-01-000180","Chủ cơ sở / Người đại diện":"Ngô Quang Trường","Tổng diện tích":"3.93","Đang nuôi thả (diện tích mặt nước)":"2.73","Chưa thả lại (diện tích mặt nước)":"","Số lượng ao nuôi":"4","Sản lượng dự kiến":"1.296","Chứng nhận  (ASC,BAP....)":"BAP","Kết quả thẩm định theo TT38":"A1","Ngày thẩm định ":"8/31/22 12:00:00 AM","Ngày cấp Giấy chứng nhận ATTP ":"","Số Giấy chứng nhận ATTP ":"","Ngày hết hạn Giấy chứng nhận ATTP ":"","Ghi chú":"","layer_id":277,"fid":116,"label":"Công ty TNHH Thủy Sản Biển Đông"}},{"type":"Feature","id":117,"geometry":{"type":"Point","coordinates":[105.985187,9.904304]},"properties":{"Tên cơ sở":"Công ty Cổ Phần Thủy sản MeKong","Loại hình":"Doanh nghiệp","Địa chỉ sản xuất":"ấp Tích Phú, xã Trà Ôn, tỉnh VĨnh Long","Mã số nhận diện cơ sở":"86-01-000109","Chủ cơ sở / Người đại diện":"Lương Hoàng Mãnh","Tổng diện tích":"4.32","Đang nuôi thả (diện tích mặt nước)":"4.32","Chưa thả lại (diện tích mặt nước)":"","Số lượng ao nuôi":"5","Sản lượng dự kiến":"1.201","Chứng nhận  (ASC,BAP....)":"","Kết quả thẩm định theo TT38":"B2","Ngày thẩm định ":"11/8/22 12:00:00 AM","Ngày cấp Giấy chứng nhận ATTP ":"","Số Giấy chứng nhận ATTP ":"","Ngày hết hạn Giấy chứng nhận ATTP ":"","Ghi chú":"","layer_id":277,"fid":117,"label":"Công ty Cổ Phần Thủy sản MeKong"}},{"type":"Feature","id":118,"geometry":{"type":"Point","coordinates":[105.97236,9.892356]},"properties":{"Tên cơ sở":"Công ty TNHH CNTS Miền Nam","Loại hình":"Doanh nghiệp","Địa chỉ sản xuất":"ấp Kinh Đào, xã Lục SĨ Thành, tỉnh Vĩnh Long","Mã số nhận diện cơ sở":"86-01-0001","Chủ cơ sở / Người đại diện":"Trần Văn Quang","Tổng diện tích":"3.61","Đang nuôi thả (diện tích mặt nước)":"3.61","Chưa thả lại (diện tích mặt nước)":"","Số lượng ao nuôi":"6","Sản lượng dự kiến":"215","Chứng nhận  (ASC,BAP....)":"","Kết quả thẩm định theo TT38":"B2","Ngày thẩm định ":"11/22/22 12:00:00 AM","Ngày cấp Giấy chứng nhận ATTP ":"","Số Giấy chứng nhận ATTP ":"","Ngày hết hạn Giấy chứng nhận ATTP ":"","Ghi chú":"","layer_id":277,"fid":118,"label":"Công ty TNHH CNTS Miền Nam"}},{"type":"Feature","id":139,"geometry":{"type":"Point","coordinates":[105.764648,10.085472]},"properties":{"Tên cơ sở":"Nguyễn Mẫn","Loại hình":"Hộ nuôi","Địa chỉ sản xuất":"ấp Tân Hạnh, xã Tân Quới, tỉnh Vĩnh Long","Mã số nhận diện cơ sở":"86-01-0110","Chủ cơ sở / Người đại diện":"Nguyễn Văn Gấu","Tổng diện tích":"2.25","Đang nuôi thả (diện tích mặt nước)":"2.25","Chưa thả lại (diện tích mặt nước)":"0","Số lượng ao nuôi":"4","Sản lượng dự kiến":"1500","Chứng nhận  (ASC,BAP....)":"","Kết quả thẩm định theo TT38":"","Ngày thẩm định ":"","Ngày cấp Giấy chứng nhận ATTP ":"","Số Giấy chứng nhận ATTP ":"","Ngày hết hạn Giấy chứng nhận ATTP ":"","Ghi chú":"","layer_id":277,"fid":139,"label":"Nguyễn Mẫn"}},{"type":"Feature","id":119,"geometry":{"type":"Point","coordinates":[105.917035,9.937184]},"properties":{"Tên cơ sở":"Công ty TNHH CNTS Miền Nam","Loại hình":"Doanh nghiệp","Địa chỉ sản xuất":"ấp Long Hưng, xã Lục SĨ Thành, tỉnh Vĩnh Long","Mã số nhận diện cơ sở":"86-01-0001","Chủ cơ sở / Người đại diện":"Trần Văn Quang","Tổng diện tích":"3.6","Đang nuôi thả (diện tích mặt nước)":"3.6","Chưa thả lại (diện tích mặt nước)":"","Số lượng ao nuôi":"9","Sản lượng dự kiến":"870","Chứng nhận  (ASC,BAP....)":"","Kết quả thẩm định theo TT38":"B2","Ngày thẩm định ":"11/22/22 12:00:00 AM","Ngày cấp Giấy chứng nhận ATTP ":"","Số Giấy chứng nhận ATTP ":"","Ngày hết hạn Giấy chứng nhận ATTP ":"","Ghi chú":"","layer_id":277,"fid":119,"label":"Công ty TNHH CNTS Miền Nam"}},{"type":"Feature","id":120,"geometry":{"type":"Point","coordinates":[105.869782,9.98696]},"properties":{"Tên cơ sở":"Công ty TNHH CNTS Miền Nam","Loại hình":"Doanh nghiệp","Địa chỉ sản xuất":"ấp Phú Xuân, xã Lục SĨ Thành, tỉnh Vĩnh Long","Mã số nhận diện cơ sở":"86-01-0001","Chủ cơ sở / Người đại diện":"Trần Văn Quang","Tổng diện tích":"4.45","Đang nuôi thả (diện tích mặt nước)":"4.45","Chưa thả lại (diện tích mặt nước)":"","Số lượng ao nuôi":"5","Sản lượng dự kiến":"870","Chứng nhận  (ASC,BAP....)":"","Kết quả thẩm định theo TT38":"B2","Ngày thẩm định ":"11/22/22 12:00:00 AM","Ngày cấp Giấy chứng nhận ATTP ":"","Số Giấy chứng nhận ATTP ":"","Ngày hết hạn Giấy chứng nhận ATTP ":"","Ghi chú":"","layer_id":277,"fid":120,"label":"Công ty TNHH CNTS Miền Nam"}},{"type":"Feature","id":121,"geometry":{"type":"Point","coordinates":[105.907258,9.940412]},"properties":{"Tên cơ sở":"Công ty TNHH Thủy sản Quang Minh","Loại hình":"Doanh nghiệp","Địa chỉ sản xuất":"ấp Long Thạnh, xã Lục SĨ Thành, tỉnh Vĩnh Long","Mã số nhận diện cơ sở":"86-01-00106","Chủ cơ sở / Người đại diện":"Phạm Sơn Hải","Tổng diện tích":"2.5","Đang nuôi thả (diện tích mặt nước)":"2.5","Chưa thả lại (diện tích mặt nước)":"","Số lượng ao nuôi":"2","Sản lượng dự kiến":"624","Chứng nhận  (ASC,BAP....)":"","Kết quả thẩm định theo TT38":"","Ngày thẩm định ":"","Ngày cấp Giấy chứng nhận ATTP ":"","Số Giấy chứng nhận ATTP ":"","Ngày hết hạn Giấy chứng nhận ATTP ":"","Ghi chú":"","layer_id":277,"fid":121,"label":"Công ty TNHH Thủy sản Quang Minh"}},{"type":"Feature","id":122,"geometry":{"type":"Point","coordinates":[105.866572,9.968803]},"properties":{"Tên cơ sở":"Công ty TNHH Thủy sản Quang Minh","Loại hình":"Doanh nghiệp","Địa chỉ sản xuất":"ấp Phú Long, xã Lục SĨ Thành, tỉnh Vĩnh Long","Mã số nhận diện cơ sở":"86-01-00106","Chủ cơ sở / Người đại diện":"Phạm Sơn Hải","Tổng diện tích":"1.8","Đang nuôi thả (diện tích mặt nước)":"1.8","Chưa thả lại (diện tích mặt nước)":"","Số lượng ao nuôi":"4","Sản lượng dự kiến":"858","Chứng nhận  (ASC,BAP....)":"","Kết quả thẩm định theo TT38":"B2","Ngày thẩm định ":"11/11/22 12:00:00 AM","Ngày cấp Giấy chứng nhận ATTP ":"","Số Giấy chứng nhận ATTP ":"","Ngày hết hạn Giấy chứng nhận ATTP ":"","Ghi chú":"","layer_id":277,"fid":122,"label":"Công ty TNHH Thủy sản Quang Minh"}},{"type":"Feature","id":123,"geometry":{"type":"Point","coordinates":[105.858164,9.977391]},"properties":{"Tên cơ sở":"Công ty TNHH Thủy sản Quang Minh","Loại hình":"Doanh nghiệp","Địa chỉ sản xuất":"ấp Phú Lợi, xã Lục SĨ Thành, tỉnh Vĩnh Long","Mã số nhận diện cơ sở":"86-01-00106","Chủ cơ sở / Người đại diện":"Phạm Sơn Hải","Tổng diện tích":"0.5","Đang nuôi thả (diện tích mặt nước)":"0.5","Chưa thả lại (diện tích mặt nước)":"","Số lượng ao nuôi":"1","Sản lượng dự kiến":"130","Chứng nhận  (ASC,BAP....)":"","Kết quả thẩm định theo TT38":"B2","Ngày thẩm định ":"11/11/22 12:00:00 AM","Ngày cấp Giấy chứng nhận ATTP ":"","Số Giấy chứng nhận ATTP ":"","Ngày hết hạn Giấy chứng nhận ATTP ":"","Ghi chú":"","layer_id":277,"fid":123,"label":"Công ty TNHH Thủy sản Quang Minh"}},{"type":"Feature","id":124,"geometry":{"type":"Point","coordinates":[105.855592,9.99295]},"properties":{"Tên cơ sở":"Võ Văn Đấu","Loại hình":"Hộ nuôi","Địa chỉ sản xuất":"ấp Phú Xuân, xã Lục SĨ Thành, tỉnh Vĩnh Long","Mã số nhận diện cơ sở":"86-01-00011","Chủ cơ sở / Người đại diện":"Võ Văn Đấu","Tổng diện tích":"1.44","Đang nuôi thả (diện tích mặt nước)":"1.44","Chưa thả lại (diện tích mặt nước)":"","Số lượng ao nuôi":"4","Sản lượng dự kiến":"0","Chứng nhận  (ASC,BAP....)":"","Kết quả thẩm định theo TT38":"","Ngày thẩm định ":"","Ngày cấp Giấy chứng nhận ATTP ":"","Số Giấy chứng nhận ATTP ":"","Ngày hết hạn Giấy chứng nhận ATTP ":"","Ghi chú":"","layer_id":277,"fid":124,"label":"Võ Văn Đấu"}},{"type":"Feature","id":125,"geometry":{"type":"Point","coordinates":[105.897442,9.972765]},"properties":{"Tên cơ sở":"Nguyễn Thanh Quang","Loại hình":"Hộ nuôi","Địa chỉ sản xuất":"ấp Phú Sung, xã Lục SĨ Thành, tỉnh Vĩnh Long","Mã số nhận diện cơ sở":"86-01-000178","Chủ cơ sở / Người đại diện":"Nguyễn Thanh Quang","Tổng diện tích":"1.55","Đang nuôi thả (diện tích mặt nước)":"1.55","Chưa thả lại (diện tích mặt nước)":"","Số lượng ao nuôi":"2","Sản lượng dự kiến":"315","Chứng nhận  (ASC,BAP....)":"","Kết quả thẩm định theo TT38":"","Ngày thẩm định ":"","Ngày cấp Giấy chứng nhận ATTP ":"","Số Giấy chứng nhận ATTP ":"","Ngày hết hạn Giấy chứng nhận ATTP ":"","Ghi chú":"","layer_id":277,"fid":125,"label":"Nguyễn Thanh Quang"}},{"type":"Feature","id":126,"geometry":{"type":"Point","coordinates":[105.866201,9.98989]},"properties":{"Tên cơ sở":"Nguyễn Văn Tiệp","Loại hình":"Hộ nuôi","Địa chỉ sản xuất":"ấp Phú Xuân, xã Lục SĨ Thành, tỉnh Vĩnh Long","Mã số nhận diện cơ sở":"","Chủ cơ sở / Người đại diện":"Nguyễn Văn Tiệp","Tổng diện tích":"0.6","Đang nuôi thả (diện tích mặt nước)":"0.6","Chưa thả lại (diện tích mặt nước)":"","Số lượng ao nuôi":"1","Sản lượng dự kiến":"0","Chứng nhận  (ASC,BAP....)":"","Kết quả thẩm định theo TT38":"","Ngày thẩm định ":"","Ngày cấp Giấy chứng nhận ATTP ":"","Số Giấy chứng nhận ATTP ":"","Ngày hết hạn Giấy chứng nhận ATTP ":"","Ghi chú":"","layer_id":277,"fid":126,"label":"Nguyễn Văn Tiệp"}},{"type":"Feature","id":127,"geometry":{"type":"Point","coordinates":[105.866536,9.968841]},"properties":{"Tên cơ sở":"Nguyễn Hoàng Minh","Loại hình":"Hộ nuôi","Địa chỉ sản xuất":"ấp Phú Lợi, xã Lục SĨ Thành, tỉnh Vĩnh Long","Mã số nhận diện cơ sở":"86-01-000132","Chủ cơ sở / Người đại diện":"Nguyễn Hoàng Minh","Tổng diện tích":"1.45","Đang nuôi thả (diện tích mặt nước)":"1.45","Chưa thả lại (diện tích mặt nước)":"","Số lượng ao nuôi":"4","Sản lượng dự kiến":"179","Chứng nhận  (ASC,BAP....)":"","Kết quả thẩm định theo TT38":"","Ngày thẩm định ":"","Ngày cấp Giấy chứng nhận ATTP ":"","Số Giấy chứng nhận ATTP ":"","Ngày hết hạn Giấy chứng nhận ATTP ":"","Ghi chú":"","layer_id":277,"fid":127,"label":"Nguyễn Hoàng Minh"}},{"type":"Feature","id":128,"geometry":{"type":"Point","coordinates":[105.854571,9.993888]},"properties":{"Tên cơ sở":"Trần Hoàng Mỹ","Loại hình":"Hộ nuôi","Địa chỉ sản xuất":"ấp Phú Xuân, xã Lục SĨ Thành, tỉnh Vĩnh Long","Mã số nhận diện cơ sở":"86-01-00018","Chủ cơ sở / Người đại diện":"Nguyễn Chánh Vương","Tổng diện tích":"0.55","Đang nuôi thả (diện tích mặt nước)":"0.55","Chưa thả lại (diện tích mặt nước)":"","Số lượng ao nuôi":"3","Sản lượng dự kiến":"78","Chứng nhận  (ASC,BAP....)":"","Kết quả thẩm định theo TT38":"","Ngày thẩm định ":"","Ngày cấp Giấy chứng nhận ATTP ":"","Số Giấy chứng nhận ATTP ":"","Ngày hết hạn Giấy chứng nhận ATTP ":"","Ghi chú":"","layer_id":277,"fid":128,"label":"Trần Hoàng Mỹ"}},{"type":"Feature","id":129,"geometry":{"type":"Point","coordinates":[105.877672,9.957275]},"properties":{"Tên cơ sở":"Lê Tam Bình","Loại hình":"Hộ nuôi","Địa chỉ sản xuất":"ấp Phú Long, xã Lục SĨ Thành, tỉnh Vĩnh Long","Mã số nhận diện cơ sở":"86-01-000142","Chủ cơ sở / Người đại diện":"Lê Tam Bình","Tổng diện tích":"1.3","Đang nuôi thả (diện tích mặt nước)":"1.3","Chưa thả lại (diện tích mặt nước)":"","Số lượng ao nuôi":"2","Sản lượng dự kiến":"208","Chứng nhận  (ASC,BAP....)":"","Kết quả thẩm định theo TT38":"","Ngày thẩm định ":"","Ngày cấp Giấy chứng nhận ATTP ":"","Số Giấy chứng nhận ATTP ":"","Ngày hết hạn Giấy chứng nhận ATTP ":"","Ghi chú":"","layer_id":277,"fid":129,"label":"Lê Tam Bình"}},{"type":"Feature","id":130,"geometry":{"type":"Point","coordinates":[105.866201,9.98989]},"properties":{"Tên cơ sở":"Đỗ Hũu Trọng","Loại hình":"Hộ nuôi","Địa chỉ sản xuất":"ấp Phú Xuân, xã Lục SĨ Thành, tỉnh Vĩnh Long","Mã số nhận diện cơ sở":"86-01-00018","Chủ cơ sở / Người đại diện":"Nguyễn Chánh Vương","Tổng diện tích":"0.6","Đang nuôi thả (diện tích mặt nước)":"0.6","Chưa thả lại (diện tích mặt nước)":"","Số lượng ao nuôi":"1","Sản lượng dự kiến":"200","Chứng nhận  (ASC,BAP....)":"","Kết quả thẩm định theo TT38":"","Ngày thẩm định ":"","Ngày cấp Giấy chứng nhận ATTP ":"","Số Giấy chứng nhận ATTP ":"","Ngày hết hạn Giấy chứng nhận ATTP ":"","Ghi chú":"","layer_id":277,"fid":130,"label":"Đỗ Hũu Trọng"}},{"type":"Feature","id":131,"geometry":{"type":"Point","coordinates":[105.854571,9.993888]},"properties":{"Tên cơ sở":"Trần Trung Tín","Loại hình":"Hộ nuôi","Địa chỉ sản xuất":"ấp Phú Lợi, xã Lục SĨ Thành, tỉnh Vĩnh Long","Mã số nhận diện cơ sở":"86-01-000187","Chủ cơ sở / Người đại diện":"Trần Trung Tín","Tổng diện tích":"1.2","Đang nuôi thả (diện tích mặt nước)":"1.2","Chưa thả lại (diện tích mặt nước)":"","Số lượng ao nuôi":"2","Sản lượng dự kiến":"500","Chứng nhận  (ASC,BAP....)":"","Kết quả thẩm định theo TT38":"","Ngày thẩm định ":"","Ngày cấp Giấy chứng nhận ATTP ":"","Số Giấy chứng nhận ATTP ":"","Ngày hết hạn Giấy chứng nhận ATTP ":"","Ghi chú":"","layer_id":277,"fid":131,"label":"Trần Trung Tín"}},{"type":"Feature","id":132,"geometry":{"type":"Point","coordinates":[105.907322,9.943421]},"properties":{"Tên cơ sở":"Lê Tân Hùng","Loại hình":"Hộ nuôi","Địa chỉ sản xuất":"ấp Long Thạnh,  xã Lục SĨ Thành, tỉnh Vĩnh Long","Mã số nhận diện cơ sở":"86-01-000171","Chủ cơ sở / Người đại diện":"Lê Tân Hùng","Tổng diện tích":"4.18","Đang nuôi thả (diện tích mặt nước)":"2","Chưa thả lại (diện tích mặt nước)":"2.18","Số lượng ao nuôi":"2","Sản lượng dự kiến":"1200","Chứng nhận  (ASC,BAP....)":"","Kết quả thẩm định theo TT38":"","Ngày thẩm định ":"","Ngày cấp Giấy chứng nhận ATTP ":"","Số Giấy chứng nhận ATTP ":"","Ngày hết hạn Giấy chứng nhận ATTP ":"","Ghi chú":"","layer_id":277,"fid":132,"label":"Lê Tân Hùng"}},{"type":"Feature","id":133,"geometry":{"type":"Point","coordinates":[105.880052,9.954664]},"properties":{"Tên cơ sở":"Công ty Cổ Phần XNK Thủy Sản Cần Thơ","Loại hình":"Doanh nghiệp","Địa chỉ sản xuất":"ấp Phú Long, xã Lục SĨ Thành, tỉnh Vĩnh Long","Mã số nhận diện cơ sở":"86-01-000012","Chủ cơ sở / Người đại diện":"Võ Đông Đức","Tổng diện tích":"7.83","Đang nuôi thả (diện tích mặt nước)":"3.84","Chưa thả lại (diện tích mặt nước)":"","Số lượng ao nuôi":"5","Sản lượng dự kiến":"1.225","Chứng nhận  (ASC,BAP....)":"BAP","Kết quả thẩm định theo TT38":"A2","Ngày thẩm định ":"11/22/22 12:00:00 AM","Ngày cấp Giấy chứng nhận ATTP ":"","Số Giấy chứng nhận ATTP ":"","Ngày hết hạn Giấy chứng nhận ATTP ":"","Ghi chú":"","layer_id":277,"fid":133,"label":"Công ty Cổ Phần XNK Thủy Sản Cần Thơ"}},{"type":"Feature","id":134,"geometry":{"type":"Point","coordinates":[105.779319,10.07636]},"properties":{"Tên cơ sở":"Trần Việt Cảnh","Loại hình":"Hộ nuôi","Địa chỉ sản xuất":"ấp Tân Đông, xã Tân Quới, tỉnh Vĩnh Long","Mã số nhận diện cơ sở":"86-01-000005","Chủ cơ sở / Người đại diện":"Trần Việt Cảnh","Tổng diện tích":"4","Đang nuôi thả (diện tích mặt nước)":"4","Chưa thả lại (diện tích mặt nước)":"0","Số lượng ao nuôi":"8","Sản lượng dự kiến":"2500","Chứng nhận  (ASC,BAP....)":"","Kết quả thẩm định theo TT38":"","Ngày thẩm định ":"","Ngày cấp Giấy chứng nhận ATTP ":"","Số Giấy chứng nhận ATTP ":"","Ngày hết hạn Giấy chứng nhận ATTP ":"","Ghi chú":"","layer_id":277,"fid":134,"label":"Trần Việt Cảnh"}},{"type":"Feature","id":135,"geometry":{"type":"Point","coordinates":[105.773476,10.07919]},"properties":{"Tên cơ sở":"Trần Hoàng Mỹ","Loại hình":"Hộ nuôi","Địa chỉ sản xuất":"ấp Tân Đông, xã Tân Quới, tỉnh Vĩnh Long","Mã số nhận diện cơ sở":"86-01-0135","Chủ cơ sở / Người đại diện":"Trần Hoàng Mỹ","Tổng diện tích":"3.06","Đang nuôi thả (diện tích mặt nước)":"3.06","Chưa thả lại (diện tích mặt nước)":"0","Số lượng ao nuôi":"4","Sản lượng dự kiến":"1500","Chứng nhận  (ASC,BAP....)":"","Kết quả thẩm định theo TT38":"","Ngày thẩm định ":"","Ngày cấp Giấy chứng nhận ATTP ":"","Số Giấy chứng nhận ATTP ":"","Ngày hết hạn Giấy chứng nhận ATTP ":"","Ghi chú":"","layer_id":277,"fid":135,"label":"Trần Hoàng Mỹ"}},{"type":"Feature","id":136,"geometry":{"type":"Point","coordinates":[105.776035,10.07834]},"properties":{"Tên cơ sở":"Võ Hồng Phụng","Loại hình":"Hộ nuôi","Địa chỉ sản xuất":"ấp Tân Đông, xã Tân Quới, tỉnh Vĩnh Long","Mã số nhận diện cơ sở":"86-01-000016","Chủ cơ sở / Người đại diện":"Phan Văn Tuấn","Tổng diện tích":"1.2","Đang nuôi thả (diện tích mặt nước)":"0","Chưa thả lại (diện tích mặt nước)":"0","Số lượng ao nuôi":"2","Sản lượng dự kiến":"550","Chứng nhận  (ASC,BAP....)":"","Kết quả thẩm định theo TT38":"B1","Ngày thẩm định ":"12/1/22 12:00:00 AM","Ngày cấp Giấy chứng nhận ATTP ":"","Số Giấy chứng nhận ATTP ":"","Ngày hết hạn Giấy chứng nhận ATTP ":"","Ghi chú":"","layer_id":277,"fid":136,"label":"Võ Hồng Phụng"}},{"type":"Feature","id":137,"geometry":{"type":"Point","coordinates":[105.768168,10.082581]},"properties":{"Tên cơ sở":"Huỳnh Văn Kha","Loại hình":"Hộ nuôi","Địa chỉ sản xuất":"ấp Tân Đông, xã Tân Quới, tỉnh Vĩnh Long","Mã số nhận diện cơ sở":"86-01-0172","Chủ cơ sở / Người đại diện":"Huỳnh Văn Kha","Tổng diện tích":"3.96","Đang nuôi thả (diện tích mặt nước)":"0","Chưa thả lại (diện tích mặt nước)":"3.96","Số lượng ao nuôi":"6","Sản lượng dự kiến":"0","Chứng nhận  (ASC,BAP....)":"","Kết quả thẩm định theo TT38":"","Ngày thẩm định ":"","Ngày cấp Giấy chứng nhận ATTP ":"","Số Giấy chứng nhận ATTP ":"","Ngày hết hạn Giấy chứng nhận ATTP ":"","Ghi chú":"","layer_id":277,"fid":137,"label":"Huỳnh Văn Kha"}},{"type":"Feature","id":138,"geometry":{"type":"Point","coordinates":[105.766641,10.084478]},"properties":{"Tên cơ sở":"Lâm Thái Hoàng","Loại hình":"Hộ nuôi","Địa chỉ sản xuất":"ấp Tân Đông, xã Tân Quới, tỉnh Vĩnh Long","Mã số nhận diện cơ sở":"86-01-0174","Chủ cơ sở / Người đại diện":"Lâm Thái Hoàng","Tổng diện tích":"3.1","Đang nuôi thả (diện tích mặt nước)":"3.1","Chưa thả lại (diện tích mặt nước)":"0","Số lượng ao nuôi":"3","Sản lượng dự kiến":"1300","Chứng nhận  (ASC,BAP....)":"","Kết quả thẩm định theo TT38":"B2","Ngày thẩm định ":"12/1/22 12:00:00 AM","Ngày cấp Giấy chứng nhận ATTP ":"","Số Giấy chứng nhận ATTP ":"","Ngày hết hạn Giấy chứng nhận ATTP ":"","Ghi chú":"","layer_id":277,"fid":138,"label":"Lâm Thái Hoàng"}},{"type":"Feature","id":140,"geometry":{"type":"Point","coordinates":[105.764648,10.085472]},"properties":{"Tên cơ sở":"Huỳnh Thị Ngộ","Loại hình":"Hộ nuôi","Địa chỉ sản xuất":"ấp Tân Hạnh, xãTân Quới, tỉnh Vĩnh Long","Mã số nhận diện cơ sở":"86-01-0009","Chủ cơ sở / Người đại diện":"Huỳnh Thị Ngộ","Tổng diện tích":"1.44","Đang nuôi thả (diện tích mặt nước)":"1.44","Chưa thả lại (diện tích mặt nước)":"0.63","Số lượng ao nuôi":"3","Sản lượng dự kiến":"330","Chứng nhận  (ASC,BAP....)":"","Kết quả thẩm định theo TT38":"","Ngày thẩm định ":"","Ngày cấp Giấy chứng nhận ATTP ":"","Số Giấy chứng nhận ATTP ":"","Ngày hết hạn Giấy chứng nhận ATTP ":"","Ghi chú":"","layer_id":277,"fid":140,"label":"Huỳnh Thị Ngộ"}},{"type":"Feature","id":141,"geometry":{"type":"Point","coordinates":[105.758047,10.0907]},"properties":{"Tên cơ sở":"Huỳnh Thị Ngộ","Loại hình":"Hộ nuôi","Địa chỉ sản xuất":"ấpTân Vinh, xã Tân Quới, tỉnh Vĩnh Long","Mã số nhận diện cơ sở":"86-01-0009","Chủ cơ sở / Người đại diện":"Huỳnh Thị Ngộ","Tổng diện tích":"1.94","Đang nuôi thả (diện tích mặt nước)":"0","Chưa thả lại (diện tích mặt nước)":"1.94","Số lượng ao nuôi":"2","Sản lượng dự kiến":"0","Chứng nhận  (ASC,BAP....)":"","Kết quả thẩm định theo TT38":"","Ngày thẩm định ":"","Ngày cấp Giấy chứng nhận ATTP ":"","Số Giấy chứng nhận ATTP ":"","Ngày hết hạn Giấy chứng nhận ATTP ":"","Ghi chú":"","layer_id":277,"fid":141,"label":"Huỳnh Thị Ngộ"}},{"type":"Feature","id":142,"geometry":{"type":"Point","coordinates":[105.75726,10.091788]},"properties":{"Tên cơ sở":"Công ty TNHH thủy sản Quang Minh","Loại hình":"Doanh nghiệp","Địa chỉ sản xuất":"ấpTân Vinh, xã Tân Quới, tỉnh Vĩnh Long","Mã số nhận diện cơ sở":"86-01-0106","Chủ cơ sở / Người đại diện":"Trần Ngọc Hiền","Tổng diện tích":"1.4","Đang nuôi thả (diện tích mặt nước)":"1.4","Chưa thả lại (diện tích mặt nước)":"0","Số lượng ao nuôi":"1","Sản lượng dự kiến":"6500","Chứng nhận  (ASC,BAP....)":"","Kết quả thẩm định theo TT38":"B2","Ngày thẩm định ":"12/1/22 12:00:00 AM","Ngày cấp Giấy chứng nhận ATTP ":"","Số Giấy chứng nhận ATTP ":"","Ngày hết hạn Giấy chứng nhận ATTP ":"","Ghi chú":"","layer_id":277,"fid":142,"label":"Công ty TNHH thủy sản Quang Minh"}},{"type":"Feature","id":143,"geometry":{"type":"Point","coordinates":[105.749012,10.097812]},"properties":{"Tên cơ sở":"Trần Thanh Tùng","Loại hình":"Hộ nuôi","Địa chỉ sản xuất":"ấp Tân Hòa,xã Tân Quới, tỉnh Vĩnh Long","Mã số nhận diện cơ sở":"86-01-0179","Chủ cơ sở / Người đại diện":"Trần Thanh Tùng","Tổng diện tích":"1.6","Đang nuôi thả (diện tích mặt nước)":"1.6","Chưa thả lại (diện tích mặt nước)":"0","Số lượng ao nuôi":"1","Sản lượng dự kiến":"750","Chứng nhận  (ASC,BAP....)":"","Kết quả thẩm định theo TT38":"","Ngày thẩm định ":"","Ngày cấp Giấy chứng nhận ATTP ":"","Số Giấy chứng nhận ATTP ":"","Ngày hết hạn Giấy chứng nhận ATTP ":"","Ghi chú":"","layer_id":277,"fid":143,"label":"Trần Thanh Tùng"}},{"type":"Feature","id":144,"geometry":{"type":"Point","coordinates":[105.720042,10.118985]},"properties":{"Tên cơ sở":"Công ty TNHH công nghiệp thủy sản Miền Nam","Loại hình":"Doanh nghiệp","Địa chỉ sản xuất":"ấp Tân Hiệp, xã Tân Quới, tỉnh Vĩnh Long","Mã số nhận diện cơ sở":"86-01-0001","Chủ cơ sở / Người đại diện":"Phạm Thanh Hải","Tổng diện tích":"3.7","Đang nuôi thả (diện tích mặt nước)":"3.05","Chưa thả lại (diện tích mặt nước)":"0.65","Số lượng ao nuôi":"4","Sản lượng dự kiến":"1300","Chứng nhận  (ASC,BAP....)":"","Kết quả thẩm định theo TT38":"B2","Ngày thẩm định ":"14/11/2022","Ngày cấp Giấy chứng nhận ATTP ":"","Số Giấy chứng nhận ATTP ":"","Ngày hết hạn Giấy chứng nhận ATTP ":"","Ghi chú":"","layer_id":277,"fid":144,"label":"Công ty TNHH công nghiệp thủy sản Miền Nam"}},{"type":"Feature","id":145,"geometry":{"type":"Point","coordinates":[105.722162,10.117821]},"properties":{"Tên cơ sở":"Lê Tam Bình","Loại hình":"Hộ nuôi","Địa chỉ sản xuất":"ấp Tân Hiệp, xã Tân Quới, tỉnh Vĩnh Long","Mã số nhận diện cơ sở":"86-01-000142","Chủ cơ sở / Người đại diện":"Lê Tam Bình","Tổng diện tích":"0.5","Đang nuôi thả (diện tích mặt nước)":"0.5","Chưa thả lại (diện tích mặt nước)":"0","Số lượng ao nuôi":"1","Sản lượng dự kiến":"220","Chứng nhận  (ASC,BAP....)":"","Kết quả thẩm định theo TT38":"","Ngày thẩm định ":"","Ngày cấp Giấy chứng nhận ATTP ":"","Số Giấy chứng nhận ATTP ":"","Ngày hết hạn Giấy chứng nhận ATTP ":"","Ghi chú":"","layer_id":277,"fid":145,"label":"Lê Tam Bình"}},{"type":"Feature","id":146,"geometry":{"type":"Point","coordinates":[105.722347,10.116359]},"properties":{"Tên cơ sở":"Trần Thanh Nhanh","Loại hình":"Hộ nuôi","Địa chỉ sản xuất":"ấp Tân Hiệp, xã Tân Quới, tỉnh Vĩnh Long","Mã số nhận diện cơ sở":"86-01-000168","Chủ cơ sở / Người đại diện":"Trần Thanh Nhanh","Tổng diện tích":"0.8","Đang nuôi thả (diện tích mặt nước)":"0.8","Chưa thả lại (diện tích mặt nước)":"0","Số lượng ao nuôi":"1","Sản lượng dự kiến":"360","Chứng nhận  (ASC,BAP....)":"","Kết quả thẩm định theo TT38":"","Ngày thẩm định ":"","Ngày cấp Giấy chứng nhận ATTP ":"","Số Giấy chứng nhận ATTP ":"","Ngày hết hạn Giấy chứng nhận ATTP ":"","Ghi chú":"","layer_id":277,"fid":146,"label":"Trần Thanh Nhanh"}},{"type":"Feature","id":147,"geometry":{"type":"Point","coordinates":[105.705081,10.127133]},"properties":{"Tên cơ sở":"Phạm Khải Công Khanh","Loại hình":"Hộ nuôi","Địa chỉ sản xuất":"ấp An Thành, xã Tân Lược, tỉnh Vĩnh Long","Mã số nhận diện cơ sở":"86-01-0136","Chủ cơ sở / Người đại diện":"Nguyễn Văn Hận","Tổng diện tích":"7","Đang nuôi thả (diện tích mặt nước)":"3","Chưa thả lại (diện tích mặt nước)":"4","Số lượng ao nuôi":"7","Sản lượng dự kiến":"1400","Chứng nhận  (ASC,BAP....)":"","Kết quả thẩm định theo TT38":"","Ngày thẩm định ":"","Ngày cấp Giấy chứng nhận ATTP ":"","Số Giấy chứng nhận ATTP ":"","Ngày hết hạn Giấy chứng nhận ATTP ":"","Ghi chú":"","layer_id":277,"fid":147,"label":"Phạm Khải Công Khanh"}},{"type":"Feature","id":205,"geometry":{"type":"Point","coordinates":[106.022707,10.252772]},"properties":{"Tên cơ sở":"Đào Ngọc Như","Loại hình":"Hộ Nuôi","Địa chỉ sản xuất":"ấp An Hương 1, xã Nhơn Phú,tỉnh Vĩnh Long","Mã số nhận diện cơ sở":"","Chủ cơ sở / Người đại diện":"Đào Ngọc Như","Tổng diện tích":"2.05","Đang nuôi thả (diện tích mặt nước)":"","Chưa thả lại (diện tích mặt nước)":"2.05","Số lượng ao nuôi":"2","Sản lượng dự kiến":"","Chứng nhận  (ASC,BAP....)":"","Kết quả thẩm định theo TT38":"","Ngày thẩm định ":"","Ngày cấp Giấy chứng nhận ATTP ":"","Số Giấy chứng nhận ATTP ":"","Ngày hết hạn Giấy chứng nhận ATTP ":"","Ghi chú":"","layer_id":277,"fid":205,"label":"Đào Ngọc Như"}},{"type":"Feature","id":148,"geometry":{"type":"Point","coordinates":[105.70114,10.129176]},"properties":{"Tên cơ sở":"Công ty TNHH công nghiệp thủy sản Miền Nam (Thuê hộ Lê Thị Mỹ Liên)","Loại hình":"Doanh nghiệp","Địa chỉ sản xuất":"ấp An Thành, xã Tân Lược, tỉnh Vĩnh Long","Mã số nhận diện cơ sở":"86-01-0001","Chủ cơ sở / Người đại diện":"Nguyễn Văn Đủ","Tổng diện tích":"1.07","Đang nuôi thả (diện tích mặt nước)":"1.07","Chưa thả lại (diện tích mặt nước)":"0","Số lượng ao nuôi":"1","Sản lượng dự kiến":"480","Chứng nhận  (ASC,BAP....)":"","Kết quả thẩm định theo TT38":"","Ngày thẩm định ":"","Ngày cấp Giấy chứng nhận ATTP ":"","Số Giấy chứng nhận ATTP ":"","Ngày hết hạn Giấy chứng nhận ATTP ":"","Ghi chú":"","layer_id":277,"fid":148,"label":"Công ty TNHH công nghiệp thủy sản Miền Nam (Thuê hộ Lê Thị Mỹ Liên)"}},{"type":"Feature","id":149,"geometry":{"type":"Point","coordinates":[105.708718,10.125303]},"properties":{"Tên cơ sở":"Công ty TNHH công nghiệp thủy sản Miền Nam (khu 1)","Loại hình":"Doanh nghiệp","Địa chỉ sản xuất":"ấp An Thành, xã Tân Lược, tỉnh Vĩnh Long","Mã số nhận diện cơ sở":"86-01-0001","Chủ cơ sở / Người đại diện":"Nguyễn Văn Vui","Tổng diện tích":"7.13","Đang nuôi thả (diện tích mặt nước)":"1.29","Chưa thả lại (diện tích mặt nước)":"5.84","Số lượng ao nuôi":"6","Sản lượng dự kiến":"460","Chứng nhận  (ASC,BAP....)":"","Kết quả thẩm định theo TT38":"B2","Ngày thẩm định ":"14/11/2022","Ngày cấp Giấy chứng nhận ATTP ":"","Số Giấy chứng nhận ATTP ":"","Ngày hết hạn Giấy chứng nhận ATTP ":"","Ghi chú":"","layer_id":277,"fid":149,"label":"Công ty TNHH công nghiệp thủy sản Miền Nam (khu 1)"}},{"type":"Feature","id":150,"geometry":{"type":"Point","coordinates":[105.703319,10.127922]},"properties":{"Tên cơ sở":"Công ty TNHH công nghiệp thủy sản Miền Nam","Loại hình":"Doanh nghiệp","Địa chỉ sản xuất":"ấp An Thành, xã Tân Lược, tỉnh Vĩnh Long","Mã số nhận diện cơ sở":"86-01-0001","Chủ cơ sở / Người đại diện":"Trần Minh Trúc","Tổng diện tích":"5.65","Đang nuôi thả (diện tích mặt nước)":"5.65","Chưa thả lại (diện tích mặt nước)":"0","Số lượng ao nuôi":"5","Sản lượng dự kiến":"2300","Chứng nhận  (ASC,BAP....)":"","Kết quả thẩm định theo TT38":"B2","Ngày thẩm định ":"18/11/2022","Ngày cấp Giấy chứng nhận ATTP ":"","Số Giấy chứng nhận ATTP ":"","Ngày hết hạn Giấy chứng nhận ATTP ":"","Ghi chú":"","layer_id":277,"fid":150,"label":"Công ty TNHH công nghiệp thủy sản Miền Nam"}},{"type":"Feature","id":151,"geometry":{"type":"Point","coordinates":[105.68697,10.136578]},"properties":{"Tên cơ sở":"Công ty TNHH công nghiệp thủy sản Miền Nam","Loại hình":"Doanh nghiệp","Địa chỉ sản xuất":"ấp An Thạnh, xã Tân Lược, tỉnh Vĩnh Long","Mã số nhận diện cơ sở":"86-01-0001","Chủ cơ sở / Người đại diện":"Trần Minh Trúc","Tổng diện tích":"6.25","Đang nuôi thả (diện tích mặt nước)":"6.25","Chưa thả lại (diện tích mặt nước)":"0","Số lượng ao nuôi":"6","Sản lượng dự kiến":"2700","Chứng nhận  (ASC,BAP....)":"","Kết quả thẩm định theo TT38":"B2","Ngày thẩm định ":"18/11/2022","Ngày cấp Giấy chứng nhận ATTP ":"","Số Giấy chứng nhận ATTP ":"","Ngày hết hạn Giấy chứng nhận ATTP ":"","Ghi chú":"","layer_id":277,"fid":151,"label":"Công ty TNHH công nghiệp thủy sản Miền Nam"}},{"type":"Feature","id":152,"geometry":{"type":"Point","coordinates":[105.699427,10.13026]},"properties":{"Tên cơ sở":"Công ty TNHH công nghiệp thủy sản Miền Nam (khu 2)","Loại hình":"Doanh nghiệp","Địa chỉ sản xuất":"ấp An Thạnh, xã Tân Lược, tỉnh Vĩnh Long","Mã số nhận diện cơ sở":"86-01-0001","Chủ cơ sở / Người đại diện":"Nguyễn Văn Hùng","Tổng diện tích":"2.54","Đang nuôi thả (diện tích mặt nước)":"2.54","Chưa thả lại (diện tích mặt nước)":"0","Số lượng ao nuôi":"3","Sản lượng dự kiến":"930","Chứng nhận  (ASC,BAP....)":"","Kết quả thẩm định theo TT38":"B2","Ngày thẩm định ":"14/11/2022","Ngày cấp Giấy chứng nhận ATTP ":"","Số Giấy chứng nhận ATTP ":"","Ngày hết hạn Giấy chứng nhận ATTP ":"","Ghi chú":"","layer_id":277,"fid":152,"label":"Công ty TNHH công nghiệp thủy sản Miền Nam (khu 2)"}},{"type":"Feature","id":153,"geometry":{"type":"Point","coordinates":[105.692497,10.133998]},"properties":{"Tên cơ sở":"Công ty TNHH công nghiệp thủy sản Miền Nam (khu 3)","Loại hình":"Doanh nghiệp","Địa chỉ sản xuất":"ấp An Thạnh, xã Tân Lược, tỉnh Vĩnh Long","Mã số nhận diện cơ sở":"86-01-0001","Chủ cơ sở / Người đại diện":"Phạm Thanh Hải","Tổng diện tích":"5.32","Đang nuôi thả (diện tích mặt nước)":"3.46","Chưa thả lại (diện tích mặt nước)":"1.86","Số lượng ao nuôi":"6","Sản lượng dự kiến":"1550","Chứng nhận  (ASC,BAP....)":"","Kết quả thẩm định theo TT38":"B2","Ngày thẩm định ":"14/11/2022","Ngày cấp Giấy chứng nhận ATTP ":"","Số Giấy chứng nhận ATTP ":"","Ngày hết hạn Giấy chứng nhận ATTP ":"","Ghi chú":"","layer_id":277,"fid":153,"label":"Công ty TNHH công nghiệp thủy sản Miền Nam (khu 3)"}},{"type":"Feature","id":154,"geometry":{"type":"Point","coordinates":[105.780083,10.07663]},"properties":{"Tên cơ sở":"Nguyễn Hoàng Minh","Loại hình":"Hộ nuôi","Địa chỉ sản xuất":"ấp Tân Đông, xã Tân Quới, tỉnh Vĩnh Long","Mã số nhận diện cơ sở":"86-01-000192","Chủ cơ sở / Người đại diện":"Nguyễn Hoàng Minh","Tổng diện tích":"0.86","Đang nuôi thả (diện tích mặt nước)":"0.86","Chưa thả lại (diện tích mặt nước)":"0","Số lượng ao nuôi":"2","Sản lượng dự kiến":"350","Chứng nhận  (ASC,BAP....)":null,"Kết quả thẩm định theo TT38":null,"Ngày thẩm định ":null,"Ngày cấp Giấy chứng nhận ATTP ":null,"Số Giấy chứng nhận ATTP ":null,"Ngày hết hạn Giấy chứng nhận ATTP ":null,"Ghi chú":null,"layer_id":277,"fid":154,"label":"Nguyễn Hoàng Minh"}},{"type":"Feature","id":155,"geometry":{"type":"Point","coordinates":[105.767069,10.101143]},"properties":{"Tên cơ sở":"Đàm Văn Quyết","Loại hình":"Hộ nuôi","Địa chỉ sản xuất":"ấp Tân Hiệp, xã Tân Quới, tỉnh Vĩnh Long","Mã số nhận diện cơ sở":"86-01-0132","Chủ cơ sở / Người đại diện":"Đàm Văn Quyết","Tổng diện tích":"0.9","Đang nuôi thả (diện tích mặt nước)":"0.9","Chưa thả lại (diện tích mặt nước)":"0","Số lượng ao nuôi":"1","Sản lượng dự kiến":"400","Chứng nhận  (ASC,BAP....)":null,"Kết quả thẩm định theo TT38":null,"Ngày thẩm định ":null,"Ngày cấp Giấy chứng nhận ATTP ":null,"Số Giấy chứng nhận ATTP ":null,"Ngày hết hạn Giấy chứng nhận ATTP ":null,"Ghi chú":null,"layer_id":277,"fid":155,"label":"Đàm Văn Quyết"}},{"type":"Feature","id":156,"geometry":{"type":"Point","coordinates":[105.692354,10.135351]},"properties":{"Tên cơ sở":"Trương Văn Dũng","Loại hình":"Hộ nuôi","Địa chỉ sản xuất":"ấp An Thạnh, xã Tân Lược, tỉnh Vĩnh Long","Mã số nhận diện cơ sở":null,"Chủ cơ sở / Người đại diện":"Trương Văn Dũng","Tổng diện tích":"2.9","Đang nuôi thả (diện tích mặt nước)":"2.9","Chưa thả lại (diện tích mặt nước)":"0","Số lượng ao nuôi":"2","Sản lượng dự kiến":"1500","Chứng nhận  (ASC,BAP....)":null,"Kết quả thẩm định theo TT38":null,"Ngày thẩm định ":null,"Ngày cấp Giấy chứng nhận ATTP ":null,"Số Giấy chứng nhận ATTP ":null,"Ngày hết hạn Giấy chứng nhận ATTP ":null,"Ghi chú":null,"layer_id":277,"fid":156,"label":"Trương Văn Dũng"}},{"type":"Feature","id":157,"geometry":{"type":"Point","coordinates":[105.837844,10.002512]},"properties":{"Tên cơ sở":"Công Ty CPXNK Thủy Sản Cần Thơ            ","Loại hình":"Doanh nghiệp","Địa chỉ sản xuất":"ấp Mỹ An, xã Mỹ Hòa, thị xã Bình Minh, tỉnh Vĩnh Long","Mã số nhận diện cơ sở":"86-01-0012","Chủ cơ sở / Người đại diện":"Đặng Tư","Tổng diện tích":"9.76","Đang nuôi thả (diện tích mặt nước)":"9.76","Chưa thả lại (diện tích mặt nước)":"0","Số lượng ao nuôi":"13","Sản lượng dự kiến":"1995","Chứng nhận  (ASC,BAP....)":"","Kết quả thẩm định theo TT38":"A2","Ngày thẩm định ":"12/1/22 12:00:00 AM","Ngày cấp Giấy chứng nhận ATTP ":"","Số Giấy chứng nhận ATTP ":"","Ngày hết hạn Giấy chứng nhận ATTP ":"","Ghi chú":"","layer_id":277,"fid":157,"label":"Công Ty CPXNK Thủy Sản Cần Thơ            "}},{"type":"Feature","id":158,"geometry":{"type":"Point","coordinates":[105.977513,10.3241283]},"properties":{"Tên cơ sở":"Công ty TNHHTMDV Hồng Sen  ","Loại hình":"Doanh nghiệp","Địa chỉ sản xuất":"ấp Phú Mỹ 1,2, xã An Bình, tỉnh Vĩnh Long","Mã số nhận diện cơ sở":"86-01-000125","Chủ cơ sở / Người đại diện":null,"Tổng diện tích":"27.3","Đang nuôi thả (diện tích mặt nước)":"23.25","Chưa thả lại (diện tích mặt nước)":"4.05","Số lượng ao nuôi":"30","Sản lượng dự kiến":"7372","Chứng nhận  (ASC,BAP....)":"ASC","Kết quả thẩm định theo TT38":"B2","Ngày thẩm định ":"44875","Ngày cấp Giấy chứng nhận ATTP ":null,"Số Giấy chứng nhận ATTP ":null,"Ngày hết hạn Giấy chứng nhận ATTP ":null,"Ghi chú":null,"layer_id":277,"fid":158,"label":"Công ty TNHHTMDV Hồng Sen  "}},{"type":"Feature","id":159,"geometry":{"type":"Point","coordinates":[106.021131,10.3024695]},"properties":{"Tên cơ sở":"Công ty XNKTS Bến Tre","Loại hình":"Doanh nghiệp","Địa chỉ sản xuất":"ấp Phú Thạnh 4, xã An Bình, tỉnh Vĩnh Long","Mã số nhận diện cơ sở":"86-01-000185","Chủ cơ sở / Người đại diện":null,"Tổng diện tích":"12.44","Đang nuôi thả (diện tích mặt nước)":"5.9","Chưa thả lại (diện tích mặt nước)":"6.54","Số lượng ao nuôi":"8","Sản lượng dự kiến":"1612","Chứng nhận  (ASC,BAP....)":null,"Kết quả thẩm định theo TT38":"B1","Ngày thẩm định ":"45177","Ngày cấp Giấy chứng nhận ATTP ":null,"Số Giấy chứng nhận ATTP ":null,"Ngày hết hạn Giấy chứng nhận ATTP ":null,"Ghi chú":null,"layer_id":277,"fid":159,"label":"Công ty XNKTS Bến Tre"}},{"type":"Feature","id":160,"geometry":{"type":"Point","coordinates":[106.033617,10.264117]},"properties":{"Tên cơ sở":"Công ty Gò Đàng","Loại hình":"Doanh nghiệp","Địa chỉ sản xuất":"ấp Phước Định 2,  xã An Bình, tỉnh Vĩnh Long","Mã số nhận diện cơ sở":"86-01-000153","Chủ cơ sở / Người đại diện":null,"Tổng diện tích":"2.5","Đang nuôi thả (diện tích mặt nước)":"2.5","Chưa thả lại (diện tích mặt nước)":"0","Số lượng ao nuôi":"5","Sản lượng dự kiến":"586","Chứng nhận  (ASC,BAP....)":null,"Kết quả thẩm định theo TT38":"B1","Ngày thẩm định ":"45147","Ngày cấp Giấy chứng nhận ATTP ":null,"Số Giấy chứng nhận ATTP ":null,"Ngày hết hạn Giấy chứng nhận ATTP ":null,"Ghi chú":null,"layer_id":277,"fid":160,"label":"Công ty Gò Đàng"}},{"type":"Feature","id":161,"geometry":{"type":"Point","coordinates":[106.021566,10.267028]},"properties":{"Tên cơ sở":"Công ty  Vạn Đức","Loại hình":"Doanh nghiệp","Địa chỉ sản xuất":"ấp Phước Định 1,  xã An Bình, tỉnh Vĩnh Long","Mã số nhận diện cơ sở":"86-01-0138","Chủ cơ sở / Người đại diện":null,"Tổng diện tích":"3.09","Đang nuôi thả (diện tích mặt nước)":"2.36","Chưa thả lại (diện tích mặt nước)":"0.73","Số lượng ao nuôi":"5","Sản lượng dự kiến":"988","Chứng nhận  (ASC,BAP....)":null,"Kết quả thẩm định theo TT38":"A2","Ngày thẩm định ":"44881","Ngày cấp Giấy chứng nhận ATTP ":null,"Số Giấy chứng nhận ATTP ":null,"Ngày hết hạn Giấy chứng nhận ATTP ":null,"Ghi chú":null,"layer_id":277,"fid":161,"label":"Công ty  Vạn Đức"}},{"type":"Feature","id":162,"geometry":{"type":"Point","coordinates":[105.950515,10.274527]},"properties":{"Tên cơ sở":"Công ty Quang Minh","Loại hình":"Doanh nghiệp","Địa chỉ sản xuất":"ấp An Thuận, xã An Bình, tỉnh Vĩnh Long","Mã số nhận diện cơ sở":"86-01-0106","Chủ cơ sở / Người đại diện":null,"Tổng diện tích":"3.73","Đang nuôi thả (diện tích mặt nước)":"2.31","Chưa thả lại (diện tích mặt nước)":"1.42","Số lượng ao nuôi":"6","Sản lượng dự kiến":"993","Chứng nhận  (ASC,BAP....)":null,"Kết quả thẩm định theo TT38":"B2","Ngày thẩm định ":"44875","Ngày cấp Giấy chứng nhận ATTP ":null,"Số Giấy chứng nhận ATTP ":null,"Ngày hết hạn Giấy chứng nhận ATTP ":null,"Ghi chú":null,"layer_id":277,"fid":162,"label":"Công ty Quang Minh"}},{"type":"Feature","id":163,"geometry":{"type":"Point","coordinates":[105.938046,10.285128]},"properties":{"Tên cơ sở":"Trần Thái Hậu","Loại hình":"Hộ nuôi","Địa chỉ sản xuất":"ấp An Long, xã An Bình, tỉnh Vĩnh Long","Mã số nhận diện cơ sở":"86-01-0130","Chủ cơ sở / Người đại diện":"Trần Thái Hậu","Tổng diện tích":"0.7","Đang nuôi thả (diện tích mặt nước)":null,"Chưa thả lại (diện tích mặt nước)":"0.7","Số lượng ao nuôi":"1","Sản lượng dự kiến":null,"Chứng nhận  (ASC,BAP....)":null,"Kết quả thẩm định theo TT38":null,"Ngày thẩm định ":null,"Ngày cấp Giấy chứng nhận ATTP ":null,"Số Giấy chứng nhận ATTP ":null,"Ngày hết hạn Giấy chứng nhận ATTP ":null,"Ghi chú":null,"layer_id":277,"fid":163,"label":"Trần Thái Hậu"}},{"type":"Feature","id":164,"geometry":{"type":"Point","coordinates":[105.941012,10.289564]},"properties":{"Tên cơ sở":"Trần Thái Bảo","Loại hình":"Hộ nuôi","Địa chỉ sản xuất":"ấp An Long, xã An Bình, tỉnh Vĩnh Long","Mã số nhận diện cơ sở":"86-01-0112","Chủ cơ sở / Người đại diện":"Trần Thái Bảo","Tổng diện tích":"5.9","Đang nuôi thả (diện tích mặt nước)":"0.8","Chưa thả lại (diện tích mặt nước)":"5.1","Số lượng ao nuôi":"1","Sản lượng dự kiến":"187","Chứng nhận  (ASC,BAP....)":null,"Kết quả thẩm định theo TT38":null,"Ngày thẩm định ":null,"Ngày cấp Giấy chứng nhận ATTP ":null,"Số Giấy chứng nhận ATTP ":null,"Ngày hết hạn Giấy chứng nhận ATTP ":null,"Ghi chú":null,"layer_id":277,"fid":164,"label":"Trần Thái Bảo"}},{"type":"Feature","id":165,"geometry":{"type":"Point","coordinates":[105.940281,10.288804]},"properties":{"Tên cơ sở":"Phạm Phi Yến","Loại hình":"Hộ nuôi","Địa chỉ sản xuất":"ấp An Long, xã An Bình, tỉnh Vĩnh Long","Mã số nhận diện cơ sở":"86-01-0085","Chủ cơ sở / Người đại diện":"Phạm Phi Yến","Tổng diện tích":"1.1","Đang nuôi thả (diện tích mặt nước)":null,"Chưa thả lại (diện tích mặt nước)":"1.1","Số lượng ao nuôi":"2","Sản lượng dự kiến":null,"Chứng nhận  (ASC,BAP....)":null,"Kết quả thẩm định theo TT38":null,"Ngày thẩm định ":null,"Ngày cấp Giấy chứng nhận ATTP ":null,"Số Giấy chứng nhận ATTP ":null,"Ngày hết hạn Giấy chứng nhận ATTP ":null,"Ghi chú":null,"layer_id":277,"fid":165,"label":"Phạm Phi Yến"}},{"type":"Feature","id":166,"geometry":{"type":"Point","coordinates":[105.945744,10.294835]},"properties":{"Tên cơ sở":"Trần Văn Khanh","Loại hình":"Hộ nuôi","Địa chỉ sản xuất":"ấp An Long, xã An Bình, tỉnh Vĩnh Long","Mã số nhận diện cơ sở":"86-01-0026","Chủ cơ sở / Người đại diện":"Trần Văn Khanh","Tổng diện tích":"0.5","Đang nuôi thả (diện tích mặt nước)":null,"Chưa thả lại (diện tích mặt nước)":"0.5","Số lượng ao nuôi":"1","Sản lượng dự kiến":null,"Chứng nhận  (ASC,BAP....)":null,"Kết quả thẩm định theo TT38":null,"Ngày thẩm định ":null,"Ngày cấp Giấy chứng nhận ATTP ":null,"Số Giấy chứng nhận ATTP ":null,"Ngày hết hạn Giấy chứng nhận ATTP ":null,"Ghi chú":null,"layer_id":277,"fid":166,"label":"Trần Văn Khanh"}},{"type":"Feature","id":167,"geometry":{"type":"Point","coordinates":[105.955882,10.269544]},"properties":{"Tên cơ sở":"Huỳnh Văn Nhẫn","Loại hình":"Hộ nuôi","Địa chỉ sản xuất":"ấp An Thuận, xã An Bình, tỉnh Vĩnh Long","Mã số nhận diện cơ sở":"86-01-0027","Chủ cơ sở / Người đại diện":"Huỳnh Văn Nhẫn","Tổng diện tích":"1.2","Đang nuôi thả (diện tích mặt nước)":null,"Chưa thả lại (diện tích mặt nước)":"1.2","Số lượng ao nuôi":"1","Sản lượng dự kiến":null,"Chứng nhận  (ASC,BAP....)":null,"Kết quả thẩm định theo TT38":null,"Ngày thẩm định ":null,"Ngày cấp Giấy chứng nhận ATTP ":null,"Số Giấy chứng nhận ATTP ":null,"Ngày hết hạn Giấy chứng nhận ATTP ":null,"Ghi chú":null,"layer_id":277,"fid":167,"label":"Huỳnh Văn Nhẫn"}},{"type":"Feature","id":168,"geometry":{"type":"Point","coordinates":[105.955372,10.269959]},"properties":{"Tên cơ sở":"Huỳnh Tấn Quận","Loại hình":"Hộ nuôi","Địa chỉ sản xuất":"ấp An Thuận, xã An Bình, tỉnh Vĩnh Long","Mã số nhận diện cơ sở":"86-01-0006","Chủ cơ sở / Người đại diện":"Huỳnh Tấn Quận","Tổng diện tích":"0.7","Đang nuôi thả (diện tích mặt nước)":null,"Chưa thả lại (diện tích mặt nước)":"0.7","Số lượng ao nuôi":"1","Sản lượng dự kiến":null,"Chứng nhận  (ASC,BAP....)":null,"Kết quả thẩm định theo TT38":null,"Ngày thẩm định ":null,"Ngày cấp Giấy chứng nhận ATTP ":null,"Số Giấy chứng nhận ATTP ":null,"Ngày hết hạn Giấy chứng nhận ATTP ":null,"Ghi chú":null,"layer_id":277,"fid":168,"label":"Huỳnh Tấn Quận"}},{"type":"Feature","id":169,"geometry":{"type":"Point","coordinates":[105.982858,10.265752]},"properties":{"Tên cơ sở":"Nguyễn Thái Ngọc","Loại hình":"Hộ nuôi","Địa chỉ sản xuất":"ấp An Thạnh, xã An Bình, tỉnh Vĩnh Long","Mã số nhận diện cơ sở":"86-01-000181","Chủ cơ sở / Người đại diện":"Nguyễn Thái Ngọc","Tổng diện tích":"0.24","Đang nuôi thả (diện tích mặt nước)":"0.24","Chưa thả lại (diện tích mặt nước)":"0","Số lượng ao nuôi":"1","Sản lượng dự kiến":"130","Chứng nhận  (ASC,BAP....)":null,"Kết quả thẩm định theo TT38":null,"Ngày thẩm định ":null,"Ngày cấp Giấy chứng nhận ATTP ":null,"Số Giấy chứng nhận ATTP ":null,"Ngày hết hạn Giấy chứng nhận ATTP ":null,"Ghi chú":null,"layer_id":277,"fid":169,"label":"Nguyễn Thái Ngọc"}},{"type":"Feature","id":170,"geometry":{"type":"Point","coordinates":[106.007674,10.269333]},"properties":{"Tên cơ sở":"Võ Thanh Hải","Loại hình":"Hộ nuôi","Địa chỉ sản xuất":"ấp Phước Định 1,xã An Bình, tỉnh Vĩnh Long","Mã số nhận diện cơ sở":"86-01-0022","Chủ cơ sở / Người đại diện":"Võ Thanh Hải","Tổng diện tích":"0.97","Đang nuôi thả (diện tích mặt nước)":"0.97","Chưa thả lại (diện tích mặt nước)":"0","Số lượng ao nuôi":"2","Sản lượng dự kiến":"302","Chứng nhận  (ASC,BAP....)":null,"Kết quả thẩm định theo TT38":null,"Ngày thẩm định ":null,"Ngày cấp Giấy chứng nhận ATTP ":null,"Số Giấy chứng nhận ATTP ":null,"Ngày hết hạn Giấy chứng nhận ATTP ":null,"Ghi chú":null,"layer_id":277,"fid":170,"label":"Võ Thanh Hải"}},{"type":"Feature","id":171,"geometry":{"type":"Point","coordinates":[106.005645,10.269088]},"properties":{"Tên cơ sở":"Nguyễn Ngọc Điền An","Loại hình":"Hộ nuôi","Địa chỉ sản xuất":"ấp Phước Định 1, xã An Bình, tỉnh Vĩnh Long","Mã số nhận diện cơ sở":"86-01-0162","Chủ cơ sở / Người đại diện":"Nguyễn Văn Quang","Tổng diện tích":"0.35","Đang nuôi thả (diện tích mặt nước)":"0.35","Chưa thả lại (diện tích mặt nước)":"0","Số lượng ao nuôi":"1","Sản lượng dự kiến":"104","Chứng nhận  (ASC,BAP....)":null,"Kết quả thẩm định theo TT38":null,"Ngày thẩm định ":null,"Ngày cấp Giấy chứng nhận ATTP ":null,"Số Giấy chứng nhận ATTP ":null,"Ngày hết hạn Giấy chứng nhận ATTP ":null,"Ghi chú":null,"layer_id":277,"fid":171,"label":"Nguyễn Ngọc Điền An"}},{"type":"Feature","id":172,"geometry":{"type":"Point","coordinates":[106.014492,10.268623]},"properties":{"Tên cơ sở":"Nguyễn Văn Khúc","Loại hình":"Hộ nuôi","Địa chỉ sản xuất":"ấp Phước Định 1, xã An Bình, tỉnh Vĩnh Long","Mã số nhận diện cơ sở":"86-01-0163","Chủ cơ sở / Người đại diện":"Nguyễn Văn Khúc","Tổng diện tích":"0.4","Đang nuôi thả (diện tích mặt nước)":"0.4","Chưa thả lại (diện tích mặt nước)":"0","Số lượng ao nuôi":"1","Sản lượng dự kiến":"109","Chứng nhận  (ASC,BAP....)":null,"Kết quả thẩm định theo TT38":null,"Ngày thẩm định ":null,"Ngày cấp Giấy chứng nhận ATTP ":null,"Số Giấy chứng nhận ATTP ":null,"Ngày hết hạn Giấy chứng nhận ATTP ":null,"Ghi chú":null,"layer_id":277,"fid":172,"label":"Nguyễn Văn Khúc"}},{"type":"Feature","id":173,"geometry":{"type":"Point","coordinates":[106.028584,10.265231]},"properties":{"Tên cơ sở":"Huỳnh Trung Hiếu","Loại hình":"Hộ nuôi","Địa chỉ sản xuất":"ấp Phước Định 2,xã An Bình, tỉnh Vĩnh Long","Mã số nhận diện cơ sở":"86-01-000183","Chủ cơ sở / Người đại diện":"Huỳnh Trung Hiếu","Tổng diện tích":"3.24","Đang nuôi thả (diện tích mặt nước)":"3.24","Chưa thả lại (diện tích mặt nước)":"0","Số lượng ao nuôi":"5","Sản lượng dự kiến":"1226","Chứng nhận  (ASC,BAP....)":null,"Kết quả thẩm định theo TT38":"B1","Ngày thẩm định ":"44994","Ngày cấp Giấy chứng nhận ATTP ":null,"Số Giấy chứng nhận ATTP ":null,"Ngày hết hạn Giấy chứng nhận ATTP ":null,"Ghi chú":null,"layer_id":277,"fid":173,"label":"Huỳnh Trung Hiếu"}},{"type":"Feature","id":174,"geometry":{"type":"Point","coordinates":[105.983765,10.273108]},"properties":{"Tên cơ sở":"Trần Tư Mẫn","Loại hình":"Hộ nuôi","Địa chỉ sản xuất":"ấp Hòa Quí,xã An Bình, tỉnh Vĩnh Long","Mã số nhận diện cơ sở":"86-01-000182","Chủ cơ sở / Người đại diện":"Trần Tư Mẫn","Tổng diện tích":null,"Đang nuôi thả (diện tích mặt nước)":null,"Chưa thả lại (diện tích mặt nước)":"0","Số lượng ao nuôi":"2","Sản lượng dự kiến":null,"Chứng nhận  (ASC,BAP....)":null,"Kết quả thẩm định theo TT38":null,"Ngày thẩm định ":null,"Ngày cấp Giấy chứng nhận ATTP ":null,"Số Giấy chứng nhận ATTP ":null,"Ngày hết hạn Giấy chứng nhận ATTP ":null,"Ghi chú":null,"layer_id":277,"fid":174,"label":"Trần Tư Mẫn"}},{"type":"Feature","id":175,"geometry":{"type":"Point","coordinates":[106.017115,10.302827]},"properties":{"Tên cơ sở":"Ngô Thành Khoảnh","Loại hình":"Hộ nuôi","Địa chỉ sản xuất":"ấp Phú Thạnh 4, xã An Bình, tỉnh Vĩnh Long","Mã số nhận diện cơ sở":"86-01-0107","Chủ cơ sở / Người đại diện":"Ngô Thành Khoảnh","Tổng diện tích":"3.65","Đang nuôi thả (diện tích mặt nước)":"1.95","Chưa thả lại (diện tích mặt nước)":"1.7","Số lượng ao nuôi":"4","Sản lượng dự kiến":"468","Chứng nhận  (ASC,BAP....)":null,"Kết quả thẩm định theo TT38":null,"Ngày thẩm định ":null,"Ngày cấp Giấy chứng nhận ATTP ":null,"Số Giấy chứng nhận ATTP ":null,"Ngày hết hạn Giấy chứng nhận ATTP ":null,"Ghi chú":null,"layer_id":277,"fid":175,"label":"Ngô Thành Khoảnh"}},{"type":"Feature","id":176,"geometry":{"type":"Point","coordinates":[105.955352,10.302984]},"properties":{"Tên cơ sở":"Nguyễn Văn Truyền","Loại hình":"Hộ nuôi","Địa chỉ sản xuất":"ấp Phú Thuận 2,xã An Bình, tỉnh Vĩnh Long","Mã số nhận diện cơ sở":"86-01-0122","Chủ cơ sở / Người đại diện":"Nguyễn Văn Truyền","Tổng diện tích":"2.2","Đang nuôi thả (diện tích mặt nước)":"1.5","Chưa thả lại (diện tích mặt nước)":"0.7","Số lượng ao nuôi":"2","Sản lượng dự kiến":"234","Chứng nhận  (ASC,BAP....)":null,"Kết quả thẩm định theo TT38":null,"Ngày thẩm định ":null,"Ngày cấp Giấy chứng nhận ATTP ":null,"Số Giấy chứng nhận ATTP ":null,"Ngày hết hạn Giấy chứng nhận ATTP ":null,"Ghi chú":null,"layer_id":277,"fid":176,"label":"Nguyễn Văn Truyền"}},{"type":"Feature","id":177,"geometry":{"type":"Point","coordinates":[106.016973,10.307882]},"properties":{"Tên cơ sở":"Đặng Văn Giàu","Loại hình":"Hộ nuôi","Địa chỉ sản xuất":"ấp Phú Thạnh 4,xã An Bình, tỉnh Vĩnh Long","Mã số nhận diện cơ sở":"86-01-0097","Chủ cơ sở / Người đại diện":"Đặng Văn Giàu","Tổng diện tích":"11.31","Đang nuôi thả (diện tích mặt nước)":"6.98","Chưa thả lại (diện tích mặt nước)":"4.33","Số lượng ao nuôi":"8","Sản lượng dự kiến":"3133","Chứng nhận  (ASC,BAP....)":null,"Kết quả thẩm định theo TT38":null,"Ngày thẩm định ":null,"Ngày cấp Giấy chứng nhận ATTP ":null,"Số Giấy chứng nhận ATTP ":null,"Ngày hết hạn Giấy chứng nhận ATTP ":null,"Ghi chú":null,"layer_id":277,"fid":177,"label":"Đặng Văn Giàu"}},{"type":"Feature","id":178,"geometry":{"type":"Point","coordinates":[105.958056,10.306248]},"properties":{"Tên cơ sở":"Dương Thị Lệ Thúy","Loại hình":"Hộ nuôi","Địa chỉ sản xuất":"ấp Phú Thuận 2,xã An Bình, tỉnh Vĩnh Long","Mã số nhận diện cơ sở":"86-01-000184","Chủ cơ sở / Người đại diện":"Dương Thị Lệ Thúy","Tổng diện tích":"4.94","Đang nuôi thả (diện tích mặt nước)":"4.01","Chưa thả lại (diện tích mặt nước)":"0.930000000000001","Số lượng ao nuôi":"6","Sản lượng dự kiến":"1803","Chứng nhận  (ASC,BAP....)":null,"Kết quả thẩm định theo TT38":null,"Ngày thẩm định ":null,"Ngày cấp Giấy chứng nhận ATTP ":null,"Số Giấy chứng nhận ATTP ":null,"Ngày hết hạn Giấy chứng nhận ATTP ":null,"Ghi chú":null,"layer_id":277,"fid":178,"label":"Dương Thị Lệ Thúy"}},{"type":"Feature","id":179,"geometry":{"type":"Point","coordinates":[106.175083,10.09283]},"properties":{"Tên cơ sở":"Công ty cổ phần thủy sản Hải Hương","Loại hình":"Doanh nghiệp","Địa chỉ sản xuất":"ấp Phước Lý Nhì, xã Quới Thiện, tỉnh Vĩnh Long","Mã số nhận diện cơ sở":"86-01-0146","Chủ cơ sở / Người đại diện":"Nguyễn Minh Hải","Tổng diện tích":"10.75","Đang nuôi thả (diện tích mặt nước)":"2.9","Chưa thả lại (diện tích mặt nước)":"7.85","Số lượng ao nuôi":"11","Sản lượng dự kiến":"","Chứng nhận  (ASC,BAP....)":"","Kết quả thẩm định theo TT38":"A","Ngày thẩm định ":"11/17/22 12:00:00 AM","Ngày cấp Giấy chứng nhận ATTP ":"","Số Giấy chứng nhận ATTP ":"","Ngày hết hạn Giấy chứng nhận ATTP ":"","Ghi chú":"","layer_id":277,"fid":179,"label":"Công ty cổ phần thủy sản Hải Hương"}},{"type":"Feature","id":180,"geometry":{"type":"Point","coordinates":[106.266883,10.074239]},"properties":{"Tên cơ sở":"Công ty cổ phần thủy sản Hải Hương","Loại hình":"Doanh nghiệp","Địa chỉ sản xuất":"ấp Thông Lưu, xã Quới Thiện, tỉnh Vĩnh Long","Mã số nhận diện cơ sở":"86-01-0146","Chủ cơ sở / Người đại diện":"","Tổng diện tích":"12.7","Đang nuôi thả (diện tích mặt nước)":"6","Chưa thả lại (diện tích mặt nước)":"6.7","Số lượng ao nuôi":"12","Sản lượng dự kiến":"","Chứng nhận  (ASC,BAP....)":"","Kết quả thẩm định theo TT38":"A","Ngày thẩm định ":"17/11/2022","Ngày cấp Giấy chứng nhận ATTP ":"","Số Giấy chứng nhận ATTP ":"","Ngày hết hạn Giấy chứng nhận ATTP ":"","Ghi chú":"","layer_id":277,"fid":180,"label":"Công ty cổ phần thủy sản Hải Hương"}},{"type":"Feature","id":181,"geometry":{"type":"Point","coordinates":[106.11004,10.09072]},"properties":{"Tên cơ sở":"Công ty Gò Đàng","Loại hình":"Doanh nghiệp","Địa chỉ sản xuất":"ấp Phước Lý Nhì, xã Quới Thiện, tỉnh Vĩnh Long","Mã số nhận diện cơ sở":"86-01-000153","Chủ cơ sở / Người đại diện":"Nguyễn Văn Đạo","Tổng diện tích":"2.55","Đang nuôi thả (diện tích mặt nước)":"0.76","Chưa thả lại (diện tích mặt nước)":"1.79","Số lượng ao nuôi":"4","Sản lượng dự kiến":"","Chứng nhận  (ASC,BAP....)":"","Kết quả thẩm định theo TT38":"","Ngày thẩm định ":"","Ngày cấp Giấy chứng nhận ATTP ":"","Số Giấy chứng nhận ATTP ":"","Ngày hết hạn Giấy chứng nhận ATTP ":"","Ghi chú":"","layer_id":277,"fid":181,"label":"Công ty Gò Đàng"}},{"type":"Feature","id":182,"geometry":{"type":"Point","coordinates":[106.195144,10.130176]},"properties":{"Tên cơ sở":"Công ty CP Thực Phẩm NTSF ","Loại hình":"Doanh nghiệp","Địa chỉ sản xuất":"ấp Phước Thạnh, xã Quới Thiện, tỉnh Vĩnh Long","Mã số nhận diện cơ sở":"86-01-0149","Chủ cơ sở / Người đại diện":"Nguyễn Nam Hòa","Tổng diện tích":"15.75","Đang nuôi thả (diện tích mặt nước)":"10.9","Chưa thả lại (diện tích mặt nước)":"4.85","Số lượng ao nuôi":"17","Sản lượng dự kiến":"","Chứng nhận  (ASC,BAP....)":"","Kết quả thẩm định theo TT38":"A","Ngày thẩm định ":"11/15/22 12:00:00 AM","Ngày cấp Giấy chứng nhận ATTP ":"","Số Giấy chứng nhận ATTP ":"","Ngày hết hạn Giấy chứng nhận ATTP ":"","Ghi chú":"","layer_id":277,"fid":182,"label":"Công ty CP Thực Phẩm NTSF "}},{"type":"Feature","id":183,"geometry":{"type":"Point","coordinates":[106.219076,10.108702]},"properties":{"Tên cơ sở":"Lê Tấn Tài","Loại hình":"Hộ nuôi","Địa chỉ sản xuất":"ấp Thanh Tân, xã Quới Thiện, tỉnh Vĩnh Long","Mã số nhận diện cơ sở":"86-01-0019","Chủ cơ sở / Người đại diện":"Lê Tấn Tài","Tổng diện tích":"8.08","Đang nuôi thả (diện tích mặt nước)":"8.08","Chưa thả lại (diện tích mặt nước)":"0","Số lượng ao nuôi":"9","Sản lượng dự kiến":"","Chứng nhận  (ASC,BAP....)":"","Kết quả thẩm định theo TT38":"B","Ngày thẩm định ":"11/15/22 12:00:00 AM","Ngày cấp Giấy chứng nhận ATTP ":"","Số Giấy chứng nhận ATTP ":"","Ngày hết hạn Giấy chứng nhận ATTP ":"","Ghi chú":"","layer_id":277,"fid":183,"label":"Lê Tấn Tài"}},{"type":"Feature","id":184,"geometry":{"type":"Point","coordinates":[106.188105,10.139358]},"properties":{"Tên cơ sở":"Đặng Văn Giàu","Loại hình":"Hộ nuôi","Địa chỉ sản xuất":"ấp Phước Lý Nhì, xã Quới Thiện, tỉnh Vĩnh Long","Mã số nhận diện cơ sở":"86-01-000097","Chủ cơ sở / Người đại diện":"Đặng Văn Giàu","Tổng diện tích":"5","Đang nuôi thả (diện tích mặt nước)":"3.85","Chưa thả lại (diện tích mặt nước)":"1.15","Số lượng ao nuôi":"4","Sản lượng dự kiến":"","Chứng nhận  (ASC,BAP....)":"","Kết quả thẩm định theo TT38":"","Ngày thẩm định ":"","Ngày cấp Giấy chứng nhận ATTP ":"","Số Giấy chứng nhận ATTP ":"","Ngày hết hạn Giấy chứng nhận ATTP ":"","Ghi chú":"","layer_id":277,"fid":184,"label":"Đặng Văn Giàu"}},{"type":"Feature","id":185,"geometry":{"type":"Point","coordinates":[106.06168,10.0753]},"properties":{"Tên cơ sở":"Tống Hữu Hạnh","Loại hình":"Hộ nuôi","Địa chỉ sản xuất":"ấp 3, xã Trung Hiệp, tỉnh Vĩnh Long","Mã số nhận diện cơ sở":"","Chủ cơ sở / Người đại diện":"Tống Hữu Hạnh","Tổng diện tích":"1.25","Đang nuôi thả (diện tích mặt nước)":"1.25","Chưa thả lại (diện tích mặt nước)":"0","Số lượng ao nuôi":"2","Sản lượng dự kiến":"","Chứng nhận  (ASC,BAP....)":"","Kết quả thẩm định theo TT38":"","Ngày thẩm định ":"","Ngày cấp Giấy chứng nhận ATTP ":"","Số Giấy chứng nhận ATTP ":"","Ngày hết hạn Giấy chứng nhận ATTP ":"","Ghi chú":"","layer_id":277,"fid":185,"label":"Tống Hữu Hạnh"}},{"type":"Feature","id":186,"geometry":{"type":"Point","coordinates":[106.06184,10.07553]},"properties":{"Tên cơ sở":"Đặng Trung Kiên","Loại hình":"Hộ nuôi","Địa chỉ sản xuất":"ấp 4, xã Trung Hiệp, tỉnh Vĩnh Long","Mã số nhận diện cơ sở":"86-01-0137","Chủ cơ sở / Người đại diện":"Đặng Trung Kiên","Tổng diện tích":"0.45","Đang nuôi thả (diện tích mặt nước)":"0.45","Chưa thả lại (diện tích mặt nước)":"0","Số lượng ao nuôi":"2","Sản lượng dự kiến":"","Chứng nhận  (ASC,BAP....)":"","Kết quả thẩm định theo TT38":"","Ngày thẩm định ":"","Ngày cấp Giấy chứng nhận ATTP ":"","Số Giấy chứng nhận ATTP ":"","Ngày hết hạn Giấy chứng nhận ATTP ":"","Ghi chú":"","layer_id":277,"fid":186,"label":"Đặng Trung Kiên"}},{"type":"Feature","id":187,"geometry":{"type":"Point","coordinates":[106.26808,10.07885]},"properties":{"Tên cơ sở":"Nguyễn Văn Đèo","Loại hình":"Hộ nuôi","Địa chỉ sản xuất":"ấp Thông Lưu, xã Quới Thiện, tỉnh Vĩnh Long","Mã số nhận diện cơ sở":"86-01-0175","Chủ cơ sở / Người đại diện":"Nguyễn Văn Đèo","Tổng diện tích":"1.2","Đang nuôi thả (diện tích mặt nước)":"1","Chưa thả lại (diện tích mặt nước)":"0.2","Số lượng ao nuôi":"2","Sản lượng dự kiến":"","Chứng nhận  (ASC,BAP....)":"","Kết quả thẩm định theo TT38":"","Ngày thẩm định ":"","Ngày cấp Giấy chứng nhận ATTP ":"","Số Giấy chứng nhận ATTP ":"","Ngày hết hạn Giấy chứng nhận ATTP ":"","Ghi chú":"","layer_id":277,"fid":187,"label":"Nguyễn Văn Đèo"}},{"type":"Feature","id":188,"geometry":{"type":"Point","coordinates":[106.115187,10.176611]},"properties":{"Tên cơ sở":"\nĐặng Văn Út Hùng\n","Loại hình":"Hộ Nuôi","Địa chỉ sản xuất":"Khóm 3, xã cái Nhum, tỉnh Vĩnh Long","Mã số nhận diện cơ sở":"86-01-0072","Chủ cơ sở / Người đại diện":"\nĐặng Văn Út Hùng\n","Tổng diện tích":"0.3","Đang nuôi thả (diện tích mặt nước)":"0.3","Chưa thả lại (diện tích mặt nước)":"0","Số lượng ao nuôi":"1","Sản lượng dự kiến":"","Chứng nhận  (ASC,BAP....)":"","Kết quả thẩm định theo TT38":"","Ngày thẩm định ":"","Ngày cấp Giấy chứng nhận ATTP ":"","Số Giấy chứng nhận ATTP ":"","Ngày hết hạn Giấy chứng nhận ATTP ":"","Ghi chú":"","layer_id":277,"fid":188,"label":"\nĐặng Văn Út Hùng\n"}},{"type":"Feature","id":189,"geometry":{"type":"Point","coordinates":[106.116743,10.176409]},"properties":{"Tên cơ sở":"\nTô Văn Nhân\n","Loại hình":"Hộ Nuôi","Địa chỉ sản xuất":"ấp An Hòa, xã Cái Nhum, tỉnh Vĩnh Long","Mã số nhận diện cơ sở":"86-01-0031","Chủ cơ sở / Người đại diện":"\nTô Văn Nhân\n","Tổng diện tích":"0.2","Đang nuôi thả (diện tích mặt nước)":"0.2","Chưa thả lại (diện tích mặt nước)":"0","Số lượng ao nuôi":"1","Sản lượng dự kiến":"","Chứng nhận  (ASC,BAP....)":"","Kết quả thẩm định theo TT38":"","Ngày thẩm định ":"","Ngày cấp Giấy chứng nhận ATTP ":"","Số Giấy chứng nhận ATTP ":"","Ngày hết hạn Giấy chứng nhận ATTP ":"","Ghi chú":"","layer_id":277,"fid":189,"label":"\nTô Văn Nhân\n"}},{"type":"Feature","id":190,"geometry":{"type":"Point","coordinates":[106.090977,10.212511]},"properties":{"Tên cơ sở":"Kim Lan","Loại hình":"HTX NTTS Trường Phát","Địa chỉ sản xuất":"ấp Phú Thọ, xã  Nhơn Phú, tỉnh Vĩnh Long","Mã số nhận diện cơ sở":"86-01-0079","Chủ cơ sở / Người đại diện":"Kim Lan","Tổng diện tích":"0.45","Đang nuôi thả (diện tích mặt nước)":"0","Chưa thả lại (diện tích mặt nước)":"0.45","Số lượng ao nuôi":"2","Sản lượng dự kiến":"","Chứng nhận  (ASC,BAP....)":"","Kết quả thẩm định theo TT38":"","Ngày thẩm định ":"","Ngày cấp Giấy chứng nhận ATTP ":"","Số Giấy chứng nhận ATTP ":"","Ngày hết hạn Giấy chứng nhận ATTP ":"","Ghi chú":"","layer_id":277,"fid":190,"label":"Kim Lan"}},{"type":"Feature","id":191,"geometry":{"type":"Point","coordinates":[106.164473,10.168921]},"properties":{"Tên cơ sở":"Lâm Văn Chính","Loại hình":"Hộ Nuôi","Địa chỉ sản xuất":"ấp An Hòa , xã Cái Nhum tỉnh Vĩnh Long","Mã số nhận diện cơ sở":"86-01-0081","Chủ cơ sở / Người đại diện":"Lâm Văn Chính","Tổng diện tích":"2.3","Đang nuôi thả (diện tích mặt nước)":"1.6","Chưa thả lại (diện tích mặt nước)":"0.7","Số lượng ao nuôi":"7","Sản lượng dự kiến":"","Chứng nhận  (ASC,BAP....)":"","Kết quả thẩm định theo TT38":"","Ngày thẩm định ":"","Ngày cấp Giấy chứng nhận ATTP ":"","Số Giấy chứng nhận ATTP ":"","Ngày hết hạn Giấy chứng nhận ATTP ":"","Ghi chú":"","layer_id":277,"fid":191,"label":"Lâm Văn Chính"}},{"type":"Feature","id":192,"geometry":{"type":"Point","coordinates":[106.165692,10.168258]},"properties":{"Tên cơ sở":"\nNguyễn Anh Hoàng\n","Loại hình":"Hộ Nuôi","Địa chỉ sản xuất":"ấp Tân An, xã Cái Nhum, tỉnh Vĩnh Long","Mã số nhận diện cơ sở":"86-01-0078","Chủ cơ sở / Người đại diện":"\nNguyễn Anh Hoàng\n","Tổng diện tích":"0.5","Đang nuôi thả (diện tích mặt nước)":"0.5","Chưa thả lại (diện tích mặt nước)":"0","Số lượng ao nuôi":"2","Sản lượng dự kiến":"","Chứng nhận  (ASC,BAP....)":"","Kết quả thẩm định theo TT38":"","Ngày thẩm định ":"","Ngày cấp Giấy chứng nhận ATTP ":"","Số Giấy chứng nhận ATTP ":"","Ngày hết hạn Giấy chứng nhận ATTP ":"","Ghi chú":"","layer_id":277,"fid":192,"label":"\nNguyễn Anh Hoàng\n"}},{"type":"Feature","id":193,"geometry":{"type":"Point","coordinates":[106.168602,10.166811]},"properties":{"Tên cơ sở":"\nNguyễn Văn Tài\n","Loại hình":"Hộ Nuôi","Địa chỉ sản xuất":"ấp Mỹ Long, xã Cái Nhum, tỉnh Vĩnh Long","Mã số nhận diện cơ sở":"86-01-0051","Chủ cơ sở / Người đại diện":"\nNguyễn Văn Tài\n","Tổng diện tích":"0.3","Đang nuôi thả (diện tích mặt nước)":"","Chưa thả lại (diện tích mặt nước)":"0.3","Số lượng ao nuôi":"1","Sản lượng dự kiến":"","Chứng nhận  (ASC,BAP....)":"","Kết quả thẩm định theo TT38":"","Ngày thẩm định ":"","Ngày cấp Giấy chứng nhận ATTP ":"","Số Giấy chứng nhận ATTP ":"","Ngày hết hạn Giấy chứng nhận ATTP ":"","Ghi chú":"","layer_id":277,"fid":193,"label":"\nNguyễn Văn Tài\n"}},{"type":"Feature","id":194,"geometry":{"type":"Point","coordinates":[106.172384,10.170455]},"properties":{"Tên cơ sở":"Lâm Văn Muôn","Loại hình":"Hộ Nuôi","Địa chỉ sản xuất":"ấp Mỹ Long, xã Cái Nhum, tỉnh Vĩnh Long","Mã số nhận diện cơ sở":"86-01-0069","Chủ cơ sở / Người đại diện":"Lâm Văn Muôn","Tổng diện tích":"","Đang nuôi thả (diện tích mặt nước)":"2.4","Chưa thả lại (diện tích mặt nước)":"0","Số lượng ao nuôi":"5","Sản lượng dự kiến":"","Chứng nhận  (ASC,BAP....)":"","Kết quả thẩm định theo TT38":"","Ngày thẩm định ":"","Ngày cấp Giấy chứng nhận ATTP ":"","Số Giấy chứng nhận ATTP ":"","Ngày hết hạn Giấy chứng nhận ATTP ":"","Ghi chú":"","layer_id":277,"fid":194,"label":"Lâm Văn Muôn"}},{"type":"Feature","id":195,"geometry":{"type":"Point","coordinates":[106.169968,10.165668]},"properties":{"Tên cơ sở":"\nDương Hoàng Nam\n","Loại hình":"Hộ Nuôi","Địa chỉ sản xuất":"ấp Mỹ Long, xã  Cái Nhum, tỉnh Vĩnh Long","Mã số nhận diện cơ sở":"","Chủ cơ sở / Người đại diện":"\nDương Hoàng Nam\n","Tổng diện tích":"0.85","Đang nuôi thả (diện tích mặt nước)":"0.85","Chưa thả lại (diện tích mặt nước)":"0","Số lượng ao nuôi":"3","Sản lượng dự kiến":"","Chứng nhận  (ASC,BAP....)":"","Kết quả thẩm định theo TT38":"","Ngày thẩm định ":"","Ngày cấp Giấy chứng nhận ATTP ":"","Số Giấy chứng nhận ATTP ":"","Ngày hết hạn Giấy chứng nhận ATTP ":"","Ghi chú":"","layer_id":277,"fid":195,"label":"\nDương Hoàng Nam\n"}},{"type":"Feature","id":196,"geometry":{"type":"Point","coordinates":[106.169031,10.166622]},"properties":{"Tên cơ sở":"\nDương Văn Mười Hai\n","Loại hình":"Hộ Nuôi","Địa chỉ sản xuất":"ấp Mỹ Long, xã Cái Nhum, tỉnh Vĩnh Long","Mã số nhận diện cơ sở":"86-01-0096-001","Chủ cơ sở / Người đại diện":"\nDương Văn Mười Hai\n","Tổng diện tích":"0.6","Đang nuôi thả (diện tích mặt nước)":"0.6","Chưa thả lại (diện tích mặt nước)":"0","Số lượng ao nuôi":"2","Sản lượng dự kiến":"","Chứng nhận  (ASC,BAP....)":"","Kết quả thẩm định theo TT38":"","Ngày thẩm định ":"","Ngày cấp Giấy chứng nhận ATTP ":"","Số Giấy chứng nhận ATTP ":"","Ngày hết hạn Giấy chứng nhận ATTP ":"","Ghi chú":"","layer_id":277,"fid":196,"label":"\nDương Văn Mười Hai\n"}},{"type":"Feature","id":197,"geometry":{"type":"Point","coordinates":[106.171924,10.172193]},"properties":{"Tên cơ sở":"\nĐặng Văn Út \n","Loại hình":"Hộ Nuôi","Địa chỉ sản xuất":"khóm 1, xã cái Nhum, tỉnh Vĩnh Long","Mã số nhận diện cơ sở":"86-01-0063-002","Chủ cơ sở / Người đại diện":"\nĐặng Văn Út \n","Tổng diện tích":"1.57","Đang nuôi thả (diện tích mặt nước)":"1.57","Chưa thả lại (diện tích mặt nước)":"","Số lượng ao nuôi":"2","Sản lượng dự kiến":"","Chứng nhận  (ASC,BAP....)":"","Kết quả thẩm định theo TT38":"","Ngày thẩm định ":"","Ngày cấp Giấy chứng nhận ATTP ":"","Số Giấy chứng nhận ATTP ":"","Ngày hết hạn Giấy chứng nhận ATTP ":"","Ghi chú":"","layer_id":277,"fid":197,"label":"\nĐặng Văn Út \n"}},{"type":"Feature","id":198,"geometry":{"type":"Point","coordinates":[106.170625,10.175876]},"properties":{"Tên cơ sở":"\nPhan Thanh Nhàn\n","Loại hình":"Hộ Nuôi","Địa chỉ sản xuất":"ấp An Hòa, xã Cái Nhum, tỉnh Vĩnh Long","Mã số nhận diện cơ sở":"86-01-0076","Chủ cơ sở / Người đại diện":"\nPhan Thanh Nhàn\n","Tổng diện tích":"1.95","Đang nuôi thả (diện tích mặt nước)":"1.6","Chưa thả lại (diện tích mặt nước)":"0.35","Số lượng ao nuôi":"4","Sản lượng dự kiến":"","Chứng nhận  (ASC,BAP....)":"","Kết quả thẩm định theo TT38":"","Ngày thẩm định ":"","Ngày cấp Giấy chứng nhận ATTP ":"","Số Giấy chứng nhận ATTP ":"","Ngày hết hạn Giấy chứng nhận ATTP ":"","Ghi chú":"","layer_id":277,"fid":198,"label":"\nPhan Thanh Nhàn\n"}},{"type":"Feature","id":199,"geometry":{"type":"Point","coordinates":[106.171494,10.17368]},"properties":{"Tên cơ sở":"\nMai Thanh Quân\n","Loại hình":"Hộ Nuôi","Địa chỉ sản xuất":"khóm 1, xã cái Nhum, tỉnh Vĩnh Long","Mã số nhận diện cơ sở":"86-01-0068","Chủ cơ sở / Người đại diện":"\nMai Thanh Quân\n","Tổng diện tích":"0.8","Đang nuôi thả (diện tích mặt nước)":"0.8","Chưa thả lại (diện tích mặt nước)":"","Số lượng ao nuôi":"2","Sản lượng dự kiến":"","Chứng nhận  (ASC,BAP....)":"","Kết quả thẩm định theo TT38":"","Ngày thẩm định ":"","Ngày cấp Giấy chứng nhận ATTP ":"","Số Giấy chứng nhận ATTP ":"","Ngày hết hạn Giấy chứng nhận ATTP ":"","Ghi chú":"","layer_id":277,"fid":199,"label":"\nMai Thanh Quân\n"}},{"type":"Feature","id":200,"geometry":{"type":"Point","coordinates":[106.158041,10.189888]},"properties":{"Tên cơ sở":"Đặng Văn Giàu","Loại hình":"Hộ Nuôi","Địa chỉ sản xuất":"ấp Hòa Phú, xã Cái Nhum, tỉnh Vĩnh Long","Mã số nhận diện cơ sở":"86-01-0097","Chủ cơ sở / Người đại diện":"Đặng Văn Giàu","Tổng diện tích":"4.75","Đang nuôi thả (diện tích mặt nước)":"3.95","Chưa thả lại (diện tích mặt nước)":"0.8","Số lượng ao nuôi":"9","Sản lượng dự kiến":"","Chứng nhận  (ASC,BAP....)":"","Kết quả thẩm định theo TT38":"","Ngày thẩm định ":"","Ngày cấp Giấy chứng nhận ATTP ":"","Số Giấy chứng nhận ATTP ":"","Ngày hết hạn Giấy chứng nhận ATTP ":"","Ghi chú":"","layer_id":277,"fid":200,"label":"Đặng Văn Giàu"}},{"type":"Feature","id":201,"geometry":{"type":"Point","coordinates":[106.153815,10.191938]},"properties":{"Tên cơ sở":"Phạm Xuân Mỹ","Loại hình":"Hộ Nuôi","Địa chỉ sản xuất":"ấp Hòa Phú, xã Cái Nhum, tỉnh Vĩnh Long","Mã số nhận diện cơ sở":"86-01-0060","Chủ cơ sở / Người đại diện":"Phạm Xuân Mỹ","Tổng diện tích":"1.57","Đang nuôi thả (diện tích mặt nước)":"0.9","Chưa thả lại (diện tích mặt nước)":"0.67","Số lượng ao nuôi":"7","Sản lượng dự kiến":"","Chứng nhận  (ASC,BAP....)":"","Kết quả thẩm định theo TT38":"","Ngày thẩm định ":"","Ngày cấp Giấy chứng nhận ATTP ":"","Số Giấy chứng nhận ATTP ":"","Ngày hết hạn Giấy chứng nhận ATTP ":"","Ghi chú":"","layer_id":277,"fid":201,"label":"Phạm Xuân Mỹ"}},{"type":"Feature","id":202,"geometry":{"type":"Point","coordinates":[106.147668,10.192336]},"properties":{"Tên cơ sở":"Tô Thanh Nhơn","Loại hình":"Hộ Nuôi","Địa chỉ sản xuất":"ấp Phú Hòa, xã Cái Nhum, tỉnh Vĩnh Long","Mã số nhận diện cơ sở":"","Chủ cơ sở / Người đại diện":"Tô Thanh Nhơn","Tổng diện tích":"0.2","Đang nuôi thả (diện tích mặt nước)":"","Chưa thả lại (diện tích mặt nước)":"0.2","Số lượng ao nuôi":"1","Sản lượng dự kiến":"","Chứng nhận  (ASC,BAP....)":"","Kết quả thẩm định theo TT38":"","Ngày thẩm định ":"","Ngày cấp Giấy chứng nhận ATTP ":"","Số Giấy chứng nhận ATTP ":"","Ngày hết hạn Giấy chứng nhận ATTP ":"","Ghi chú":"","layer_id":277,"fid":202,"label":"Tô Thanh Nhơn"}},{"type":"Feature","id":203,"geometry":{"type":"Point","coordinates":[106.148518,10.19467]},"properties":{"Tên cơ sở":"Trương Minh Huy","Loại hình":"Hộ Nuôi","Địa chỉ sản xuất":"ấp Phú Hòa, xã Cái Nhum, tỉnh Vĩnh Long","Mã số nhận diện cơ sở":"86-01-0070","Chủ cơ sở / Người đại diện":"Trương Minh Huy","Tổng diện tích":"0.4","Đang nuôi thả (diện tích mặt nước)":"","Chưa thả lại (diện tích mặt nước)":"0.4","Số lượng ao nuôi":"1","Sản lượng dự kiến":"","Chứng nhận  (ASC,BAP....)":"","Kết quả thẩm định theo TT38":"","Ngày thẩm định ":"","Ngày cấp Giấy chứng nhận ATTP ":"","Số Giấy chứng nhận ATTP ":"","Ngày hết hạn Giấy chứng nhận ATTP ":"","Ghi chú":"","layer_id":277,"fid":203,"label":"Trương Minh Huy"}},{"type":"Feature","id":204,"geometry":{"type":"Point","coordinates":[106.027389,10.2511626]},"properties":{"Tên cơ sở":"Ngô Thành khoảnh","Loại hình":"Hộ Nuôi","Địa chỉ sản xuất":"ấp An Hương 1, xã Nhơn Phú,tỉnh Vĩnh Long","Mã số nhận diện cơ sở":"86-01-0107","Chủ cơ sở / Người đại diện":"Ngô Thành khoảnh","Tổng diện tích":"","Đang nuôi thả (diện tích mặt nước)":"","Chưa thả lại (diện tích mặt nước)":"","Số lượng ao nuôi":"","Sản lượng dự kiến":"","Chứng nhận  (ASC,BAP....)":"","Kết quả thẩm định theo TT38":"","Ngày thẩm định ":"","Ngày cấp Giấy chứng nhận ATTP ":"","Số Giấy chứng nhận ATTP ":"","Ngày hết hạn Giấy chứng nhận ATTP ":"","Ghi chú":"","layer_id":277,"fid":204,"label":"Ngô Thành khoảnh"}},{"type":"Feature","id":206,"geometry":{"type":"Point","coordinates":[106.102299,10.138574]},"properties":{"Tên cơ sở":"Võ Công Lý","Loại hình":"HTX NTTS Trường Phát","Địa chỉ sản xuất":"ấp Tân An, xã Tân Long Hội, tỉnh Vĩnh Long","Mã số nhận diện cơ sở":"86-01-0036","Chủ cơ sở / Người đại diện":"Võ Công Lý","Tổng diện tích":"0.35","Đang nuôi thả (diện tích mặt nước)":"","Chưa thả lại (diện tích mặt nước)":"0.25","Số lượng ao nuôi":"2","Sản lượng dự kiến":"","Chứng nhận  (ASC,BAP....)":"","Kết quả thẩm định theo TT38":"","Ngày thẩm định ":"","Ngày cấp Giấy chứng nhận ATTP ":"","Số Giấy chứng nhận ATTP ":"","Ngày hết hạn Giấy chứng nhận ATTP ":"","Ghi chú":"","layer_id":277,"fid":206,"label":"Võ Công Lý"}},{"type":"Feature","id":207,"geometry":{"type":"Point","coordinates":[106.088446,10.129294]},"properties":{"Tên cơ sở":"Nguyễn Ngọc Dũng","Loại hình":"HTX NTTS Trường Phát","Địa chỉ sản xuất":"ấp Tân An, xã Tân Long Hội, tỉnh Vĩnh Long","Mã số nhận diện cơ sở":"86-01-0039","Chủ cơ sở / Người đại diện":"Nguyễn Ngọc Dũng","Tổng diện tích":"1.15","Đang nuôi thả (diện tích mặt nước)":"0.25","Chưa thả lại (diện tích mặt nước)":"0.9","Số lượng ao nuôi":"3","Sản lượng dự kiến":"","Chứng nhận  (ASC,BAP....)":"","Kết quả thẩm định theo TT38":"","Ngày thẩm định ":"","Ngày cấp Giấy chứng nhận ATTP ":"","Số Giấy chứng nhận ATTP ":"","Ngày hết hạn Giấy chứng nhận ATTP ":"","Ghi chú":"","layer_id":277,"fid":207,"label":"Nguyễn Ngọc Dũng"}},{"type":"Feature","id":208,"geometry":{"type":"Point","coordinates":[106.083632,10.129897]},"properties":{"Tên cơ sở":"Ngô Thanh Trung","Loại hình":"HTX NTTS Trường Phát","Địa chỉ sản xuất":"ấp Tân Qui, xã Tân Long Hội, tỉnh Vĩnh Long","Mã số nhận diện cơ sở":"86-01-0029","Chủ cơ sở / Người đại diện":"Ngô Thanh Trung","Tổng diện tích":"0.3","Đang nuôi thả (diện tích mặt nước)":"","Chưa thả lại (diện tích mặt nước)":"0.3","Số lượng ao nuôi":"2","Sản lượng dự kiến":"","Chứng nhận  (ASC,BAP....)":"","Kết quả thẩm định theo TT38":"","Ngày thẩm định ":"","Ngày cấp Giấy chứng nhận ATTP ":"","Số Giấy chứng nhận ATTP ":"","Ngày hết hạn Giấy chứng nhận ATTP ":"","Ghi chú":"","layer_id":277,"fid":208,"label":"Ngô Thanh Trung"}},{"type":"Feature","id":209,"geometry":{"type":"Point","coordinates":[106.058096,10.134407]},"properties":{"Tên cơ sở":"Nguyễn Văn Hồng","Loại hình":"HTX NTTS Trường Phát","Địa chỉ sản xuất":"ấp Tân Phong 1, xã Tân Long Hội, tỉnh Vĩnh Long","Mã số nhận diện cơ sở":"86-01-0059","Chủ cơ sở / Người đại diện":"Nguyễn Văn Hồng","Tổng diện tích":"1.2","Đang nuôi thả (diện tích mặt nước)":"1","Chưa thả lại (diện tích mặt nước)":"0.2","Số lượng ao nuôi":"5","Sản lượng dự kiến":"","Chứng nhận  (ASC,BAP....)":"","Kết quả thẩm định theo TT38":"","Ngày thẩm định ":"","Ngày cấp Giấy chứng nhận ATTP ":"","Số Giấy chứng nhận ATTP ":"","Ngày hết hạn Giấy chứng nhận ATTP ":"","Ghi chú":"","layer_id":277,"fid":209,"label":"Nguyễn Văn Hồng"}},{"type":"Feature","id":210,"geometry":{"type":"Point","coordinates":[106.076206,10.124654]},"properties":{"Tên cơ sở":"Nguyễn Hải Điền","Loại hình":"HTX NTTS Trường Phát","Địa chỉ sản xuất":"ấp Tân Hội, xã Tân Long Hội, tỉnh Vĩnh Long","Mã số nhận diện cơ sở":"86-01-0059","Chủ cơ sở / Người đại diện":"Nguyễn Hải Điền","Tổng diện tích":"0.3","Đang nuôi thả (diện tích mặt nước)":"0.3","Chưa thả lại (diện tích mặt nước)":"0","Số lượng ao nuôi":"1","Sản lượng dự kiến":"","Chứng nhận  (ASC,BAP....)":"","Kết quả thẩm định theo TT38":"","Ngày thẩm định ":"","Ngày cấp Giấy chứng nhận ATTP ":"","Số Giấy chứng nhận ATTP ":"","Ngày hết hạn Giấy chứng nhận ATTP ":"","Ghi chú":"","layer_id":277,"fid":210,"label":"Nguyễn Hải Điền"}},{"type":"Feature","id":211,"geometry":{"type":"Point","coordinates":[106.059498,10.135532]},"properties":{"Tên cơ sở":"Thái Thành Thông","Loại hình":"HTX NTTS Trường Phát","Địa chỉ sản xuất":"ấp Cầu Ván, xã Tân Long Hội ,  tỉnh Vĩnh Long","Mã số nhận diện cơ sở":"86-01-0095","Chủ cơ sở / Người đại diện":"Thái Thành Thông","Tổng diện tích":"","Đang nuôi thả (diện tích mặt nước)":"","Chưa thả lại (diện tích mặt nước)":"","Số lượng ao nuôi":"","Sản lượng dự kiến":"","Chứng nhận  (ASC,BAP....)":"","Kết quả thẩm định theo TT38":"","Ngày thẩm định ":"","Ngày cấp Giấy chứng nhận ATTP ":"","Số Giấy chứng nhận ATTP ":"","Ngày hết hạn Giấy chứng nhận ATTP ":"","Ghi chú":"","layer_id":277,"fid":211,"label":"Thái Thành Thông"}},{"type":"Feature","id":212,"geometry":{"type":"Point","coordinates":[106.045943,10.148602]},"properties":{"Tên cơ sở":"Dương Văn Hoàng","Loại hình":"HTX NTTS Trường Phát","Địa chỉ sản xuất":"ấp Ngã Ngay, xã Tân Long Hội, tỉnh Vĩnh Long","Mã số nhận diện cơ sở":"","Chủ cơ sở / Người đại diện":"Dương Văn Hoàng","Tổng diện tích":"0.26","Đang nuôi thả (diện tích mặt nước)":"","Chưa thả lại (diện tích mặt nước)":"0.26","Số lượng ao nuôi":"1","Sản lượng dự kiến":"","Chứng nhận  (ASC,BAP....)":"","Kết quả thẩm định theo TT38":"","Ngày thẩm định ":"","Ngày cấp Giấy chứng nhận ATTP ":"","Số Giấy chứng nhận ATTP ":"","Ngày hết hạn Giấy chứng nhận ATTP ":"","Ghi chú":"","layer_id":277,"fid":212,"label":"Dương Văn Hoàng"}},{"type":"Feature","id":213,"geometry":{"type":"Point","coordinates":[106.051951,10.141327]},"properties":{"Tên cơ sở":"Dương Văn Bình","Loại hình":"HTX NTTS Trường Phát","Địa chỉ sản xuất":"ấp Ngã Ngay, xã Tân Long Hội, tỉnh Vĩnh Long","Mã số nhận diện cơ sở":"86-01-0043","Chủ cơ sở / Người đại diện":"Dương Văn Bình","Tổng diện tích":"0.6","Đang nuôi thả (diện tích mặt nước)":"","Chưa thả lại (diện tích mặt nước)":"0.6","Số lượng ao nuôi":"2","Sản lượng dự kiến":"","Chứng nhận  (ASC,BAP....)":"","Kết quả thẩm định theo TT38":"","Ngày thẩm định ":"","Ngày cấp Giấy chứng nhận ATTP ":"","Số Giấy chứng nhận ATTP ":"","Ngày hết hạn Giấy chứng nhận ATTP ":"","Ghi chú":"","layer_id":277,"fid":213,"label":"Dương Văn Bình"}},{"type":"Feature","id":214,"geometry":{"type":"Point","coordinates":[106.050857,10.144076]},"properties":{"Tên cơ sở":"Dương Văn Khoán","Loại hình":"HTX NTTS Trường Phát","Địa chỉ sản xuất":"ấp Ngã Ngay, xã Tân Long Hội, tỉnh Vĩnh Long","Mã số nhận diện cơ sở":"86-01-0034","Chủ cơ sở / Người đại diện":"Dương Văn Khoán","Tổng diện tích":"0.49","Đang nuôi thả (diện tích mặt nước)":"","Chưa thả lại (diện tích mặt nước)":"0.49","Số lượng ao nuôi":"2","Sản lượng dự kiến":"","Chứng nhận  (ASC,BAP....)":"","Kết quả thẩm định theo TT38":"","Ngày thẩm định ":"","Ngày cấp Giấy chứng nhận ATTP ":"","Số Giấy chứng nhận ATTP ":"","Ngày hết hạn Giấy chứng nhận ATTP ":"","Ghi chú":"","layer_id":277,"fid":214,"label":"Dương Văn Khoán"}},{"type":"Feature","id":215,"geometry":{"type":"Point","coordinates":[106.11003,10.10293]},"properties":{"Tên cơ sở":"Phan Thanh Nhàn","Loại hình":"Hộ nuôi","Địa chỉ sản xuất":"ấp Mỹ Long, xã Cái Nhum, tỉnh Vĩnh Long","Mã số nhận diện cơ sở":"86-01-0076","Chủ cơ sở / Người đại diện":"Phan Thanh Nhàn","Tổng diện tích":"1.8","Đang nuôi thả (diện tích mặt nước)":"1.8","Chưa thả lại (diện tích mặt nước)":"0","Số lượng ao nuôi":"2","Sản lượng dự kiến":"","Chứng nhận  (ASC,BAP....)":"","Kết quả thẩm định theo TT38":"","Ngày thẩm định ":"","Ngày cấp Giấy chứng nhận ATTP ":"","Số Giấy chứng nhận ATTP ":"","Ngày hết hạn Giấy chứng nhận ATTP ":"","Ghi chú":"","layer_id":277,"fid":215,"label":"Phan Thanh Nhàn"}}]}
