{"type":"FeatureCollection","name":"Cơ sở kinh doanh thức ăn thủy sản ","metadata":{"source":"https://hatang.vinhlong.gov.vn/","downloaded_at":"2026-07-20T01:14:27+00:00","layer_id":278,"layer_name":"Cơ sở kinh doanh thức ăn thủy sản ","catalog_endpoints":["/map/publicLayers2?inputs=thuy_san"],"requested_bbox":[104.0,8.0,108.0,12.0],"tile_size":0.0,"tile_count":1,"tile_errors":[],"feature_count":23,"coordinate_order":"x,y (thường là longitude,latitude theo cấu hình EPSG:4326 của WebGIS)"},"features":[{"type":"Feature","id":11,"geometry":{"type":"Point","coordinates":[105.9578924,10.2578577]},"properties":{"Tên cơ sở":"Minh Tài","Địa chỉ kinh doanh":"Số 170/10, đường Phạm Hùng, phường Long Châu, tỉnh Vĩnh Long","Số giấy chứng nhận ĐKKD/ĐKDN":"","Chủ cơ sở/ Người đại diện":"","Sản phẩm kinh doanh":"VINA","Tình trạng hoạt động":"Đang hoạt động","Ghi chú":"","layer_id":278,"fid":11,"label":"Minh Tài"}},{"type":"Feature","id":12,"geometry":{"type":"Point","coordinates":[105.9785659,10.2436857]},"properties":{"Tên cơ sở":"Thúy Diễm","Địa chỉ kinh doanh":"Số 60/2, đường Phạm Thái Bường, Phường Phước Hậu, tỉnh Vĩnh Long","Số giấy chứng nhận ĐKKD/ĐKDN":"","Chủ cơ sở/ Người đại diện":"","Sản phẩm kinh doanh":"UP","Tình trạng hoạt động":"Đang hoạt động","Ghi chú":"","layer_id":278,"fid":12,"label":"Thúy Diễm"}},{"type":"Feature","id":13,"geometry":{"type":"Point","coordinates":[105.9567836,10.236607]},"properties":{"Tên cơ sở":"Kiêm Hoa","Địa chỉ kinh doanh":"16C, đường Đinh Tiên Hoàng, Phường Tân Hạnh, tỉnh Vĩnh Long","Số giấy chứng nhận ĐKKD/ĐKDN":"","Chủ cơ sở/ Người đại diện":"Nguyễn Kiêm Hoa","Sản phẩm kinh doanh":"Việt Thắng, Tongwei","Tình trạng hoạt động":"Đang hoạt động","Ghi chú":"","layer_id":278,"fid":13,"label":"Kiêm Hoa"}},{"type":"Feature","id":14,"geometry":{"type":"Point","coordinates":[105.9592623,10.2387031]},"properties":{"Tên cơ sở":"Mỹ Hạnh","Địa chỉ kinh doanh":"Số 7A, đường Phó Cơ Điều, Phường Tân Hạnh, tỉnh Vĩnh Long","Số giấy chứng nhận ĐKKD/ĐKDN":"","Chủ cơ sở/ Người đại diện":"","Sản phẩm kinh doanh":"ANT","Tình trạng hoạt động":"Đang hoạt động","Ghi chú":"","layer_id":278,"fid":14,"label":"Mỹ Hạnh"}},{"type":"Feature","id":15,"geometry":{"type":"Point","coordinates":[105.9591745,10.2377232]},"properties":{"Tên cơ sở":"Vạn Thịnh","Địa chỉ kinh doanh":"Số 21, đường Phạm Hồng Thái, Phường Tân Hạnh, tỉnh Vĩnh Long","Số giấy chứng nhận ĐKKD/ĐKDN":"","Chủ cơ sở/ Người đại diện":"","Sản phẩm kinh doanh":"Nông Lâm Vina","Tình trạng hoạt động":"Đang hoạt động","Ghi chú":"","layer_id":278,"fid":15,"label":"Vạn Thịnh"}},{"type":"Feature","id":16,"geometry":{"type":"Point","coordinates":[105.9572996,10.2405976]},"properties":{"Tên cơ sở":"Hoa Lợi","Địa chỉ kinh doanh":"Số 2D, đường Đinh Tiên Hoàng, Phường Tân Hạnh, tỉnh Vĩnh Long","Số giấy chứng nhận ĐKKD/ĐKDN":"","Chủ cơ sở/ Người đại diện":"","Sản phẩm kinh doanh":"TADACO","Tình trạng hoạt động":"Đang hoạt động","Ghi chú":"","layer_id":278,"fid":16,"label":"Hoa Lợi"}},{"type":"Feature","id":17,"geometry":{"type":"Point","coordinates":[105.9582042,10.2392574]},"properties":{"Tên cơ sở":"Xuân Tùng","Địa chỉ kinh doanh":"Số 11, đường Phó Cơ Điều, Phường Tân Hạnh, tỉnh Vĩnh Long","Số giấy chứng nhận ĐKKD/ĐKDN":"","Chủ cơ sở/ Người đại diện":"","Sản phẩm kinh doanh":"NEW HOPE, CONCO","Tình trạng hoạt động":"Đang hoạt động","Ghi chú":"","layer_id":278,"fid":17,"label":"Xuân Tùng"}},{"type":"Feature","id":18,"geometry":{"type":"Point","coordinates":[105.9894526,10.2365582]},"properties":{"Tên cơ sở":"Nguyên Lộc","Địa chỉ kinh doanh":"Số 47/H1, đường Trần Phú, Phường Tân Hạnh, tỉnh Vĩnh Long","Số giấy chứng nhận ĐKKD/ĐKDN":"","Chủ cơ sở/ Người đại diện":"","Sản phẩm kinh doanh":" UP, CP, NEWHOPE, Lái Thiêu","Tình trạng hoạt động":"Đang hoạt động","Ghi chú":"","layer_id":278,"fid":18,"label":"Nguyên Lộc"}},{"type":"Feature","id":19,"geometry":{"type":"Point","coordinates":[105.892561,9.947842]},"properties":{"Tên cơ sở":"\nThông kiều\n\n","Địa chỉ kinh doanh":"Âp Phú Long, xã Lục Sĩ Thành, tỉnh Vĩnh Long","Số giấy chứng nhận ĐKKD/ĐKDN":"","Chủ cơ sở/ Người đại diện":"Nguyễn Văn Thông","Sản phẩm kinh doanh":"Thăng Long","Tình trạng hoạt động":"Đang hoạt động","Ghi chú":"","layer_id":278,"fid":19,"label":"\nThông kiều\n\n"}},{"type":"Feature","id":20,"geometry":{"type":"Point","coordinates":[105.909587,9.945311]},"properties":{"Tên cơ sở":"\nLê Tấn Hùng\n","Địa chỉ kinh doanh":"Ấp Long Thạnh, xã Lục Sĩ Thành, tỉnh Vĩnh Long","Số giấy chứng nhận ĐKKD/ĐKDN":"","Chủ cơ sở/ Người đại diện":"Lê Tấn Hùng","Sản phẩm kinh doanh":"TongWei, Ewos","Tình trạng hoạt động":"Đang hoạt động","Ghi chú":"","layer_id":278,"fid":20,"label":"\nLê Tấn Hùng\n"}},{"type":"Feature","id":21,"geometry":{"type":"Point","coordinates":[105.75497,10.103684]},"properties":{"Tên cơ sở":"Dũng Uyên","Địa chỉ kinh doanh":"Ấp Tân Thuận, xã Tân Quới, tỉnh Vĩnh Long","Số giấy chứng nhận ĐKKD/ĐKDN":"54H8002226","Chủ cơ sở/ Người đại diện":"Huỳnh Thị Kim Hà","Sản phẩm kinh doanh":"AquaFeed, Gold Bio, Master","Tình trạng hoạt động":"Đang hoạt động","Ghi chú":null,"layer_id":278,"fid":21,"label":"Dũng Uyên"}},{"type":"Feature","id":22,"geometry":{"type":"Point","coordinates":[105.71894,10.143095]},"properties":{"Tên cơ sở":"Tùng","Địa chỉ kinh doanh":"Ấp Tân Lộc, Xã Tân Lược, tỉnh Vĩnh Long","Số giấy chứng nhận ĐKKD/ĐKDN":"54H000950","Chủ cơ sở/ Người đại diện":"Nguyễn Thị Thu","Sản phẩm kinh doanh":"Jetdo","Tình trạng hoạt động":"Đang hoạt động","Ghi chú":null,"layer_id":278,"fid":22,"label":"Tùng"}},{"type":"Feature","id":23,"geometry":{"type":"Point","coordinates":[105.717761,10.141029]},"properties":{"Tên cơ sở":"Tám Nhàn","Địa chỉ kinh doanh":"Ấp Tân Lộc, Xã Tân Lược, tỉnh Vĩnh Long","Số giấy chứng nhận ĐKKD/ĐKDN":"54H8000338","Chủ cơ sở/ Người đại diện":"Phan Thanh Nhàn","Sản phẩm kinh doanh":"VaSafeed","Tình trạng hoạt động":"Đang hoạt động","Ghi chú":null,"layer_id":278,"fid":23,"label":"Tám Nhàn"}},{"type":"Feature","id":24,"geometry":{"type":"Point","coordinates":[105.718079,10.143237]},"properties":{"Tên cơ sở":"Phương Hoa","Địa chỉ kinh doanh":"Ấp Tân Lộc, Xã Tân Lược, tỉnh Vĩnh Long","Số giấy chứng nhận ĐKKD/ĐKDN":"54H8005965","Chủ cơ sở/ Người đại diện":"Võ Thành Trung","Sản phẩm kinh doanh":"More NewHope","Tình trạng hoạt động":"Đang hoạt động","Ghi chú":null,"layer_id":278,"fid":24,"label":"Phương Hoa"}},{"type":"Feature","id":25,"geometry":{"type":"Point","coordinates":[105.796373,10.145155]},"properties":{"Tên cơ sở":"Lý Tiệp","Địa chỉ kinh doanh":"Ấp Thành Hiếu, Xã Mỹ Thuận, tỉnh Vĩnh Long","Số giấy chứng nhận ĐKKD/ĐKDN":"54H8000404","Chủ cơ sở/ Người đại diện":"Phan Văn Tiệp","Sản phẩm kinh doanh":"Tấn Đạt","Tình trạng hoạt động":"Đang hoạt động","Ghi chú":null,"layer_id":278,"fid":25,"label":"Lý Tiệp"}},{"type":"Feature","id":26,"geometry":{"type":"Point","coordinates":[105.694956,10.155541]},"properties":{"Tên cơ sở":"Nguyệt Lãm","Địa chỉ kinh doanh":"Ấp An Thới, Xã Tân An Thạnh, tỉnh Vĩnh Long","Số giấy chứng nhận ĐKKD/ĐKDN":"54H8003051","Chủ cơ sở/ Người đại diện":"Nguyễn Thị Ánh Nguyệt","Sản phẩm kinh doanh":"NewHope","Tình trạng hoạt động":"Đang hoạt động","Ghi chú":null,"layer_id":278,"fid":26,"label":"Nguyệt Lãm"}},{"type":"Feature","id":27,"geometry":{"type":"Point","coordinates":[105.693817,10.154521]},"properties":{"Tên cơ sở":"Mỹ Xuân","Địa chỉ kinh doanh":"Ấp An Thới, Xã Tân Lược, tỉnh Vĩnh Long","Số giấy chứng nhận ĐKKD/ĐKDN":"54H8002403","Chủ cơ sở/ Người đại diện":"Nguyễn Ngọc Thương","Sản phẩm kinh doanh":"NewHope","Tình trạng hoạt động":"Đang hoạt động","Ghi chú":null,"layer_id":278,"fid":27,"label":"Mỹ Xuân"}},{"type":"Feature","id":28,"geometry":{"type":"Point","coordinates":[105.695116,10.155695]},"properties":{"Tên cơ sở":"Ngọc Phương Ngân","Địa chỉ kinh doanh":"Ấp An Thới, Xã Tân Lược, tỉnh Vĩnh Long","Số giấy chứng nhận ĐKKD/ĐKDN":"54H8003630","Chủ cơ sở/ Người đại diện":"Nguyễn Tuấn Thanh","Sản phẩm kinh doanh":"ANT","Tình trạng hoạt động":"Đang hoạt động","Ghi chú":null,"layer_id":278,"fid":28,"label":"Ngọc Phương Ngân"}},{"type":"Feature","id":29,"geometry":{"type":"Point","coordinates":[105.713868,10.158675]},"properties":{"Tên cơ sở":"Trung Thuận","Địa chỉ kinh doanh":"Ấp An Khánh, Xã Tân Lược, tỉnh Vĩnh Long","Số giấy chứng nhận ĐKKD/ĐKDN":"54H8002508","Chủ cơ sở/ Người đại diện":"Đoàn Trung Thuận","Sản phẩm kinh doanh":"ANT","Tình trạng hoạt động":"Đang hoạt động","Ghi chú":null,"layer_id":278,"fid":29,"label":"Trung Thuận"}},{"type":"Feature","id":30,"geometry":{"type":"Point","coordinates":[105.821005,10.136593]},"properties":{"Tên cơ sở":"Thúy Lễ","Địa chỉ kinh doanh":"Ấp Hòa Bình, Xã Mỹ Thuận, tỉnh Vĩnh Long","Số giấy chứng nhận ĐKKD/ĐKDN":"54H8001446","Chủ cơ sở/ Người đại diện":"Nguyễn Trọng Lễ","Sản phẩm kinh doanh":"Hải Đại Vĩnh Long","Tình trạng hoạt động":"Đang hoạt động","Ghi chú":null,"layer_id":278,"fid":30,"label":"Thúy Lễ"}},{"type":"Feature","id":31,"geometry":{"type":"Point","coordinates":[105.821288,10.135962]},"properties":{"Tên cơ sở":"Hoàng","Địa chỉ kinh doanh":"Ấp Hòa Bình, Xã Mỹ Thuận, tỉnh Vĩnh Long","Số giấy chứng nhận ĐKKD/ĐKDN":"54H8002521","Chủ cơ sở/ Người đại diện":"Bùi Thanh Hoàng","Sản phẩm kinh doanh":"Nova","Tình trạng hoạt động":"Đang hoạt động","Ghi chú":null,"layer_id":278,"fid":31,"label":"Hoàng"}},{"type":"Feature","id":32,"geometry":{"type":"Point","coordinates":[105.858088,10.14551]},"properties":{"Tên cơ sở":"Ba Luyến","Địa chỉ kinh doanh":"Ấp Hòa Hiệp, Xã Mỹ Thuận,tỉnh Vĩnh Long","Số giấy chứng nhận ĐKKD/ĐKDN":"54H8000919","Chủ cơ sở/ Người đại diện":"Phạm Minh Luyến","Sản phẩm kinh doanh":"ANT","Tình trạng hoạt động":"Đang hoạt động","Ghi chú":null,"layer_id":278,"fid":32,"label":"Ba Luyến"}},{"type":"Feature","id":33,"geometry":{"type":"Point","coordinates":[105.832149,10.107794]},"properties":{"Tên cơ sở":"Kim Luông","Địa chỉ kinh doanh":"Ấp Mỹ Thạnh A, Xã Mỹ Thuận, tỉnh Vĩnh Long","Số giấy chứng nhận ĐKKD/ĐKDN":"54H80067","Chủ cơ sở/ Người đại diện":"Phan Kim Luông","Sản phẩm kinh doanh":"Gold BO","Tình trạng hoạt động":"Đang hoạt động","Ghi chú":null,"layer_id":278,"fid":33,"label":"Kim Luông"}}]}
