{"type":"FeatureCollection","name":"Cở sở sản xuất thức ăn Thủy sản XLMT ","metadata":{"source":"https://hatang.vinhlong.gov.vn/","downloaded_at":"2026-07-20T01:14:31+00:00","layer_id":279,"layer_name":"Cở sở sản xuất thức ăn Thủy sản XLMT ","catalog_endpoints":["/map/publicLayers2?inputs=thuy_san"],"requested_bbox":[104.0,8.0,108.0,12.0],"tile_size":0.0,"tile_count":1,"tile_errors":[],"feature_count":10,"coordinate_order":"x,y (thường là longitude,latitude theo cấu hình EPSG:4326 của WebGIS)"},"features":[{"type":"Feature","id":11,"geometry":{"type":"Point","coordinates":[105.816691,10.069246]},"properties":{"Tên công ty":"Công ty TNHH MTV Sinh học Phú Sĩ","Địa chỉ trụ sở chính":"Số 1076, tổ 1, khóm 2, phường Cái Vồn, tỉnh Vĩnh Long","Địa chỉ sản xuất":"Số 1076, tổ 1, khóm 2, phường Cái Vồn, tỉnh Vĩnh Long","Số giấy chứng nhận ĐKKD/ĐKDN":"TS860002","Chủ cơ sở/ Người đại diện":"Lưu Nguyễn Trà Giang","Sản phẩm sản xuất":"Thức ăn bổ sung và sản phẩm XLMT","Sản lượng dự kiến (tấn/năm)":"","Chứng nhận (ISO, HACCP...)":"","Số giấy chứng nhận":"","Ngày cấp GCN":"","Tình trạng hoạt động":"Chưa họat động","Ghi chú":"","layer_id":279,"fid":11,"label":"Công ty TNHH MTV Sinh học Phú Sĩ"}},{"type":"Feature","id":12,"geometry":{"type":"Point","coordinates":[105.973832,10.23372]},"properties":{"Tên công ty":"Công ty Phát triển Kỹ thuật Vĩnh Long","Địa chỉ trụ sở chính":"Số 69/21, đường Phó Cơ Điều, phường Phước Hậu, tỉnh Vĩnh Long","Địa chỉ sản xuất":"Số 69/21, đường Phó Cơ Điều, phường Phước Hậu, tỉnh Vĩnh Long","Số giấy chứng nhận ĐKKD/ĐKDN":"TS860001","Chủ cơ sở/ Người đại diện":"Võ Hữu Trung","Sản phẩm sản xuất":"Sản phẩm xử lý môi trường NTTS","Sản lượng dự kiến (tấn/năm)":"20000","Chứng nhận (ISO, HACCP...)":"","Số giấy chứng nhận":"","Ngày cấp GCN":"","Tình trạng hoạt động":"Đang họat động","Ghi chú":"","layer_id":279,"fid":12,"label":"Công ty Phát triển Kỹ thuật Vĩnh Long"}},{"type":"Feature","id":13,"geometry":{"type":"Point","coordinates":[105.983832,10.225722]},"properties":{"Tên công ty":"Công ty TNHH TM & SX Nam Phát ","Địa chỉ trụ sở chính":"Ấp Phước Ngươn A, phường Phước Hậu, tỉnh Vĩnh Long","Địa chỉ sản xuất":"Ấp Phước Ngươn A, phường Phước Hậu, tỉnh Vĩnh Long","Số giấy chứng nhận ĐKKD/ĐKDN":"TS860003","Chủ cơ sở/ Người đại diện":"Ngô Hồng Thái","Sản phẩm sản xuất":"Thức ăn bổ sung và sản phẩm XLMT","Sản lượng dự kiến (tấn/năm)":"800","Chứng nhận (ISO, HACCP...)":"","Số giấy chứng nhận":"","Ngày cấp GCN":"","Tình trạng hoạt động":"Đang họat động","Ghi chú":"","layer_id":279,"fid":13,"label":"Công ty TNHH TM & SX Nam Phát "}},{"type":"Feature","id":14,"geometry":{"type":"Point","coordinates":[105.934966,10.178336]},"properties":{"Tên công ty":"Công ty TNHH Thiết Lập","Địa chỉ trụ sở chính":"Lô A3, KCN Hòa Phú - ấp Phước Hòa, xã Phú Quới, tỉnh Vĩnh Long","Địa chỉ sản xuất":"Lô A3, KCN Hòa Phú - ấp Phước Hòa, xã Phú Quới, tỉnh Vĩnh Long","Số giấy chứng nhận ĐKKD/ĐKDN":"TS860004","Chủ cơ sở/ Người đại diện":"Đinh Quốc Kiệt","Sản phẩm sản xuất":"Nguyên liệu sản xuất thức ăn thủy sản","Sản lượng dự kiến (tấn/năm)":"43200","Chứng nhận (ISO, HACCP...)":"","Số giấy chứng nhận":"","Ngày cấp GCN":"","Tình trạng hoạt động":"Đang họat động","Ghi chú":"","layer_id":279,"fid":14,"label":"Công ty TNHH Thiết Lập"}},{"type":"Feature","id":15,"geometry":{"type":"Point","coordinates":[105.917052,10.076644]},"properties":{"Tên công ty":"Công ty TNHH Công nghệ Sinh học GREENFARM","Địa chỉ trụ sở chính":"Ấp 6B, xã Song Phú, tỉnh Vĩnh Long","Địa chỉ sản xuất":"Ấp 6B, xã Song Phú, tỉnh Vĩnh Long","Số giấy chứng nhận ĐKKD/ĐKDN":"TS860005","Chủ cơ sở/ Người đại diện":"Đặng Chí Công","Sản phẩm sản xuất":"Thức ăn bổ sung và sản phẩm XLMT","Sản lượng dự kiến (tấn/năm)":"","Chứng nhận (ISO, HACCP...)":"","Số giấy chứng nhận":"","Ngày cấp GCN":"","Tình trạng hoạt động":"Chưa họoạt động","Ghi chú":"","layer_id":279,"fid":15,"label":"Công ty TNHH Công nghệ Sinh học GREENFARM"}},{"type":"Feature","id":16,"geometry":{"type":"Point","coordinates":[106.089923,10.235233]},"properties":{"Tên công ty":"Công ty TNHH MTV Gò Đàng - CN Vĩnh Long","Địa chỉ trụ sở chính":"Ấp Mỹ Thanh, xã Nhơn Phú, tỉnh Vĩnh Long","Địa chỉ sản xuất":"Ấp Mỹ Thanh, xã Nhơn Phú, tỉnh Vĩnh Long","Số giấy chứng nhận ĐKKD/ĐKDN":"TS860007","Chủ cơ sở/ Người đại diện":"Lý Bé Tư","Sản phẩm sản xuất":"Thức ăn hổn hợp dùng trong NTTS","Sản lượng dự kiến (tấn/năm)":"150000","Chứng nhận (ISO, HACCP...)":"","Số giấy chứng nhận":"","Ngày cấp GCN":"","Tình trạng hoạt động":"Đang họat động","Ghi chú":"","layer_id":279,"fid":16,"label":"Công ty TNHH MTV Gò Đàng - CN Vĩnh Long"}},{"type":"Feature","id":17,"geometry":{"type":"Point","coordinates":[105.941924,10.186127]},"properties":{"Tên công ty":"Công ty TNHH Sản xuất và Thương mại Nông Dược Sạch","Địa chỉ trụ sở chính":"Số 392, ấp Long Hòa, xã Phú Quới, tỉnh Vĩnh Long","Địa chỉ sản xuất":"Số 392, ấp Long Hòa, xã Phú Quới, tỉnh Vĩnh Long","Số giấy chứng nhận ĐKKD/ĐKDN":"TS860009","Chủ cơ sở/ Người đại diện":"Huỳnh Lê Khắc Thanh Thoảng","Sản phẩm sản xuất":"Thức ăn bổ sung và sản phẩm XLMT","Sản lượng dự kiến (tấn/năm)":"","Chứng nhận (ISO, HACCP...)":"","Số giấy chứng nhận":"","Ngày cấp GCN":"","Tình trạng hoạt động":"Đang họat động","Ghi chú":"","layer_id":279,"fid":17,"label":"Công ty TNHH Sản xuất và Thương mại Nông Dược Sạch"}},{"type":"Feature","id":18,"geometry":{"type":"Point","coordinates":[105.889044,10.127787]},"properties":{"Tên công ty":"Chi nhánh Công ty TNHH Thuốc thú y thủy sản Nam Phương tại Vĩnh Long","Địa chỉ trụ sở chính":"Số 158, ấp Phú Hữu Tây, xã Song Phú, tỉnh Vĩnh Long","Địa chỉ sản xuất":"Số 158, ấp Phú Hữu Tây, xã Song Phú, tỉnh Vĩnh Long","Số giấy chứng nhận ĐKKD/ĐKDN":"TS860010","Chủ cơ sở/ Người đại diện":"Trần Thị Mỹ Phương","Sản phẩm sản xuất":"Thức ăn bổ sung và sản phẩm XLMT","Sản lượng dự kiến (tấn/năm)":"","Chứng nhận (ISO, HACCP...)":"","Số giấy chứng nhận":"","Ngày cấp GCN":"","Tình trạng hoạt động":"Đang họat động","Ghi chú":"","layer_id":279,"fid":18,"label":"Chi nhánh Công ty TNHH Thuốc thú y thủy sản Nam Phương tại Vĩnh Long"}},{"type":"Feature","id":19,"geometry":{"type":"Point","coordinates":[105.884467,10.036725]},"properties":{"Tên công ty":"Công ty TNHH VALSVET Việt Nam ","Địa chỉ trụ sở chính":"Tổ 11, ấp Đông Thạnh C, phường Đông Thành, tỉnh Vĩnh Long.","Địa chỉ sản xuất":"Tổ 11, ấp Đông Thạnh C, phường Đông Thành, tỉnh Vĩnh Long","Số giấy chứng nhận ĐKKD/ĐKDN":"TS860011","Chủ cơ sở/ Người đại diện":"Lê Văn Ấm","Sản phẩm sản xuất":"Thức ăn bổ sung và sản phẩm XLMT","Sản lượng dự kiến (tấn/năm)":"","Chứng nhận (ISO, HACCP...)":"","Số giấy chứng nhận":"","Ngày cấp GCN":"","Tình trạng hoạt động":"Đang họat động","Ghi chú":"","layer_id":279,"fid":19,"label":"Công ty TNHH VALSVET Việt Nam "}},{"type":"Feature","id":20,"geometry":{"type":"Point","coordinates":[106040539.0,10.243298]},"properties":{"Tên công ty":"Công ty CP Kỹ nghệ thực phẩm KAPPRO","Địa chỉ trụ sở chính":"Tổ 7, ấp An Hương 2, xã Nhơn Phú, tỉnh Vĩnh Long","Địa chỉ sản xuất":"Tổ 7, ấp An Hương 2, xã Nhơn Phú, tỉnh Vĩnh Long","Số giấy chứng nhận ĐKKD/ĐKDN":"TS860012","Chủ cơ sở/ Người đại diện":"Đỗ Thị Minh Thư","Sản phẩm sản xuất":"Dầu cá","Sản lượng dự kiến (tấn/năm)":"","Chứng nhận (ISO, HACCP...)":"","Số giấy chứng nhận":"","Ngày cấp GCN":"","Tình trạng hoạt động":"Đang họat động","Ghi chú":"","layer_id":279,"fid":20,"label":"Công ty CP Kỹ nghệ thực phẩm KAPPRO"}}]}
