{"type":"FeatureCollection","name":"Cơ sở ấp trứng","metadata":{"source":"https://hatang.vinhlong.gov.vn/","downloaded_at":"2026-07-20T01:10:47+00:00","layer_id":28,"layer_name":"Cơ sở ấp trứng","catalog_endpoints":["/map/publicLayers2?inputs=thu_y"],"requested_bbox":[104.0,8.0,108.0,12.0],"tile_size":0.0,"tile_count":1,"tile_errors":[],"feature_count":38,"coordinate_order":"x,y (thường là longitude,latitude theo cấu hình EPSG:4326 của WebGIS)"},"features":[{"type":"Feature","geometry":{"type":"Point","coordinates":[106.11766,10.09162]},"properties":{"Tên cơ sở sản xuất kinh doanh":"Huỳnh Trung Hiếu","Họ tên chủ cơ sở":"Huỳnh Trung Hiếu","Địa chỉ":"Ấp Hiếu Hiệp, xã Hiếu Phụng, huyện Vũng Liêm, tỉnh Vĩnh Long","Loại hình kinh doanh":"Ấp lộn","Email":null,"Website":null,"Tình trạng hoạt động":"Đang hoạt động","layer_id":28,"fid":535,"label":"Huỳnh Trung Hiếu"}},{"type":"Feature","geometry":{"type":"Point","coordinates":[106.055322,10.087459]},"properties":{"Tên cơ sở sản xuất kinh doanh":"Lâm Thu","Họ tên chủ cơ sở":"Nguyễn Thị Nhanh","Địa chỉ":"Hồi Thạnh, Xuân Hiệp,Trà Ôn","Loại hình kinh doanh":null,"Email":null,"Website":null,"Tình trạng hoạt động":"Đang hoạt động","layer_id":28,"fid":469,"label":"Lâm Thu"}},{"type":"Feature","geometry":{"type":"Point","coordinates":[106.18112,10.105]},"properties":{"Tên cơ sở sản xuất kinh doanh":"Lê Phát Tiến","Họ tên chủ cơ sở":"Lê Phát Tiến","Địa chỉ":"Tổ 8, ấp Hòa Nghĩa, xã Trung Thành Tây, huyện Vũng Liêm, tỉnh Vĩnh Long","Loại hình kinh doanh":"Ấp lộn","Email":null,"Website":null,"Tình trạng hoạt động":"Đang hoạt động","layer_id":28,"fid":534,"label":"Lê Phát Tiến"}},{"type":"Feature","geometry":{"type":"Point","coordinates":[106.160545349,10.108366013]},"properties":{"Tên cơ sở sản xuất kinh doanh":null,"Họ tên chủ cơ sở":null,"Địa chỉ":null,"Loại hình kinh doanh":null,"Email":null,"Website":null,"Tình trạng hoạt động":null,"layer_id":28,"fid":536,"label":null}},{"type":"Feature","geometry":{"type":"Point","coordinates":[105.846591,10.07655]},"properties":{"Tên cơ sở sản xuất kinh doanh":"Út Trạng","Họ tên chủ cơ sở":"Quách Yểu Trận","Địa chỉ":"Thuận Tiến B, Thuận An, Bình Minh","Loại hình kinh doanh":"Ấp lộn","Email":null,"Website":null,"Tình trạng hoạt động":"Tạm ngưng hoạt động","layer_id":28,"fid":458,"label":"Út Trạng"}},{"type":"Feature","geometry":{"type":"Point","coordinates":[105.975715,10.230291]},"properties":{"Tên cơ sở sản xuất kinh doanh":"Lý Thanh Nhàn","Họ tên chủ cơ sở":"Lý Thanh Nhàn","Địa chỉ":"Phước Lợi A, Phước Hậu, Long Hồ","Loại hình kinh doanh":null,"Email":null,"Website":null,"Tình trạng hoạt động":"Tạm ngưng hoạt động","layer_id":28,"fid":476,"label":"Lý Thanh Nhàn"}},{"type":"Feature","geometry":{"type":"Point","coordinates":[105.99054,10.01226]},"properties":{"Tên cơ sở sản xuất kinh doanh":"Tuấn Hoàng","Họ tên chủ cơ sở":"Nguyễn Tuấn Hoàng","Địa chỉ":"Trà Ngoa, Trà Côn, Trà Ôn","Loại hình kinh doanh":"Ấp lộn","Email":null,"Website":null,"Tình trạng hoạt động":"Tạm ngưng hoạt động","layer_id":28,"fid":462,"label":"Tuấn Hoàng"}},{"type":"Feature","geometry":{"type":"Point","coordinates":[106.025211,10.152068]},"properties":{"Tên cơ sở sản xuất kinh doanh":"Hiệp Hưng","Họ tên chủ cơ sở":"Nguyễn Tấn Hưng","Địa chỉ":"An Hiệp, Long An, Long Hồ","Loại hình kinh doanh":"Ấp lộn, nở","Email":null,"Website":null,"Tình trạng hoạt động":"Đang hoạt động","layer_id":28,"fid":499,"label":"Hiệp Hưng"}},{"type":"Feature","geometry":{"type":"Point","coordinates":[105.921462,10.162848]},"properties":{"Tên cơ sở sản xuất kinh doanh":"Vi Ngọc Phụng ","Họ tên chủ cơ sở":"Vi Ngọc Phụng ","Địa chỉ":"Phú Long, Phú Qưới, Long Hồ","Loại hình kinh doanh":"Ấp lộn","Email":null,"Website":null,"Tình trạng hoạt động":"Tạm ngưng hoạt động","layer_id":28,"fid":497,"label":"Vi Ngọc Phụng "}},{"type":"Feature","geometry":{"type":"Point","coordinates":[106.023481,10.154994]},"properties":{"Tên cơ sở sản xuất kinh doanh":"Thanh Danh","Họ tên chủ cơ sở":"Nguyễn Trọng Tấn","Địa chỉ":"Long Hiệp, Long An, Long Hồ","Loại hình kinh doanh":"Ấp lộn","Email":null,"Website":null,"Tình trạng hoạt động":"Đang hoạt động","layer_id":28,"fid":498,"label":"Thanh Danh"}},{"type":"Feature","geometry":{"type":"Point","coordinates":[106.010382,10.191474]},"properties":{"Tên cơ sở sản xuất kinh doanh":"Như Ý","Họ tên chủ cơ sở":"Võ Thị Thúy Kiều","Địa chỉ":"Phú An, Phú Đức, Long Hồ","Loại hình kinh doanh":"Ấp lộn","Email":null,"Website":null,"Tình trạng hoạt động":"Đang hoạt động","layer_id":28,"fid":500,"label":"Như Ý"}},{"type":"Feature","geometry":{"type":"Point","coordinates":[105.996979,10.250781]},"properties":{"Tên cơ sở sản xuất kinh doanh":"Trần Quốc Phong","Họ tên chủ cơ sở":"Trần Quốc Phong","Địa chỉ":"Thanh Mỹ 1, Thanh Đức, Long Hồ","Loại hình kinh doanh":"Ấp lộn, nở","Email":null,"Website":null,"Tình trạng hoạt động":"Tạm ngưng hoạt động","layer_id":28,"fid":501,"label":"Trần Quốc Phong"}},{"type":"Feature","geometry":{"type":"Point","coordinates":[105.92608,10.15788]},"properties":{"Tên cơ sở sản xuất kinh doanh":"Thuận Phát","Họ tên chủ cơ sở":"Huỳnh Kim Thắm","Địa chỉ":"Phú Hưng, Hoà Phú, Long Hồ","Loại hình kinh doanh":"Ấp lộn","Email":null,"Website":null,"Tình trạng hoạt động":"Tạm ngưng hoạt động","layer_id":28,"fid":503,"label":"Thuận Phát"}},{"type":"Feature","geometry":{"type":"Point","coordinates":[106.102311,10.232281]},"properties":{"Tên cơ sở sản xuất kinh doanh":"Lê Thanh Tùng","Họ tên chủ cơ sở":"Trần Thị Hồng","Địa chỉ":"Cái Kè, Mỹ Phước, Mang Thít","Loại hình kinh doanh":"Ấp lộn","Email":null,"Website":null,"Tình trạng hoạt động":"Đang hoạt động","layer_id":28,"fid":507,"label":"Lê Thanh Tùng"}},{"type":"Feature","geometry":{"type":"Point","coordinates":[106.054929,10.127949]},"properties":{"Tên cơ sở sản xuất kinh doanh":" Minh Nghĩa","Họ tên chủ cơ sở":"Nguyễn Thị Thùy Minh","Địa chỉ":"Cầu Ván, Tân Long Hội, Mang Thít","Loại hình kinh doanh":"Ấp lộn","Email":null,"Website":null,"Tình trạng hoạt động":"Đang hoạt động","layer_id":28,"fid":505,"label":" Minh Nghĩa"}},{"type":"Feature","geometry":{"type":"Point","coordinates":[105.829387,10.070258]},"properties":{"Tên cơ sở sản xuất kinh doanh":"Kiến Thành","Họ tên chủ cơ sở":"Trần Minh Ủ","Địa chỉ":"Thuận Tiến,Thuận An, Bình Minh","Loại hình kinh doanh":"Ấp lộn","Email":null,"Website":null,"Tình trạng hoạt động":"Đang hoạt động","layer_id":28,"fid":508,"label":"Kiến Thành"}},{"type":"Feature","geometry":{"type":"Point","coordinates":[105.838332,10.073766]},"properties":{"Tên cơ sở sản xuất kinh doanh":"Thành Công","Họ tên chủ cơ sở":"Phan Văn Công","Địa chỉ":"Thuận Tiến B, Thuận An, Bình Minh","Loại hình kinh doanh":"Ấp lộn","Email":null,"Website":null,"Tình trạng hoạt động":"Đang hoạt động","layer_id":28,"fid":509,"label":"Thành Công"}},{"type":"Feature","geometry":{"type":"Point","coordinates":[105.827966,10.069957]},"properties":{"Tên cơ sở sản xuất kinh doanh":"Tiến Thành","Họ tên chủ cơ sở":"Phạm Phú Xuân","Địa chỉ":"Thuận Tiến A, Thuận An, Bình Minh","Loại hình kinh doanh":"Ấp lộn","Email":null,"Website":null,"Tình trạng hoạt động":"Đang hoạt động","layer_id":28,"fid":512,"label":"Tiến Thành"}},{"type":"Feature","geometry":{"type":"Point","coordinates":[105.830929,10.071141]},"properties":{"Tên cơ sở sản xuất kinh doanh":"Đức Lợi","Họ tên chủ cơ sở":"Quách Đại Dũng","Địa chỉ":"Thuận Tiến A, Thuận An, Bình Minh","Loại hình kinh doanh":"Ấp lộn","Email":null,"Website":null,"Tình trạng hoạt động":"Tạm ngưng hoạt động","layer_id":28,"fid":511,"label":"Đức Lợi"}},{"type":"Feature","geometry":{"type":"Point","coordinates":[106.012981,9.950018]},"properties":{"Tên cơ sở sản xuất kinh doanh":"Thành Đạt","Họ tên chủ cơ sở":"Nguyễn Văn Đạt","Địa chỉ":"Vĩnh Trinh, Vĩnh Xuân, Trà Ôn","Loại hình kinh doanh":"Ấp lộn, nở","Email":null,"Website":null,"Tình trạng hoạt động":"Tạm ngưng hoạt động","layer_id":28,"fid":513,"label":"Thành Đạt"}},{"type":"Feature","geometry":{"type":"Point","coordinates":[106.054845,9.947241]},"properties":{"Tên cơ sở sản xuất kinh doanh":"Trương Húa","Họ tên chủ cơ sở":"Trương Húa","Địa chỉ":"Cống Đá, Thuận Thới, Trà Ôn","Loại hình kinh doanh":"Ấp lộn","Email":null,"Website":null,"Tình trạng hoạt động":"Tạm ngưng hoạt động","layer_id":28,"fid":514,"label":"Trương Húa"}},{"type":"Feature","geometry":{"type":"Point","coordinates":[106.085003,9.958727]},"properties":{"Tên cơ sở sản xuất kinh doanh":"Lê Văn Nhiều","Họ tên chủ cơ sở":"Lê Văn Nhiều","Địa chỉ":"Khu phố, Hựu Thành,  Trà Ôn","Loại hình kinh doanh":"Ấp lộn","Email":null,"Website":null,"Tình trạng hoạt động":"Đang hoạt động","layer_id":28,"fid":516,"label":"Lê Văn Nhiều"}},{"type":"Feature","geometry":{"type":"Point","coordinates":[106.069935,9.969389]},"properties":{"Tên cơ sở sản xuất kinh doanh":"Minh Trúc","Họ tên chủ cơ sở":"Hồ Quốc Bình","Địa chỉ":"Vĩnh Thành, Hựu Thành,Trà Ôn","Loại hình kinh doanh":"Ấp nở","Email":null,"Website":null,"Tình trạng hoạt động":"Đang hoạt động","layer_id":28,"fid":519,"label":"Minh Trúc"}},{"type":"Feature","geometry":{"type":"Point","coordinates":[106.067258,10.013979]},"properties":{"Tên cơ sở sản xuất kinh doanh":"Mười Khải","Họ tên chủ cơ sở":"Kha Nam Khải","Địa chỉ":"Trường Thọ, Thới Hòa, Trà Ôn","Loại hình kinh doanh":"Ấp lộn","Email":null,"Website":null,"Tình trạng hoạt động":"Đang hoạt động","layer_id":28,"fid":515,"label":"Mười Khải"}},{"type":"Feature","geometry":{"type":"Point","coordinates":[105.91845,9.965149]},"properties":{"Tên cơ sở sản xuất kinh doanh":"Thanh Thời","Họ tên chủ cơ sở":"Lê Văn Thời","Địa chỉ":"số 91B, Gia Long, Khu 1, TT. Trà Ôn,  Trà Ôn","Loại hình kinh doanh":"Ấp lộn","Email":null,"Website":null,"Tình trạng hoạt động":"Đang hoạt động","layer_id":28,"fid":518,"label":"Thanh Thời"}},{"type":"Feature","geometry":{"type":"Point","coordinates":[106.083679,9.958705]},"properties":{"Tên cơ sở sản xuất kinh doanh":"Tân Kim Vàng","Họ tên chủ cơ sở":"Tân Kim Vàng","Địa chỉ":"Khu phố chợ, Hựu Thành, Trà Ôn","Loại hình kinh doanh":"Ấp lộn, nở","Email":null,"Website":null,"Tình trạng hoạt động":"Đang hoạt động","layer_id":28,"fid":517,"label":"Tân Kim Vàng"}},{"type":"Feature","geometry":{"type":"Point","coordinates":[106.168972,10.084389]},"properties":{"Tên cơ sở sản xuất kinh doanh":"Nguyễn Văn Sĩ","Họ tên chủ cơ sở":"Nguyễn Văn Sĩ","Địa chỉ":"Bình Trung, Trung Hiếu, Vũng Liêm","Loại hình kinh doanh":"Ấp lộn","Email":null,"Website":null,"Tình trạng hoạt động":"Tạm ngưng hoạt động","layer_id":28,"fid":522,"label":"Nguyễn Văn Sĩ"}},{"type":"Feature","geometry":{"type":"Point","coordinates":[106.092263,10.092742]},"properties":{"Tên cơ sở sản xuất kinh doanh":"Nam Đặng","Họ tên chủ cơ sở":"Nguyễn Văn Khải","Địa chỉ":"Quang Phú, Hiếu Phụng, Vũng Liêm","Loại hình kinh doanh":"Ấp lộn","Email":null,"Website":null,"Tình trạng hoạt động":"Đang hoạt động","layer_id":28,"fid":523,"label":"Nam Đặng"}},{"type":"Feature","geometry":{"type":"Point","coordinates":[106.0996,9.999013]},"properties":{"Tên cơ sở sản xuất kinh doanh":"Huỳnh Trân","Họ tên chủ cơ sở":"Trương Văn Huấn","Địa chỉ":"Hiếu Xuân Đông, Hiếu Thành, Vũng Liêm","Loại hình kinh doanh":"Ấp lộn","Email":null,"Website":null,"Tình trạng hoạt động":"Đang hoạt động","layer_id":28,"fid":524,"label":"Huỳnh Trân"}},{"type":"Feature","geometry":{"type":"Point","coordinates":[106.18636,10.096266]},"properties":{"Tên cơ sở sản xuất kinh doanh":"Vạn Hưng ","Họ tên chủ cơ sở":"Nguyễn Văn Bé Hai","Địa chỉ":"Khóm 2, TT.Vũng Liêm, Vũng Liêm","Loại hình kinh doanh":"Ấp lộn, nở ","Email":null,"Website":null,"Tình trạng hoạt động":"Đang hoạt động","layer_id":28,"fid":521,"label":"Vạn Hưng "}},{"type":"Feature","geometry":{"type":"Point","coordinates":[106.085526,9.960553]},"properties":{"Tên cơ sở sản xuất kinh doanh":"Phó Kim Lan","Họ tên chủ cơ sở":"Huỳnh Khánh Nhân","Địa chỉ":"Hiếu Văn, Hiếu Nghĩa, Vũng Liêm","Loại hình kinh doanh":"Ấp lộn","Email":null,"Website":null,"Tình trạng hoạt động":"Đang hoạt động","layer_id":28,"fid":525,"label":"Phó Kim Lan"}},{"type":"Feature","geometry":{"type":"Point","coordinates":[106.11593,10.06207]},"properties":{"Tên cơ sở sản xuất kinh doanh":"Trương Ứng Hòa","Họ tên chủ cơ sở":"Trương Ứng Hòa","Địa chỉ":"Quang Trường, Hiếu Thuận, Vũng Liêm","Loại hình kinh doanh":"Ấp lộn, nở ","Email":null,"Website":null,"Tình trạng hoạt động":"Đang hoạt động","layer_id":28,"fid":528,"label":"Trương Ứng Hòa"}},{"type":"Feature","geometry":{"type":"Point","coordinates":[106.08131,10.10237]},"properties":{"Tên cơ sở sản xuất kinh doanh":"Nguyễn Minh Triết","Họ tên chủ cơ sở":"Nguyễn Minh Triết","Địa chỉ":"ấp 8,Tân An Luông, Vũng Liêm","Loại hình kinh doanh":"Ấp lộn, nở ","Email":null,"Website":null,"Tình trạng hoạt động":"Đang hoạt động","layer_id":28,"fid":526,"label":"Nguyễn Minh Triết"}},{"type":"Feature","geometry":{"type":"Point","coordinates":[106.122348,10.030772]},"properties":{"Tên cơ sở sản xuất kinh doanh":"A Vũ","Họ tên chủ cơ sở":"Trương Văn Vũ","Địa chỉ":"Phú Cường, Hiếu Thuận, Vũng Liêm","Loại hình kinh doanh":"Ấp lộn","Email":null,"Website":null,"Tình trạng hoạt động":"Đang hoạt động","layer_id":28,"fid":527,"label":"A Vũ"}},{"type":"Feature","geometry":{"type":"Point","coordinates":[106.117839,10.08167]},"properties":{"Tên cơ sở sản xuất kinh doanh":"Nguyễn Thanh Phong","Họ tên chủ cơ sở":"Nguyễn Thanh Phong","Địa chỉ":"Tân Quang, Hiếu Phụng, Vũng Liêm","Loại hình kinh doanh":"Ấp lộn","Email":null,"Website":null,"Tình trạng hoạt động":"Đang hoạt động","layer_id":28,"fid":531,"label":"Nguyễn Thanh Phong"}},{"type":"Feature","geometry":{"type":"Point","coordinates":[106.112035,10.035984]},"properties":{"Tên cơ sở sản xuất kinh doanh":"Chảnh Thủy","Họ tên chủ cơ sở":"Nguyễn Thị Thủy","Địa chỉ":"Phú Cường, Hiếu Thuận, Vũng Liêm","Loại hình kinh doanh":"Ấp nở","Email":null,"Website":null,"Tình trạng hoạt động":"Đang hoạt động","layer_id":28,"fid":532,"label":"Chảnh Thủy"}},{"type":"Feature","geometry":{"type":"Point","coordinates":[106.160784,10.075681]},"properties":{"Tên cơ sở sản xuất kinh doanh":"Nguyễn Thị Cúc","Họ tên chủ cơ sở":"Nguyễn Thị Cúc","Địa chỉ":"An Điền 2, Trung Hiếu, Vũng Liêm","Loại hình kinh doanh":"Ấp lộn","Email":null,"Website":null,"Tình trạng hoạt động":"Đang hoạt động","layer_id":28,"fid":529,"label":"Nguyễn Thị Cúc"}},{"type":"Feature","geometry":{"type":"Point","coordinates":[106.176684,10.097032]},"properties":{"Tên cơ sở sản xuất kinh doanh":"Văn Thái Phong","Họ tên chủ cơ sở":"Văn Thái Phong","Địa chỉ":"Trung Trị, Trung Hiệp, Vũng Liêm","Loại hình kinh doanh":"Ấp lộn","Email":null,"Website":null,"Tình trạng hoạt động":"Đang hoạt động","layer_id":28,"fid":530,"label":"Văn Thái Phong"}}]}
