{"type":"FeatureCollection","name":"Thủy sản có giá trị kinh tế ","metadata":{"source":"https://hatang.vinhlong.gov.vn/","downloaded_at":"2026-07-20T01:14:35+00:00","layer_id":280,"layer_name":"Thủy sản có giá trị kinh tế ","catalog_endpoints":["/map/publicLayers2?inputs=thuy_san"],"requested_bbox":[104.0,8.0,108.0,12.0],"tile_size":0.0,"tile_count":1,"tile_errors":[],"feature_count":143,"coordinate_order":"x,y (thường là longitude,latitude theo cấu hình EPSG:4326 của WebGIS)"},"features":[{"type":"Feature","id":62,"geometry":{"type":"Point","coordinates":[105.9778638,10.2566891]},"properties":{"Tên cơ sở":"Nguyễn Hồng Sơn","Loại hình(Doanh nghiệp, HTX, Hộ nuôi,...)":"Hộ nuôi","Địa chỉ sản xuất":"Khóm 1, phường Thanh Đức, tỉnh Vĩnh Long","Chủ cơ sở/Người đại diện":"Nguyễn Hồng Sơn","Đối tượng nuôi":"Lươn","Tổng diện tích mặt nước (m2)":null,"Chứng nhận(ASC,BAP, VietGAP,...)":"","Tình trạng hoạt động":"Đang hoạt động","Ghi chú":"","layer_id":280,"fid":62,"label":"Nguyễn Hồng Sơn"}},{"type":"Feature","id":63,"geometry":{"type":"Point","coordinates":[105.989221,10.254642]},"properties":{"Tên cơ sở":"Nguyễn Văn Trí","Loại hình(Doanh nghiệp, HTX, Hộ nuôi,...)":"Hộ nuôi","Địa chỉ sản xuất":"Khóm 5, phường Thanh Đức, tỉnh Vĩnh Long","Chủ cơ sở/Người đại diện":"Nguyễn Văn Trí","Đối tượng nuôi":"Lươn","Tổng diện tích mặt nước (m2)":null,"Chứng nhận(ASC,BAP, VietGAP,...)":"14","Tình trạng hoạt động":"Đang hoạt động","Ghi chú":"","layer_id":280,"fid":63,"label":"Nguyễn Văn Trí"}},{"type":"Feature","id":64,"geometry":{"type":"Point","coordinates":[105.990136,10.242689]},"properties":{"Tên cơ sở":"Nguyễn Văn Bé Hai","Loại hình(Doanh nghiệp, HTX, Hộ nuôi,...)":"Hộ nuôi","Địa chỉ sản xuất":"Khóm 4, phường Thanh Đức, tỉnh Vĩnh Long","Chủ cơ sở/Người đại diện":"Nguyễn Văn Bé Hai","Đối tượng nuôi":"Lươn","Tổng diện tích mặt nước (m2)":null,"Chứng nhận(ASC,BAP, VietGAP,...)":"60","Tình trạng hoạt động":"Đang hoạt động","Ghi chú":"","layer_id":280,"fid":64,"label":"Nguyễn Văn Bé Hai"}},{"type":"Feature","id":65,"geometry":{"type":"Point","coordinates":[105.990136,10.242689]},"properties":{"Tên cơ sở":"Nguyễn Hoàng Phi","Loại hình(Doanh nghiệp, HTX, Hộ nuôi,...)":"Hộ nuôi","Địa chỉ sản xuất":"Khóm 4, phường Thanh Đức, tỉnh Vĩnh Long","Chủ cơ sở/Người đại diện":"Nguyễn Hoàng Phi","Đối tượng nuôi":"Lươn","Tổng diện tích mặt nước (m2)":null,"Chứng nhận(ASC,BAP, VietGAP,...)":"14","Tình trạng hoạt động":"Đang hoạt động","Ghi chú":"","layer_id":280,"fid":65,"label":"Nguyễn Hoàng Phi"}},{"type":"Feature","id":66,"geometry":{"type":"Point","coordinates":[105.951489,10.234739]},"properties":{"Tên cơ sở":"Nguyễn Văn Tùng","Loại hình(Doanh nghiệp, HTX, Hộ nuôi,...)":"Hộ nuôi","Địa chỉ sản xuất":"Khóm 5, phường Tân Hạnh, tỉnh Vĩnh Long","Chủ cơ sở/Người đại diện":"Nguyễn Văn Tùng","Đối tượng nuôi":"Lươn","Tổng diện tích mặt nước (m2)":null,"Chứng nhận(ASC,BAP, VietGAP,...)":"22","Tình trạng hoạt động":"Đang hoạt động","Ghi chú":"","layer_id":280,"fid":66,"label":"Nguyễn Văn Tùng"}},{"type":"Feature","id":67,"geometry":{"type":"Point","coordinates":[105.9516623,10.2283067]},"properties":{"Tên cơ sở":"Lâm Ngọc Sơn","Loại hình(Doanh nghiệp, HTX, Hộ nuôi,...)":"Hộ nuôi","Địa chỉ sản xuất":"Khóm 3, phường Tân Hạnh, tỉnh Vĩnh Long","Chủ cơ sở/Người đại diện":"Lâm Ngọc Sơn","Đối tượng nuôi":"Lươn","Tổng diện tích mặt nước (m2)":null,"Chứng nhận(ASC,BAP, VietGAP,...)":"32","Tình trạng hoạt động":"Đang hoạt động","Ghi chú":"","layer_id":280,"fid":67,"label":"Lâm Ngọc Sơn"}},{"type":"Feature","id":68,"geometry":{"type":"Point","coordinates":[105.905432,10.236169]},"properties":{"Tên cơ sở":"Phan Ngọc Sơn","Loại hình(Doanh nghiệp, HTX, Hộ nuôi,...)":"Hộ nuôi","Địa chỉ sản xuất":"Khóm Tân Qưới, phường Tân Ngãi, tỉnh Vĩnh Long","Chủ cơ sở/Người đại diện":"Phan Ngọc Sơn","Đối tượng nuôi":"Lươn","Tổng diện tích mặt nước (m2)":null,"Chứng nhận(ASC,BAP, VietGAP,...)":"6","Tình trạng hoạt động":"Đang hoạt động","Ghi chú":"","layer_id":280,"fid":68,"label":"Phan Ngọc Sơn"}},{"type":"Feature","id":69,"geometry":{"type":"Point","coordinates":[105.900404,10.253454]},"properties":{"Tên cơ sở":"Lê Thị Hoàng Oanh","Loại hình(Doanh nghiệp, HTX, Hộ nuôi,...)":"Hộ nuôi","Địa chỉ sản xuất":"Khóm Tân Phú, phường Tân Ngãi, tỉnh Vĩnh Long","Chủ cơ sở/Người đại diện":"Lê Thị Hoàng Oanh","Đối tượng nuôi":"Lươn","Tổng diện tích mặt nước (m2)":null,"Chứng nhận(ASC,BAP, VietGAP,...)":"6","Tình trạng hoạt động":"Đang hoạt động","Ghi chú":"","layer_id":280,"fid":69,"label":"Lê Thị Hoàng Oanh"}},{"type":"Feature","id":70,"geometry":{"type":"Point","coordinates":[105.91143,10.26759]},"properties":{"Tên cơ sở":"Nguyễn Thế Khoa","Loại hình(Doanh nghiệp, HTX, Hộ nuôi,...)":"Hộ nuôi","Địa chỉ sản xuất":"Khóm Tân Phú, phường Tân Ngãi, tỉnh Vĩnh Long","Chủ cơ sở/Người đại diện":"Nguyễn Thế Khoa","Đối tượng nuôi":"Ếch","Tổng diện tích mặt nước (m2)":null,"Chứng nhận(ASC,BAP, VietGAP,...)":"6500","Tình trạng hoạt động":"Đang hoạt động","Ghi chú":"","layer_id":280,"fid":70,"label":"Nguyễn Thế Khoa"}},{"type":"Feature","id":71,"geometry":{"type":"Point","coordinates":[105.906034,10.234164]},"properties":{"Tên cơ sở":"Trịnh Hoài Hạnh","Loại hình(Doanh nghiệp, HTX, Hộ nuôi,...)":"Hộ nuôi","Địa chỉ sản xuất":"Khóm Tân Qưới, phường Tân Ngãi, tỉnh Vĩnh Long","Chủ cơ sở/Người đại diện":"Trịnh Hoài Hạnh","Đối tượng nuôi":"Lươn","Tổng diện tích mặt nước (m2)":null,"Chứng nhận(ASC,BAP, VietGAP,...)":"11","Tình trạng hoạt động":"Đang hoạt động","Ghi chú":"","layer_id":280,"fid":71,"label":"Trịnh Hoài Hạnh"}},{"type":"Feature","id":72,"geometry":{"type":"Point","coordinates":[105.907132,10.256961]},"properties":{"Tên cơ sở":"Lê Quang Quân ","Loại hình(Doanh nghiệp, HTX, Hộ nuôi,...)":"Hộ nuôi","Địa chỉ sản xuất":"Khóm Tân Phú, phường Tân Ngãi, tỉnh Vĩnh Long","Chủ cơ sở/Người đại diện":"Lê Quang Quân ","Đối tượng nuôi":"Lươn","Tổng diện tích mặt nước (m2)":null,"Chứng nhận(ASC,BAP, VietGAP,...)":"6","Tình trạng hoạt động":"Đang hoạt động","Ghi chú":"","layer_id":280,"fid":72,"label":"Lê Quang Quân "}},{"type":"Feature","id":145,"geometry":{"type":"Point","coordinates":[105.996431,10.101456]},"properties":{"Tên cơ sở":"Đỉnh","Loại hình(Doanh nghiệp, HTX, Hộ nuôi,...)":"Hộ nuôi","Địa chỉ sản xuất":"Ấp 7, Xã Cái Ngang, tỉnh Vĩnh Long","Chủ cơ sở/Người đại diện":"Đỉnh","Đối tượng nuôi":"Lươn","Tổng diện tích mặt nước (m2)":null,"Chứng nhận(ASC,BAP, VietGAP,...)":"200","Tình trạng hoạt động":"Đang hoạt động","Ghi chú":null,"layer_id":280,"fid":145,"label":"Đỉnh"}},{"type":"Feature","id":73,"geometry":{"type":"Point","coordinates":[105.908849,10.272674]},"properties":{"Tên cơ sở":"Cao Quốc Cường","Loại hình(Doanh nghiệp, HTX, Hộ nuôi,...)":"Hộ nuôi","Địa chỉ sản xuất":"Khóm Tân Thuận, phường Tân Ngãi, tỉnh Vĩnh Long","Chủ cơ sở/Người đại diện":"Cao Quốc Cường","Đối tượng nuôi":"Lươn","Tổng diện tích mặt nước (m2)":null,"Chứng nhận(ASC,BAP, VietGAP,...)":"20","Tình trạng hoạt động":"Đang hoạt động","Ghi chú":"","layer_id":280,"fid":73,"label":"Cao Quốc Cường"}},{"type":"Feature","id":74,"geometry":{"type":"Point","coordinates":[105.908062,10.235815]},"properties":{"Tên cơ sở":"Huỳnh Thanh Long","Loại hình(Doanh nghiệp, HTX, Hộ nuôi,...)":"Hộ nuôi","Địa chỉ sản xuất":"Khóm Tân Nhơn, phường Tân Ngãi, tỉnh Vĩnh Long","Chủ cơ sở/Người đại diện":"Huỳnh Thanh Long","Đối tượng nuôi":"Lươn","Tổng diện tích mặt nước (m2)":null,"Chứng nhận(ASC,BAP, VietGAP,...)":"30","Tình trạng hoạt động":"Đang hoạt động","Ghi chú":"","layer_id":280,"fid":74,"label":"Huỳnh Thanh Long"}},{"type":"Feature","id":75,"geometry":{"type":"Point","coordinates":[105.901446,10.2717449]},"properties":{"Tên cơ sở":"Nguyễn Thành Nhơn","Loại hình(Doanh nghiệp, HTX, Hộ nuôi,...)":"Hộ nuôi","Địa chỉ sản xuất":"Khóm Tân Thuận, phường Tân Ngãi, tỉnh Vĩnh Long","Chủ cơ sở/Người đại diện":"Nguyễn Thành Nhơn","Đối tượng nuôi":"Lươn","Tổng diện tích mặt nước (m2)":null,"Chứng nhận(ASC,BAP, VietGAP,...)":"45","Tình trạng hoạt động":"Đang hoạt động","Ghi chú":"","layer_id":280,"fid":75,"label":"Nguyễn Thành Nhơn"}},{"type":"Feature","id":76,"geometry":{"type":"Point","coordinates":[105.899757,10.256238]},"properties":{"Tên cơ sở":"Huỳnh Quang Quý","Loại hình(Doanh nghiệp, HTX, Hộ nuôi,...)":"Hộ nuôi","Địa chỉ sản xuất":"Khóm Tân Phú, phường Tân Ngãi, tỉnh Vĩnh Long","Chủ cơ sở/Người đại diện":"Huỳnh Quang Quý","Đối tượng nuôi":"Cá trê","Tổng diện tích mặt nước (m2)":null,"Chứng nhận(ASC,BAP, VietGAP,...)":"1500","Tình trạng hoạt động":"Đang hoạt động","Ghi chú":"","layer_id":280,"fid":76,"label":"Huỳnh Quang Quý"}},{"type":"Feature","id":77,"geometry":{"type":"Point","coordinates":[105.9236791,10.2396157]},"properties":{"Tên cơ sở":"Ngô Tấn Phúc","Loại hình(Doanh nghiệp, HTX, Hộ nuôi,...)":"Hộ nuôi","Địa chỉ sản xuất":"Khóm Vĩnh Bình, phường Tân Ngãi, tỉnh Vĩnh Long","Chủ cơ sở/Người đại diện":"Ngô Tấn Phúc","Đối tượng nuôi":"Ếch","Tổng diện tích mặt nước (m2)":null,"Chứng nhận(ASC,BAP, VietGAP,...)":"3500","Tình trạng hoạt động":"Đang hoạt động","Ghi chú":"","layer_id":280,"fid":77,"label":"Ngô Tấn Phúc"}},{"type":"Feature","id":78,"geometry":{"type":"Point","coordinates":[105.9196002,10.2597349]},"properties":{"Tên cơ sở":"Quyền","Loại hình(Doanh nghiệp, HTX, Hộ nuôi,...)":"Hộ nuôi","Địa chỉ sản xuất":"Khóm Vĩnh Hòa, phường Tân Ngãi, tỉnh Vĩnh Long","Chủ cơ sở/Người đại diện":"Quyền","Đối tượng nuôi":"Lươn","Tổng diện tích mặt nước (m2)":null,"Chứng nhận(ASC,BAP, VietGAP,...)":"8","Tình trạng hoạt động":"Đang hoạt động","Ghi chú":"","layer_id":280,"fid":78,"label":"Quyền"}},{"type":"Feature","id":79,"geometry":{"type":"Point","coordinates":[105.918903,10.260674]},"properties":{"Tên cơ sở":"Tô Văn Nhơn","Loại hình(Doanh nghiệp, HTX, Hộ nuôi,...)":"Hộ nuôi","Địa chỉ sản xuất":"Khóm Vĩnh Hòa, phường Tân Ngãi, tỉnh Vĩnh Long","Chủ cơ sở/Người đại diện":"Tô Văn Nhơn","Đối tượng nuôi":"Lươn","Tổng diện tích mặt nước (m2)":null,"Chứng nhận(ASC,BAP, VietGAP,...)":"32","Tình trạng hoạt động":"Đang hoạt động","Ghi chú":"","layer_id":280,"fid":79,"label":"Tô Văn Nhơn"}},{"type":"Feature","id":80,"geometry":{"type":"Point","coordinates":[105.9188783,10.2608955]},"properties":{"Tên cơ sở":"Tô Văn Son","Loại hình(Doanh nghiệp, HTX, Hộ nuôi,...)":"Hộ nuôi","Địa chỉ sản xuất":"Khóm Vĩnh Hòa, phường Tân Ngãi, tỉnh Vĩnh Long","Chủ cơ sở/Người đại diện":"Tô Văn Son","Đối tượng nuôi":"Lươn","Tổng diện tích mặt nước (m2)":null,"Chứng nhận(ASC,BAP, VietGAP,...)":"32","Tình trạng hoạt động":"Đang hoạt động","Ghi chú":"","layer_id":280,"fid":80,"label":"Tô Văn Son"}},{"type":"Feature","id":81,"geometry":{"type":"Point","coordinates":[105.9177753,10.2613027]},"properties":{"Tên cơ sở":"Nguyễn Văn Hậu","Loại hình(Doanh nghiệp, HTX, Hộ nuôi,...)":"Hộ nuôi","Địa chỉ sản xuất":"Khóm Vĩnh Hòa, phường Tân Ngãi, tỉnh Vĩnh Long","Chủ cơ sở/Người đại diện":"Nguyễn Văn Hậu","Đối tượng nuôi":"Lươn","Tổng diện tích mặt nước (m2)":null,"Chứng nhận(ASC,BAP, VietGAP,...)":"10","Tình trạng hoạt động":"Đang hoạt động","Ghi chú":"","layer_id":280,"fid":81,"label":"Nguyễn Văn Hậu"}},{"type":"Feature","id":82,"geometry":{"type":"Point","coordinates":[105.895189,10.270099]},"properties":{"Tên cơ sở":"Đoàn Thanh Vũ","Loại hình(Doanh nghiệp, HTX, Hộ nuôi,...)":"Hộ nuôi","Địa chỉ sản xuất":"Khóm Mỹ Thuận, phường Tân Ngãi, tỉnh Vĩnh Long","Chủ cơ sở/Người đại diện":"Đoàn Thanh Vũ","Đối tượng nuôi":"Lươn","Tổng diện tích mặt nước (m2)":null,"Chứng nhận(ASC,BAP, VietGAP,...)":"40","Tình trạng hoạt động":"Đang hoạt động","Ghi chú":"","layer_id":280,"fid":82,"label":"Đoàn Thanh Vũ"}},{"type":"Feature","id":83,"geometry":{"type":"Point","coordinates":[105.8953097,10.2695065]},"properties":{"Tên cơ sở":"Đoàn Lê Minh Nhựt","Loại hình(Doanh nghiệp, HTX, Hộ nuôi,...)":"Hộ nuôi","Địa chỉ sản xuất":"Khóm Mỹ Thuận, phường Tân Ngãi, tỉnh Vĩnh Long","Chủ cơ sở/Người đại diện":"Đoàn Lê Minh Nhựt","Đối tượng nuôi":"Lươn","Tổng diện tích mặt nước (m2)":null,"Chứng nhận(ASC,BAP, VietGAP,...)":"40","Tình trạng hoạt động":"Đang hoạt động","Ghi chú":"","layer_id":280,"fid":83,"label":"Đoàn Lê Minh Nhựt"}},{"type":"Feature","id":84,"geometry":{"type":"Point","coordinates":[105.8926986,10.2711959]},"properties":{"Tên cơ sở":"Nguyễn Trọng Duy","Loại hình(Doanh nghiệp, HTX, Hộ nuôi,...)":"Hộ nuôi","Địa chỉ sản xuất":"Khóm Mỹ Thuận, phường Tân Ngãi, tỉnh Vĩnh Long","Chủ cơ sở/Người đại diện":"Nguyễn Trọng Duy","Đối tượng nuôi":"Cá lóc","Tổng diện tích mặt nước (m2)":null,"Chứng nhận(ASC,BAP, VietGAP,...)":"3800","Tình trạng hoạt động":"Đang hoạt động","Ghi chú":"","layer_id":280,"fid":84,"label":"Nguyễn Trọng Duy"}},{"type":"Feature","id":85,"geometry":{"type":"Point","coordinates":[105.893679,10.2613937]},"properties":{"Tên cơ sở":"Lê Văn Bên","Loại hình(Doanh nghiệp, HTX, Hộ nuôi,...)":"Hộ nuôi","Địa chỉ sản xuất":"Khóm Mỹ Phú,phường Tân Ngãi, tỉnh Vĩnh Long","Chủ cơ sở/Người đại diện":"Lê Văn Bên","Đối tượng nuôi":"Lươn","Tổng diện tích mặt nước (m2)":null,"Chứng nhận(ASC,BAP, VietGAP,...)":"6","Tình trạng hoạt động":"Đang hoạt động","Ghi chú":"","layer_id":280,"fid":85,"label":"Lê Văn Bên"}},{"type":"Feature","id":86,"geometry":{"type":"Point","coordinates":[105.922291,10.254646]},"properties":{"Tên cơ sở":"Phùng Hoàng Hiếu","Loại hình(Doanh nghiệp, HTX, Hộ nuôi,...)":"Hộ nuôi","Địa chỉ sản xuất":"Khóm Tân Quới Tây, phường Long Châu, tỉnh Vĩnh Long","Chủ cơ sở/Người đại diện":"Phùng Hoàng Hiếu","Đối tượng nuôi":"Lươn","Tổng diện tích mặt nước (m2)":null,"Chứng nhận(ASC,BAP, VietGAP,...)":"10","Tình trạng hoạt động":"Đang hoạt động","Ghi chú":"","layer_id":280,"fid":86,"label":"Phùng Hoàng Hiếu"}},{"type":"Feature","id":87,"geometry":{"type":"Point","coordinates":[105.9265327,10.250996]},"properties":{"Tên cơ sở":"Trịnh Văn Hậu","Loại hình(Doanh nghiệp, HTX, Hộ nuôi,...)":"Hộ nuôi","Địa chỉ sản xuất":"Khóm Tân Quới Tây, phường Long Châu, tỉnh Vĩnh Long","Chủ cơ sở/Người đại diện":"Trịnh Văn Hậu","Đối tượng nuôi":"Lươn","Tổng diện tích mặt nước (m2)":null,"Chứng nhận(ASC,BAP, VietGAP,...)":"30","Tình trạng hoạt động":"Đang hoạt động","Ghi chú":"","layer_id":280,"fid":87,"label":"Trịnh Văn Hậu"}},{"type":"Feature","id":88,"geometry":{"type":"Point","coordinates":[105.925281,10.253517]},"properties":{"Tên cơ sở":"Trịnh Văn Sơn","Loại hình(Doanh nghiệp, HTX, Hộ nuôi,...)":"Hộ nuôi","Địa chỉ sản xuất":"Khóm Tân Quới Tây, phường Long Châu, tỉnh Vĩnh Long","Chủ cơ sở/Người đại diện":"Trịnh Văn Sơn","Đối tượng nuôi":"Lươn","Tổng diện tích mặt nước (m2)":null,"Chứng nhận(ASC,BAP, VietGAP,...)":"30","Tình trạng hoạt động":"Đang hoạt động","Ghi chú":"","layer_id":280,"fid":88,"label":"Trịnh Văn Sơn"}},{"type":"Feature","id":89,"geometry":{"type":"Point","coordinates":[105.9247567,10.2535232]},"properties":{"Tên cơ sở":"Lê Hoàng Nhân","Loại hình(Doanh nghiệp, HTX, Hộ nuôi,...)":"Hộ nuôi","Địa chỉ sản xuất":"Khóm Tân Quới Tây, phường Long Châu, tỉnh Vĩnh Long","Chủ cơ sở/Người đại diện":"Lê Hoàng Nhân","Đối tượng nuôi":"Lươn","Tổng diện tích mặt nước (m2)":null,"Chứng nhận(ASC,BAP, VietGAP,...)":"90","Tình trạng hoạt động":"Đang hoạt động","Ghi chú":"","layer_id":280,"fid":89,"label":"Lê Hoàng Nhân"}},{"type":"Feature","id":90,"geometry":{"type":"Point","coordinates":[106.138723,10.152625]},"properties":{"Tên cơ sở":"Nguyễn  văn Tám","Loại hình(Doanh nghiệp, HTX, Hộ nuôi,...)":"Hộ nuôi","Địa chỉ sản xuất":"Ấp Nhì, xã Tân Quới Trung, huyện Vũng Liêm","Chủ cơ sở/Người đại diện":"Nguyễn  văn Tám","Đối tượng nuôi":"Lươn ","Tổng diện tích mặt nước (m2)":null,"Chứng nhận(ASC,BAP, VietGAP,...)":"300","Tình trạng hoạt động":"Đang hoạt động","Ghi chú":"","layer_id":280,"fid":90,"label":"Nguyễn  văn Tám"}},{"type":"Feature","id":91,"geometry":{"type":"Point","coordinates":[106.138233,10.153316]},"properties":{"Tên cơ sở":"Nguyễn Thế Như","Loại hình(Doanh nghiệp, HTX, Hộ nuôi,...)":"Hộ nuôi","Địa chỉ sản xuất":"Ấp Nhì, xã Tân Quới Trung, huyện Vũng Liêm","Chủ cơ sở/Người đại diện":"Nguyễn Thế Như","Đối tượng nuôi":"Lươn ","Tổng diện tích mặt nước (m2)":null,"Chứng nhận(ASC,BAP, VietGAP,...)":"300","Tình trạng hoạt động":"Đang hoạt động","Ghi chú":"","layer_id":280,"fid":91,"label":"Nguyễn Thế Như"}},{"type":"Feature","id":92,"geometry":{"type":"Point","coordinates":[106.139248,10.15271]},"properties":{"Tên cơ sở":"Văn Thanh Mộng","Loại hình(Doanh nghiệp, HTX, Hộ nuôi,...)":"Hộ nuôi","Địa chỉ sản xuất":"Ấp Nhì, xã Tân Quới Trung, huyện Vũng Liêm","Chủ cơ sở/Người đại diện":"Văn Thanh Mộng","Đối tượng nuôi":"Lươn ","Tổng diện tích mặt nước (m2)":null,"Chứng nhận(ASC,BAP, VietGAP,...)":"500","Tình trạng hoạt động":"Đang hoạt động","Ghi chú":"","layer_id":280,"fid":92,"label":"Văn Thanh Mộng"}},{"type":"Feature","id":93,"geometry":{"type":"Point","coordinates":[106.092625,10.060588]},"properties":{"Tên cơ sở":"Trai giống Minh Hiếu","Loại hình(Doanh nghiệp, HTX, Hộ nuôi,...)":"Hộ nuôi","Địa chỉ sản xuất":"Ấp Quang Mỹ, xã Hiếu Thuận, huyện Vũng Liêm","Chủ cơ sở/Người đại diện":"Nguyễn Minh Hiếu","Đối tượng nuôi":"Lươn ","Tổng diện tích mặt nước (m2)":null,"Chứng nhận(ASC,BAP, VietGAP,...)":"10000","Tình trạng hoạt động":"Đang hoạt động","Ghi chú":"","layer_id":280,"fid":93,"label":"Trai giống Minh Hiếu"}},{"type":"Feature","id":94,"geometry":{"type":"Point","coordinates":[106.175557,10.146537]},"properties":{"Tên cơ sở":"Trần Thanh Hùng","Loại hình(Doanh nghiệp, HTX, Hộ nuôi,...)":"Hộ nuôi","Địa chỉ sản xuất":"Ấp Phước Thọ, xã Quới An, huyện Vũng Liêm","Chủ cơ sở/Người đại diện":"Trần Thanh Hùng","Đối tượng nuôi":"Cá trê","Tổng diện tích mặt nước (m2)":null,"Chứng nhận(ASC,BAP, VietGAP,...)":"9000","Tình trạng hoạt động":"Đang hoạt động","Ghi chú":"","layer_id":280,"fid":94,"label":"Trần Thanh Hùng"}},{"type":"Feature","id":95,"geometry":{"type":"Point","coordinates":[106.172314,10.151242]},"properties":{"Tên cơ sở":"Huỳnh Văn Mười Hai","Loại hình(Doanh nghiệp, HTX, Hộ nuôi,...)":"Hộ nuôi","Địa chỉ sản xuất":"Ấp Phước Thọ, xã Quới An, huyện Vũng Liêm","Chủ cơ sở/Người đại diện":"Huỳnh Văn Mười Hai","Đối tượng nuôi":"Cá trê","Tổng diện tích mặt nước (m2)":null,"Chứng nhận(ASC,BAP, VietGAP,...)":"3000","Tình trạng hoạt động":"Đang hoạt động","Ghi chú":"","layer_id":280,"fid":95,"label":"Huỳnh Văn Mười Hai"}},{"type":"Feature","id":96,"geometry":{"type":"Point","coordinates":[106.188626,10.055762]},"properties":{"Tên cơ sở":"Nguyễn Thị Thu An ","Loại hình(Doanh nghiệp, HTX, Hộ nuôi,...)":"Hộ nuôi","Địa chỉ sản xuất":"Ấp An Trung, xã Trung Thành, huyện Vũng Liêm","Chủ cơ sở/Người đại diện":"Nguyễn Thị Thu An ","Đối tượng nuôi":"Tôm càng xanh","Tổng diện tích mặt nước (m2)":null,"Chứng nhận(ASC,BAP, VietGAP,...)":"3000","Tình trạng hoạt động":"Đang hoạt động","Ghi chú":"","layer_id":280,"fid":96,"label":"Nguyễn Thị Thu An "}},{"type":"Feature","id":97,"geometry":{"type":"Point","coordinates":[106.087669,9.971907]},"properties":{"Tên cơ sở":"Mai Văn Hợp","Loại hình(Doanh nghiệp, HTX, Hộ nuôi,...)":"Hộ nuôi","Địa chỉ sản xuất":"Ấp Hiếu Hạnh, xã Hiếu Nghĩa, huyện Vũng Liêm","Chủ cơ sở/Người đại diện":"Mai Văn Hợp","Đối tượng nuôi":" Tai tượng","Tổng diện tích mặt nước (m2)":null,"Chứng nhận(ASC,BAP, VietGAP,...)":"2000","Tình trạng hoạt động":"Đang hoạt động","Ghi chú":"","layer_id":280,"fid":97,"label":"Mai Văn Hợp"}},{"type":"Feature","id":98,"geometry":{"type":"Point","coordinates":[106.14456,10.157765]},"properties":{"Tên cơ sở":"Nguyễn Văn Công","Loại hình(Doanh nghiệp, HTX, Hộ nuôi,...)":"Hộ nuôi","Địa chỉ sản xuất":"Ấp Nhì, xã Quới An, tỉnh Vĩnh Long","Chủ cơ sở/Người đại diện":"Nguyễn Văn Công","Đối tượng nuôi":"Lươn ","Tổng diện tích mặt nước (m2)":null,"Chứng nhận(ASC,BAP, VietGAP,...)":"300","Tình trạng hoạt động":"Đang hoạt động","Ghi chú":null,"layer_id":280,"fid":98,"label":"Nguyễn Văn Công"}},{"type":"Feature","id":99,"geometry":{"type":"Point","coordinates":[106.14043,10.152955]},"properties":{"Tên cơ sở":"Nguyễn Văn Toàn","Loại hình(Doanh nghiệp, HTX, Hộ nuôi,...)":"Hộ nuôi","Địa chỉ sản xuất":"Ấp Nhì, xã Quới An, tỉnh Vĩnh Long","Chủ cơ sở/Người đại diện":"Nguyễn Văn Toàn","Đối tượng nuôi":"Lươn ","Tổng diện tích mặt nước (m2)":null,"Chứng nhận(ASC,BAP, VietGAP,...)":"300","Tình trạng hoạt động":"Đang hoạt động","Ghi chú":null,"layer_id":280,"fid":99,"label":"Nguyễn Văn Toàn"}},{"type":"Feature","id":100,"geometry":{"type":"Point","coordinates":[106.176434,10.144241]},"properties":{"Tên cơ sở":"Nguyễn Văn Châu","Loại hình(Doanh nghiệp, HTX, Hộ nuôi,...)":"Hộ nuôi","Địa chỉ sản xuất":"Ấp Phước Thọ, xã Quới An, tỉnh Vĩnh Long","Chủ cơ sở/Người đại diện":"Nguyễn Văn Châu","Đối tượng nuôi":"Lươn ","Tổng diện tích mặt nước (m2)":null,"Chứng nhận(ASC,BAP, VietGAP,...)":"500","Tình trạng hoạt động":"Đang hoạt động","Ghi chú":null,"layer_id":280,"fid":100,"label":"Nguyễn Văn Châu"}},{"type":"Feature","id":101,"geometry":{"type":"Point","coordinates":[106.178331,10.140821]},"properties":{"Tên cơ sở":"Nguyễn Thị Nhít","Loại hình(Doanh nghiệp, HTX, Hộ nuôi,...)":"Hộ nuôi","Địa chỉ sản xuất":"Ấp Phước Thọ, xã Quới An, tỉnh Vĩnh Long","Chủ cơ sở/Người đại diện":"Nguyễn Thị Nhít","Đối tượng nuôi":"Cá trê","Tổng diện tích mặt nước (m2)":null,"Chứng nhận(ASC,BAP, VietGAP,...)":"3000","Tình trạng hoạt động":"Đang hoạt động","Ghi chú":null,"layer_id":280,"fid":101,"label":"Nguyễn Thị Nhít"}},{"type":"Feature","id":102,"geometry":{"type":"Point","coordinates":[106.217901,10.015069]},"properties":{"Tên cơ sở":"Nguyễn Văn Điệp","Loại hình(Doanh nghiệp, HTX, Hộ nuôi,...)":"Hộ nuôi","Địa chỉ sản xuất":"Ấp Trường Hội, xã Trung Ngãi, tỉnh Vĩnh Long","Chủ cơ sở/Người đại diện":"Nguyễn Văn Điệp","Đối tượng nuôi":"Cá lóc","Tổng diện tích mặt nước (m2)":null,"Chứng nhận(ASC,BAP, VietGAP,...)":"9500","Tình trạng hoạt động":"Đang hoạt động","Ghi chú":null,"layer_id":280,"fid":102,"label":"Nguyễn Văn Điệp"}},{"type":"Feature","id":103,"geometry":{"type":"Point","coordinates":[106.207864,10.038788]},"properties":{"Tên cơ sở":"Nguyễn Thanh Bình","Loại hình(Doanh nghiệp, HTX, Hộ nuôi,...)":"Hộ nuôi","Địa chỉ sản xuất":"Ấp Phú Tân, xã Trung Nghĩa, tỉnh Vĩnh Long","Chủ cơ sở/Người đại diện":"Nguyễn Thanh Bình","Đối tượng nuôi":"Lươn ","Tổng diện tích mặt nước (m2)":null,"Chứng nhận(ASC,BAP, VietGAP,...)":"100","Tình trạng hoạt động":"Đang hoạt động","Ghi chú":null,"layer_id":280,"fid":103,"label":"Nguyễn Thanh Bình"}},{"type":"Feature","id":104,"geometry":{"type":"Point","coordinates":[106.130562,10.051471]},"properties":{"Tên cơ sở":"Lê Huy Tính","Loại hình(Doanh nghiệp, HTX, Hộ nuôi,...)":"Hộ nuôi","Địa chỉ sản xuất":"Âp An Hậu, Xã Hiếu Phụng, tỉnh Vĩnh Long","Chủ cơ sở/Người đại diện":"Lê Huy Tính","Đối tượng nuôi":"Ếch","Tổng diện tích mặt nước (m2)":null,"Chứng nhận(ASC,BAP, VietGAP,...)":"100","Tình trạng hoạt động":"Đang hoạt động","Ghi chú":null,"layer_id":280,"fid":104,"label":"Lê Huy Tính"}},{"type":"Feature","id":105,"geometry":{"type":"Point","coordinates":[106.164748,10.166451]},"properties":{"Tên cơ sở":"Võ Văn Sang","Loại hình(Doanh nghiệp, HTX, Hộ nuôi,...)":"Hội nuôi","Địa chỉ sản xuất":"Ấp Mỹ Long, xã Cái Nhum, tỉnh Vĩnh Long","Chủ cơ sở/Người đại diện":"Võ Văn sang","Đối tượng nuôi":"Cá trê","Tổng diện tích mặt nước (m2)":null,"Chứng nhận(ASC,BAP, VietGAP,...)":"1000","Tình trạng hoạt động":"Đang hoạt động","Ghi chú":"","layer_id":280,"fid":105,"label":"Võ Văn Sang"}},{"type":"Feature","id":106,"geometry":{"type":"Point","coordinates":[106.171673,10.166478]},"properties":{"Tên cơ sở":"Trần Thanh Tâm","Loại hình(Doanh nghiệp, HTX, Hộ nuôi,...)":"Hội nuôi","Địa chỉ sản xuất":"Ấp Mỹ Long, xã Cái Nhum, tỉnh Vĩnh Long","Chủ cơ sở/Người đại diện":"Trần Thanh Tâm","Đối tượng nuôi":"Cá trê","Tổng diện tích mặt nước (m2)":null,"Chứng nhận(ASC,BAP, VietGAP,...)":"1500","Tình trạng hoạt động":"Đang hoạt động","Ghi chú":"","layer_id":280,"fid":106,"label":"Trần Thanh Tâm"}},{"type":"Feature","id":107,"geometry":{"type":"Point","coordinates":[106.171673,10.169144]},"properties":{"Tên cơ sở":"Ngô Văn Thời","Loại hình(Doanh nghiệp, HTX, Hộ nuôi,...)":"Hội nuôi","Địa chỉ sản xuất":"Ấp Mỹ Long, xã Cái Nhum, tỉnh Vĩnh Long","Chủ cơ sở/Người đại diện":"Ngô Văn Thời","Đối tượng nuôi":"Cá trê","Tổng diện tích mặt nước (m2)":null,"Chứng nhận(ASC,BAP, VietGAP,...)":"1500","Tình trạng hoạt động":"Đang hoạt động","Ghi chú":"","layer_id":280,"fid":107,"label":"Ngô Văn Thời"}},{"type":"Feature","id":108,"geometry":{"type":"Point","coordinates":[106.069074,10.23721]},"properties":{"Tên cơ sở":"Cao Huỳnh Lâm","Loại hình(Doanh nghiệp, HTX, Hộ nuôi,...)":"Hội nuôi","Địa chỉ sản xuất":"Ấp Cái Cạn 2, xã  Nhơn Phú, tỉnh Vĩnh Long","Chủ cơ sở/Người đại diện":"Cao Huỳnh Lâm","Đối tượng nuôi":"Cá linh non","Tổng diện tích mặt nước (m2)":null,"Chứng nhận(ASC,BAP, VietGAP,...)":"1500","Tình trạng hoạt động":"Đang hoạt động","Ghi chú":"","layer_id":280,"fid":108,"label":"Cao Huỳnh Lâm"}},{"type":"Feature","id":109,"geometry":{"type":"Point","coordinates":[106.156356,10.16673]},"properties":{"Tên cơ sở":"Phan Thanh Nhàn","Loại hình(Doanh nghiệp, HTX, Hộ nuôi,...)":"Hội nuôi","Địa chỉ sản xuất":"ấp Tân Mỹ, xã Cái Nhum, tỉnh Vĩnh Long","Chủ cơ sở/Người đại diện":"Phan Thanh Nhàn","Đối tượng nuôi":"Cá trê","Tổng diện tích mặt nước (m2)":null,"Chứng nhận(ASC,BAP, VietGAP,...)":"1500","Tình trạng hoạt động":"Đang hoạt động","Ghi chú":"","layer_id":280,"fid":109,"label":"Phan Thanh Nhàn"}},{"type":"Feature","id":110,"geometry":{"type":"Point","coordinates":[106.137442,10.172847]},"properties":{"Tên cơ sở":"Nguyễn Văn Đấu","Loại hình(Doanh nghiệp, HTX, Hộ nuôi,...)":"Hội nuôi","Địa chỉ sản xuất":"ấp Tân Mỹ, xã Cái Nhum, tỉnh Vĩnh Long","Chủ cơ sở/Người đại diện":"Nguyễn Văn Đấu","Đối tượng nuôi":"Cá chạch lấu","Tổng diện tích mặt nước (m2)":null,"Chứng nhận(ASC,BAP, VietGAP,...)":"1500","Tình trạng hoạt động":"Đang hoạt động","Ghi chú":"","layer_id":280,"fid":110,"label":"Nguyễn Văn Đấu"}},{"type":"Feature","id":111,"geometry":{"type":"Point","coordinates":[106.137754,10.172773]},"properties":{"Tên cơ sở":"Nguyễn Vĩnh Lộc","Loại hình(Doanh nghiệp, HTX, Hộ nuôi,...)":"Hội nuôi","Địa chỉ sản xuất":"ấp Tân Mỹ, xã Cái Nhum, tỉnh Vĩnh Long","Chủ cơ sở/Người đại diện":"Nguyễn Vĩnh Lộc","Đối tượng nuôi":"Lươn ","Tổng diện tích mặt nước (m2)":null,"Chứng nhận(ASC,BAP, VietGAP,...)":"1500","Tình trạng hoạt động":"Đang hoạt động","Ghi chú":"","layer_id":280,"fid":111,"label":"Nguyễn Vĩnh Lộc"}},{"type":"Feature","id":112,"geometry":{"type":"Point","coordinates":[106.164943,10.171083]},"properties":{"Tên cơ sở":"Dương Thế Đăng","Loại hình(Doanh nghiệp, HTX, Hộ nuôi,...)":"Hội nuôi","Địa chỉ sản xuất":"Ấp Mỹ Long, xã Cái Nhum, tỉnh Vĩnh Long","Chủ cơ sở/Người đại diện":"Dương Thế Đăng","Đối tượng nuôi":"Cá chạch lấu","Tổng diện tích mặt nước (m2)":null,"Chứng nhận(ASC,BAP, VietGAP,...)":"1500","Tình trạng hoạt động":"Đang hoạt động","Ghi chú":"","layer_id":280,"fid":112,"label":"Dương Thế Đăng"}},{"type":"Feature","id":113,"geometry":{"type":"Point","coordinates":[106.056627,10.132872]},"properties":{"Tên cơ sở":"Thái Thành Thông","Loại hình(Doanh nghiệp, HTX, Hộ nuôi,...)":"Hội nuôi","Địa chỉ sản xuất":"Ấp Cầu Ván, xã Tân Long Hội, tỉnh Vĩnh Long","Chủ cơ sở/Người đại diện":"Thái Thành Thông","Đối tượng nuôi":"Cá chốt trâu","Tổng diện tích mặt nước (m2)":null,"Chứng nhận(ASC,BAP, VietGAP,...)":"1500","Tình trạng hoạt động":"Đang hoạt động","Ghi chú":"","layer_id":280,"fid":113,"label":"Thái Thành Thông"}},{"type":"Feature","id":114,"geometry":{"type":"Point","coordinates":[105.993553,9.961149]},"properties":{"Tên cơ sở":"Chung Thị Mỹ Phương","Loại hình(Doanh nghiệp, HTX, Hộ nuôi,...)":"Hội nuôi","Địa chỉ sản xuất":"Ấp Vĩnh Khánh, xã Vĩnh Xuân, tỉnh Vĩnh Long","Chủ cơ sở/Người đại diện":"Chung Thị Mỹ Phương","Đối tượng nuôi":"Lươn","Tổng diện tích mặt nước (m2)":null,"Chứng nhận(ASC,BAP, VietGAP,...)":"10","Tình trạng hoạt động":"Đang hoạt động","Ghi chú":"","layer_id":280,"fid":114,"label":"Chung Thị Mỹ Phương"}},{"type":"Feature","id":115,"geometry":{"type":"Point","coordinates":[105.985632,9.948961]},"properties":{"Tên cơ sở":"Bùi Hữu Phước","Loại hình(Doanh nghiệp, HTX, Hộ nuôi,...)":"Hội nuôi","Địa chỉ sản xuất":"Ấp Vĩnh Khánh 1, xã Vĩnh Xuân, tỉnh Vĩnh Long","Chủ cơ sở/Người đại diện":"Bùi Hữu Phước","Đối tượng nuôi":"Lươn","Tổng diện tích mặt nước (m2)":null,"Chứng nhận(ASC,BAP, VietGAP,...)":"10","Tình trạng hoạt động":"Đang hoạt động","Ghi chú":"","layer_id":280,"fid":115,"label":"Bùi Hữu Phước"}},{"type":"Feature","id":116,"geometry":{"type":"Point","coordinates":[106.031854,9.953563]},"properties":{"Tên cơ sở":"Nguyễn Quốc Toàn","Loại hình(Doanh nghiệp, HTX, Hộ nuôi,...)":"Hội nuôi","Địa chỉ sản xuất":"Ấp Thuận Thới, xã Trà Ôn, tỉnh Vĩnh Long","Chủ cơ sở/Người đại diện":"Nguyễn Quốc Toàn","Đối tượng nuôi":"Lươn","Tổng diện tích mặt nước (m2)":null,"Chứng nhận(ASC,BAP, VietGAP,...)":"250","Tình trạng hoạt động":"Đang hoạt động","Ghi chú":"","layer_id":280,"fid":116,"label":"Nguyễn Quốc Toàn"}},{"type":"Feature","id":117,"geometry":{"type":"Point","coordinates":[105.990972,10.009572]},"properties":{"Tên cơ sở":"Nguyễn Văn Đương","Loại hình(Doanh nghiệp, HTX, Hộ nuôi,...)":"Hội nuôi","Địa chỉ sản xuất":"Ấp Tầm Zu, xã Trà Côn, tỉnh Vĩnh Long","Chủ cơ sở/Người đại diện":"Nguyễn Văn Đương","Đối tượng nuôi":"Ếch","Tổng diện tích mặt nước (m2)":null,"Chứng nhận(ASC,BAP, VietGAP,...)":"25","Tình trạng hoạt động":"Đang hoạt động","Ghi chú":"","layer_id":280,"fid":117,"label":"Nguyễn Văn Đương"}},{"type":"Feature","id":118,"geometry":{"type":"Point","coordinates":[105.990972,10.009572]},"properties":{"Tên cơ sở":"Nguyễn Văn Đương","Loại hình(Doanh nghiệp, HTX, Hộ nuôi,...)":"Hội nuôi","Địa chỉ sản xuất":"Ấp Tầm Zu, xã Trà Côn,  tỉnh Vĩnh Long","Chủ cơ sở/Người đại diện":"Nguyễn Văn Đương","Đối tượng nuôi":"Cua đinh","Tổng diện tích mặt nước (m2)":null,"Chứng nhận(ASC,BAP, VietGAP,...)":"25","Tình trạng hoạt động":"Đang hoạt động","Ghi chú":"","layer_id":280,"fid":118,"label":"Nguyễn Văn Đương"}},{"type":"Feature","id":119,"geometry":{"type":"Point","coordinates":[105.892479,9.949926]},"properties":{"Tên cơ sở":"Trương Hoài Danh","Loại hình(Doanh nghiệp, HTX, Hộ nuôi,...)":"Hội nuôi","Địa chỉ sản xuất":"Ấp Phú Long, xã Lục Sĩ Thành, tỉnh Vĩnh Long","Chủ cơ sở/Người đại diện":"Trương Hoài Danh","Đối tượng nuôi":"Ếch","Tổng diện tích mặt nước (m2)":null,"Chứng nhận(ASC,BAP, VietGAP,...)":"168","Tình trạng hoạt động":"Đang hoạt động","Ghi chú":"","layer_id":280,"fid":119,"label":"Trương Hoài Danh"}},{"type":"Feature","id":120,"geometry":{"type":"Point","coordinates":[105.89491,9.94572]},"properties":{"Tên cơ sở":"Huỳnh Văn Lộc","Loại hình(Doanh nghiệp, HTX, Hộ nuôi,...)":"Hội nuôi","Địa chỉ sản xuất":"Ấp Phú Long, xã Lục Sĩ Thành, tỉnh Vĩnh Long","Chủ cơ sở/Người đại diện":"Huỳnh Văn Lộc","Đối tượng nuôi":"Nuôi Ếch","Tổng diện tích mặt nước (m2)":null,"Chứng nhận(ASC,BAP, VietGAP,...)":"480","Tình trạng hoạt động":"Đang hoạt động","Ghi chú":"","layer_id":280,"fid":120,"label":"Huỳnh Văn Lộc"}},{"type":"Feature","id":121,"geometry":{"type":"Point","coordinates":[105.89572,9.947802]},"properties":{"Tên cơ sở":"Phan Thanh Nhàn","Loại hình(Doanh nghiệp, HTX, Hộ nuôi,...)":"Hội nuôi","Địa chỉ sản xuất":"Ấp Phú Long, xã Lục Sĩ Thành, tỉnh Vĩnh Long","Chủ cơ sở/Người đại diện":"Phan Thanh Nhàn","Đối tượng nuôi":"Cá rô đầu nhím","Tổng diện tích mặt nước (m2)":null,"Chứng nhận(ASC,BAP, VietGAP,...)":"300","Tình trạng hoạt động":"Đang hoạt động","Ghi chú":"","layer_id":280,"fid":121,"label":"Phan Thanh Nhàn"}},{"type":"Feature","id":122,"geometry":{"type":"Point","coordinates":[105.985262,9.922817]},"properties":{"Tên cơ sở":"Hồ Thanh Bình","Loại hình(Doanh nghiệp, HTX, Hộ nuôi,...)":"Hội nuôi","Địa chỉ sản xuất":"Ấp Tích Lộc, xã Trà Ôn, tỉnh Vĩnh Long","Chủ cơ sở/Người đại diện":"Hồ Thanh Bình","Đối tượng nuôi":"Ba Ba","Tổng diện tích mặt nước (m2)":null,"Chứng nhận(ASC,BAP, VietGAP,...)":"200","Tình trạng hoạt động":"Đang hoạt động","Ghi chú":"","layer_id":280,"fid":122,"label":"Hồ Thanh Bình"}},{"type":"Feature","id":123,"geometry":{"type":"Point","coordinates":[105.985313,9.922887]},"properties":{"Tên cơ sở":"Mai Quang Vinh","Loại hình(Doanh nghiệp, HTX, Hộ nuôi,...)":"Hội nuôi","Địa chỉ sản xuất":"Ấp Tích Lộc, xã Trà Ôn, tỉnh Vĩnh Long","Chủ cơ sở/Người đại diện":"Mai Quang Vinh","Đối tượng nuôi":"Lươn","Tổng diện tích mặt nước (m2)":null,"Chứng nhận(ASC,BAP, VietGAP,...)":"100","Tình trạng hoạt động":"Đang hoạt động","Ghi chú":"","layer_id":280,"fid":123,"label":"Mai Quang Vinh"}},{"type":"Feature","id":124,"geometry":{"type":"Point","coordinates":[105.9761246,10.1706717]},"properties":{"Tên cơ sở":"Nguyễn Hoàng Phú","Loại hình(Doanh nghiệp, HTX, Hộ nuôi,...)":"Hộ nuôi","Địa chỉ sản xuất":"Ấp An Thành, xã Long Hồ, tỉnh Vĩnh Long","Chủ cơ sở/Người đại diện":"Nguyễn Hoàng Phú","Đối tượng nuôi":"Cá mú","Tổng diện tích mặt nước (m2)":null,"Chứng nhận(ASC,BAP, VietGAP,...)":"5000","Tình trạng hoạt động":"Đang hoạt động","Ghi chú":"","layer_id":280,"fid":124,"label":"Nguyễn Hoàng Phú"}},{"type":"Feature","id":125,"geometry":{"type":"Point","coordinates":[105.9558969,10.2132645]},"properties":{"Tên cơ sở":"Nguyễn Huy Hùng","Loại hình(Doanh nghiệp, HTX, Hộ nuôi,...)":"Hộ nuôi","Địa chỉ sản xuất":"Ấp Phước Hạnh B, xã An Bình, tỉnh Vĩnh Long","Chủ cơ sở/Người đại diện":"Nguyễn Huy Hùng","Đối tượng nuôi":"Cá Chốt","Tổng diện tích mặt nước (m2)":null,"Chứng nhận(ASC,BAP, VietGAP,...)":"1680","Tình trạng hoạt động":"Đang hoạt động","Ghi chú":"","layer_id":280,"fid":125,"label":"Nguyễn Huy Hùng"}},{"type":"Feature","id":126,"geometry":{"type":"Point","coordinates":[106.0116952,10.2686813]},"properties":{"Tên cơ sở":"Trần Văn Na","Loại hình(Doanh nghiệp, HTX, Hộ nuôi,...)":"Hộ nuôi","Địa chỉ sản xuất":"Ấp Phước Đinh 1, xã An Bình, tỉnh Vĩnh Long","Chủ cơ sở/Người đại diện":"Trần Văn Na","Đối tượng nuôi":"Cá trê","Tổng diện tích mặt nước (m2)":null,"Chứng nhận(ASC,BAP, VietGAP,...)":"5000","Tình trạng hoạt động":"Đang hoạt động","Ghi chú":"","layer_id":280,"fid":126,"label":"Trần Văn Na"}},{"type":"Feature","id":127,"geometry":{"type":"Point","coordinates":[106.0286952,10.2652077]},"properties":{"Tên cơ sở":"Huỳnh Trung Hiếu","Loại hình(Doanh nghiệp, HTX, Hộ nuôi,...)":"Hộ nuôi","Địa chỉ sản xuất":"Ấp Phước Đinh 2, xã An Bình, tỉnh Vĩnh Long","Chủ cơ sở/Người đại diện":"Huỳnh Trung Hiếu","Đối tượng nuôi":"Cá lóc","Tổng diện tích mặt nước (m2)":null,"Chứng nhận(ASC,BAP, VietGAP,...)":"7000","Tình trạng hoạt động":"Đang hoạt động","Ghi chú":"","layer_id":280,"fid":127,"label":"Huỳnh Trung Hiếu"}},{"type":"Feature","id":128,"geometry":{"type":"Point","coordinates":[105.9837873,10.2673499]},"properties":{"Tên cơ sở":"Trần Tất Dương","Loại hình(Doanh nghiệp, HTX, Hộ nuôi,...)":"Hộ nuôi","Địa chỉ sản xuất":"Ấp An Thạnh, xã An Bình, tỉnh Vĩnh Long","Chủ cơ sở/Người đại diện":"Trần Tất Dương","Đối tượng nuôi":"Cua đinh","Tổng diện tích mặt nước (m2)":null,"Chứng nhận(ASC,BAP, VietGAP,...)":"200","Tình trạng hoạt động":"Đang hoạt động","Ghi chú":"","layer_id":280,"fid":128,"label":"Trần Tất Dương"}},{"type":"Feature","id":129,"geometry":{"type":"Point","coordinates":[105.9838191,10.2683099]},"properties":{"Tên cơ sở":"Nguyễn Văn Lù","Loại hình(Doanh nghiệp, HTX, Hộ nuôi,...)":"Hộ nuôi","Địa chỉ sản xuất":"Ấp An Thạnh, xã An Bình, tỉnh Vĩnh Long","Chủ cơ sở/Người đại diện":"Nguyễn Văn Lù","Đối tượng nuôi":"Cua đinh","Tổng diện tích mặt nước (m2)":null,"Chứng nhận(ASC,BAP, VietGAP,...)":"1000","Tình trạng hoạt động":"Đang hoạt động","Ghi chú":"","layer_id":280,"fid":129,"label":"Nguyễn Văn Lù"}},{"type":"Feature","id":130,"geometry":{"type":"Point","coordinates":[106.0286952,10.2652077]},"properties":{"Tên cơ sở":"Nguyễn Văn Lem\n","Loại hình(Doanh nghiệp, HTX, Hộ nuôi,...)":"Hộ nuôi","Địa chỉ sản xuất":"ấp Phước Đinh 1 xã An Bình, tỉnh Vĩnh Long","Chủ cơ sở/Người đại diện":"Nguyễn Văn Lem\n","Đối tượng nuôi":"Lươn","Tổng diện tích mặt nước (m2)":null,"Chứng nhận(ASC,BAP, VietGAP,...)":"42","Tình trạng hoạt động":"Đang hoạt động","Ghi chú":"","layer_id":280,"fid":130,"label":"Nguyễn Văn Lem\n"}},{"type":"Feature","id":131,"geometry":{"type":"Point","coordinates":[106.015875,10.269121]},"properties":{"Tên cơ sở":"Nguyễn Văn Bé Tám","Loại hình(Doanh nghiệp, HTX, Hộ nuôi,...)":"Hộ nuôi","Địa chỉ sản xuất":"ấp Phước Đinh 1 xã An Bình, tỉnh Vĩnh Long","Chủ cơ sở/Người đại diện":"Nguyễn Văn Bé Tám","Đối tượng nuôi":"Lươn","Tổng diện tích mặt nước (m2)":null,"Chứng nhận(ASC,BAP, VietGAP,...)":"42","Tình trạng hoạt động":"Đang hoạt động","Ghi chú":"","layer_id":280,"fid":131,"label":"Nguyễn Văn Bé Tám"}},{"type":"Feature","id":132,"geometry":{"type":"Point","coordinates":[106.016686,10.268531]},"properties":{"Tên cơ sở":"Trương Công Thành","Loại hình(Doanh nghiệp, HTX, Hộ nuôi,...)":"Hộ nuôi","Địa chỉ sản xuất":"ấp Phước Đinh 1 xã An Bình, tỉnh Vĩnh Long","Chủ cơ sở/Người đại diện":"Trương Công Thành","Đối tượng nuôi":"Lươn","Tổng diện tích mặt nước (m2)":null,"Chứng nhận(ASC,BAP, VietGAP,...)":"180","Tình trạng hoạt động":"Đang hoạt động","Ghi chú":"","layer_id":280,"fid":132,"label":"Trương Công Thành"}},{"type":"Feature","id":133,"geometry":{"type":"Point","coordinates":[106.00719,10.2722276]},"properties":{"Tên cơ sở":"Lê Thái Hòa","Loại hình(Doanh nghiệp, HTX, Hộ nuôi,...)":"Hộ nuôi","Địa chỉ sản xuất":"ấp Phước Đinh 1 xã An Bình, tỉnh Vĩnh Long","Chủ cơ sở/Người đại diện":"Lê Thái Hòa","Đối tượng nuôi":"Lươn","Tổng diện tích mặt nước (m2)":null,"Chứng nhận(ASC,BAP, VietGAP,...)":"96","Tình trạng hoạt động":"Đang hoạt động","Ghi chú":"","layer_id":280,"fid":133,"label":"Lê Thái Hòa"}},{"type":"Feature","id":134,"geometry":{"type":"Point","coordinates":[106.0147539,10.269298]},"properties":{"Tên cơ sở":"Trần Quan Khánh","Loại hình(Doanh nghiệp, HTX, Hộ nuôi,...)":"Hộ nuôi","Địa chỉ sản xuất":"ấp Phước Đinh 1 xã An Bình, tỉnh Vĩnh Long","Chủ cơ sở/Người đại diện":"Trần Quan Khánh","Đối tượng nuôi":"Lươn","Tổng diện tích mặt nước (m2)":null,"Chứng nhận(ASC,BAP, VietGAP,...)":"90","Tình trạng hoạt động":"Đang hoạt động","Ghi chú":"","layer_id":280,"fid":134,"label":"Trần Quan Khánh"}},{"type":"Feature","id":135,"geometry":{"type":"Point","coordinates":[106.0233477,10.2685273]},"properties":{"Tên cơ sở":"Nguyễn Văn Bé Chính","Loại hình(Doanh nghiệp, HTX, Hộ nuôi,...)":"Hộ nuôi","Địa chỉ sản xuất":"ấp Phước Đinh 2 xã An Bình, tỉnh Vĩnh Long","Chủ cơ sở/Người đại diện":"Nguyễn Văn Bé Chính","Đối tượng nuôi":"Lươn","Tổng diện tích mặt nước (m2)":null,"Chứng nhận(ASC,BAP, VietGAP,...)":"90","Tình trạng hoạt động":"Đang hoạt động","Ghi chú":"","layer_id":280,"fid":135,"label":"Nguyễn Văn Bé Chính"}},{"type":"Feature","id":136,"geometry":{"type":"Point","coordinates":[106.016724,10.268437]},"properties":{"Tên cơ sở":"Trần Hoàng Vui","Loại hình(Doanh nghiệp, HTX, Hộ nuôi,...)":"Hộ nuôi","Địa chỉ sản xuất":"ấp Phú An 2 xã An Bình, tỉnh Vĩnh Long","Chủ cơ sở/Người đại diện":"Trần Hoàng Vui","Đối tượng nuôi":"Lươn","Tổng diện tích mặt nước (m2)":null,"Chứng nhận(ASC,BAP, VietGAP,...)":"36","Tình trạng hoạt động":"Đang hoạt động","Ghi chú":"","layer_id":280,"fid":136,"label":"Trần Hoàng Vui"}},{"type":"Feature","id":137,"geometry":{"type":"Point","coordinates":[105.9773022,10.2768181]},"properties":{"Tên cơ sở":"Đỗ Tấn Công","Loại hình(Doanh nghiệp, HTX, Hộ nuôi,...)":"Hộ nuôi","Địa chỉ sản xuất":"ấp An Thới xã An Bình, tỉnh Vĩnh Long","Chủ cơ sở/Người đại diện":"Đỗ Tấn Công","Đối tượng nuôi":"Cá tai tượng","Tổng diện tích mặt nước (m2)":null,"Chứng nhận(ASC,BAP, VietGAP,...)":"700","Tình trạng hoạt động":"Đang hoạt động","Ghi chú":"","layer_id":280,"fid":137,"label":"Đỗ Tấn Công"}},{"type":"Feature","id":138,"geometry":{"type":"Point","coordinates":[105.9776201,10.2765172]},"properties":{"Tên cơ sở":"Đỗ Tấn Thật","Loại hình(Doanh nghiệp, HTX, Hộ nuôi,...)":"Hộ nuôi","Địa chỉ sản xuất":"ấp An Thạnh xã An Bình, tỉnh Vĩnh Long","Chủ cơ sở/Người đại diện":"Đỗ Tấn Thật","Đối tượng nuôi":"Cá tai tượng","Tổng diện tích mặt nước (m2)":null,"Chứng nhận(ASC,BAP, VietGAP,...)":"500","Tình trạng hoạt động":"Đang hoạt động","Ghi chú":"","layer_id":280,"fid":138,"label":"Đỗ Tấn Thật"}},{"type":"Feature","id":139,"geometry":{"type":"Point","coordinates":[105.9979916,10.3129794]},"properties":{"Tên cơ sở":"Nguyễn Thanh Tân","Loại hình(Doanh nghiệp, HTX, Hộ nuôi,...)":"Hộ nuôi","Địa chỉ sản xuất":"ấp Phú Mỹ 1 xã An Bình, tỉnh Vĩnh Long","Chủ cơ sở/Người đại diện":"Nguyễn Thanh Tân","Đối tượng nuôi":"Lươn","Tổng diện tích mặt nước (m2)":null,"Chứng nhận(ASC,BAP, VietGAP,...)":"180","Tình trạng hoạt động":"Đang hoạt động","Ghi chú":"","layer_id":280,"fid":139,"label":"Nguyễn Thanh Tân"}},{"type":"Feature","id":140,"geometry":{"type":"Point","coordinates":[105.997346,10.3032739]},"properties":{"Tên cơ sở":"Võ Thanh Vũ","Loại hình(Doanh nghiệp, HTX, Hộ nuôi,...)":"Hộ nuôi","Địa chỉ sản xuất":"ấp Phú Thạnh 4 xã An Bình, tỉnh Vĩnh Long","Chủ cơ sở/Người đại diện":"Võ Thanh Vũ","Đối tượng nuôi":"Lươn","Tổng diện tích mặt nước (m2)":null,"Chứng nhận(ASC,BAP, VietGAP,...)":"48","Tình trạng hoạt động":"Đang hoạt động","Ghi chú":"","layer_id":280,"fid":140,"label":"Võ Thanh Vũ"}},{"type":"Feature","id":141,"geometry":{"type":"Point","coordinates":[105.9284592,10.122949]},"properties":{"Tên cơ sở":"Võ Văn Tăng","Loại hình(Doanh nghiệp, HTX, Hộ nuôi,...)":"Hộ nuôi","Địa chỉ sản xuất":"Âp Phú Điền, xã Song Phú, tỉnh Vĩnh Long","Chủ cơ sở/Người đại diện":"Võ Văn Tang","Đối tượng nuôi":"Baba","Tổng diện tích mặt nước (m2)":null,"Chứng nhận(ASC,BAP, VietGAP,...)":"100","Tình trạng hoạt động":"Đang hoạt động","Ghi chú":null,"layer_id":280,"fid":141,"label":"Võ Văn Tăng"}},{"type":"Feature","id":142,"geometry":{"type":"Point","coordinates":[105.869115,10.0847701]},"properties":{"Tên cơ sở":"Trần Văn Mừng","Loại hình(Doanh nghiệp, HTX, Hộ nuôi,...)":"Hộ nuôi","Địa chỉ sản xuất":"Ấp Phú Thành, xã Song Phú, tỉnh Vĩnh Long","Chủ cơ sở/Người đại diện":"Trần Văn Mừng","Đối tượng nuôi":"Baba","Tổng diện tích mặt nước (m2)":null,"Chứng nhận(ASC,BAP, VietGAP,...)":"1","Tình trạng hoạt động":"Đang hoạt động","Ghi chú":null,"layer_id":280,"fid":142,"label":"Trần Văn Mừng"}},{"type":"Feature","id":143,"geometry":{"type":"Point","coordinates":[105.950004,9.9977381]},"properties":{"Tên cơ sở":"Nguyễn Hồng Quân","Loại hình(Doanh nghiệp, HTX, Hộ nuôi,...)":"Hộ nuôi","Địa chỉ sản xuất":"Ấp Đại Thọ, xã Ngãi Tứ, tỉnh Vĩnh Long","Chủ cơ sở/Người đại diện":"Nguyễn Hồng Quân","Đối tượng nuôi":"Baba","Tổng diện tích mặt nước (m2)":null,"Chứng nhận(ASC,BAP, VietGAP,...)":"700","Tình trạng hoạt động":"Đang hoạt động","Ghi chú":null,"layer_id":280,"fid":143,"label":"Nguyễn Hồng Quân"}},{"type":"Feature","id":144,"geometry":{"type":"Point","coordinates":[105.9617819,10.0684761]},"properties":{"Tên cơ sở":"HTX Nhất Tâm","Loại hình(Doanh nghiệp, HTX, Hộ nuôi,...)":"Hộ nuôi","Địa chỉ sản xuất":"Ấp Phú Yên, xã Song Phú, tỉnh Vĩnh Long","Chủ cơ sở/Người đại diện":"HTX Nhất Tâm","Đối tượng nuôi":"Lươn, Ếch","Tổng diện tích mặt nước (m2)":null,"Chứng nhận(ASC,BAP, VietGAP,...)":"450","Tình trạng hoạt động":"Đang hoạt động","Ghi chú":null,"layer_id":280,"fid":144,"label":"HTX Nhất Tâm"}},{"type":"Feature","id":146,"geometry":{"type":"Point","coordinates":[105.901795,9.9982159]},"properties":{"Tên cơ sở":"Phạm Văn Lạc","Loại hình(Doanh nghiệp, HTX, Hộ nuôi,...)":"Hộ nuôi","Địa chỉ sản xuất":"Ấp Ngã Cái, xã Ngãi Tứ, tỉnh Vĩnh Long","Chủ cơ sở/Người đại diện":"Phạm Văn Lạc","Đối tượng nuôi":"Lươn","Tổng diện tích mặt nước (m2)":null,"Chứng nhận(ASC,BAP, VietGAP,...)":"30","Tình trạng hoạt động":"Đang hoạt động","Ghi chú":null,"layer_id":280,"fid":146,"label":"Phạm Văn Lạc"}},{"type":"Feature","id":147,"geometry":{"type":"Point","coordinates":[105.901791,9.998132]},"properties":{"Tên cơ sở":"Phạm Văn Đà","Loại hình(Doanh nghiệp, HTX, Hộ nuôi,...)":"Hộ nuôi","Địa chỉ sản xuất":"Ấp Ngã Cái, xã Ngãi Tứ, tỉnh Vĩnh Long","Chủ cơ sở/Người đại diện":"Phạm Văn Đà","Đối tượng nuôi":"Lươn","Tổng diện tích mặt nước (m2)":null,"Chứng nhận(ASC,BAP, VietGAP,...)":"30","Tình trạng hoạt động":"Đang hoạt động","Ghi chú":null,"layer_id":280,"fid":147,"label":"Phạm Văn Đà"}},{"type":"Feature","id":148,"geometry":{"type":"Point","coordinates":[105.9017749,10.0003211]},"properties":{"Tên cơ sở":"Nguyễn Văn Trung","Loại hình(Doanh nghiệp, HTX, Hộ nuôi,...)":"Hộ nuôi","Địa chỉ sản xuất":"Ấp Ngã Cái, xã Ngãi Tứ, tỉnh Vĩnh Long","Chủ cơ sở/Người đại diện":"Nguyễn Văn Trung","Đối tượng nuôi":"Lươn","Tổng diện tích mặt nước (m2)":null,"Chứng nhận(ASC,BAP, VietGAP,...)":"32","Tình trạng hoạt động":"Đang hoạt động","Ghi chú":null,"layer_id":280,"fid":148,"label":"Nguyễn Văn Trung"}},{"type":"Feature","id":149,"geometry":{"type":"Point","coordinates":[105.9060969,9.994043]},"properties":{"Tên cơ sở":"Huỳnh Phương Duy","Loại hình(Doanh nghiệp, HTX, Hộ nuôi,...)":"Hộ nuôi","Địa chỉ sản xuất":"Ấp Ngã Cái, xã Ngãi Tứ, tỉnh Vĩnh Long","Chủ cơ sở/Người đại diện":"Huỳnh Phương Duy","Đối tượng nuôi":"Lươn","Tổng diện tích mặt nước (m2)":null,"Chứng nhận(ASC,BAP, VietGAP,...)":null,"Tình trạng hoạt động":"Đang hoạt động","Ghi chú":null,"layer_id":280,"fid":149,"label":"Huỳnh Phương Duy"}},{"type":"Feature","id":150,"geometry":{"type":"Point","coordinates":[105.912099,9.9961661]},"properties":{"Tên cơ sở":"Trần văn HÍt Cô","Loại hình(Doanh nghiệp, HTX, Hộ nuôi,...)":"Hộ nuôi","Địa chỉ sản xuất":"Ấp Đông Thạnh, xã Ngãi Tứ, tỉnh Vĩnh Long","Chủ cơ sở/Người đại diện":"Trần văn HÍt Cô","Đối tượng nuôi":"Lươn","Tổng diện tích mặt nước (m2)":null,"Chứng nhận(ASC,BAP, VietGAP,...)":"25","Tình trạng hoạt động":"Đang hoạt động","Ghi chú":null,"layer_id":280,"fid":150,"label":"Trần văn HÍt Cô"}},{"type":"Feature","id":151,"geometry":{"type":"Point","coordinates":[105.9635371,10.0916109]},"properties":{"Tên cơ sở":"Nguyễn Văn Phong","Loại hình(Doanh nghiệp, HTX, Hộ nuôi,...)":"Hộ nuôi","Địa chỉ sản xuất":"Ấp Mỹ Tân, xã Cái Ngang, tỉnh Vĩnh Long","Chủ cơ sở/Người đại diện":"Nguyễn Văn Phong","Đối tượng nuôi":"Lươn","Tổng diện tích mặt nước (m2)":null,"Chứng nhận(ASC,BAP, VietGAP,...)":"100","Tình trạng hoạt động":"Đang hoạt động","Ghi chú":null,"layer_id":280,"fid":151,"label":"Nguyễn Văn Phong"}},{"type":"Feature","id":152,"geometry":{"type":"Point","coordinates":[105.957373,10.0861641]},"properties":{"Tên cơ sở":"Trần Phúc Phú","Loại hình(Doanh nghiệp, HTX, Hộ nuôi,...)":"Hộ nuôi","Địa chỉ sản xuất":"Ấp 10, xã  Cái Ngang, tỉnh Vĩnh Long","Chủ cơ sở/Người đại diện":"Trần Phúc Phú","Đối tượng nuôi":"Lươn","Tổng diện tích mặt nước (m2)":null,"Chứng nhận(ASC,BAP, VietGAP,...)":"40","Tình trạng hoạt động":"Đang hoạt động","Ghi chú":null,"layer_id":280,"fid":152,"label":"Trần Phúc Phú"}},{"type":"Feature","id":153,"geometry":{"type":"Point","coordinates":[105.952481,10.0718449]},"properties":{"Tên cơ sở":"Lâm Thị Ngọc Nga","Loại hình(Doanh nghiệp, HTX, Hộ nuôi,...)":"Hộ nuôi","Địa chỉ sản xuất":"Ấp 11, xã Cái Ngang, tỉnh Vĩnh Long","Chủ cơ sở/Người đại diện":"Lâm Thị Ngọc Nga","Đối tượng nuôi":"Lươn","Tổng diện tích mặt nước (m2)":null,"Chứng nhận(ASC,BAP, VietGAP,...)":"100","Tình trạng hoạt động":"Đang hoạt động","Ghi chú":null,"layer_id":280,"fid":153,"label":"Lâm Thị Ngọc Nga"}},{"type":"Feature","id":154,"geometry":{"type":"Point","coordinates":[105.958165,10.07443]},"properties":{"Tên cơ sở":"Trần Minh Sang","Loại hình(Doanh nghiệp, HTX, Hộ nuôi,...)":"Hộ nuôi","Địa chỉ sản xuất":"Ấp 11, xã Cái Ngang, tỉnh Vĩnh Long","Chủ cơ sở/Người đại diện":"Trần Minh Sang","Đối tượng nuôi":"Lươn","Tổng diện tích mặt nước (m2)":null,"Chứng nhận(ASC,BAP, VietGAP,...)":"60","Tình trạng hoạt động":"Đang hoạt động","Ghi chú":null,"layer_id":280,"fid":154,"label":"Trần Minh Sang"}},{"type":"Feature","id":155,"geometry":{"type":"Point","coordinates":[105.952306,10.0718581]},"properties":{"Tên cơ sở":"Đinh Văn Phong","Loại hình(Doanh nghiệp, HTX, Hộ nuôi,...)":"Hộ nuôi","Địa chỉ sản xuất":"Ấp 11, xã Cái Ngang, tỉnh Vĩnh Long","Chủ cơ sở/Người đại diện":"Đinh Văn Phong","Đối tượng nuôi":"Lươn","Tổng diện tích mặt nước (m2)":null,"Chứng nhận(ASC,BAP, VietGAP,...)":"100","Tình trạng hoạt động":"Đang hoạt động","Ghi chú":null,"layer_id":280,"fid":155,"label":"Đinh Văn Phong"}},{"type":"Feature","id":156,"geometry":{"type":"Point","coordinates":[105.9523841,10.0928101]},"properties":{"Tên cơ sở":"Đinh Văn Quí","Loại hình(Doanh nghiệp, HTX, Hộ nuôi,...)":"Hộ nuôi","Địa chỉ sản xuất":"Ấp 11, xã Cái Ngang, tỉnh Vĩnh Long","Chủ cơ sở/Người đại diện":"Đinh Văn Quí","Đối tượng nuôi":"Lươn","Tổng diện tích mặt nước (m2)":null,"Chứng nhận(ASC,BAP, VietGAP,...)":"100","Tình trạng hoạt động":"Đang hoạt động","Ghi chú":null,"layer_id":280,"fid":156,"label":"Đinh Văn Quí"}},{"type":"Feature","id":157,"geometry":{"type":"Point","coordinates":[105.9544491,10.0845529]},"properties":{"Tên cơ sở":"Nguyễn Văn Thương","Loại hình(Doanh nghiệp, HTX, Hộ nuôi,...)":"Hộ nuôi","Địa chỉ sản xuất":"Ấp 11, xã Cái Ngang, tỉnh Vĩnh Long","Chủ cơ sở/Người đại diện":"Nguyễn Văn Thương","Đối tượng nuôi":"Lươn","Tổng diện tích mặt nước (m2)":null,"Chứng nhận(ASC,BAP, VietGAP,...)":"20","Tình trạng hoạt động":"Đang hoạt động","Ghi chú":null,"layer_id":280,"fid":157,"label":"Nguyễn Văn Thương"}},{"type":"Feature","id":158,"geometry":{"type":"Point","coordinates":[105.958853,10.086336]},"properties":{"Tên cơ sở":"Trần Văn Tính ","Loại hình(Doanh nghiệp, HTX, Hộ nuôi,...)":"Hộ nuôi","Địa chỉ sản xuất":"Ấp 10, xã Cái Ngang, tỉnh Vĩnh Long","Chủ cơ sở/Người đại diện":"Trần Văn Tính ","Đối tượng nuôi":"Lươn","Tổng diện tích mặt nước (m2)":null,"Chứng nhận(ASC,BAP, VietGAP,...)":"60","Tình trạng hoạt động":"Đang hoạt động","Ghi chú":null,"layer_id":280,"fid":158,"label":"Trần Văn Tính "}},{"type":"Feature","id":159,"geometry":{"type":"Point","coordinates":[105.959606,10.086306]},"properties":{"Tên cơ sở":"Lê Văn Thảo","Loại hình(Doanh nghiệp, HTX, Hộ nuôi,...)":"Hộ nuôi","Địa chỉ sản xuất":"Ấp Mỹ Tân, xã Cái Ngang, tỉnh Vĩnh Long","Chủ cơ sở/Người đại diện":"Lê Văn Thảo","Đối tượng nuôi":"Lươn","Tổng diện tích mặt nước (m2)":null,"Chứng nhận(ASC,BAP, VietGAP,...)":"30","Tình trạng hoạt động":"Đang hoạt động","Ghi chú":null,"layer_id":280,"fid":159,"label":"Lê Văn Thảo"}},{"type":"Feature","id":160,"geometry":{"type":"Point","coordinates":[105.962366,10.092276]},"properties":{"Tên cơ sở":"Phạm văn Út Nhỏ","Loại hình(Doanh nghiệp, HTX, Hộ nuôi,...)":"Hộ nuôi","Địa chỉ sản xuất":"Ấp Mỹ Tân, xã Cái Ngang, tỉnh Vĩnh Long","Chủ cơ sở/Người đại diện":"Phạm văn Út Nhỏ","Đối tượng nuôi":"Lươn","Tổng diện tích mặt nước (m2)":null,"Chứng nhận(ASC,BAP, VietGAP,...)":null,"Tình trạng hoạt động":"Đang hoạt động","Ghi chú":null,"layer_id":280,"fid":160,"label":"Phạm văn Út Nhỏ"}},{"type":"Feature","id":161,"geometry":{"type":"Point","coordinates":[105.9041858,10.0347141]},"properties":{"Tên cơ sở":"Nguyễn Tuấn Phong","Loại hình(Doanh nghiệp, HTX, Hộ nuôi,...)":"Hộ nuôi","Địa chỉ sản xuất":"Ấp Bình Quí, xã Ngãi Tứ, tỉnh Vĩnh Long","Chủ cơ sở/Người đại diện":"Nguyễn Tuấn Phong","Đối tượng nuôi":"Lươn","Tổng diện tích mặt nước (m2)":null,"Chứng nhận(ASC,BAP, VietGAP,...)":"200","Tình trạng hoạt động":"Đang hoạt động","Ghi chú":null,"layer_id":280,"fid":161,"label":"Nguyễn Tuấn Phong"}},{"type":"Feature","id":162,"geometry":{"type":"Point","coordinates":[105.9548819,10.0150509]},"properties":{"Tên cơ sở":"Nguyễn Thái","Loại hình(Doanh nghiệp, HTX, Hộ nuôi,...)":"Hộ nuôi","Địa chỉ sản xuất":"Ấp Bình Điền, xã Ngãi Tứ, tỉnh Vĩnh Long","Chủ cơ sở/Người đại diện":"Nguyễn Thái","Đối tượng nuôi":"Lươn","Tổng diện tích mặt nước (m2)":null,"Chứng nhận(ASC,BAP, VietGAP,...)":"60","Tình trạng hoạt động":"Đang hoạt động","Ghi chú":null,"layer_id":280,"fid":162,"label":"Nguyễn Thái"}},{"type":"Feature","id":163,"geometry":{"type":"Point","coordinates":[105.9377651,10.056579]},"properties":{"Tên cơ sở":"Nguyễn Công Bính","Loại hình(Doanh nghiệp, HTX, Hộ nuôi,...)":"Hộ nuôi","Địa chỉ sản xuất":"Ấp Tổng Hưng B, xã Ngãi Tứ, tỉnh Vĩnh Long","Chủ cơ sở/Người đại diện":"Nguyễn Công Bính","Đối tượng nuôi":"Lươn","Tổng diện tích mặt nước (m2)":null,"Chứng nhận(ASC,BAP, VietGAP,...)":"500","Tình trạng hoạt động":"Đang hoạt động","Ghi chú":null,"layer_id":280,"fid":163,"label":"Nguyễn Công Bính"}},{"type":"Feature","id":164,"geometry":{"type":"Point","coordinates":[105.9383391,10.0551489]},"properties":{"Tên cơ sở":"Nguyễn Văn Sum","Loại hình(Doanh nghiệp, HTX, Hộ nuôi,...)":"Hộ nuôi","Địa chỉ sản xuất":"Ấp Tổng Hưng B, xã Ngãi Tứ, tỉnh Vĩnh Long","Chủ cơ sở/Người đại diện":"Nguyễn Văn Sum","Đối tượng nuôi":"Lươn","Tổng diện tích mặt nước (m2)":null,"Chứng nhận(ASC,BAP, VietGAP,...)":"56","Tình trạng hoạt động":"Đang hoạt động","Ghi chú":null,"layer_id":280,"fid":164,"label":"Nguyễn Văn Sum"}},{"type":"Feature","id":165,"geometry":{"type":"Point","coordinates":[105.9517129,10.0271978]},"properties":{"Tên cơ sở":"Thạch Cua","Loại hình(Doanh nghiệp, HTX, Hộ nuôi,...)":"Hộ nuôi","Địa chỉ sản xuất":"Ấp Tổng Hưng B, xã Ngãi Tứ. tỉnh Vĩnh Long","Chủ cơ sở/Người đại diện":"Thạch Cua","Đối tượng nuôi":"Lươn","Tổng diện tích mặt nước (m2)":null,"Chứng nhận(ASC,BAP, VietGAP,...)":"100","Tình trạng hoạt động":"Đang hoạt động","Ghi chú":null,"layer_id":280,"fid":165,"label":"Thạch Cua"}},{"type":"Feature","id":166,"geometry":{"type":"Point","coordinates":[105.993196,10.1179671]},"properties":{"Tên cơ sở":"Phan Thanh Điền","Loại hình(Doanh nghiệp, HTX, Hộ nuôi,...)":"Hộ nuôi","Địa chỉ sản xuất":"Ấp Danh Tấm, xã Hậu Lộc, tỉnh Vĩnh Long","Chủ cơ sở/Người đại diện":"Phan Thanh Điền","Đối tượng nuôi":"Lươn","Tổng diện tích mặt nước (m2)":null,"Chứng nhận(ASC,BAP, VietGAP,...)":"40","Tình trạng hoạt động":"Đang hoạt động","Ghi chú":null,"layer_id":280,"fid":166,"label":"Phan Thanh Điền"}},{"type":"Feature","id":167,"geometry":{"type":"Point","coordinates":[105.966111,10.1327031]},"properties":{"Tên cơ sở":"Võ Văn Bảy","Loại hình(Doanh nghiệp, HTX, Hộ nuôi,...)":"Hộ nuôi","Địa chỉ sản xuất":"Ấp 7, xã Cái Ngang, tỉnh Vĩnh Long","Chủ cơ sở/Người đại diện":"Võ Văn Bảy","Đối tượng nuôi":"Lươn","Tổng diện tích mặt nước (m2)":null,"Chứng nhận(ASC,BAP, VietGAP,...)":"20","Tình trạng hoạt động":"Đang hoạt động","Ghi chú":null,"layer_id":280,"fid":167,"label":"Võ Văn Bảy"}},{"type":"Feature","id":168,"geometry":{"type":"Point","coordinates":[105.964099,10.1221741]},"properties":{"Tên cơ sở":"Nguyễn Hoàng Bão","Loại hình(Doanh nghiệp, HTX, Hộ nuôi,...)":"Hộ nuôi","Địa chỉ sản xuất":"Ấp 5, xã Cái Ngang, tỉnh Vĩnh Long","Chủ cơ sở/Người đại diện":"Nguyễn Hoàng Bão","Đối tượng nuôi":"Lươn","Tổng diện tích mặt nước (m2)":null,"Chứng nhận(ASC,BAP, VietGAP,...)":null,"Tình trạng hoạt động":"Đang hoạt động","Ghi chú":null,"layer_id":280,"fid":168,"label":"Nguyễn Hoàng Bão"}},{"type":"Feature","id":169,"geometry":{"type":"Point","coordinates":[105.9695979,10.1438419]},"properties":{"Tên cơ sở":"Nguyễn văn Hòa","Loại hình(Doanh nghiệp, HTX, Hộ nuôi,...)":"Hộ nuôi","Địa chỉ sản xuất":"Ấp 7, xã Cái Ngang, tỉnh Vĩnh Long","Chủ cơ sở/Người đại diện":"Nguyễn văn Hòa","Đối tượng nuôi":"Lươn","Tổng diện tích mặt nước (m2)":null,"Chứng nhận(ASC,BAP, VietGAP,...)":"80","Tình trạng hoạt động":"Đang hoạt động","Ghi chú":null,"layer_id":280,"fid":169,"label":"Nguyễn văn Hòa"}},{"type":"Feature","id":170,"geometry":{"type":"Point","coordinates":[105.9167889,10.1308139]},"properties":{"Tên cơ sở":"Phạm Hoài Tâm","Loại hình(Doanh nghiệp, HTX, Hộ nuôi,...)":"Hộ nuôi","Địa chỉ sản xuất":"Âp Phú Điền, xã Song Phú, tỉnh Vĩnh Long","Chủ cơ sở/Người đại diện":"Phạm Hoài Tâm","Đối tượng nuôi":"Lươn","Tổng diện tích mặt nước (m2)":null,"Chứng nhận(ASC,BAP, VietGAP,...)":"20","Tình trạng hoạt động":"Đang hoạt động","Ghi chú":null,"layer_id":280,"fid":170,"label":"Phạm Hoài Tâm"}},{"type":"Feature","id":171,"geometry":{"type":"Point","coordinates":[105.916005,10.1306469]},"properties":{"Tên cơ sở":"Kiều Thanh Vân","Loại hình(Doanh nghiệp, HTX, Hộ nuôi,...)":"Hộ nuôi","Địa chỉ sản xuất":"Âp Phú Điền, xã Song Phú, tỉnh Vĩnh Long","Chủ cơ sở/Người đại diện":"Kiều Thanh Vân","Đối tượng nuôi":"Lươn","Tổng diện tích mặt nước (m2)":null,"Chứng nhận(ASC,BAP, VietGAP,...)":"30","Tình trạng hoạt động":"Đang hoạt động","Ghi chú":null,"layer_id":280,"fid":171,"label":"Kiều Thanh Vân"}},{"type":"Feature","id":172,"geometry":{"type":"Point","coordinates":[105.927806,10.129128]},"properties":{"Tên cơ sở":"Nguyễn Văn Quý","Loại hình(Doanh nghiệp, HTX, Hộ nuôi,...)":"Hộ nuôi","Địa chỉ sản xuất":"Âp Phú Điền, xã Song Phú, tỉnh Vĩnh Long","Chủ cơ sở/Người đại diện":"Nguyễn Văn Quý","Đối tượng nuôi":"Lươn","Tổng diện tích mặt nước (m2)":null,"Chứng nhận(ASC,BAP, VietGAP,...)":"20","Tình trạng hoạt động":"Đang hoạt động","Ghi chú":null,"layer_id":280,"fid":172,"label":"Nguyễn Văn Quý"}},{"type":"Feature","id":173,"geometry":{"type":"Point","coordinates":[105.9286141,10.1281032]},"properties":{"Tên cơ sở":"Phạm Hoài Phong","Loại hình(Doanh nghiệp, HTX, Hộ nuôi,...)":"Hộ nuôi","Địa chỉ sản xuất":"Âp Phú Điền, xã Song Phú, tỉnh Vĩnh Long","Chủ cơ sở/Người đại diện":"Phạm Hoài Phong","Đối tượng nuôi":"Lươn","Tổng diện tích mặt nước (m2)":null,"Chứng nhận(ASC,BAP, VietGAP,...)":"30","Tình trạng hoạt động":"Đang hoạt động","Ghi chú":null,"layer_id":280,"fid":173,"label":"Phạm Hoài Phong"}},{"type":"Feature","id":174,"geometry":{"type":"Point","coordinates":[106.0014461,10.0522101]},"properties":{"Tên cơ sở":"Trần Hoài Thắng","Loại hình(Doanh nghiệp, HTX, Hộ nuôi,...)":"Hộ nuôi","Địa chỉ sản xuất":"Ấp Tường Lễ, xã Tam Bình, tỉnh Vĩnh Long","Chủ cơ sở/Người đại diện":"Trần Hoài Thắng","Đối tượng nuôi":"Lươn","Tổng diện tích mặt nước (m2)":null,"Chứng nhận(ASC,BAP, VietGAP,...)":"40","Tình trạng hoạt động":"Đang hoạt động","Ghi chú":null,"layer_id":280,"fid":174,"label":"Trần Hoài Thắng"}},{"type":"Feature","id":175,"geometry":{"type":"Point","coordinates":[105.9238401,10.1167769]},"properties":{"Tên cơ sở":"Nguyễn Hữu Tiến ","Loại hình(Doanh nghiệp, HTX, Hộ nuôi,...)":"Hộ nuôi","Địa chỉ sản xuất":"Ấp Phú Ninh, xã Song Phú, tỉnh Vĩnh Long","Chủ cơ sở/Người đại diện":"Nguyễn Hữu Tiến ","Đối tượng nuôi":"Ếch","Tổng diện tích mặt nước (m2)":null,"Chứng nhận(ASC,BAP, VietGAP,...)":"200","Tình trạng hoạt động":"Đang hoạt động","Ghi chú":null,"layer_id":280,"fid":175,"label":"Nguyễn Hữu Tiến "}},{"type":"Feature","id":176,"geometry":{"type":"Point","coordinates":[105.9027442,10.089399]},"properties":{"Tên cơ sở":"Nguyễn Văn Mao","Loại hình(Doanh nghiệp, HTX, Hộ nuôi,...)":"Hộ nuôi","Địa chỉ sản xuất":"Âp Phú Trường Yên, xã Song Phú, tỉnh Vĩnh Long","Chủ cơ sở/Người đại diện":"Nguyễn Văn Mao","Đối tượng nuôi":"Ếch","Tổng diện tích mặt nước (m2)":null,"Chứng nhận(ASC,BAP, VietGAP,...)":"200","Tình trạng hoạt động":"Đang hoạt động","Ghi chú":null,"layer_id":280,"fid":176,"label":"Nguyễn Văn Mao"}},{"type":"Feature","id":177,"geometry":{"type":"Point","coordinates":[105.9027579,10.0941681]},"properties":{"Tên cơ sở":"Lê Thanh Sang","Loại hình(Doanh nghiệp, HTX, Hộ nuôi,...)":"Hộ nuôi","Địa chỉ sản xuất":"Âp Phú Trường Yên, xã Song Phú, tỉnh Vĩnh Long","Chủ cơ sở/Người đại diện":"Lê Thanh Sang","Đối tượng nuôi":"Ếch","Tổng diện tích mặt nước (m2)":null,"Chứng nhận(ASC,BAP, VietGAP,...)":"30","Tình trạng hoạt động":"Đang hoạt động","Ghi chú":null,"layer_id":280,"fid":177,"label":"Lê Thanh Sang"}},{"type":"Feature","id":178,"geometry":{"type":"Point","coordinates":[105.8991081,10.1016329]},"properties":{"Tên cơ sở":"Dương văn Hó","Loại hình(Doanh nghiệp, HTX, Hộ nuôi,...)":"Hộ nuôi","Địa chỉ sản xuất":"Âp Phú Trường Yên, xã Song Phú, tỉnh Vĩnh Long","Chủ cơ sở/Người đại diện":"Dương văn Hó","Đối tượng nuôi":"Ếch","Tổng diện tích mặt nước (m2)":null,"Chứng nhận(ASC,BAP, VietGAP,...)":"30","Tình trạng hoạt động":"Đang hoạt động","Ghi chú":null,"layer_id":280,"fid":178,"label":"Dương văn Hó"}},{"type":"Feature","id":179,"geometry":{"type":"Point","coordinates":[105.89749,10.106894]},"properties":{"Tên cơ sở":"Lê Hùng Hậu","Loại hình(Doanh nghiệp, HTX, Hộ nuôi,...)":"Hộ nuôi","Địa chỉ sản xuất":"Âp Phú Trường Yên, xã Song Phú, tỉnh Vĩnh Long","Chủ cơ sở/Người đại diện":"Lê Hùng Hậu","Đối tượng nuôi":"Ếch","Tổng diện tích mặt nước (m2)":null,"Chứng nhận(ASC,BAP, VietGAP,...)":"100","Tình trạng hoạt động":"Đang hoạt động","Ghi chú":null,"layer_id":280,"fid":179,"label":"Lê Hùng Hậu"}},{"type":"Feature","id":180,"geometry":{"type":"Point","coordinates":[105.8974599,10.1083259]},"properties":{"Tên cơ sở":"Lê Văn Phước","Loại hình(Doanh nghiệp, HTX, Hộ nuôi,...)":"Hộ nuôi","Địa chỉ sản xuất":"Âp Phú Trường Yên, xã Song Phú, tỉnh Vĩnh Long","Chủ cơ sở/Người đại diện":"Lê Văn Phước","Đối tượng nuôi":"Ếch","Tổng diện tích mặt nước (m2)":null,"Chứng nhận(ASC,BAP, VietGAP,...)":"500","Tình trạng hoạt động":"Đang hoạt động","Ghi chú":null,"layer_id":280,"fid":180,"label":"Lê Văn Phước"}},{"type":"Feature","id":181,"geometry":{"type":"Point","coordinates":[105.9273199,10.1399821]},"properties":{"Tên cơ sở":"Phạm Tấn Tài","Loại hình(Doanh nghiệp, HTX, Hộ nuôi,...)":"Hộ nuôi","Địa chỉ sản xuất":"Âp Phú Điền, xã Song Phú, tỉnh Vĩnh Long","Chủ cơ sở/Người đại diện":"Phạm Tấn Tài","Đối tượng nuôi":"Ếch","Tổng diện tích mặt nước (m2)":null,"Chứng nhận(ASC,BAP, VietGAP,...)":"200","Tình trạng hoạt động":"Đang hoạt động","Ghi chú":null,"layer_id":280,"fid":181,"label":"Phạm Tấn Tài"}},{"type":"Feature","id":182,"geometry":{"type":"Point","coordinates":[105.927281,10.1389481]},"properties":{"Tên cơ sở":"Huỳnh Ngọc Chuyên","Loại hình(Doanh nghiệp, HTX, Hộ nuôi,...)":"Hộ nuôi","Địa chỉ sản xuất":"Âp Phú Điền, xã Song Phú, tỉnh Vĩnh Long","Chủ cơ sở/Người đại diện":"Huỳnh Ngọc Chuyên","Đối tượng nuôi":"Ếch","Tổng diện tích mặt nước (m2)":null,"Chứng nhận(ASC,BAP, VietGAP,...)":"2000","Tình trạng hoạt động":"Đang hoạt động","Ghi chú":null,"layer_id":280,"fid":182,"label":"Huỳnh Ngọc Chuyên"}},{"type":"Feature","id":183,"geometry":{"type":"Point","coordinates":[105.9056061,10.1489479]},"properties":{"Tên cơ sở":"HTX ếch Phú Thịnh","Loại hình(Doanh nghiệp, HTX, Hộ nuôi,...)":"Hộ nuôi","Địa chỉ sản xuất":"Ấp Phú BÌnh, xã Song Phú, tỉnh Vĩnh Long","Chủ cơ sở/Người đại diện":"HTX ếch Phú Thịnh","Đối tượng nuôi":"Ếch","Tổng diện tích mặt nước (m2)":null,"Chứng nhận(ASC,BAP, VietGAP,...)":"200","Tình trạng hoạt động":"Đang hoạt động","Ghi chú":null,"layer_id":280,"fid":183,"label":"HTX ếch Phú Thịnh"}},{"type":"Feature","id":184,"geometry":{"type":"Point","coordinates":[105.9454671,10.0981261]},"properties":{"Tên cơ sở":"Nguyễn Minh Tân","Loại hình(Doanh nghiệp, HTX, Hộ nuôi,...)":"Hộ nuôi","Địa chỉ sản xuất":"ấp Cây Điều, xã Song Phú, tỉnh Vĩnh Long","Chủ cơ sở/Người đại diện":"Nguyễn Minh Tân","Đối tượng nuôi":"Ếch","Tổng diện tích mặt nước (m2)":null,"Chứng nhận(ASC,BAP, VietGAP,...)":"100","Tình trạng hoạt động":"Đang hoạt động","Ghi chú":null,"layer_id":280,"fid":184,"label":"Nguyễn Minh Tân"}},{"type":"Feature","id":185,"geometry":{"type":"Point","coordinates":[105.9982399,10.0389449]},"properties":{"Tên cơ sở":"Trần Văn Mẹo","Loại hình(Doanh nghiệp, HTX, Hộ nuôi,...)":"Hộ nuôi","Địa chỉ sản xuất":"Âp Tường Trí, xã Tam Bình, tỉnh Vĩnh Long","Chủ cơ sở/Người đại diện":"Trần Văn Mẹo","Đối tượng nuôi":"Ếch","Tổng diện tích mặt nước (m2)":null,"Chứng nhận(ASC,BAP, VietGAP,...)":"300","Tình trạng hoạt động":"Đang hoạt động","Ghi chú":null,"layer_id":280,"fid":185,"label":"Trần Văn Mẹo"}},{"type":"Feature","id":186,"geometry":{"type":"Point","coordinates":[105.959502,10.0189019]},"properties":{"Tên cơ sở":"Thạch Quân","Loại hình(Doanh nghiệp, HTX, Hộ nuôi,...)":"Hộ nuôi","Địa chỉ sản xuất":"Ấp Sóc Rừng, xã Ngãi Tứ, tỉnh Vĩnh Long","Chủ cơ sở/Người đại diện":"Thạch Quân","Đối tượng nuôi":"Ếch","Tổng diện tích mặt nước (m2)":null,"Chứng nhận(ASC,BAP, VietGAP,...)":"30","Tình trạng hoạt động":"Đang hoạt động","Ghi chú":null,"layer_id":280,"fid":186,"label":"Thạch Quân"}},{"type":"Feature","id":187,"geometry":{"type":"Point","coordinates":[105.9411661,10.123417]},"properties":{"Tên cơ sở":"Trần Ngọc Thảo","Loại hình(Doanh nghiệp, HTX, Hộ nuôi,...)":"Hộ nuôi","Địa chỉ sản xuất":"Ấp Phú Tân, xã Cái Ngang, tỉnh Vĩnh Long","Chủ cơ sở/Người đại diện":"Trần Ngọc Thảo","Đối tượng nuôi":"Ếch","Tổng diện tích mặt nước (m2)":null,"Chứng nhận(ASC,BAP, VietGAP,...)":"600","Tình trạng hoạt động":"Đang hoạt động","Ghi chú":null,"layer_id":280,"fid":187,"label":"Trần Ngọc Thảo"}},{"type":"Feature","id":188,"geometry":{"type":"Point","coordinates":[105.9391431,10.123155]},"properties":{"Tên cơ sở":"Nguyễn Văn Sáu","Loại hình(Doanh nghiệp, HTX, Hộ nuôi,...)":"Hộ nuôi","Địa chỉ sản xuất":"Ấp Phú Tân, xã Cái Ngang, tỉnh Vĩnh Long","Chủ cơ sở/Người đại diện":"Nguyễn Văn Sáu","Đối tượng nuôi":"Ếch","Tổng diện tích mặt nước (m2)":null,"Chứng nhận(ASC,BAP, VietGAP,...)":"100","Tình trạng hoạt động":"Đang hoạt động","Ghi chú":null,"layer_id":280,"fid":188,"label":"Nguyễn Văn Sáu"}},{"type":"Feature","id":189,"geometry":{"type":"Point","coordinates":[105.9629021,10.025826]},"properties":{"Tên cơ sở":"Tô Thành Thi","Loại hình(Doanh nghiệp, HTX, Hộ nuôi,...)":"Hộ nuôi","Địa chỉ sản xuất":"Ấp Kỳ Son, xã Ngãi Tứ , huyện Tam Bình","Chủ cơ sở/Người đại diện":"Tô Thành Thi","Đối tượng nuôi":"Ếch","Tổng diện tích mặt nước (m2)":null,"Chứng nhận(ASC,BAP, VietGAP,...)":"36","Tình trạng hoạt động":"Đang hoạt động","Ghi chú":null,"layer_id":280,"fid":189,"label":"Tô Thành Thi"}},{"type":"Feature","id":190,"geometry":{"type":"Point","coordinates":[105.9410109,10.0426659]},"properties":{"Tên cơ sở":"Nguyễn Hữu Phúc (Trại ếch Phúc Thảo)","Loại hình(Doanh nghiệp, HTX, Hộ nuôi,...)":"Hộ nuôi","Địa chỉ sản xuất":"Ấp Tổng Hưng B, xã Ngãi Tứ , huyện Tam Bình","Chủ cơ sở/Người đại diện":"Nguyễn Hữu Phúc (Trại ếch Phúc Thảo)","Đối tượng nuôi":"Ếch","Tổng diện tích mặt nước (m2)":null,"Chứng nhận(ASC,BAP, VietGAP,...)":"1000","Tình trạng hoạt động":"Đang hoạt động","Ghi chú":null,"layer_id":280,"fid":190,"label":"Nguyễn Hữu Phúc (Trại ếch Phúc Thảo)"}},{"type":"Feature","id":191,"geometry":{"type":"Point","coordinates":[106.040738,10.127174]},"properties":{"Tên cơ sở":"Nguyễn Ngọc Trung","Loại hình(Doanh nghiệp, HTX, Hộ nuôi,...)":"Hộ nuôi","Địa chỉ sản xuất":"Ấp Thạnh An, xã Hòa Hiệp, tỉnh Vĩnh Long","Chủ cơ sở/Người đại diện":"Nguyễn Ngọc Trung","Đối tượng nuôi":"Ếch","Tổng diện tích mặt nước (m2)":null,"Chứng nhận(ASC,BAP, VietGAP,...)":"1000","Tình trạng hoạt động":"Đang hoạt động","Ghi chú":null,"layer_id":280,"fid":191,"label":"Nguyễn Ngọc Trung"}},{"type":"Feature","id":192,"geometry":{"type":"Point","coordinates":[105.9900102,10.0371099]},"properties":{"Tên cơ sở":"Lê Văn Rua","Loại hình(Doanh nghiệp, HTX, Hộ nuôi,...)":"Hộ nuôi","Địa chỉ sản xuất":"Ấp Mỹ Phú 5,  xã Tam Bình, tỉnh Vĩnh Long","Chủ cơ sở/Người đại diện":"Lê Văn Rua","Đối tượng nuôi":"Ếch","Tổng diện tích mặt nước (m2)":null,"Chứng nhận(ASC,BAP, VietGAP,...)":"500","Tình trạng hoạt động":"Đang hoạt động","Ghi chú":null,"layer_id":280,"fid":192,"label":"Lê Văn Rua"}},{"type":"Feature","id":193,"geometry":{"type":"Point","coordinates":[106.0045531,10.0814691]},"properties":{"Tên cơ sở":"Nguyễn Hữu Đỉnh","Loại hình(Doanh nghiệp, HTX, Hộ nuôi,...)":"Hộ nuôi","Địa chỉ sản xuất":"Ấp Tường Nhơn A,  xã Tam Bình, tỉnh Vĩnh Long","Chủ cơ sở/Người đại diện":"Nguyễn Hữu Đỉnh","Đối tượng nuôi":"Ếch, cá rô đầu nhím","Tổng diện tích mặt nước (m2)":null,"Chứng nhận(ASC,BAP, VietGAP,...)":"1100","Tình trạng hoạt động":"Đang hoạt động","Ghi chú":null,"layer_id":280,"fid":193,"label":"Nguyễn Hữu Đỉnh"}},{"type":"Feature","id":194,"geometry":{"type":"Point","coordinates":[105.9922729,10.1179569]},"properties":{"Tên cơ sở":"Võ Văn Tùng","Loại hình(Doanh nghiệp, HTX, Hộ nuôi,...)":"Hộ nuôi","Địa chỉ sản xuất":"Ấp Danh Tấm, xã Cái Ngang, huyệnTam Bình","Chủ cơ sở/Người đại diện":"Võ Văn Tùng","Đối tượng nuôi":"Ếch","Tổng diện tích mặt nước (m2)":null,"Chứng nhận(ASC,BAP, VietGAP,...)":"30","Tình trạng hoạt động":"Đang hoạt động","Ghi chú":null,"layer_id":280,"fid":194,"label":"Võ Văn Tùng"}},{"type":"Feature","id":195,"geometry":{"type":"Point","coordinates":[105.8988912,10.1134581]},"properties":{"Tên cơ sở":"Thiêm Văn Tỷ","Loại hình(Doanh nghiệp, HTX, Hộ nuôi,...)":"Hộ nuôi","Địa chỉ sản xuất":"Ấp Phú Ninh, xã Song Phú, huyện Tam Bình","Chủ cơ sở/Người đại diện":"Thiêm Văn Tỷ","Đối tượng nuôi":"Rắn","Tổng diện tích mặt nước (m2)":null,"Chứng nhận(ASC,BAP, VietGAP,...)":"50","Tình trạng hoạt động":"Đang hoạt động","Ghi chú":null,"layer_id":280,"fid":195,"label":"Thiêm Văn Tỷ"}},{"type":"Feature","id":196,"geometry":{"type":"Point","coordinates":[105.939018,10.0663079]},"properties":{"Tên cơ sở":"Nguyễn Thị Hồng Son","Loại hình(Doanh nghiệp, HTX, Hộ nuôi,...)":"Hộ nuôi","Địa chỉ sản xuất":"Ấp Phú Mỹ Tân, xã Tam Bình, tỉnh Vĩnh Long","Chủ cơ sở/Người đại diện":"Nguyễn Thị Hồng Son","Đối tượng nuôi":"cá rô đầu nhím","Tổng diện tích mặt nước (m2)":null,"Chứng nhận(ASC,BAP, VietGAP,...)":"2000","Tình trạng hoạt động":"Đang hoạt động","Ghi chú":null,"layer_id":280,"fid":196,"label":"Nguyễn Thị Hồng Son"}},{"type":"Feature","id":197,"geometry":{"type":"Point","coordinates":[105.983886,10.0293029]},"properties":{"Tên cơ sở":"Trương Văn Vĩnh","Loại hình(Doanh nghiệp, HTX, Hộ nuôi,...)":"Hộ nuôi","Địa chỉ sản xuất":"Ấp Phú Mỹ 5, xã Tam Bình, tỉnh Vĩnh Long","Chủ cơ sở/Người đại diện":"Trương Văn Vĩnh","Đối tượng nuôi":"cá rô đầu nhím","Tổng diện tích mặt nước (m2)":null,"Chứng nhận(ASC,BAP, VietGAP,...)":"1800","Tình trạng hoạt động":"Đang hoạt động","Ghi chú":null,"layer_id":280,"fid":197,"label":"Trương Văn Vĩnh"}},{"type":"Feature","id":198,"geometry":{"type":"Point","coordinates":[105.9950168,10.033787]},"properties":{"Tên cơ sở":"Võ Hữu Toàn","Loại hình(Doanh nghiệp, HTX, Hộ nuôi,...)":"Hộ nuôi","Địa chỉ sản xuất":"Ấp Tường Trí, xã Tam Bình, tỉnh Vĩnh Long","Chủ cơ sở/Người đại diện":"Võ Hữu Toàn","Đối tượng nuôi":"cá rô đầu nhím","Tổng diện tích mặt nước (m2)":null,"Chứng nhận(ASC,BAP, VietGAP,...)":"1200","Tình trạng hoạt động":"Đang hoạt động","Ghi chú":null,"layer_id":280,"fid":198,"label":"Võ Hữu Toàn"}},{"type":"Feature","id":199,"geometry":{"type":"Point","coordinates":[105.728327,10.124509]},"properties":{"Tên cơ sở":"Nguyễn Thanh Phong","Loại hình(Doanh nghiệp, HTX, Hộ nuôi,...)":"Hộ nuôi","Địa chỉ sản xuất":"Ấp Tân Trung, xã Tân Quới, tỉnh Vĩnh Long","Chủ cơ sở/Người đại diện":"Nguyễn Thanh Phong","Đối tượng nuôi":"Lươn","Tổng diện tích mặt nước (m2)":null,"Chứng nhận(ASC,BAP, VietGAP,...)":"500","Tình trạng hoạt động":"Đang hoạt động","Ghi chú":null,"layer_id":280,"fid":199,"label":"Nguyễn Thanh Phong"}},{"type":"Feature","id":200,"geometry":{"type":"Point","coordinates":[105.758306,10.110076]},"properties":{"Tên cơ sở":"Nguyễn Thị Mỹ Lệ","Loại hình(Doanh nghiệp, HTX, Hộ nuôi,...)":"Hộ nuôi","Địa chỉ sản xuất":"ấp Thành Quới, xã Tân Quới, tỉnh Vĩnh Long","Chủ cơ sở/Người đại diện":"Nguyễn Thị Mỹ Lệ","Đối tượng nuôi":"Lươn","Tổng diện tích mặt nước (m2)":null,"Chứng nhận(ASC,BAP, VietGAP,...)":"540","Tình trạng hoạt động":"Đang hoạt động","Ghi chú":null,"layer_id":280,"fid":200,"label":"Nguyễn Thị Mỹ Lệ"}},{"type":"Feature","id":201,"geometry":{"type":"Point","coordinates":[105.804634,10.1512934]},"properties":{"Tên cơ sở":"Lê Văn Thảo","Loại hình(Doanh nghiệp, HTX, Hộ nuôi,...)":"Hộ nuôi","Địa chỉ sản xuất":"Ấp Hòa Thuận, xã Mỹ Thuận, tỉnh Vĩnh Long","Chủ cơ sở/Người đại diện":"lê Văn Thảo","Đối tượng nuôi":"Ếch","Tổng diện tích mặt nước (m2)":null,"Chứng nhận(ASC,BAP, VietGAP,...)":"2700","Tình trạng hoạt động":"Đang hoạt động","Ghi chú":null,"layer_id":280,"fid":201,"label":"Lê Văn Thảo"}},{"type":"Feature","id":202,"geometry":{"type":"Point","coordinates":[105.713458,10.13956]},"properties":{"Tên cơ sở":"Nguyễn Ngọc Kỳ","Loại hình(Doanh nghiệp, HTX, Hộ nuôi,...)":"Hộ nuôi","Địa chỉ sản xuất":"Ấp Tân Vĩnh, xã Tân Lược, tỉnh Vĩnh Long","Chủ cơ sở/Người đại diện":"Nguyễn Ngọc Kỳ","Đối tượng nuôi":"Rắn ri voi","Tổng diện tích mặt nước (m2)":null,"Chứng nhận(ASC,BAP, VietGAP,...)":"10","Tình trạng hoạt động":"Đang hoạt động","Ghi chú":null,"layer_id":280,"fid":202,"label":"Nguyễn Ngọc Kỳ"}},{"type":"Feature","id":203,"geometry":{"type":"Point","coordinates":[105.788936,10.072386]},"properties":{"Tên cơ sở":"Nguyễn Văn Dưỡng","Loại hình(Doanh nghiệp, HTX, Hộ nuôi,...)":"Hộ nuôi","Địa chỉ sản xuất":"Ấp Thành Phú, xã Tân Quới, tỉnh Vĩnh Long","Chủ cơ sở/Người đại diện":"Nguyễn Văn Dưỡng","Đối tượng nuôi":"Lươn","Tổng diện tích mặt nước (m2)":null,"Chứng nhận(ASC,BAP, VietGAP,...)":"18","Tình trạng hoạt động":"Đang hoạt động","Ghi chú":null,"layer_id":280,"fid":203,"label":"Nguyễn Văn Dưỡng"}},{"type":"Feature","id":204,"geometry":{"type":"Point","coordinates":[105.765142,10.128964]},"properties":{"Tên cơ sở":"Nguyễn Thanh Liêm","Loại hình(Doanh nghiệp, HTX, Hộ nuôi,...)":"Hộ nuôi","Địa chỉ sản xuất":"Ấp Thành Tân, xã Tân Lược, tỉnh Vĩnh Long","Chủ cơ sở/Người đại diện":"Nguyễn Thanh Liêm","Đối tượng nuôi":"Cá rô đầu nhím","Tổng diện tích mặt nước (m2)":null,"Chứng nhận(ASC,BAP, VietGAP,...)":"500","Tình trạng hoạt động":"Đang hoạt động","Ghi chú":null,"layer_id":280,"fid":204,"label":"Nguyễn Thanh Liêm"}}]}
