{"type":"FeatureCollection","name":"HTX Thủy sản","metadata":{"source":"https://hatang.vinhlong.gov.vn/","downloaded_at":"2026-07-20T01:14:43+00:00","layer_id":285,"layer_name":"HTX Thủy sản","catalog_endpoints":["/map/publicLayers2?inputs=sokhdt"],"requested_bbox":[104.0,8.0,108.0,12.0],"tile_size":0.0,"tile_count":1,"tile_errors":[],"feature_count":6,"coordinate_order":"x,y (thường là longitude,latitude theo cấu hình EPSG:4326 của WebGIS)"},"features":[{"type":"Feature","geometry":{"type":"Point","coordinates":[106.1488553,10.19753518]},"properties":{"Lĩnh vực":"HTX TS Đoàn Kết","Địa chỉ":"Ấp Thuận Thới, An Phước, xã Cái Nhum","Điện thoại":"0342912954","Ngày thành lập":"12/05/2017","CT. HĐQT - Giám Đốc":"Hồ Văn Đồng","layer_id":285,"fid":1,"label":"HTX TS Đoàn Kết"}},{"type":"Feature","geometry":{"type":"Point","coordinates":[105.896663538,9.947529746]},"properties":{"Lĩnh vực":"HTX chế biến thủy sản Phú Thành","Địa chỉ":"Tổ 2, ấp Mái Dầm, Phú Thành, xã Lục Sĩ Thành ","Điện thoại":null,"Ngày thành lập":"6/4/18 12:00:00 AM","CT. HĐQT - Giám Đốc":"Trần Thanh Hải","layer_id":285,"fid":2,"label":"HTX chế biến thủy sản Phú Thành"}},{"type":"Feature","geometry":{"type":"Point","coordinates":[105.956965727,10.293192036]},"properties":{"Lĩnh vực":"HTX liên kết chuỗi thủy sản an toàn Vĩnh Long","Địa chỉ":"Ấp Bình Lương, xã An Bình","Điện thoại":null,"Ngày thành lập":"8/30/19 12:00:00 AM","CT. HĐQT - Giám Đốc":"Phạm Hùng Dũng","layer_id":285,"fid":3,"label":"HTX liên kết chuỗi thủy sản an toàn Vĩnh Long"}},{"type":"Feature","geometry":{"type":"Point","coordinates":[105.97262705,10.313073032]},"properties":{"Lĩnh vực":"HTX thủy sản Đồng Phú","Địa chỉ":"Ấp Phú Thuận 2,  Đồng Phú, xã An Bình","Điện thoại":null,"Ngày thành lập":"6/22/20 12:00:00 AM","CT. HĐQT - Giám Đốc":"Nguyễn Anh Thi","layer_id":285,"fid":4,"label":"HTX thủy sản Đồng Phú"}},{"type":"Feature","geometry":{"type":"Point","coordinates":[106.16006594,10.166545085]},"properties":{"Lĩnh vực":"HTX SX&TT lươn công nghệ cao Sông Măng Vĩnh Long","Địa chỉ":"Tồ 25, ấp Tân Mỹ, Chánh An, xã Cái Nhum","Điện thoại":null,"Ngày thành lập":"5/19/21 12:00:00 AM","CT. HĐQT - Giám Đốc":"Phạm Hoàng Minh","layer_id":285,"fid":5,"label":"HTX SX&TT lươn công nghệ cao Sông Măng Vĩnh Long"}},{"type":"Feature","geometry":{"type":"Point","coordinates":[106.067825955,10.130399744]},"properties":{"Lĩnh vực":" HTX nuôi thủy sản Trường Phát","Địa chỉ":"Tổ 06, ấp Thanh Phong, xã Tân Long Hội","Điện thoại":null,"Ngày thành lập":null,"CT. HĐQT - Giám Đốc":"Nguyễn Văn Hồng","layer_id":285,"fid":6,"label":" HTX nuôi thủy sản Trường Phát"}}]}
