{"type":"FeatureCollection","name":"HTX Công nghiệp","metadata":{"source":"https://hatang.vinhlong.gov.vn/","downloaded_at":"2026-07-20T01:14:47+00:00","layer_id":286,"layer_name":"HTX Công nghiệp","catalog_endpoints":["/map/publicLayers2?inputs=sokhdt"],"requested_bbox":[104.0,8.0,108.0,12.0],"tile_size":0.0,"tile_count":1,"tile_errors":[],"feature_count":18,"coordinate_order":"x,y (thường là longitude,latitude theo cấu hình EPSG:4326 của WebGIS)"},"features":[{"type":"Feature","geometry":{"type":"Point","coordinates":[106.150549626,10.094447638]},"properties":{"Lĩnh vực":"HTX CK thủy lợi Hữu Nghị","Địa chỉ":"Ấp Mướt Sát, xã Trung Hiệp","Số điện thoại":"0913179386","Ngày thành lập":"2/6/09 12:00:00 AM","CT.HĐQT-Giám Đốc":"Đồng Thanh Ngự","layer_id":286,"fid":4,"label":"HTX CK thủy lợi Hữu Nghị"}},{"type":"Feature","geometry":{"type":"Point","coordinates":[106.1849174,10.09562451]},"properties":{"Lĩnh vực":"HTX Cơ điện Phương Đông","Địa chỉ":"Số 15 A, K1, xã Trung Thành","Số điện thoại":"0902872341","Ngày thành lập":"13/01/2003","CT.HĐQT-Giám Đốc":"Đinh Văn Huệ","layer_id":286,"fid":1,"label":"HTX Cơ điện Phương Đông"}},{"type":"Feature","geometry":{"type":"Point","coordinates":[106.185462809,10.0954337]},"properties":{"Lĩnh vực":"HTX Sông Tiền (KTC)","Địa chỉ":"Số 174, lầu 1, TTTM, Đường Nam Kỳ Khới Nghĩa, Khóm 2, xã Trung Thành","Số điện thoại":"0902111555","Ngày thành lập":"11/27/04 12:00:00 AM","CT.HĐQT-Giám Đốc":"Phạm Đức Thượng","layer_id":286,"fid":2,"label":"HTX Sông Tiền (KTC)"}},{"type":"Feature","geometry":{"type":"Point","coordinates":[106.11303777,10.178001233]},"properties":{"Lĩnh vực":"HTX KD Điện Mang Thít","Địa chỉ":"Khóm I, xã Cái Nhum","Số điện thoại":"0939915620","Ngày thành lập":"9/1/08 12:00:00 AM","CT.HĐQT-Giám Đốc":"Ngô Thành Minh","layer_id":286,"fid":3,"label":"HTX KD Điện Mang Thít"}},{"type":"Feature","geometry":{"type":"Point","coordinates":[105.800905929,10.059878139]},"properties":{"Lĩnh vực":"HTX KTC Tân Bình Minh ","Địa chỉ":" Phường Bình Minh","Số điện thoại":"0938779984","Ngày thành lập":"3/1/10 12:00:00 AM","CT.HĐQT-Giám Đốc":"Lưu Hải Đăng Khoa","layer_id":286,"fid":7,"label":"HTX KTC Tân Bình Minh "}},{"type":"Feature","geometry":{"type":"Point","coordinates":[105.901677539,9.969044536]},"properties":{"Lĩnh vực":"HTX SX Bánh Tráng Cù Lao Mây","Địa chỉ":"Tổ 8,Tân Thạnh, xã Lục Sĩ Thành","Số điện thoại":"0939915620","Ngày thành lập":"7/29/11 12:00:00 AM","CT.HĐQT-Giám Đốc":"Lương Văn Thông","layer_id":286,"fid":8,"label":"HTX SX Bánh Tráng Cù Lao Mây"}},{"type":"Feature","geometry":{"type":"Point","coordinates":[105.986627204,10.177415401]},"properties":{"Lĩnh vực":"HTX SX,GCHTCMNXK An Phú ","Địa chỉ":"Khu tái định cư Phú Đức, ấp Phú An, xã Long Hồ","Số điện thoại":"0703895208","Ngày thành lập":"5/1/09 12:00:00 AM","CT.HĐQT-Giám Đốc":"Phan Văn Lăng","layer_id":286,"fid":5,"label":"HTX SX,GCHTCMNXK An Phú "}},{"type":"Feature","geometry":{"type":"Point","coordinates":[106.081135035,10.237143914]},"properties":{"Lĩnh vực":"HTX CC Nước sạch Cái Cạn 2","Địa chỉ":"Ấp Cái Cạn 2, xã Nhơn Phú","Số điện thoại":"0939612760","Ngày thành lập":"3/13/10 12:00:00 AM","CT.HĐQT-Giám Đốc":"Nguyễn Thị Trúc Hiền","layer_id":286,"fid":6,"label":"HTX CC Nước sạch Cái Cạn 2"}},{"type":"Feature","geometry":{"type":"Point","coordinates":[105.905696375,10.012090004]},"properties":{"Lĩnh vực":"HTX liên minh Ngãi Tứ","Địa chỉ":"ấp Bình Quí, xã Ngãi Tứ ","Số điện thoại":"0918228054","Ngày thành lập":"11/24/17 12:00:00 AM","CT.HĐQT-Giám Đốc":"Bùi Thị Thúy An","layer_id":286,"fid":11,"label":"HTX liên minh Ngãi Tứ"}},{"type":"Feature","geometry":{"type":"Point","coordinates":[105.936387782,10.031294716]},"properties":{"Lĩnh vực":"HTX TCMN Quyết Thắng","Địa chỉ":"An Hòa A, Bình Ninh, xã Ngãi Tứ","Số điện thoại":"0923855966","Ngày thành lập":"3/29/17 12:00:00 AM","CT.HĐQT-Giám Đốc":"Phạm Thị Tơ","layer_id":286,"fid":10,"label":"HTX TCMN Quyết Thắng"}},{"type":"Feature","geometry":{"type":"Point","coordinates":[106.04721748,10.078078319]},"properties":{"Lĩnh vực":"HTX gia công hàng TCMN Hồng Giao","Địa chỉ":"Tổ 7, Hồi Xuân, xã Hòa Bình","Số điện thoại":"0788811197","Ngày thành lập":"5/4/18 12:00:00 AM","CT.HĐQT-Giám Đốc":"Đoàn Văn Năm","layer_id":286,"fid":12,"label":"HTX gia công hàng TCMN Hồng Giao"}},{"type":"Feature","geometry":{"type":"Point","coordinates":[106.223262559,10.08120575]},"properties":{"Lĩnh vực":"HTX SX&CB cây lác Vũng Liêm","Địa chỉ":"Tổ 5, Đại Hòa,Trung Thành Đông, xã Trung Ngãi","Số điện thoại":"0909267427","Ngày thành lập":"4/15/14 12:00:00 AM","CT.HĐQT-Giám Đốc":"Trần Trung Hiếu","layer_id":286,"fid":9,"label":"HTX SX&CB cây lác Vũng Liêm"}},{"type":"Feature","geometry":{"type":"Point","coordinates":[106.028567518,10.210367441]},"properties":{"Lĩnh vực":"HTX TCMN Chính Trực","Địa chỉ":"Bình Tịnh A, xã Bình Phước","Số điện thoại":null,"Ngày thành lập":"5/15/18 12:00:00 AM","CT.HĐQT-Giám Đốc":"Trần Văn Chính","layer_id":286,"fid":13,"label":"HTX TCMN Chính Trực"}},{"type":"Feature","geometry":{"type":"Point","coordinates":[106.003344321,10.010702705]},"properties":{"Lĩnh vực":"HTX TCMN  Vũ Khanh","Địa chỉ":"Tổ 04, Ngãi Lộ A, xã Trà Côn","Số điện thoại":"0788811197","Ngày thành lập":"4/22/21 12:00:00 AM","CT.HĐQT-Giám Đốc":"Nguyễn Hữu Tươi","layer_id":286,"fid":16,"label":"HTX TCMN  Vũ Khanh"}},{"type":"Feature","geometry":{"type":"Point","coordinates":[105.979800099,10.243219962]},"properties":{"Lĩnh vực":"HTX Đồng Đội","Địa chỉ":"Số 33/15F, Phạm Thái Bường, phường Phước Hậu","Số điện thoại":"0973084846","Ngày thành lập":"2/6/20 12:00:00 AM","CT.HĐQT-Giám Đốc":"Thái Kim Hoa","layer_id":286,"fid":15,"label":"HTX Đồng Đội"}},{"type":"Feature","geometry":{"type":"Point","coordinates":[105.9590751,10.2571464]},"properties":{"Lĩnh vực":"HTX SX,TMDV&XDDD Tâm Phú Đức","Địa chỉ":"Số 261C, Phạm Hùng, Phường Long Châu","Số điện thoại":"0919235626","Ngày thành lập":"8/12/13 12:00:00 AM","CT.HĐQT-Giám Đốc":"Lê Văn Hân","layer_id":286,"fid":17,"label":"HTX SX,TMDV&XDDD Tâm Phú Đức"}},{"type":"Feature","geometry":{"type":"Point","coordinates":[105.962115696,10.255414896]},"properties":{"Lĩnh vực":"HTX sinh học môi trường Mekong","Địa chỉ":"Số 29, Phạm Hùng, phường Long Châu","Số điện thoại":"0923855966","Ngày thành lập":"5/21/18 12:00:00 AM","CT.HĐQT-Giám Đốc":"Quách Thị Nguyệt Lan","layer_id":286,"fid":14,"label":"HTX sinh học môi trường Mekong"}},{"type":"Feature","geometry":{"type":"Point","coordinates":[105.950327353,10.232584553]},"properties":{"Lĩnh vực":"HTX sản xuất, thương mại, dịch vụ, xây dựng và cơ khí Cửu Long Mới","Địa chỉ":"D37 Đinh Tiên Hoàng, phường Tân Hạnh","Số điện thoại":"0918228054","Ngày thành lập":"8/7/18 12:00:00 AM","CT.HĐQT-Giám Đốc":"Lê Văn Bé Sáu","layer_id":286,"fid":18,"label":"HTX sản xuất, thương mại, dịch vụ, xây dựng và cơ khí Cửu Long Mới"}}]}
