{"type":"FeatureCollection","name":"HTX Xây dựng","metadata":{"source":"https://hatang.vinhlong.gov.vn/","downloaded_at":"2026-07-20T01:14:52+00:00","layer_id":287,"layer_name":"HTX Xây dựng","catalog_endpoints":["/map/publicLayers2?inputs=sokhdt"],"requested_bbox":[104.0,8.0,108.0,12.0],"tile_size":0.0,"tile_count":1,"tile_errors":[],"feature_count":17,"coordinate_order":"x,y (thường là longitude,latitude theo cấu hình EPSG:4326 của WebGIS)"},"features":[{"type":"Feature","geometry":{"type":"Point","coordinates":[105.825650085,10.075721591]},"properties":{"Lĩnh vực":"HTX xây dựng Quốc Dũng","Địa chỉ":"Thuận An, phường Bình Minh","Số điện thoại":"0978344834","Ngày thành lập":"3/2/09 12:00:00 AM","CT.HĐQT-Giám Đốc":"Nguyễn Phước Dũng","layer_id":287,"fid":5,"label":"HTX xây dựng Quốc Dũng"}},{"type":"Feature","geometry":{"type":"Point","coordinates":[105.863835962,10.04619266]},"properties":{"Lĩnh vực":"HTX Xây dựng Thành Đạt","Địa chỉ":" Đông Thạnh, phường Đông Thành","Số điện thoại":"0903710480","Ngày thành lập":"4/11/14 12:00:00 AM","CT.HĐQT-Giám Đốc":"Nguyễn Quang Thanh","layer_id":287,"fid":4,"label":"HTX Xây dựng Thành Đạt"}},{"type":"Feature","geometry":{"type":"Point","coordinates":[106.19647171,10.0643288]},"properties":{"Lĩnh vực":"HTX Xây dựng Tiến Phát","Địa chỉ":"439, An Nhơn, xã Trung Thành","Số điện thoại":"0906747229","Ngày thành lập":"1/24/07 12:00:00 AM","CT.HĐQT-Giám Đốc":"Trần Hoàng Nam","layer_id":287,"fid":2,"label":"HTX Xây dựng Tiến Phát"}},{"type":"Feature","geometry":{"type":"Point","coordinates":[106.1953279,10.06954911]},"properties":{"Lĩnh vực":"HTX Xây dựng Vũng Liêm","Địa chỉ":"An Nhơn, xã Trung Thành","Số điện thoại":"0985766762","Ngày thành lập":"6/14/2005","CT.HĐQT-Giám Đốc":"Nguyễn Lộc Thính","layer_id":287,"fid":1,"label":"HTX Xây dựng Vũng Liêm"}},{"type":"Feature","geometry":{"type":"Point","coordinates":[106.191040927,10.08974788]},"properties":{"Lĩnh vực":"HTX Cơ khí - XD Thành Phát","Địa chỉ":"Tổ 16, Phong Thới, xã Trung Thành","Số điện thoại":"0902208036","Ngày thành lập":"4/6/07 12:00:00 AM","CT.HĐQT-Giám Đốc":"Nguyễn Văn Việt","layer_id":287,"fid":3,"label":"HTX Cơ khí - XD Thành Phát"}},{"type":"Feature","geometry":{"type":"Point","coordinates":[105.911806763,10.258632687]},"properties":{"Lĩnh vực":"HTX XDDV-TM Vĩnh Long","Địa chỉ":"Số 192, Tân Hưng, phường Tân Ngãi","Số điện thoại":"0918822874","Ngày thành lập":"9/1/10 12:00:00 AM","CT.HĐQT-Giám Đốc":"Nguyễn Tấn Lai","layer_id":287,"fid":9,"label":"HTX XDDV-TM Vĩnh Long"}},{"type":"Feature","geometry":{"type":"Point","coordinates":[105.769918194,10.095761644]},"properties":{"Lĩnh vực":"HTX xây dựng Bình Tân","Địa chỉ":"Ấp Tân Thuận, xã Tân Quới","Số điện thoại":"0919235626","Ngày thành lập":"9/29/09 12:00:00 AM","CT.HĐQT-Giám Đốc":"Nguyễn Khắc Điệp","layer_id":287,"fid":7,"label":"HTX xây dựng Bình Tân"}},{"type":"Feature","geometry":{"type":"Point","coordinates":[106.210028928,10.027223431]},"properties":{"Lĩnh vực":"HTX XD Thanh Diệp","Địa chỉ":"Ấp 3,Trung Nghĩa, xã Trung Ngãi","Số điện thoại":"0703501450","Ngày thành lập":"9/1/10 12:00:00 AM","CT.HĐQT-Giám Đốc":"Nguyễn Thanh Diệp","layer_id":287,"fid":8,"label":"HTX XD Thanh Diệp"}},{"type":"Feature","geometry":{"type":"Point","coordinates":[106.189637249,10.091605925]},"properties":{"Lĩnh vực":"HTX xây dựng Cường Thịnh","Địa chỉ":"13, tổ 9, Khóm 2, xã Trung Thành","Số điện thoại":"0974197697","Ngày thành lập":"5/22/09 12:00:00 AM","CT.HĐQT-Giám Đốc":"Nguyễn Thành Huệ","layer_id":287,"fid":6,"label":"HTX xây dựng Cường Thịnh"}},{"type":"Feature","geometry":{"type":"Point","coordinates":[105.8456024,10.056643929]},"properties":{"Lĩnh vực":"HTX XD Đông Bình","Địa chỉ":"Tổ 8, Đông Hậu, Đông Bình, phường Đông Thành","Số điện thoại":"0939927721","Ngày thành lập":"10/4/13 12:00:00 AM","CT.HĐQT-Giám Đốc":"Nguyễn Hoàng Anh","layer_id":287,"fid":12,"label":"HTX XD Đông Bình"}},{"type":"Feature","geometry":{"type":"Point","coordinates":[105.872656119,10.019339205]},"properties":{"Lĩnh vực":"HTX XD Bình Minh","Địa chỉ":"Tổ 3, Đông Hòa 2, phường Đông Thành","Số điện thoại":"0907212425","Ngày thành lập":"1/16/17 12:00:00 AM","CT.HĐQT-Giám Đốc":"Đinh Quang Hợp","layer_id":287,"fid":13,"label":"HTX XD Bình Minh"}},{"type":"Feature","geometry":{"type":"Point","coordinates":[106.231992992,10.105635895]},"properties":{"Lĩnh vực":"HTX XD Thanh Bình","Địa chỉ":"Tổ 13, Thái Bình, Thanh Bình, xã Quới Thiện","Số điện thoại":"0907212425","Ngày thành lập":"7/7/13 12:00:00 AM","CT.HĐQT-Giám Đốc":"Nguyễn Văn Vũ Sơn","layer_id":287,"fid":11,"label":"HTX XD Thanh Bình"}},{"type":"Feature","geometry":{"type":"Point","coordinates":[106.187089967,10.102985129]},"properties":{"Lĩnh vực":"HTX XD Thịnh Phát","Địa chỉ":"Tổ 3 , Hoà Nghĩa, xã Quới An","Số điện thoại":"0932714909","Ngày thành lập":"3/27/13 12:00:00 AM","CT.HĐQT-Giám Đốc":"Trần Văn Sang","layer_id":287,"fid":10,"label":"HTX XD Thịnh Phát"}},{"type":"Feature","geometry":{"type":"Point","coordinates":[105.822435002,10.073202819]},"properties":{"Lĩnh vực":"HTX xây dựng, thương mại Tuấn Thanh","Địa chỉ":"Tổ 19, K5, phường Cái Vồn, phường Bình Minh","Số điện thoại":"0945844999","Ngày thành lập":"4/8/22 12:00:00 AM","CT.HĐQT-Giám Đốc":"Lê Tuấn Thanh","layer_id":287,"fid":17,"label":"HTX xây dựng, thương mại Tuấn Thanh"}},{"type":"Feature","geometry":{"type":"Point","coordinates":[105.833456135,10.023595217]},"properties":{"Lĩnh vực":"HTX TMDV Bình Minh (xây dựng)","Địa chỉ":"Tổ 12, Ấp Mỹ Lợi, Mỹ Hòa, phường Cái Vồn","Số điện thoại":"0908466335","Ngày thành lập":"6/20/17 12:00:00 AM","CT.HĐQT-Giám Đốc":"Nguyễn Văn Rùm","layer_id":287,"fid":15,"label":"HTX TMDV Bình Minh (xây dựng)"}},{"type":"Feature","geometry":{"type":"Point","coordinates":[105.981022765,10.247528727]},"properties":{"Lĩnh vực":"HTX Cửu Long","Địa chỉ":"Số 128A, Trần Phú, phường Phước Hậu","Số điện thoại":"0918315769","Ngày thành lập":"4/12/17 12:00:00 AM","CT.HĐQT-Giám Đốc":"Lê Hoàng Vũ","layer_id":287,"fid":14,"label":"HTX Cửu Long"}},{"type":"Feature","geometry":{"type":"Point","coordinates":[106.167865936,10.074884251]},"properties":{"Lĩnh vực":"HTX XD công trình giao thông Vũng Liêm","Địa chỉ":"An Điền 1, Trung Hiếu, xã Trung Thành","Số điện thoại":"0903736906","Ngày thành lập":"4/1/22 12:00:00 AM","CT.HĐQT-Giám Đốc":"Phạm Quốc Dũng","layer_id":287,"fid":16,"label":"HTX XD công trình giao thông Vũng Liêm"}}]}
