{"type":"FeatureCollection","name":"Rau màu CSKDG ","metadata":{"source":"https://hatang.vinhlong.gov.vn/","downloaded_at":"2026-07-20T01:15:05+00:00","layer_id":289,"layer_name":"Rau màu CSKDG ","catalog_endpoints":["/map/publicLayers2?inputs=bvtv"],"requested_bbox":[104.0,8.0,108.0,12.0],"tile_size":0.0,"tile_count":1,"tile_errors":[],"feature_count":46,"coordinate_order":"x,y (thường là longitude,latitude theo cấu hình EPSG:4326 của WebGIS)"},"features":[{"type":"Feature","id":87,"geometry":{"type":"Point","coordinates":[105.83314,10.07986]},"properties":{"Tên cơ sở ":"HKD Trí Dũng","Người đại diện":"Đỗ Trí Dũng","Địa chỉ giao dịch":"Ấp Thuận Tiến B, xã Thuận An, thị xã Bình Minh","Sản Xuất, Kinh Doanh, Sản Xuất + Kinh Doanh":"Kinh doanh","layer_id":289,"fid":87,"label":"HKD Trí Dũng"}},{"type":"Feature","id":88,"geometry":{"type":"Point","coordinates":[105.82222,10.0651]},"properties":{"Tên cơ sở ":"HKD V.Tel Nam Hưng","Người đại diện":"Vương Tấn Phát","Địa chỉ giao dịch":"Khóm 1, TT Cái Vồn, thị xã Bình Minh","Sản Xuất, Kinh Doanh, Sản Xuất + Kinh Doanh":"Kinh doanh","layer_id":289,"fid":88,"label":"HKD V.Tel Nam Hưng"}},{"type":"Feature","id":89,"geometry":{"type":"Point","coordinates":[105.8207,10.06844]},"properties":{"Tên cơ sở ":"HKD CSKD VTNN Tân Nguyên","Người đại diện":"Trần Kim Thông","Địa chỉ giao dịch":"Khóm 1, TT Cái Vồn, thị xã Bình Minh","Sản Xuất, Kinh Doanh, Sản Xuất + Kinh Doanh":"Kinh doanh","layer_id":289,"fid":89,"label":"HKD CSKD VTNN Tân Nguyên"}},{"type":"Feature","id":90,"geometry":{"type":"Point","coordinates":[105.82288,10.06507]},"properties":{"Tên cơ sở ":"HKD Tiệm Phân Tân Hưng","Người đại diện":"Lê Ngọc Đặng","Địa chỉ giao dịch":"Khóm 1, TT Cái Vồn, thị xã Bình Minh","Sản Xuất, Kinh Doanh, Sản Xuất + Kinh Doanh":"Kinh doanh","layer_id":289,"fid":90,"label":"HKD Tiệm Phân Tân Hưng"}},{"type":"Feature","id":91,"geometry":{"type":"Point","coordinates":[105.82239,10.0649]},"properties":{"Tên cơ sở ":"HKD Lê Thanh Liên","Người đại diện":"Lê Thanh Liên","Địa chỉ giao dịch":"Khóm 1, TT Cái Vồn, thị xã Bình Minh","Sản Xuất, Kinh Doanh, Sản Xuất + Kinh Doanh":"Kinh doanh","layer_id":289,"fid":91,"label":"HKD Lê Thanh Liên"}},{"type":"Feature","id":92,"geometry":{"type":"Point","coordinates":[105.82233,10.06496]},"properties":{"Tên cơ sở ":"HKD Phùng Bửu Châu","Người đại diện":"Phùng Bửu Châu","Địa chỉ giao dịch":"Khóm 1, TT Cái Vồn, thị xã Bình Minh","Sản Xuất, Kinh Doanh, Sản Xuất + Kinh Doanh":"Kinh doanh","layer_id":289,"fid":92,"label":"HKD Phùng Bửu Châu"}},{"type":"Feature","id":93,"geometry":{"type":"Point","coordinates":[106.187238,10.097428]},"properties":{"Tên cơ sở ":"HKD Nam Ký","Người đại diện":"Trần Hớn Quang","Địa chỉ giao dịch":"Ấp Phong Thới, thị trấn Vũng Liêm, tỉnh Vĩnh Long","Sản Xuất, Kinh Doanh, Sản Xuất + Kinh Doanh":"Kinh doanh","layer_id":289,"fid":93,"label":"HKD Nam Ký"}},{"type":"Feature","id":94,"geometry":{"type":"Point","coordinates":[106.194135,10.071701]},"properties":{"Tên cơ sở ":"HKD Thanh Như","Người đại diện":"Nguyễn Thị Thanh Như","Địa chỉ giao dịch":"Ấp Trung Trạch, xã Trung Thành, huyện Vũng Liêm, tỉnh Vĩnh Long","Sản Xuất, Kinh Doanh, Sản Xuất + Kinh Doanh":"Kinh doanh","layer_id":289,"fid":94,"label":"HKD Thanh Như"}},{"type":"Feature","id":95,"geometry":{"type":"Point","coordinates":[106.151031,10.075141]},"properties":{"Tên cơ sở ":"HKD VTNN Vũ Anh (Út Mân)","Người đại diện":"Trần Thị Diệp Anh","Địa chỉ giao dịch":"Ấp Bình Thành, xã Trung Hiếu, huyện Vũng Liêm, tỉnh Vĩnh Long","Sản Xuất, Kinh Doanh, Sản Xuất + Kinh Doanh":"Kinh doanh","layer_id":289,"fid":95,"label":"HKD VTNN Vũ Anh (Út Mân)"}},{"type":"Feature","id":96,"geometry":{"type":"Point","coordinates":[0.0,0.0]},"properties":{"Tên cơ sở ":"HKD Cao Quốc Khanh","Người đại diện":"Cao Quốc Khanh","Địa chỉ giao dịch":"Ấp Quang Thạnh - xã Hiếu Phụng, huyện Vũng Liêm, tỉnh Vĩnh Long","Sản Xuất, Kinh Doanh, Sản Xuất + Kinh Doanh":"Kinh doanh","layer_id":289,"fid":96,"label":"HKD Cao Quốc Khanh"}},{"type":"Feature","id":97,"geometry":{"type":"Point","coordinates":[106.195337,10.068936]},"properties":{"Tên cơ sở ":"HKD Nguyễn Văn Phấn","Người đại diện":"Nguyễn Văn Phấn","Địa chỉ giao dịch":"Ấp An Trung, xã Trung Thành, huyện Vũng Liêm, tỉnh Vĩnh Long","Sản Xuất, Kinh Doanh, Sản Xuất + Kinh Doanh":"Kinh doanh","layer_id":289,"fid":97,"label":"HKD Nguyễn Văn Phấn"}},{"type":"Feature","id":98,"geometry":{"type":"Point","coordinates":[106.084292,10.100954]},"properties":{"Tên cơ sở ":"HKD Trung Vân","Người đại diện":"Phan Thị Cẩm Vân","Địa chỉ giao dịch":"Ấp 8 - xã Tân An Luông, huyện Vũng Liêm, tỉnh Vĩnh Long","Sản Xuất, Kinh Doanh, Sản Xuất + Kinh Doanh":"Kinh doanh","layer_id":289,"fid":98,"label":"HKD Trung Vân"}},{"type":"Feature","id":99,"geometry":{"type":"Point","coordinates":[106.092995,10.092247]},"properties":{"Tên cơ sở ":"HKD Hai Hoàng","Người đại diện":"Võ Thị Hồng Mai","Địa chỉ giao dịch":"Ấp Quang Phú, xã  Hiếu Phụng, huyện Vũng Liêm, tỉnh Vĩnh Long","Sản Xuất, Kinh Doanh, Sản Xuất + Kinh Doanh":"Kinh doanh","layer_id":289,"fid":99,"label":"HKD Hai Hoàng"}},{"type":"Feature","id":100,"geometry":{"type":"Point","coordinates":[106.198924,10.054882]},"properties":{"Tên cơ sở ":"HKD Sáu Mai","Người đại diện":"Trần Thị Đào","Địa chỉ giao dịch":"Ấp Giồng Ké, xã Trung Ngãi, huyện Vũng Liêm, tỉnh Vĩnh Long","Sản Xuất, Kinh Doanh, Sản Xuất + Kinh Doanh":"Kinh doanh","layer_id":289,"fid":100,"label":"HKD Sáu Mai"}},{"type":"Feature","id":101,"geometry":{"type":"Point","coordinates":[106.199097,10.053944]},"properties":{"Tên cơ sở ":"HKD Nguyễn Thị Nga","Người đại diện":"Nguyễn Thị Nga","Địa chỉ giao dịch":"Ấp Giồng ké, xã  Trung Ngãi, huyện Vũng Liêm, tỉnh Vĩnh Long","Sản Xuất, Kinh Doanh, Sản Xuất + Kinh Doanh":"Kinh doanh","layer_id":289,"fid":101,"label":"HKD Nguyễn Thị Nga"}},{"type":"Feature","id":102,"geometry":{"type":"Point","coordinates":[106.145985,10.041053]},"properties":{"Tên cơ sở ":"HKD Liễu Linh Ngân","Người đại diện":"Lê Hữu Phước","Địa chỉ giao dịch":" Ấp An Lạc 1, xã Trung An, huyện Vũng Liêm, tỉnh Vĩnh Long","Sản Xuất, Kinh Doanh, Sản Xuất + Kinh Doanh":"Kinh doanh","layer_id":289,"fid":102,"label":"HKD Liễu Linh Ngân"}},{"type":"Feature","id":103,"geometry":{"type":"Point","coordinates":[106.119524,10.110612]},"properties":{"Tên cơ sở ":"HKD Chí Thiện","Người đại diện":"Âu Văn Trường Giang","Địa chỉ giao dịch":"Ấp Chợ Mới- xã Trung Chánh, huyện Vũng Liêm, tỉnh Vĩnh Long","Sản Xuất, Kinh Doanh, Sản Xuất + Kinh Doanh":"Kinh doanh","layer_id":289,"fid":103,"label":"HKD Chí Thiện"}},{"type":"Feature","id":104,"geometry":{"type":"Point","coordinates":[106.118454,10.097109]},"properties":{"Tên cơ sở ":"HKD CHVTNN Khả Ngân","Người đại diện":"Nguyễn Thái In","Địa chỉ giao dịch":"Ấp Nhơn Nghĩa, xã Hiếu Phụng, huyện Vũng Liêm, tỉnh Vĩnh Long","Sản Xuất, Kinh Doanh, Sản Xuất + Kinh Doanh":"Kinh doanh","layer_id":289,"fid":104,"label":"HKD CHVTNN Khả Ngân"}},{"type":"Feature","id":105,"geometry":{"type":"Point","coordinates":[106.152247,10.153563]},"properties":{"Tên cơ sở ":"HKD CHVTNN Gia Thanh","Người đại diện":"Nguyễn Thanh Thanh","Địa chỉ giao dịch":"Ấp Nhất, xã Quới An, huyện Vũng Liêm, tỉnh Vĩnh Long","Sản Xuất, Kinh Doanh, Sản Xuất + Kinh Doanh":"Kinh doanh","layer_id":289,"fid":105,"label":"HKD CHVTNN Gia Thanh"}},{"type":"Feature","id":106,"geometry":{"type":"Point","coordinates":[106.193621,10.061716]},"properties":{"Tên cơ sở ":"HKD Trần Phúc Tân","Người đại diện":"Trần Phúc Tân","Địa chỉ giao dịch":"Âp Xuân Minh 2-Trung Thành-huyện Vũng Liêm-Vĩnh Long","Sản Xuất, Kinh Doanh, Sản Xuất + Kinh Doanh":"Kinh doanh","layer_id":289,"fid":106,"label":"HKD Trần Phúc Tân"}},{"type":"Feature","id":107,"geometry":{"type":"Point","coordinates":[10.048003,106.00085]},"properties":{"Tên cơ sở ":" HKD Dân Nam","Người đại diện":"Nguyễn Văn Thi","Địa chỉ giao dịch":"Khóm 1, TT Tam Bình, huyện Tam Bình, tỉnh Vĩnh Long","Sản Xuất, Kinh Doanh, Sản Xuất + Kinh Doanh":"Kinh doanh","layer_id":289,"fid":107,"label":" HKD Dân Nam"}},{"type":"Feature","id":108,"geometry":{"type":"Point","coordinates":[10.04754,106.00048]},"properties":{"Tên cơ sở ":"HKD Vĩnh","Người đại diện":"Trương Anh Kiệt","Địa chỉ giao dịch":"Khóm 1, TT Tam Bình, huyện Tam Bình, tỉnh Vĩnh Long","Sản Xuất, Kinh Doanh, Sản Xuất + Kinh Doanh":"Kinh doanh","layer_id":289,"fid":108,"label":"HKD Vĩnh"}},{"type":"Feature","id":109,"geometry":{"type":"Point","coordinates":[10.03756,105.90486]},"properties":{"Tên cơ sở ":"HKD Trí Hải","Người đại diện":"Nguyễn Trí Hải","Địa chỉ giao dịch":"Ấp Bình Quí, xã Ngãi Tứ, huyện Tam Bình, tỉnh Vĩnh Long","Sản Xuất, Kinh Doanh, Sản Xuất + Kinh Doanh":"Kinh doanh","layer_id":289,"fid":109,"label":"HKD Trí Hải"}},{"type":"Feature","id":110,"geometry":{"type":"Point","coordinates":[105.8886671,10.1623272]},"properties":{"Tên cơ sở ":"Đoàn Xuân Thùy","Người đại diện":"Đoàn Xuân Thùy","Địa chỉ giao dịch":"Hòa Thạnh 2-Thạnh Quới- LH","Sản Xuất, Kinh Doanh, Sản Xuất + Kinh Doanh":"Kinh Doanh","layer_id":289,"fid":110,"label":"Đoàn Xuân Thùy"}},{"type":"Feature","id":111,"geometry":{"type":"Point","coordinates":[105.97545,10.2076]},"properties":{"Tên cơ sở ":"Lương Thị Thu Hương","Người đại diện":"Lương Thị Thu Hương","Địa chỉ giao dịch":"Phước Lợi A-Long Phước","Sản Xuất, Kinh Doanh, Sản Xuất + Kinh Doanh":"Kinh Doanh","layer_id":289,"fid":111,"label":"Lương Thị Thu Hương"}},{"type":"Feature","id":112,"geometry":{"type":"Point","coordinates":[105.95733,10.21299]},"properties":{"Tên cơ sở ":"Nguyễn Thị Lệ","Người đại diện":"Nguyễn Thị Lệ","Địa chỉ giao dịch":"Phước Hanh A-Phước Hậu- LH","Sản Xuất, Kinh Doanh, Sản Xuất + Kinh Doanh":"Kinh Doanh","layer_id":289,"fid":112,"label":"Nguyễn Thị Lệ"}},{"type":"Feature","id":113,"geometry":{"type":"Point","coordinates":[105.8936169,10.168752]},"properties":{"Tên cơ sở ":"Phan Thanh Liêm","Người đại diện":"Phan Thanh Liêm","Địa chỉ giao dịch":"Thạnh Phú-Thạnh Quới - H","Sản Xuất, Kinh Doanh, Sản Xuất + Kinh Doanh":"Kinh Doanh","layer_id":289,"fid":113,"label":"Phan Thanh Liêm"}},{"type":"Feature","id":114,"geometry":{"type":"Point","coordinates":[105.95733,10.21299]},"properties":{"Tên cơ sở ":"Lê Thị Thu Hà","Người đại diện":"Lê Thị Thu Hà","Địa chỉ giao dịch":"Phước Lợi B-Phước Hậu LH","Sản Xuất, Kinh Doanh, Sản Xuất + Kinh Doanh":"Kinh Doanh","layer_id":289,"fid":114,"label":"Lê Thị Thu Hà"}},{"type":"Feature","id":115,"geometry":{"type":"Point","coordinates":[10.172241,106.109524]},"properties":{"Tên cơ sở ":"HKD Kim Chi ","Người đại diện":"Bùi Kim Chi","Địa chỉ giao dịch":"khóm 1, thị trấn Cái Nhum, huyện Mang Thít, tỉnh Vĩnh Long","Sản Xuất, Kinh Doanh, Sản Xuất + Kinh Doanh":"Kinh Doanh","layer_id":289,"fid":115,"label":"HKD Kim Chi "}},{"type":"Feature","id":116,"geometry":{"type":"Point","coordinates":[10.226356,106.01807]},"properties":{"Tên cơ sở ":"HKD Tạp Hóa Ngọc Duyên","Người đại diện":"Trần Thị Ngọc Duyên","Địa chỉ giao dịch":"ấp Long Phước xã Long Mỹ huyện Mang Thít ","Sản Xuất, Kinh Doanh, Sản Xuất + Kinh Doanh":"Kinh Doanh","layer_id":289,"fid":116,"label":"HKD Tạp Hóa Ngọc Duyên"}},{"type":"Feature","id":117,"geometry":{"type":"Point","coordinates":[10.2076,106.0873]},"properties":{"Tên cơ sở ":"HKD Phú Khang","Người đại diện":"Phạm Ngọc Tấn","Địa chỉ giao dịch":"Ấp Phú Thạnh A, xã Nhơn Phú, huyện Mang Thít, tỉnh Vĩnh Long","Sản Xuất, Kinh Doanh, Sản Xuất + Kinh Doanh":"Kinh Doanh","layer_id":289,"fid":117,"label":"HKD Phú Khang"}},{"type":"Feature","id":118,"geometry":{"type":"Point","coordinates":[10.240814,106.05039]},"properties":{"Tên cơ sở ":"HKD Bảy Sơn (HKD cửa hàng VTNN Bảy Sơn )","Người đại diện":"Châu Ngọc Sơn","Địa chỉ giao dịch":"Ấp Hòa Long, xã Mỹ An, huyện Mang Thít, tỉnh Vĩnh Long","Sản Xuất, Kinh Doanh, Sản Xuất + Kinh Doanh":"Kinh Doanh","layer_id":289,"fid":118,"label":"HKD Bảy Sơn (HKD cửa hàng VTNN Bảy Sơn )"}},{"type":"Feature","id":119,"geometry":{"type":"Point","coordinates":[10.114036,106.069806]},"properties":{"Tên cơ sở ":"HKD Út Nhỏ (VTNN Út Nhỏ)","Người đại diện":"Đinh Văn Út","Địa chỉ giao dịch":"Ấp Thanh Phong, xã Tân Long Hội, huyện Mang Thít, tỉnh Vĩnh Long","Sản Xuất, Kinh Doanh, Sản Xuất + Kinh Doanh":"Kinh Doanh","layer_id":289,"fid":119,"label":"HKD Út Nhỏ (VTNN Út Nhỏ)"}},{"type":"Feature","id":120,"geometry":{"type":"Point","coordinates":[105.773122,10.174812]},"properties":{"Tên cơ sở ":"HKD Hiếu Hằng","Người đại diện":"Phạm Thanh Hiếu","Địa chỉ giao dịch":"Ấp Tân Lập, Tân Thành, huyện Bình Tân, tỉnh Vĩnh Long","Sản Xuất, Kinh Doanh, Sản Xuất + Kinh Doanh":"KD","layer_id":289,"fid":120,"label":"HKD Hiếu Hằng"}},{"type":"Feature","id":121,"geometry":{"type":"Point","coordinates":[105.772889,10.121556]},"properties":{"Tên cơ sở ":"HKD Sáu Long","Người đại diện":"Trần Thanh Long","Địa chỉ giao dịch":"Ấp Thành An, Thành Lợi huyện Bình Tân tỉnh Vĩnh Long","Sản Xuất, Kinh Doanh, Sản Xuất + Kinh Doanh":"KD","layer_id":289,"fid":121,"label":"HKD Sáu Long"}},{"type":"Feature","id":122,"geometry":{"type":"Point","coordinates":[105.795256,10.145747]},"properties":{"Tên cơ sở ":"HKD Sáu Long 2","Người đại diện":"Trần Thanh Lộc","Địa chỉ giao dịch":"Ấp Thành HiếuThành Trung huyện Bình Tân tỉnh Vĩnh Long","Sản Xuất, Kinh Doanh, Sản Xuất + Kinh Doanh":"KD","layer_id":289,"fid":122,"label":"HKD Sáu Long 2"}},{"type":"Feature","id":123,"geometry":{"type":"Point","coordinates":[105.797916,10.120179]},"properties":{"Tên cơ sở ":"HKD Đại Thu","Người đại diện":"Liễu Tông Đại","Địa chỉ giao dịch":"Ấp Mỹ Tân, Mỹ Thuận huyện Bình Tân, tỉnh Vĩnh Long","Sản Xuất, Kinh Doanh, Sản Xuất + Kinh Doanh":"KD","layer_id":289,"fid":123,"label":"HKD Đại Thu"}},{"type":"Feature","id":124,"geometry":{"type":"Point","coordinates":[105.775139,10.175347]},"properties":{"Tên cơ sở ":"HKD Tám Đê","Người đại diện":"Nguyễn Văn Được","Địa chỉ giao dịch":"Ấp Tân Lập, Tân Thành, huyện Bình Tân, tỉnh Vĩnh Long","Sản Xuất, Kinh Doanh, Sản Xuất + Kinh Doanh":"KD","layer_id":289,"fid":124,"label":"HKD Tám Đê"}},{"type":"Feature","id":125,"geometry":{"type":"Point","coordinates":[105.749964,10.10481]},"properties":{"Tên cơ sở ":"HKD Tư On","Người đại diện":"Bùi Hồng Xuân","Địa chỉ giao dịch":"Ấp Tân Thuận, Tân Qưới, huyện Bình Tân tỉnh Vĩnh Long","Sản Xuất, Kinh Doanh, Sản Xuất + Kinh Doanh":"KD","layer_id":289,"fid":125,"label":"HKD Tư On"}},{"type":"Feature","id":126,"geometry":{"type":"Point","coordinates":[105.76688,10.087281]},"properties":{"Tên cơ sở ":"HKD Tâm Hiếu","Người đại diện":"Nguyễn Văn Tâm","Địa chỉ giao dịch":"Ấp Tân Hạnh, Tân Qưới, huyện Bình Tân tỉnh Vĩnh Long","Sản Xuất, Kinh Doanh, Sản Xuất + Kinh Doanh":"KD","layer_id":289,"fid":126,"label":"HKD Tâm Hiếu"}},{"type":"Feature","id":127,"geometry":{"type":"Point","coordinates":[105.775801,10.175076]},"properties":{"Tên cơ sở ":"HKD Tân Minh Thành","Người đại diện":"Nguyễn Kim Hương","Địa chỉ giao dịch":"Ấp Tân Lập, Tân Thành, huyện Bình Tân, tỉnh Vĩnh Long","Sản Xuất, Kinh Doanh, Sản Xuất + Kinh Doanh":"KD","layer_id":289,"fid":127,"label":"HKD Tân Minh Thành"}},{"type":"Feature","id":128,"geometry":{"type":"Point","coordinates":[105.77142,10.173817]},"properties":{"Tên cơ sở ":"HKD Long Tuyền","Người đại diện":"Văn Đắt Thanh","Địa chỉ giao dịch":"Ấp Tân Lập, Tân Thành, huyện Bình Tân, tỉnh Vĩnh Long","Sản Xuất, Kinh Doanh, Sản Xuất + Kinh Doanh":"KD","layer_id":289,"fid":128,"label":"HKD Long Tuyền"}},{"type":"Feature","id":129,"geometry":{"type":"Point","coordinates":[105.719654,10.136715]},"properties":{"Tên cơ sở ":"HKD Đức Tân","Người đại diện":"Lê Thị Giúp","Địa chỉ giao dịch":"Ấp Tân Minh, Tân Lược, huyện Bình Tân, tỉnh Vĩnh Long","Sản Xuất, Kinh Doanh, Sản Xuất + Kinh Doanh":"KD","layer_id":289,"fid":129,"label":"HKD Đức Tân"}},{"type":"Feature","id":130,"geometry":{"type":"Point","coordinates":[105.696182,10.155248]},"properties":{"Tên cơ sở ":"HKD Ngọc Thĩnh","Người đại diện":"Nguyễn Ngọc Thĩnh","Địa chỉ giao dịch":"Ấp An Thới, Tân An Thạnh, huyện Bình Tân, tỉnh Vĩnh Long","Sản Xuất, Kinh Doanh, Sản Xuất + Kinh Doanh":"KD","layer_id":289,"fid":130,"label":"HKD Ngọc Thĩnh"}},{"type":"Feature","id":131,"geometry":{"type":"Point","coordinates":[105.717676,10.142634]},"properties":{"Tên cơ sở ":"HKD Phan Hùng Dũng","Người đại diện":"Phan Hùng Dũng","Địa chỉ giao dịch":"Ấp Tân Lộc, Tân Lược, huyện Bình Tân, tỉnh Vĩnh Long","Sản Xuất, Kinh Doanh, Sản Xuất + Kinh Doanh":"KD","layer_id":289,"fid":131,"label":"HKD Phan Hùng Dũng"}},{"type":"Feature","id":132,"geometry":{"type":"Point","coordinates":[105.718244,10.142916]},"properties":{"Tên cơ sở ":"HKD Như Vân","Người đại diện":"Nguyễn Thị Mười","Địa chỉ giao dịch":"Chợ Tân Lược, huyện Bình Tân, tỉnh Vĩnh Long","Sản Xuất, Kinh Doanh, Sản Xuất + Kinh Doanh":"KD","layer_id":289,"fid":132,"label":"HKD Như Vân"}}]}
