{"type":"FeatureCollection","name":"Cây ăn trái CSKDG ","metadata":{"source":"https://hatang.vinhlong.gov.vn/","downloaded_at":"2026-07-20T01:15:10+00:00","layer_id":290,"layer_name":"Cây ăn trái CSKDG ","catalog_endpoints":["/map/publicLayers2?inputs=bvtv"],"requested_bbox":[104.0,8.0,108.0,12.0],"tile_size":0.0,"tile_count":1,"tile_errors":[],"feature_count":80,"coordinate_order":"x,y (thường là longitude,latitude theo cấu hình EPSG:4326 của WebGIS)"},"features":[{"type":"Feature","id":67,"geometry":{"type":"Point","coordinates":[0.0,0.0]},"properties":{"Tên cơ sở ":"HKD Tiên GARDEN","Người đại diện":"Trần Thị Mỹ Tiên","Địa chỉ giao dịch":"Xã Nguyễn Văn Thảnh, huyện Bình Tân, tỉnh Vĩnh Long","Lĩnh vực SX,KD,KD+SX":"Kinh doanh","layer_id":290,"fid":67,"label":"HKD Tiên GARDEN"}},{"type":"Feature","id":68,"geometry":{"type":"Point","coordinates":[0.0,0.0]},"properties":{"Tên cơ sở ":"HKD  Nguyễn Duy","Người đại diện":"Nguyễn Minh Duy","Địa chỉ giao dịch":"Ql 908 xã Tân Hưng, huyện Bình Tân, tỉnh Vĩnh Long","Lĩnh vực SX,KD,KD+SX":"Kinh doanh","layer_id":290,"fid":68,"label":"HKD  Nguyễn Duy"}},{"type":"Feature","id":97,"geometry":{"type":"Point","coordinates":[9.9272,106.1245]},"properties":{"Tên cơ sở ":"Hợp tác xã Tân Qui","Người đại diện":"ấp Tân Qui 1, xã An Phú Tân","Địa chỉ giao dịch":null,"Lĩnh vực SX,KD,KD+SX":"Cây giống","layer_id":290,"fid":97,"label":"Hợp tác xã Tân Qui"}},{"type":"Feature","id":69,"geometry":{"type":"Point","coordinates":[106.033543,10.168128]},"properties":{"Tên cơ sở ":"HKD Trần Thành Phước ","Người đại diện":"Trần Thành Phước","Địa chỉ giao dịch":"Ấp Phước Lợi, xã Bình Phước, huyện Mang Thít, tỉnh Vĩnh Long","Lĩnh vực SX,KD,KD+SX":"Kinh doanh","layer_id":290,"fid":69,"label":"HKD Trần Thành Phước "}},{"type":"Feature","id":98,"geometry":{"type":"Point","coordinates":[9.9315,106.1189]},"properties":{"Tên cơ sở ":"HTX Dừa Sáp Hòa Tân","Người đại diện":"ấp Chông Nô 1, xã An Phú Tân","Địa chỉ giao dịch":null,"Lĩnh vực SX,KD,KD+SX":"Giống cây CN","layer_id":290,"fid":98,"label":"HTX Dừa Sáp Hòa Tân"}},{"type":"Feature","id":70,"geometry":{"type":"Point","coordinates":[106.153799,10.185822]},"properties":{"Tên cơ sở ":"HKD Thanh Tuyền","Người đại diện":"Lê Văn Kha","Địa chỉ giao dịch":"Ấp Mỹ Hạnh, xã Chánh An, huyện Mang Thít, tỉnh Vĩnh Long","Lĩnh vực SX,KD,KD+SX":"sản xuất-kinh doanh","layer_id":290,"fid":70,"label":"HKD Thanh Tuyền"}},{"type":"Feature","id":99,"geometry":{"type":"Point","coordinates":[9.8732,106.3121]},"properties":{"Tên cơ sở ":"Cơ sở Giống cây trồng hoa kiểng","Người đại diện":"ấp Kinh Xáng, xã Phong Thạnh","Địa chỉ giao dịch":null,"Lĩnh vực SX,KD,KD+SX":"Cây giống","layer_id":290,"fid":99,"label":"Cơ sở Giống cây trồng hoa kiểng"}},{"type":"Feature","id":100,"geometry":{"type":"Point","coordinates":[10.1256,105.9542]},"properties":{"Tên cơ sở ":"Vựa HK cô Út","Người đại diện":"Đông Hậu, xã Bình Phước","Địa chỉ giao dịch":null,"Lĩnh vực SX,KD,KD+SX":"Giống cây ăn trái","layer_id":290,"fid":100,"label":"Vựa HK cô Út"}},{"type":"Feature","id":101,"geometry":{"type":"Point","coordinates":[10.128,105.952]},"properties":{"Tên cơ sở ":"Thành Phước","Người đại diện":"Tổ 12, ấp Phước Lợi, xã Bình Phước","Địa chỉ giao dịch":null,"Lĩnh vực SX,KD,KD+SX":"Hoa kiểng, cây giống","layer_id":290,"fid":101,"label":"Thành Phước"}},{"type":"Feature","id":71,"geometry":{"type":"Point","coordinates":[106.161234,10.174708]},"properties":{"Tên cơ sở ":"HKD Hoàng Huy (Cơ sở sản xuất cây giống Hoàng Huy)","Người đại diện":"Nguyễn Hoàng Nguy","Địa chỉ giao dịch":"Ấp Mỹ Chánh, xã Chánh An, huyện Mang Thít, tỉnh Vĩnh Long","Lĩnh vực SX,KD,KD+SX":"sản xuất-kinh doanh","layer_id":290,"fid":71,"label":"HKD Hoàng Huy (Cơ sở sản xuất cây giống Hoàng Huy)"}},{"type":"Feature","id":102,"geometry":{"type":"Point","coordinates":[10.131,105.95]},"properties":{"Tên cơ sở ":"HKD Tài Lộc","Người đại diện":"Tổ 10, ấp Long Phước, xã Bình Phước","Địa chỉ giao dịch":null,"Lĩnh vực SX,KD,KD+SX":"Hoa kiểng, cây giống","layer_id":290,"fid":102,"label":"HKD Tài Lộc"}},{"type":"Feature","id":72,"geometry":{"type":"Point","coordinates":[106.15653,10.182483]},"properties":{"Tên cơ sở ":"HKD Gia Huy (Hộ kinh doanh cơ sở sản xuất cây giống Gia Huy)","Người đại diện":"Lê Văn Đen","Địa chỉ giao dịch":"Ấp Mỹ Hạnh, xã Chánh An, huyện Mang Thít, tỉnh Vĩnh Long","Lĩnh vực SX,KD,KD+SX":"sản xuất-kinh doanh","layer_id":290,"fid":72,"label":"HKD Gia Huy (Hộ kinh doanh cơ sở sản xuất cây giống Gia Huy)"}},{"type":"Feature","id":103,"geometry":{"type":"Point","coordinates":[10.124,105.957]},"properties":{"Tên cơ sở ":"HKD Phong Dũng","Người đại diện":"Tổ 19, ấp Bình Tịnh, xã Bình Phước","Địa chỉ giao dịch":null,"Lĩnh vực SX,KD,KD+SX":"Cây giống","layer_id":290,"fid":103,"label":"HKD Phong Dũng"}},{"type":"Feature","id":73,"geometry":{"type":"Point","coordinates":[106.146333,10.19231]},"properties":{"Tên cơ sở ":"HKD Phúc Vinh (Hộ kinh doanh cơ sở sản xuất cây trồng Phúc Vinh)","Người đại diện":"Nguyễn Văn Vinh","Địa chỉ giao dịch":"Ấp Hòa Phú, xã An Phước, huyện Mang Thít, tỉnh Vĩnh Long","Lĩnh vực SX,KD,KD+SX":"sản xuất-kinh doanh","layer_id":290,"fid":73,"label":"HKD Phúc Vinh (Hộ kinh doanh cơ sở sản xuất cây trồng Phúc Vinh)"}},{"type":"Feature","id":104,"geometry":{"type":"Point","coordinates":[10.0541,105.8824]},"properties":{"Tên cơ sở ":"HTX Thanh trà ngọt Đông Thành","Người đại diện":"Tổ 3, khóm Đông Hòa 2, xã Đông Thành","Địa chỉ giao dịch":null,"Lĩnh vực SX,KD,KD+SX":"Cây giống","layer_id":290,"fid":104,"label":"HTX Thanh trà ngọt Đông Thành"}},{"type":"Feature","id":105,"geometry":{"type":"Point","coordinates":[10.051,105.886]},"properties":{"Tên cơ sở ":"Vựa cây giống, hoa kiểng Năm Lệ","Người đại diện":"Khóm Đông Lợi, xã Đông Thành","Địa chỉ giao dịch":null,"Lĩnh vực SX,KD,KD+SX":"Cây giống","layer_id":290,"fid":105,"label":"Vựa cây giống, hoa kiểng Năm Lệ"}},{"type":"Feature","id":106,"geometry":{"type":"Point","coordinates":[10.048,105.889]},"properties":{"Tên cơ sở ":"HTX nông nghiệp công nghệ cao Đồng Xanh","Người đại diện":"Khóm Đông Thạnh B, xã Đông Thành","Địa chỉ giao dịch":null,"Lĩnh vực SX,KD,KD+SX":"Cây giống","layer_id":290,"fid":106,"label":"HTX nông nghiệp công nghệ cao Đồng Xanh"}},{"type":"Feature","id":107,"geometry":{"type":"Point","coordinates":[10.0381,105.8753]},"properties":{"Tên cơ sở ":"Vườn Lan Quỳnh Thịnh","Người đại diện":"Vườn Lan Quỳnh Thịnh","Địa chỉ giao dịch":"Đông Bình, Đông Thành","Lĩnh vực SX,KD,KD+SX":"Cây giống ăn trái","layer_id":290,"fid":107,"label":"Vườn Lan Quỳnh Thịnh"}},{"type":"Feature","id":74,"geometry":{"type":"Point","coordinates":[106.161125,10.175149]},"properties":{"Tên cơ sở ":"HKD Tư Y","Người đại diện":"Phạm Văn Y","Địa chỉ giao dịch":"Ấp Mỹ Hạnh, xã Chánh An, huyện Mang Thít, tỉnh Vĩnh Long","Lĩnh vực SX,KD,KD+SX":"sản xuất-kinh doanh","layer_id":290,"fid":74,"label":"HKD Tư Y"}},{"type":"Feature","id":75,"geometry":{"type":"Point","coordinates":[106.000093,10.307337]},"properties":{"Tên cơ sở ":"Năm Coi","Người đại diện":"Nguyễn Văn Cơi","Địa chỉ giao dịch":"Phú Thạnh 1-Đồng Phú","Lĩnh vực SX,KD,KD+SX":"sản xuất-kinh doanh","layer_id":290,"fid":75,"label":"Năm Coi"}},{"type":"Feature","id":109,"geometry":{"type":"Point","coordinates":[9.9231,106.3054]},"properties":{"Tên cơ sở ":"HTX HK Dương Thành Triệu","Người đại diện":"HTX HK Dương Thành Triệu","Địa chỉ giao dịch":"Bến Có, Nguyệt Hóa","Lĩnh vực SX,KD,KD+SX":"Cây giống ăn trái","layer_id":290,"fid":109,"label":"HTX HK Dương Thành Triệu"}},{"type":"Feature","id":77,"geometry":{"type":"Point","coordinates":[105.995832,10.295813]},"properties":{"Tên cơ sở ":"Sáu Tỷ","Người đại diện":"Võ Văn tần","Địa chỉ giao dịch":"Phú Thạnh 1-Đồng Phú","Lĩnh vực SX,KD,KD+SX":"sản xuất-kinh doanh","layer_id":290,"fid":77,"label":"Sáu Tỷ"}},{"type":"Feature","id":110,"geometry":{"type":"Point","coordinates":[10.2458,105.9324]},"properties":{"Tên cơ sở ":"HKD Lê Thanh","Người đại diện":" HKD Lê Thanh ","Địa chỉ giao dịch":"Tân Ngãi, TP Vĩnh Long","Lĩnh vực SX,KD,KD+SX":"Hoa kiểng","layer_id":290,"fid":110,"label":"HKD Lê Thanh"}},{"type":"Feature","id":78,"geometry":{"type":"Point","coordinates":[106.000574,10.307186]},"properties":{"Tên cơ sở ":"Tám Phước","Người đại diện":"Huỳnh Văn Phước","Địa chỉ giao dịch":"Phước Định 1-Đồng Phú","Lĩnh vực SX,KD,KD+SX":"sản xuất-kinh doanh","layer_id":290,"fid":78,"label":"Tám Phước"}},{"type":"Feature","id":79,"geometry":{"type":"Point","coordinates":[106.008343,10.273006]},"properties":{"Tên cơ sở ":"Ba Thơi","Người đại diện":"Võ Duy Thuấn","Địa chỉ giao dịch":"Phước Định 1-Bình Hòa Phước","Lĩnh vực SX,KD,KD+SX":"sản xuất-kinh doanh","layer_id":290,"fid":79,"label":"Ba Thơi"}},{"type":"Feature","id":76,"geometry":{"type":"Point","coordinates":[105.9950798,10.2779941]},"properties":{"Tên cơ sở ":"Tư Thiện","Người đại diện":"Võ Văn Thiện","Địa chỉ giao dịch":"Bình Thuận 2-Hòa Ninh","Lĩnh vực SX,KD,KD+SX":"sản xuất-kinh doanh","layer_id":290,"fid":76,"label":"Tư Thiện"}},{"type":"Feature","id":108,"geometry":{"type":"Point","coordinates":[9.9231,106.3054]},"properties":{"Tên cơ sở ":"HTX NN Ngọc Phước Vĩnh","Người đại diện":"HTX NN Ngọc Phước Vĩnh","Địa chỉ giao dịch":"Bến Có, Nguyệt Hóa","Lĩnh vực SX,KD,KD+SX":"Cây giống ăn trái","layer_id":290,"fid":108,"label":"HTX NN Ngọc Phước Vĩnh"}},{"type":"Feature","id":111,"geometry":{"type":"Point","coordinates":[9.9882,106.1865]},"properties":{"Tên cơ sở ":"Trần Thị Rành","Người đại diện":"Trần Thị Rành","Địa chỉ giao dịch":"Mỹ Long, Càng Long","Lĩnh vực SX,KD,KD+SX":"Cây giống, uơm hạt giống","layer_id":290,"fid":111,"label":"Trần Thị Rành"}},{"type":"Feature","id":112,"geometry":{"type":"Point","coordinates":[9.8974,106.3985]},"properties":{"Tên cơ sở ":"Cây giống Tư Đức","Người đại diện":"Cây giống Tư Đức","Địa chỉ giao dịch":"Hưng Mỹ, Châu Thành","Lĩnh vực SX,KD,KD+SX":"Hoa kiểng, cây giống","layer_id":290,"fid":112,"label":"Cây giống Tư Đức"}},{"type":"Feature","id":80,"geometry":{"type":"Point","coordinates":[106.004584,10.272123]},"properties":{"Tên cơ sở ":"Sáu Ri","Người đại diện":"Nguyễn Minh Trung","Địa chỉ giao dịch":"Phước Định 1-Bình Hòa Phước","Lĩnh vực SX,KD,KD+SX":"sản xuất-kinh doanh","layer_id":290,"fid":80,"label":"Sáu Ri"}},{"type":"Feature","id":113,"geometry":{"type":"Point","coordinates":[9.6582,106.5161]},"properties":{"Tên cơ sở ":"Nguyễn Thanh Vũ","Người đại diện":"Nguyễn Thanh Vũ","Địa chỉ giao dịch":"Long Thành, Duyên Hải","Lĩnh vực SX,KD,KD+SX":"Lúa giống","layer_id":290,"fid":113,"label":"Nguyễn Thanh Vũ"}},{"type":"Feature","id":81,"geometry":{"type":"Point","coordinates":[105.8933843,10.1686289]},"properties":{"Tên cơ sở ":"Hoàng Khanh","Người đại diện":"Nguyễn Hoàng Khanh","Địa chỉ giao dịch":"Thạnh Phú-Thạnh Quới","Lĩnh vực SX,KD,KD+SX":"Kinh doanh","layer_id":290,"fid":81,"label":"Hoàng Khanh"}},{"type":"Feature","id":114,"geometry":{"type":"Point","coordinates":[9.7852,106.3884]},"properties":{"Tên cơ sở ":"Sa Hoàng","Người đại diện":"Sa Hoàng","Địa chỉ giao dịch":"Nhị Trường, Cầu Ngang","Lĩnh vực SX,KD,KD+SX":"Lúa giống","layer_id":290,"fid":114,"label":"Sa Hoàng"}},{"type":"Feature","id":82,"geometry":{"type":"Point","coordinates":[106.007259,10.189646]},"properties":{"Tên cơ sở ":"HKD Hoàng Hiền","Người đại diện":"Lê Thị Thanh Hiền","Địa chỉ giao dịch":"Phú An-Phú Đức","Lĩnh vực SX,KD,KD+SX":"Kinh doanh","layer_id":290,"fid":82,"label":"HKD Hoàng Hiền"}},{"type":"Feature","id":83,"geometry":{"type":"Point","coordinates":[105.998344,10.186623]},"properties":{"Tên cơ sở ":"Út Cò","Người đại diện":"Dương Thị Ngọc Hiền","Địa chỉ giao dịch":"An Thuận-Phú Đức","Lĩnh vực SX,KD,KD+SX":"Kinh doanh","layer_id":290,"fid":83,"label":"Út Cò"}},{"type":"Feature","id":115,"geometry":{"type":"Point","coordinates":[9.7852,106.3884]},"properties":{"Tên cơ sở ":"VTNN An Khang","Người đại diện":"VTNN An Khang","Địa chỉ giao dịch":"Nhị Trường, Cầu Ngang","Lĩnh vực SX,KD,KD+SX":"Lúa giống","layer_id":290,"fid":115,"label":"VTNN An Khang"}},{"type":"Feature","id":84,"geometry":{"type":"Point","coordinates":[105.9299,10.16932]},"properties":{"Tên cơ sở ":"CtyTNHHMTV Nông Trang Island","Người đại diện":"Nguyễn Trí Nghiệp","Địa chỉ giao dịch":"Phước Yên A-Phú Quới","Lĩnh vực SX,KD,KD+SX":"sản xuất-kinh doanh","layer_id":290,"fid":84,"label":"CtyTNHHMTV Nông Trang Island"}},{"type":"Feature","id":116,"geometry":{"type":"Point","coordinates":[9.7852,106.3884]},"properties":{"Tên cơ sở ":"Thái Hiển","Người đại diện":"Thái Hiền","Địa chỉ giao dịch":"Nhị Trường, Cầu Ngang","Lĩnh vực SX,KD,KD+SX":"Lúa giống","layer_id":290,"fid":116,"label":"Thái Hiển"}},{"type":"Feature","id":117,"geometry":{"type":"Point","coordinates":[9.7852,106.3884]},"properties":{"Tên cơ sở ":"Long Hoa","Người đại diện":"Long Hoa","Địa chỉ giao dịch":"Nhị Trường, Cầu Ngang","Lĩnh vực SX,KD,KD+SX":"Lúa giống","layer_id":290,"fid":117,"label":"Long Hoa"}},{"type":"Feature","id":118,"geometry":{"type":"Point","coordinates":[9.7852,106.3884]},"properties":{"Tên cơ sở ":"Thanh Tâm","Người đại diện":"Thanh Tâm","Địa chỉ giao dịch":"Nhị Trường, Cầu Ngang","Lĩnh vực SX,KD,KD+SX":"Lúa giống","layer_id":290,"fid":118,"label":"Thanh Tâm"}},{"type":"Feature","id":119,"geometry":{"type":"Point","coordinates":[9.7852,106.3884]},"properties":{"Tên cơ sở ":"Nguyễn Phương Bình","Người đại diện":"Nguyễn Phương Bình","Địa chỉ giao dịch":"Nhị Trường, Cầu Ngang","Lĩnh vực SX,KD,KD+SX":"Lúa giống","layer_id":290,"fid":119,"label":"Nguyễn Phương Bình"}},{"type":"Feature","id":85,"geometry":{"type":"Point","coordinates":[105.937077,10.195993]},"properties":{"Tên cơ sở ":"Nguyễn Hoàng Duy","Người đại diện":"Nguyễn Hoàng Duy","Địa chỉ giao dịch":"Phước Bình-Lộc Hòa","Lĩnh vực SX,KD,KD+SX":"sản xuất-kinh doanh","layer_id":290,"fid":85,"label":"Nguyễn Hoàng Duy"}},{"type":"Feature","id":86,"geometry":{"type":"Point","coordinates":[105.979238,10.166315]},"properties":{"Tên cơ sở ":"Bích Loan","Người đại diện":"Võ Bích Loan","Địa chỉ giao dịch":"An Hòa A-Phú Đức","Lĩnh vực SX,KD,KD+SX":"Kinh doanh","layer_id":290,"fid":86,"label":"Bích Loan"}},{"type":"Feature","id":120,"geometry":{"type":"Point","coordinates":[9.7852,106.3884]},"properties":{"Tên cơ sở ":"Trần Thanh Tuấn","Người đại diện":"Trần Thanh Tuấn ","Địa chỉ giao dịch":"Nhị Trường, Cầu Ngang","Lĩnh vực SX,KD,KD+SX":"Lúa giống","layer_id":290,"fid":120,"label":"Trần Thanh Tuấn"}},{"type":"Feature","id":87,"geometry":{"type":"Point","coordinates":[106.02127,10.17858]},"properties":{"Tên cơ sở ":"Sáu Khanh","Người đại diện":"Châu Văn Khanh","Địa chỉ giao dịch":"An Phú A-Long An","Lĩnh vực SX,KD,KD+SX":"Kinh doanh","layer_id":290,"fid":87,"label":"Sáu Khanh"}},{"type":"Feature","id":121,"geometry":{"type":"Point","coordinates":[9.7852,106.3884]},"properties":{"Tên cơ sở ":"Châu Thanh Hoài","Người đại diện":"Châu Thanh Hoài","Địa chỉ giao dịch":"Nhị Trường, Cầu Ngang","Lĩnh vực SX,KD,KD+SX":"Lúa giống","layer_id":290,"fid":121,"label":"Châu Thanh Hoài"}},{"type":"Feature","id":88,"geometry":{"type":"Point","coordinates":[105.989247,10.285926]},"properties":{"Tên cơ sở ":"Mười Tùng","Người đại diện":"Nguyễn Văn Tùng","Địa chỉ giao dịch":"Hòa Quí-Hòa Ninh","Lĩnh vực SX,KD,KD+SX":"sản xuất-kinh doanh","layer_id":290,"fid":88,"label":"Mười Tùng"}},{"type":"Feature","id":89,"geometry":{"type":"Point","coordinates":[105.96423,10.0527]},"properties":{"Tên cơ sở ":"HKD Út Hiền ","Người đại diện":"Nguyễn Văn Mười Hai","Địa chỉ giao dịch":"Ấp Bằng Tăng, xã Mỹ Thạnh Trung, huyện Tam Bình tỉnh Vĩnh Long","Lĩnh vực SX,KD,KD+SX":"Kinh doanh","layer_id":290,"fid":89,"label":"HKD Út Hiền "}},{"type":"Feature","id":122,"geometry":{"type":"Point","coordinates":[9.7852,106.3884]},"properties":{"Tên cơ sở ":"Thạch Tiên","Người đại diện":"Thạch Tiên","Địa chỉ giao dịch":"Nhị Trường, Cầu Ngang","Lĩnh vực SX,KD,KD+SX":"Hoa kiểng, cây giống","layer_id":290,"fid":122,"label":"Thạch Tiên"}},{"type":"Feature","id":123,"geometry":{"type":"Point","coordinates":[10.1654,106.5152]},"properties":{"Tên cơ sở ":"Vườn HK Thúy Kiệt","Người đại diện":"Vườn HK Thúy Kiệt","Địa chỉ giao dịch":"Hưng Nhượng, Giồng Trôm","Lĩnh vực SX,KD,KD+SX":"Cây ăn trái","layer_id":290,"fid":123,"label":"Vườn HK Thúy Kiệt"}},{"type":"Feature","id":124,"geometry":{"type":"Point","coordinates":[10.1983,106.0754]},"properties":{"Tên cơ sở ":"Tư Y","Người đại diện":"Tư Y","Địa chỉ giao dịch":"Cái Nhum, Mang Thít","Lĩnh vực SX,KD,KD+SX":"Cây ăn trái","layer_id":290,"fid":124,"label":"Tư Y"}},{"type":"Feature","id":125,"geometry":{"type":"Point","coordinates":[10.1983,106.0754]},"properties":{"Tên cơ sở ":"Út Thủy","Người đại diện":"Út Thủy","Địa chỉ giao dịch":"Cái Nhum, Mang Thít","Lĩnh vực SX,KD,KD+SX":"Cây ăn trái","layer_id":290,"fid":125,"label":"Út Thủy"}},{"type":"Feature","id":90,"geometry":{"type":"Point","coordinates":[106.200423,10.048677]},"properties":{"Tên cơ sở ":"HKD Quyền Như","Người đại diện":"Châu Văn Quyền","Địa chỉ giao dịch":"Ấp Phú Nhuận, xã Trung Ngãi, huyện Vũng Liêm, tỉnh Vĩnh Long","Lĩnh vực SX,KD,KD+SX":"Kinh doanh","layer_id":290,"fid":90,"label":"HKD Quyền Như"}},{"type":"Feature","id":126,"geometry":{"type":"Point","coordinates":[10.1983,106.0754]},"properties":{"Tên cơ sở ":"Hoàng Nguy","Người đại diện":"Hoàng Nguy","Địa chỉ giao dịch":"Cái Nhum, Mang Thít","Lĩnh vực SX,KD,KD+SX":"Cây ăn trái","layer_id":290,"fid":126,"label":"Hoàng Nguy"}},{"type":"Feature","id":91,"geometry":{"type":"Point","coordinates":[106.21808,10.129582]},"properties":{"Tên cơ sở ":"HKD Đoàn Văn Thấy","Người đại diện":"Đoàn Văn Thấy","Địa chỉ giao dịch":"Ấp Thanh Lương, xã Thanh Bình, huyện  Vũng Liêm, tỉnh Vĩnh Long","Lĩnh vực SX,KD,KD+SX":"Kinh doanh","layer_id":290,"fid":91,"label":"HKD Đoàn Văn Thấy"}},{"type":"Feature","id":127,"geometry":{"type":"Point","coordinates":[10.1983,106.0754]},"properties":{"Tên cơ sở ":"Thông Mai","Người đại diện":"Thông Mai","Địa chỉ giao dịch":"Cái Nhum, Mang Thít","Lĩnh vực SX,KD,KD+SX":"Cây ăn trái","layer_id":290,"fid":127,"label":"Thông Mai"}},{"type":"Feature","id":92,"geometry":{"type":"Point","coordinates":[106.119524,10.110612]},"properties":{"Tên cơ sở ":"HKD Chí Thiện","Người đại diện":"Âu Văn Trường Giang","Địa chỉ giao dịch":"Ấp Chợ Mới- xã Trung Chánh, huyện Vũng Liêm, tỉnh Vĩnh Long","Lĩnh vực SX,KD,KD+SX":"Kinh doanh","layer_id":290,"fid":92,"label":"HKD Chí Thiện"}},{"type":"Feature","id":93,"geometry":{"type":"Point","coordinates":[106.133738,10.107488]},"properties":{"Tên cơ sở ":"HKD Chí Thiện","Người đại diện":"Nguyễn Thị Cẩm Giang","Địa chỉ giao dịch":"Ấp Mướp Sát, xã Trung Hiệp, huyện Vũng Liêm, tỉnh Vĩnh Long","Lĩnh vực SX,KD,KD+SX":"Kinh doanh","layer_id":290,"fid":93,"label":"HKD Chí Thiện"}},{"type":"Feature","id":128,"geometry":{"type":"Point","coordinates":[10.1983,106.0754]},"properties":{"Tên cơ sở ":"Thanh Tuyền","Người đại diện":"Thanh Tuyền","Địa chỉ giao dịch":"Cái Nhum, Mang Thít","Lĩnh vực SX,KD,KD+SX":"Cây ăn trái","layer_id":290,"fid":128,"label":"Thanh Tuyền"}},{"type":"Feature","id":129,"geometry":{"type":"Point","coordinates":[10.1983,106.0754]},"properties":{"Tên cơ sở ":"Gia Huy","Người đại diện":"Gia Huy","Địa chỉ giao dịch":"Cái Nhum, Mang Thít","Lĩnh vực SX,KD,KD+SX":"Cây ăn trái","layer_id":290,"fid":129,"label":"Gia Huy"}},{"type":"Feature","id":130,"geometry":{"type":"Point","coordinates":[10.1983,106.0754]},"properties":{"Tên cơ sở ":"Đạt Thành","Người đại diện":"Đạt Thành","Địa chỉ giao dịch":"Cái Nhum, Mang Thít","Lĩnh vực SX,KD,KD+SX":"Cây ăn trái","layer_id":290,"fid":130,"label":"Đạt Thành"}},{"type":"Feature","id":131,"geometry":{"type":"Point","coordinates":[10.1983,106.0754]},"properties":{"Tên cơ sở ":"Thành Khôi","Người đại diện":"Thành Khôi","Địa chỉ giao dịch":"Cái Nhum, Mang Thít","Lĩnh vực SX,KD,KD+SX":"Cây ăn trái","layer_id":290,"fid":131,"label":"Thành Khôi"}},{"type":"Feature","id":132,"geometry":{"type":"Point","coordinates":[10.1983,106.0754]},"properties":{"Tên cơ sở ":"Phúc Vinh","Người đại diện":"Phúc Vinh","Địa chỉ giao dịch":"Cái Nhum, Mang Thít","Lĩnh vực SX,KD,KD+SX":"Cây ăn trái","layer_id":290,"fid":132,"label":"Phúc Vinh"}},{"type":"Feature","id":94,"geometry":{"type":"Point","coordinates":[106.118454,10.097109]},"properties":{"Tên cơ sở ":"HKD CHVTNN Khả Ngân","Người đại diện":"Nguyễn Thái In","Địa chỉ giao dịch":"Ấp Nhơn Nghĩa, xã Hiếu Phụng, huyện Vũng Liêm, tỉnh Vĩnh Long","Lĩnh vực SX,KD,KD+SX":"Kinh doanh","layer_id":290,"fid":94,"label":"HKD CHVTNN Khả Ngân"}},{"type":"Feature","id":133,"geometry":{"type":"Point","coordinates":[10.1983,106.0754]},"properties":{"Tên cơ sở ":"Kim Tuyền","Người đại diện":"Kim Tuyền","Địa chỉ giao dịch":"Cái Nhum, Mang Thít","Lĩnh vực SX,KD,KD+SX":"Cây ăn trái","layer_id":290,"fid":133,"label":"Kim Tuyền"}},{"type":"Feature","id":95,"geometry":{"type":"Point","coordinates":[106.152247,10.153563]},"properties":{"Tên cơ sở ":"HKD CHVTNN Gia Thanh","Người đại diện":"Nguyễn Thanh Thanh","Địa chỉ giao dịch":"Ấp Nhất, xã Quới An, huyện Vũng Liêm, tỉnh Vĩnh Long","Lĩnh vực SX,KD,KD+SX":"Kinh doanh","layer_id":290,"fid":95,"label":"HKD CHVTNN Gia Thanh"}},{"type":"Feature","id":134,"geometry":{"type":"Point","coordinates":[10.1983,106.0754]},"properties":{"Tên cơ sở ":"Phúc Vinh (Vinh)","Người đại diện":"Phúc Vinh","Địa chỉ giao dịch":"Cái Nhum, Mang Thít","Lĩnh vực SX,KD,KD+SX":"Cây ăn trái","layer_id":290,"fid":134,"label":"Phúc Vinh (Vinh)"}},{"type":"Feature","id":96,"geometry":{"type":"Point","coordinates":[105.88285,9.99402]},"properties":{"Tên cơ sở ":"HTX Thanh Trà Ngọt  Đông Thành","Người đại diện":"Huỳnh Văn Cập","Địa chỉ giao dịch":"Ấp Đông Hòa 2, xã Đông Thành thị xã Bình Minh","Lĩnh vực SX,KD,KD+SX":"sản xuất-kinh doanh","layer_id":290,"fid":96,"label":"HTX Thanh Trà Ngọt  Đông Thành"}},{"type":"Feature","id":135,"geometry":{"type":"Point","coordinates":[10.1983,106.0754]},"properties":{"Tên cơ sở ":"HKD Cù Thanh Hải","Người đại diện":"HKD Cù Thanh Hải","Địa chỉ giao dịch":"Cái Nhum, Mang Thít","Lĩnh vực SX,KD,KD+SX":"Hoa kiểng","layer_id":290,"fid":135,"label":"HKD Cù Thanh Hải"}},{"type":"Feature","id":136,"geometry":{"type":"Point","coordinates":[10.1983,106.0754]},"properties":{"Tên cơ sở ":"HKD Nguyễn Văn Hà","Người đại diện":"HKD Nguyễn Văn Hà","Địa chỉ giao dịch":"Cái Nhum, Mang Thít","Lĩnh vực SX,KD,KD+SX":"Hoa kiểng","layer_id":290,"fid":136,"label":"HKD Nguyễn Văn Hà"}},{"type":"Feature","id":137,"geometry":{"type":"Point","coordinates":[10.1983,106.0754]},"properties":{"Tên cơ sở ":"Lê Thanh Nhìn","Người đại diện":"Lê Thanh Nhìn","Địa chỉ giao dịch":"Cái Nhum, Mang Thít","Lĩnh vực SX,KD,KD+SX":"Cây ăn trái và Hoa kiểng","layer_id":290,"fid":137,"label":"Lê Thanh Nhìn"}},{"type":"Feature","id":138,"geometry":{"type":"Point","coordinates":[10.1983,106.0754]},"properties":{"Tên cơ sở ":"HKD Thương","Người đại diện":"HKD Thương","Địa chỉ giao dịch":"Cái Nhum, Mang Thít","Lĩnh vực SX,KD,KD+SX":"Cây ăn trái và hoa kiểng","layer_id":290,"fid":138,"label":"HKD Thương"}},{"type":"Feature","id":139,"geometry":{"type":"Point","coordinates":[10.1983,106.0754]},"properties":{"Tên cơ sở ":"HKD Ngọc Cần","Người đại diện":"Hộ kinh doanh Ngọc Cẩn","Địa chỉ giao dịch":"Cái Nhum, Mang Thít","Lĩnh vực SX,KD,KD+SX":"Rau màu","layer_id":290,"fid":139,"label":"HKD Ngọc Cần"}},{"type":"Feature","id":140,"geometry":{"type":"Point","coordinates":[10.1983,106.0754]},"properties":{"Tên cơ sở ":"Dương Thị Huỳnh Nga","Người đại diện":"Dương Thị Huỳnh Nga","Địa chỉ giao dịch":"Cái Nhum, Mang Thít","Lĩnh vực SX,KD,KD+SX":"Rau màu","layer_id":290,"fid":140,"label":"Dương Thị Huỳnh Nga"}},{"type":"Feature","id":141,"geometry":{"type":"Point","coordinates":[10.1983,106.0754]},"properties":{"Tên cơ sở ":"Đặng Thị Lệ","Người đại diện":"Đặng Thị Lệ","Địa chỉ giao dịch":"Cái Nhum, Mang Thít","Lĩnh vực SX,KD,KD+SX":"Rau màu","layer_id":290,"fid":141,"label":"Đặng Thị Lệ"}},{"type":"Feature","id":142,"geometry":{"type":"Point","coordinates":[10.1983,106.0754]},"properties":{"Tên cơ sở ":"Bùi Kim Chi","Người đại diện":"Bùi Kim Chi","Địa chỉ giao dịch":"Cái Nhum, Mang Thít","Lĩnh vực SX,KD,KD+SX":"Rau màu","layer_id":290,"fid":142,"label":"Bùi Kim Chi"}},{"type":"Feature","id":143,"geometry":{"type":"Point","coordinates":[10.1983,106.0754]},"properties":{"Tên cơ sở ":"Tăng Thanh Phong","Người đại diện":"Tăng Thanh Phong","Địa chỉ giao dịch":"Cái Nhum, Mang Thít","Lĩnh vực SX,KD,KD+SX":"Cây ăn trái","layer_id":290,"fid":143,"label":"Tăng Thanh Phong"}},{"type":"Feature","id":144,"geometry":{"type":"Point","coordinates":[10.1983,106.0754]},"properties":{"Tên cơ sở ":"Thanh Tùng","Người đại diện":"Thanh Tùng","Địa chỉ giao dịch":"Cái Nhum, Mang Thít","Lĩnh vực SX,KD,KD+SX":" Rau màu","layer_id":290,"fid":144,"label":"Thanh Tùng"}},{"type":"Feature","id":145,"geometry":{"type":"Point","coordinates":[10.1983,106.0754]},"properties":{"Tên cơ sở ":"Ngọc Thắng","Người đại diện":"Ngọc Thắng","Địa chỉ giao dịch":"Cái Nhum, Mang Thít","Lĩnh vực SX,KD,KD+SX":"Cây có múi","layer_id":290,"fid":145,"label":"Ngọc Thắng"}},{"type":"Feature","id":146,"geometry":{"type":"Point","coordinates":[10.2524,106.2851]},"properties":{"Tên cơ sở ":"Hai Kiểu","Người đại diện":"Hai Kiểu","Địa chỉ giao dịch":"Tiên Thủy, Châu Thành","Lĩnh vực SX,KD,KD+SX":"Cây ăn trái và Hoa kiểng","layer_id":290,"fid":146,"label":"Hai Kiểu"}}]}
