{"type":"FeatureCollection","name":"Lúa CSKDG ","metadata":{"source":"https://hatang.vinhlong.gov.vn/","downloaded_at":"2026-07-20T01:15:15+00:00","layer_id":291,"layer_name":"Lúa CSKDG ","catalog_endpoints":["/map/publicLayers2?inputs=bvtv"],"requested_bbox":[104.0,8.0,108.0,12.0],"tile_size":0.0,"tile_count":1,"tile_errors":[],"feature_count":124,"coordinate_order":"x,y (thường là longitude,latitude theo cấu hình EPSG:4326 của WebGIS)"},"features":[{"type":"Feature","id":1,"geometry":{"type":"Point","coordinates":[106.18708,10.09756]},"properties":{"Tên cơ sở ":"Nam Kỳ","Người đại diện":"Nam Kỳ","Địa chỉ giao dịch":"Thị trấn vũng liêm Huyeenjj Vũng Liêm Vĩnh Long","Lĩnh vực SX,KD,KD+SX":"lúa giống","layer_id":291,"fid":1,"label":"Nam Kỳ"}},{"type":"Feature","id":7,"geometry":{"type":"Point","coordinates":[106.151031,10.075141]},"properties":{"Tên cơ sở ":"VTNN Vũ Anh (Út Mân)","Người đại diện":"Trần Thị Diệp Anh","Địa chỉ giao dịch":"Bình Thành - Trung Hiếu","Lĩnh vực SX,KD,KD+SX":"Lúa giống, rau màu","layer_id":291,"fid":7,"label":"VTNN Vũ Anh (Út Mân)"}},{"type":"Feature","id":2,"geometry":{"type":"Point","coordinates":[106.11732,10.07447]},"properties":{"Tên cơ sở ":"Hưng Phú","Người đại diện":"Hưng Phú","Địa chỉ giao dịch":"vũng Liêm- Vĩnh Long","Lĩnh vực SX,KD,KD+SX":"lúa giống","layer_id":291,"fid":2,"label":"Hưng Phú"}},{"type":"Feature","id":50,"geometry":{"type":"Point","coordinates":[106.151031,10.075141]},"properties":{"Tên cơ sở ":"HKD VTNN Vũ Anh (Út Mân)","Người đại diện":"Trần Thị Diệp Anh","Địa chỉ giao dịch":"Ấp Bình Thành -xã Trung Hiếu- huyện Vũng Liêm- tỉnh Vĩnh Long","Lĩnh vực SX,KD,KD+SX":"Kinh doanh","layer_id":291,"fid":50,"label":"HKD VTNN Vũ Anh (Út Mân)"}},{"type":"Feature","id":3,"geometry":{"type":"Point","coordinates":[9.963283,105.925984]},"properties":{"Tên cơ sở ":"Kim Cát","Người đại diện":"Kim Cát","Địa chỉ giao dịch":"Thị Trấn Trà Ôn- Trà Ôn- Vĩnh Long","Lĩnh vực SX,KD,KD+SX":"lúa giống","layer_id":291,"fid":3,"label":"Kim Cát"}},{"type":"Feature","id":4,"geometry":{"type":"Point","coordinates":[106.18708,10.09756]},"properties":{"Tên cơ sở ":"Nam Kỳ","Người đại diện":"Nam Kỳ","Địa chỉ giao dịch":"Thị trấn vũng liêm Huyeenjj Vũng Liêm Vĩnh Long","Lĩnh vực SX,KD,KD+SX":"lúa giống","layer_id":291,"fid":4,"label":"Nam Kỳ"}},{"type":"Feature","id":5,"geometry":{"type":"Point","coordinates":[106.11732,10.07447]},"properties":{"Tên cơ sở ":"Hưng Phú","Người đại diện":"Hưng Phú","Địa chỉ giao dịch":"vũng Liêm- Vĩnh Long","Lĩnh vực SX,KD,KD+SX":"lúa giống","layer_id":291,"fid":5,"label":"Hưng Phú"}},{"type":"Feature","id":51,"geometry":{"type":"Point","coordinates":[106.131384,10.142862]},"properties":{"Tên cơ sở ":"HKD Minh Phát","Người đại diện":"Nguyễn Thị Diễm","Địa chỉ giao dịch":"Ấp Quang Diệu-Tân Quới Trung-Vũng Liêm- Vĩnh Long","Lĩnh vực SX,KD,KD+SX":"Kinh doanh","layer_id":291,"fid":51,"label":"HKD Minh Phát"}},{"type":"Feature","id":6,"geometry":{"type":"Point","coordinates":[9.963283,105.925984]},"properties":{"Tên cơ sở ":"Kim Cát","Người đại diện":"Kim Cát","Địa chỉ giao dịch":"Thị Trấn Trà Ôn- Trà Ôn- Vĩnh Long","Lĩnh vực SX,KD,KD+SX":"lúa giống","layer_id":291,"fid":6,"label":"Kim Cát"}},{"type":"Feature","id":112,"geometry":{"type":"Point","coordinates":[106.03815,10.10204]},"properties":{"Tên cơ sở ":"HTX lúa giống ấp 8","Người đại diện":"Mai Hoàng Nam","Địa chỉ giao dịch":"Ấp  8, xã Hòa Hiệp, huyện Tam Bình, tỉnh Vĩnh Long","Lĩnh vực SX,KD,KD+SX":"Kinh doanh","layer_id":291,"fid":112,"label":"HTX lúa giống ấp 8"}},{"type":"Feature","id":8,"geometry":{"type":"Point","coordinates":[106.150513,10.075315]},"properties":{"Tên cơ sở ":"HKD Thúy Trang","Người đại diện":"Trần Thúy Trang","Địa chỉ giao dịch":"Bình Thành - Trung Hiếu","Lĩnh vực SX,KD,KD+SX":"Lúa giống","layer_id":291,"fid":8,"label":"HKD Thúy Trang"}},{"type":"Feature","id":52,"geometry":{"type":"Point","coordinates":[106.086228,10.114545]},"properties":{"Tên cơ sở ":"HKD Lý Thanh Hiền","Người đại diện":" Lý Thanh Hiền","Địa chỉ giao dịch":"Ấp Gò Ân-Tân An Luông-Vũng Liêm-VĩnhLong","Lĩnh vực SX,KD,KD+SX":"Kinh doanh","layer_id":291,"fid":52,"label":"HKD Lý Thanh Hiền"}},{"type":"Feature","id":9,"geometry":{"type":"Point","coordinates":[106.086523,10.09789]},"properties":{"Tên cơ sở ":"Tổ HTX Thành Công","Người đại diện":"Nguyễn Văn Sơn","Địa chỉ giao dịch":"7 - Tân An Luông","Lĩnh vực SX,KD,KD+SX":"Lúa giống","layer_id":291,"fid":9,"label":"Tổ HTX Thành Công"}},{"type":"Feature","id":10,"geometry":{"type":"Point","coordinates":[106.087735,10.096186]},"properties":{"Tên cơ sở ":"HKD Nguyễn Văn Khuynh","Người đại diện":"Nguyễn Thành Khuynh","Địa chỉ giao dịch":"7 - Tân An Luông","Lĩnh vực SX,KD,KD+SX":"Lúa giống","layer_id":291,"fid":10,"label":"HKD Nguyễn Văn Khuynh"}},{"type":"Feature","id":11,"geometry":{"type":"Point","coordinates":[106.084292,10.100954]},"properties":{"Tên cơ sở ":"HKD Trung Vân","Người đại diện":"Phan Thị Cẩm Vân","Địa chỉ giao dịch":"8 - Tân An Luông","Lĩnh vực SX,KD,KD+SX":"Lúa giống, rau màu","layer_id":291,"fid":11,"label":"HKD Trung Vân"}},{"type":"Feature","id":113,"geometry":{"type":"Point","coordinates":[106.06349,10.12046]},"properties":{"Tên cơ sở ":"HKDThanh Trúc","Người đại diện":"Nguyễn Thanh Trúc","Địa chỉ giao dịch":"Ấp  Thạnh Trí, xã Hòa Thạnh, huyện Tam Bình, tỉnh Vĩnh Long","Lĩnh vực SX,KD,KD+SX":"Kinh doanh","layer_id":291,"fid":113,"label":"HKDThanh Trúc"}},{"type":"Feature","id":12,"geometry":{"type":"Point","coordinates":[106.073972,10.094827]},"properties":{"Tên cơ sở ":"HKD Nguyễn Văn Mười","Người đại diện":"Nguyễn Văn Mười","Địa chỉ giao dịch":"8 - Tân An Luông","Lĩnh vực SX,KD,KD+SX":"Lúa giống","layer_id":291,"fid":12,"label":"HKD Nguyễn Văn Mười"}},{"type":"Feature","id":53,"geometry":{"type":"Point","coordinates":[106.11359,10.085689]},"properties":{"Tên cơ sở ":"HKD Trần Văn Ngoan","Người đại diện":"Trần Văn Ngoan","Địa chỉ giao dịch":"Ấp Tân Huy- xã  Hiếu Phụng- huyện Vũng Liêm-tỉnh Vĩnh Long","Lĩnh vực SX,KD,KD+SX":"Kinh doanh","layer_id":291,"fid":53,"label":"HKD Trần Văn Ngoan"}},{"type":"Feature","id":13,"geometry":{"type":"Point","coordinates":[106.131384,10.142862]},"properties":{"Tên cơ sở ":"HKD Minh Phát","Người đại diện":"Nguyễn Thị Diễm","Địa chỉ giao dịch":"Quang Diệu - Tân Quới Trung","Lĩnh vực SX,KD,KD+SX":"Lúa giống","layer_id":291,"fid":13,"label":"HKD Minh Phát"}},{"type":"Feature","id":14,"geometry":{"type":"Point","coordinates":[106.13246,10.14255]},"properties":{"Tên cơ sở ":"HKD Phú Thịnh","Người đại diện":"Nguyễn Thị Kiều Duyên","Địa chỉ giao dịch":"Bà Đông - Trung Chánh","Lĩnh vực SX,KD,KD+SX":"Lúa giống","layer_id":291,"fid":14,"label":"HKD Phú Thịnh"}},{"type":"Feature","id":54,"geometry":{"type":"Point","coordinates":[106.194135,10.071701]},"properties":{"Tên cơ sở ":"HKD Thanh Như","Người đại diện":"Nguyễn Thị Thanh Như","Địa chỉ giao dịch":"Ấp Trung Trạch-xã Trung Thành-huyện Vũng Liêm-tỉnh Vĩnh Long","Lĩnh vực SX,KD,KD+SX":"Kinh doanh","layer_id":291,"fid":54,"label":"HKD Thanh Như"}},{"type":"Feature","id":15,"geometry":{"type":"Point","coordinates":[106.092995,10.092247]},"properties":{"Tên cơ sở ":"HKD Hai Hoàng","Người đại diện":"Võ Thị Hồng Mai","Địa chỉ giao dịch":"Quang Phú - Hiếu Phụng","Lĩnh vực SX,KD,KD+SX":"Lúa giống, rau màu","layer_id":291,"fid":15,"label":"HKD Hai Hoàng"}},{"type":"Feature","id":77,"geometry":{"type":"Point","coordinates":[10.05812,10.05812]},"properties":{"Tên cơ sở ":"HKD Được Mùa","Người đại diện":"Lê Hoàng Trọng","Địa chỉ giao dịch":"Ấp Bình Hòa, xã Loan Mỹ, huyện Tam Bình, tỉnh Vĩnh Long","Lĩnh vực SX,KD,KD+SX":"Kinh doanh","layer_id":291,"fid":77,"label":"HKD Được Mùa"}},{"type":"Feature","id":16,"geometry":{"type":"Point","coordinates":[106.112041,10.086202]},"properties":{"Tên cơ sở ":"HKD Minh Trí","Người đại diện":"Lê  Minh Trí","Địa chỉ giao dịch":"Hiếu hiệp- Hiếu phụng","Lĩnh vực SX,KD,KD+SX":"Lúa giống","layer_id":291,"fid":16,"label":"HKD Minh Trí"}},{"type":"Feature","id":114,"geometry":{"type":"Point","coordinates":[105.97262,10.09741]},"properties":{"Tên cơ sở ":"HKD cơ sở sản xuất lúa giống Hòa Hiệp","Người đại diện":"Nguyễn Hòa Hiệp","Địa chỉ giao dịch":"Ấp 9, xã Mỹ Lộc, huyện Tam Bình, tỉnh Vĩnh Long","Lĩnh vực SX,KD,KD+SX":"Kinh doanh","layer_id":291,"fid":114,"label":"HKD cơ sở sản xuất lúa giống Hòa Hiệp"}},{"type":"Feature","id":78,"geometry":{"type":"Point","coordinates":[10.05343,10.05343]},"properties":{"Tên cơ sở ":"HKD Tư Thế","Người đại diện":"Bùi Văn Thế","Địa chỉ giao dịch":"Ấp Phú Bình, xã Loan Mỹ, huyện Tam Bình, tỉnh Vĩnh Long","Lĩnh vực SX,KD,KD+SX":"Kinh doanh","layer_id":291,"fid":78,"label":"HKD Tư Thế"}},{"type":"Feature","id":79,"geometry":{"type":"Point","coordinates":[9.98717,9.98717]},"properties":{"Tên cơ sở ":"HKD Bảy Sạp","Người đại diện":"Liêu Minh Đức","Địa chỉ giao dịch":"Ấp Mỹ An, xã Bình Ninh, huyện Tam Bình, tỉnh Vĩnh Long","Lĩnh vực SX,KD,KD+SX":"Kinh doanh","layer_id":291,"fid":79,"label":"HKD Bảy Sạp"}},{"type":"Feature","id":55,"geometry":{"type":"Point","coordinates":[106.195337,10.068936]},"properties":{"Tên cơ sở ":"HKD Nguyễn Văn Phấn","Người đại diện":"Nguyễn Văn Phấn","Địa chỉ giao dịch":"Ấp An Trung-xã Trung Thành- huyện Vũng Liêm-tỉnh Vĩnh Long","Lĩnh vực SX,KD,KD+SX":"Kinh doanh","layer_id":291,"fid":55,"label":"HKD Nguyễn Văn Phấn"}},{"type":"Feature","id":17,"geometry":{"type":"Point","coordinates":[106.2,10.05]},"properties":{"Tên cơ sở ":"HKD Sáu Mai","Người đại diện":"Trần Thị Đào","Địa chỉ giao dịch":"Giồng ké- Trung Ngãi","Lĩnh vực SX,KD,KD+SX":"Lúa giống, rau màu","layer_id":291,"fid":17,"label":"HKD Sáu Mai"}},{"type":"Feature","id":18,"geometry":{"type":"Point","coordinates":[106187238.0,10.097428]},"properties":{"Tên cơ sở ":"Nam Ký","Người đại diện":"Trần Hớn Quang","Địa chỉ giao dịch":"Phong Thới-Thị trấn Vũng Liêm","Lĩnh vực SX,KD,KD+SX":"Rau màu","layer_id":291,"fid":18,"label":"Nam Ký"}},{"type":"Feature","id":22,"geometry":{"type":"Point","coordinates":[106.0179,10.18821]},"properties":{"Tên cơ sở ":"Huỳnh Văn Lương","Người đại diện":"Huỳnh Văn Lương","Địa chỉ giao dịch":"Khóm 2-Thị trấn Long Hồ","Lĩnh vực SX,KD,KD+SX":"KINH DOANH ","layer_id":291,"fid":22,"label":"Huỳnh Văn Lương"}},{"type":"Feature","id":19,"geometry":{"type":"Point","coordinates":[106.145985,10.041053]},"properties":{"Tên cơ sở ":"HKD Liễu Linh Ngân","Người đại diện":"Lê Hữu Phước","Địa chỉ giao dịch":"An Lạc 1- Trung An","Lĩnh vực SX,KD,KD+SX":"Lúa giống, rau màu","layer_id":291,"fid":19,"label":"HKD Liễu Linh Ngân"}},{"type":"Feature","id":56,"geometry":{"type":"Point","coordinates":[106.199097,10.053944]},"properties":{"Tên cơ sở ":"HKD Nguyễn Thị Nga","Người đại diện":"Nguyễn Thị Nga","Địa chỉ giao dịch":"Ấp Giồng ké, xã  Trung Ngãi, huyện Vũng Liêm, tỉnh Vĩnh Long","Lĩnh vực SX,KD,KD+SX":"Kinh doanh","layer_id":291,"fid":56,"label":"HKD Nguyễn Thị Nga"}},{"type":"Feature","id":20,"geometry":{"type":"Point","coordinates":[106.02148,10.18144]},"properties":{"Tên cơ sở ":"Mỹ Diễm","Người đại diện":"Đào Công Nhân","Địa chỉ giao dịch":"An Phú A- Long An","Lĩnh vực SX,KD,KD+SX":"KINH DOANH ","layer_id":291,"fid":20,"label":"Mỹ Diễm"}},{"type":"Feature","id":115,"geometry":{"type":"Point","coordinates":[105.91321,10.0778]},"properties":{"Tên cơ sở ":"HKD Năm Chiến","Người đại diện":"Nguyễn Văn Khải","Địa chỉ giao dịch":"Ấp Phú Sơn A, xã Long Phú, huyện Tam Bình, tỉnh Vĩnh Long","Lĩnh vực SX,KD,KD+SX":"Kinh doanh","layer_id":291,"fid":115,"label":"HKD Năm Chiến"}},{"type":"Feature","id":21,"geometry":{"type":"Point","coordinates":[105.97545,10.2076]},"properties":{"Tên cơ sở ":"Thu Hương","Người đại diện":"Lương Thị Thu Hương","Địa chỉ giao dịch":"Phước Lợi A-Long Phước","Lĩnh vực SX,KD,KD+SX":"KINH DOANH ","layer_id":291,"fid":21,"label":"Thu Hương"}},{"type":"Feature","id":57,"geometry":{"type":"Point","coordinates":[106.152247,10.153563]},"properties":{"Tên cơ sở ":"HKD CHVTNN Gia Thanh","Người đại diện":"Nguyễn Thanh Thanh","Địa chỉ giao dịch":"Ấp Nhất, xã Quới An, huyện Vũng Liêm, tỉnh Vĩnh Long","Lĩnh vực SX,KD,KD+SX":"Kinh doanh","layer_id":291,"fid":57,"label":"HKD CHVTNN Gia Thanh"}},{"type":"Feature","id":58,"geometry":{"type":"Point","coordinates":[106.049876,10.1878]},"properties":{"Tên cơ sở ":"HKD Minh Hương ","Người đại diện":"Mai Thị Ngọc Hương","Địa chỉ giao dịch":" khóm 2. thị trấn Cái Nhum. huyện Mang Thít. tỉnh Vĩnh Long","Lĩnh vực SX,KD,KD+SX":"Kinh doanh","layer_id":291,"fid":58,"label":"HKD Minh Hương "}},{"type":"Feature","id":23,"geometry":{"type":"Point","coordinates":[105.957126,10.173186]},"properties":{"Tên cơ sở ":"Lâm Vân","Người đại diện":"Cao Đức Năng","Địa chỉ giao dịch":"Phước Lộc-Hòa Phú","Lĩnh vực SX,KD,KD+SX":"KINH DOANH ","layer_id":291,"fid":23,"label":"Lâm Vân"}},{"type":"Feature","id":24,"geometry":{"type":"Point","coordinates":[105.948825,10.157064]},"properties":{"Tên cơ sở ":"Út Liên","Người đại diện":"Huỳnh Hoàng Huy","Địa chỉ giao dịch":"Lộc Hưng-Hòa Phú","Lĩnh vực SX,KD,KD+SX":"KINH DOANH ","layer_id":291,"fid":24,"label":"Út Liên"}},{"type":"Feature","id":116,"geometry":{"type":"Point","coordinates":[105.89634,10.11284]},"properties":{"Tên cơ sở ":"HKD Nam Lợi","Người đại diện":"Từ Kiều Nga","Địa chỉ giao dịch":"Ấp  Phú Trường, xã Song Phú, huyện Tam Bình, tỉnh Vĩnh Long","Lĩnh vực SX,KD,KD+SX":"Kinh doanh","layer_id":291,"fid":116,"label":"HKD Nam Lợi"}},{"type":"Feature","id":59,"geometry":{"type":"Point","coordinates":[106.031628,10.1685507]},"properties":{"Tên cơ sở ":"HKD Năm Thành ","Người đại diện":"Trần Thị Út Em","Địa chỉ giao dịch":"Tổ 11. ấp Thân Bình. xã Tân Long. huyện Mang Thít. tỉnh Vĩnh Long","Lĩnh vực SX,KD,KD+SX":"Kinh doanh","layer_id":291,"fid":59,"label":"HKD Năm Thành "}},{"type":"Feature","id":25,"geometry":{"type":"Point","coordinates":[105.943733,10.157391]},"properties":{"Tên cơ sở ":"Thạnh An","Người đại diện":"Trần Thị Thanh An","Địa chỉ giao dịch":"Hòa Hưng-Hòa Phú","Lĩnh vực SX,KD,KD+SX":"KINH DOANH ","layer_id":291,"fid":25,"label":"Thạnh An"}},{"type":"Feature","id":26,"geometry":{"type":"Point","coordinates":[105.91184,10.14718]},"properties":{"Tên cơ sở ":"Thành Huệ","Người đại diện":"Lê Thành Huệ","Địa chỉ giao dịch":"Phú Long B-Phú Quới","Lĩnh vực SX,KD,KD+SX":"KINH DOANH ","layer_id":291,"fid":26,"label":"Thành Huệ"}},{"type":"Feature","id":60,"geometry":{"type":"Point","coordinates":[106.077366,10165807.0]},"properties":{"Tên cơ sở ":"HKD Tâm Như ","Người đại diện":"Trần Văn Minh Tâm","Địa chỉ giao dịch":"Tổ 09. ấp Thân Bình. xã Tân Long. huyện Mang Thít. tỉnh Vĩnh Long","Lĩnh vực SX,KD,KD+SX":"Kinh doanh","layer_id":291,"fid":60,"label":"HKD Tâm Như "}},{"type":"Feature","id":27,"geometry":{"type":"Point","coordinates":[105.942641,10.157783]},"properties":{"Tên cơ sở ":"Năm Ai","Người đại diện":"Lê Văn Hưng","Địa chỉ giao dịch":"Hòa Hưng-Hòa Phú","Lĩnh vực SX,KD,KD+SX":"KINH DOANH ","layer_id":291,"fid":27,"label":"Năm Ai"}},{"type":"Feature","id":61,"geometry":{"type":"Point","coordinates":[106.105456,10179018.0]},"properties":{"Tên cơ sở ":"HKD Vy Tuyền","Người đại diện":"Nguyễn Thị Ánh Tuyết","Địa chỉ giao dịch":"Ấp  Phước Thới. xã Bình Phước. huyện Mang Thít. tỉnh Vĩnh Long","Lĩnh vực SX,KD,KD+SX":"Kinh doanh","layer_id":291,"fid":61,"label":"HKD Vy Tuyền"}},{"type":"Feature","id":28,"geometry":{"type":"Point","coordinates":[105.9356,10.15792]},"properties":{"Tên cơ sở ":"Bảo Châu","Người đại diện":"Trần Văn Sáng","Địa chỉ giao dịch":"Phú Hưng-Hòa Phú","Lĩnh vực SX,KD,KD+SX":"KINH DOANH ","layer_id":291,"fid":28,"label":"Bảo Châu"}},{"type":"Feature","id":29,"geometry":{"type":"Point","coordinates":[105.92959,10.15956]},"properties":{"Tên cơ sở ":"Tấn Beo","Người đại diện":"Phạm Thảo Sương","Địa chỉ giao dịch":"Phú Hưng-Hòa Phú","Lĩnh vực SX,KD,KD+SX":"KINH DOANH ","layer_id":291,"fid":29,"label":"Tấn Beo"}},{"type":"Feature","id":62,"geometry":{"type":"Point","coordinates":[106.09807,10021295.0]},"properties":{"Tên cơ sở ":"HKD Gia Phát","Người đại diện":"Trương Vĩ Bình","Địa chỉ giao dịch":"Khóm 2. Thị trấn Cái nhum. huyện Mang Thít. tỉnh Vĩnh Long","Lĩnh vực SX,KD,KD+SX":"Kinh doanh","layer_id":291,"fid":62,"label":"HKD Gia Phát"}},{"type":"Feature","id":117,"geometry":{"type":"Point","coordinates":[105.92301,10.10654]},"properties":{"Tên cơ sở ":"HKD Thạnh","Người đại diện":"Phan Văn Thạnh","Địa chỉ giao dịch":"Ấp  Phú Điền, xã Song Phú, huyện Tam Bình, tỉnh Vĩnh Long","Lĩnh vực SX,KD,KD+SX":"Kinh doanh","layer_id":291,"fid":117,"label":"HKD Thạnh"}},{"type":"Feature","id":30,"geometry":{"type":"Point","coordinates":[105.8864427,10.1866876]},"properties":{"Tên cơ sở ":"Duy Tân","Người đại diện":"Phạm Thế Hiền","Địa chỉ giao dịch":"Hòa Thạnh-Thạnh Quới","Lĩnh vực SX,KD,KD+SX":"KINH DOANH ","layer_id":291,"fid":30,"label":"Duy Tân"}},{"type":"Feature","id":118,"geometry":{"type":"Point","coordinates":[105.89749,10.11317]},"properties":{"Tên cơ sở ":"HKD La Văn Khoa","Người đại diện":"La Văn Khoa","Địa chỉ giao dịch":"Ấp  Phú Điền, xã Song Phú, huyện Tam Bình, tỉnh Vĩnh Long","Lĩnh vực SX,KD,KD+SX":"Kinh doanh","layer_id":291,"fid":118,"label":"HKD La Văn Khoa"}},{"type":"Feature","id":31,"geometry":{"type":"Point","coordinates":[105.8862207,10.1604195]},"properties":{"Tên cơ sở ":"Minh Tâm II","Người đại diện":"Nguyễn Minh Tâm","Địa chỉ giao dịch":"Hòa Thạnh 2-Thạnh Quới","Lĩnh vực SX,KD,KD+SX":"KINH DOANH ","layer_id":291,"fid":31,"label":"Minh Tâm II"}},{"type":"Feature","id":63,"geometry":{"type":"Point","coordinates":[106.089334,10205341.0]},"properties":{"Tên cơ sở ":"HKD Tứ Phượng 2 ","Người đại diện":"Nguyễn Thị Phượng","Địa chỉ giao dịch":"Ấp Phước Thới. xã Bình Phước. huyện Mang Thít. tỉnh Vĩnh Long","Lĩnh vực SX,KD,KD+SX":"Kinh doanh","layer_id":291,"fid":63,"label":"HKD Tứ Phượng 2 "}},{"type":"Feature","id":32,"geometry":{"type":"Point","coordinates":[105.8877668,10.1609563]},"properties":{"Tên cơ sở ":"Thanh Phương","Người đại diện":"Trần Kim Chi","Địa chỉ giao dịch":"Thạnh Phú-Thạnh Quới","Lĩnh vực SX,KD,KD+SX":"KINH DOANH ","layer_id":291,"fid":32,"label":"Thanh Phương"}},{"type":"Feature","id":64,"geometry":{"type":"Point","coordinates":[106.023291,10203192.0]},"properties":{"Tên cơ sở ":"HKD Tám Phùng","Người đại diện":"Trần Văn Phùng","Địa chỉ giao dịch":"Ấp Phú Thạnh B. xã Nhơn Phú. huyện Mang Thít. tỉnh Vĩnh Long","Lĩnh vực SX,KD,KD+SX":"Kinh doanh","layer_id":291,"fid":64,"label":"HKD Tám Phùng"}},{"type":"Feature","id":33,"geometry":{"type":"Point","coordinates":[105.982909,10.17479]},"properties":{"Tên cơ sở ":"Sang Thoa","Người đại diện":"Trần Minh Sang","Địa chỉ giao dịch":"An Hòa-Phú Đức","Lĩnh vực SX,KD,KD+SX":"KINH DOANH ","layer_id":291,"fid":33,"label":"Sang Thoa"}},{"type":"Feature","id":34,"geometry":{"type":"Point","coordinates":[105.980981,10.171196]},"properties":{"Tên cơ sở ":"Bảo Minh","Người đại diện":"Trần Thị Bạch Tuyết","Địa chỉ giao dịch":"An Hòa-Phú Đức","Lĩnh vực SX,KD,KD+SX":"KINH DOANH ","layer_id":291,"fid":34,"label":"Bảo Minh"}},{"type":"Feature","id":65,"geometry":{"type":"Point","coordinates":[106.014139,10195402.0]},"properties":{"Tên cơ sở ":"HKD Tấn Phát ","Người đại diện":"Nguyễn Mỹ Tiên","Địa chỉ giao dịch":"Ấp Bình Tịnh B. xã Hòa Tịnh. huyện Mang Thít. tỉnh Vĩnh Long","Lĩnh vực SX,KD,KD+SX":"Kinh doanh","layer_id":291,"fid":65,"label":"HKD Tấn Phát "}},{"type":"Feature","id":119,"geometry":{"type":"Point","coordinates":[105.88945,10.1235]},"properties":{"Tên cơ sở ":"HKD Kim Ngân","Người đại diện":"Nguyễn Thị Kim Ngân","Địa chỉ giao dịch":"Ấp  Phú Thuận, xã Phú Thịnh,huyện Tam Bình, tỉnh Vĩnh Long","Lĩnh vực SX,KD,KD+SX":"Kinh doanh","layer_id":291,"fid":119,"label":"HKD Kim Ngân"}},{"type":"Feature","id":35,"geometry":{"type":"Point","coordinates":[105.981198,10.1552]},"properties":{"Tên cơ sở ":"Thành Thu","Người đại diện":"Nguyễn Thị Kim Sa","Địa chỉ giao dịch":"Thông Quan-Phú Đức","Lĩnh vực SX,KD,KD+SX":"KINH DOANH ","layer_id":291,"fid":35,"label":"Thành Thu"}},{"type":"Feature","id":36,"geometry":{"type":"Point","coordinates":[105.8886671,10.1623272]},"properties":{"Tên cơ sở ":"Năm Sơn","Người đại diện":"Đoàn Xuân Thùy","Địa chỉ giao dịch":"Hòa Thạnh 2-Thạnh Quới","Lĩnh vực SX,KD,KD+SX":"KINH DOANH ","layer_id":291,"fid":36,"label":"Năm Sơn"}},{"type":"Feature","id":66,"geometry":{"type":"Point","coordinates":[106.0908,10.21295]},"properties":{"Tên cơ sở ":"HKD Tứ Phượng 1 ","Người đại diện":"Nguyễn Tấn Tứ","Địa chỉ giao dịch":"Ấp Bình Tịnh. xã Hòa Tịnh. huyện Mang Thít. tỉnh Vĩnh Long","Lĩnh vực SX,KD,KD+SX":"Kinh doanh","layer_id":291,"fid":66,"label":"HKD Tứ Phượng 1 "}},{"type":"Feature","id":120,"geometry":{"type":"Point","coordinates":[106.119524,10.110612]},"properties":{"Tên cơ sở ":"HKD Chí Thiện","Người đại diện":"Âu Văn Trường Giang","Địa chỉ giao dịch":"Ấp Chợ Mới- xã Trung Chánh- huyện Vũng Liêm- tỉnh Vĩnh Long","Lĩnh vực SX,KD,KD+SX":"Kinh doanh","layer_id":291,"fid":120,"label":"HKD Chí Thiện"}},{"type":"Feature","id":121,"geometry":{"type":"Point","coordinates":[106.119524,10.110612]},"properties":{"Tên cơ sở ":"HKD Chí Thiện","Người đại diện":"Âu Văn Trường Giang","Địa chỉ giao dịch":"Ấp Chợ Mới- xã Trung Chánh- huyện Vũng Liêm- tỉnh Vĩnh Long","Lĩnh vực SX,KD,KD+SX":"Kinh doanh","layer_id":291,"fid":121,"label":"HKD Chí Thiện"}},{"type":"Feature","id":122,"geometry":{"type":"Point","coordinates":[106.00395,10.240814]},"properties":{"Tên cơ sở ":"HKD Bảy Sơn (Hộ kinh doanh cửa hàng VTNN Bảy Sơn )","Người đại diện":"Châu Ngọc Sơn","Địa chỉ giao dịch":" Ấp Hòa Long, xã Mỹ An, huyện Mang Thít, tỉnh Vĩnh Long","Lĩnh vực SX,KD,KD+SX":"kinh doanh","layer_id":291,"fid":122,"label":"HKD Bảy Sơn (Hộ kinh doanh cửa hàng VTNN Bảy Sơn )"}},{"type":"Feature","id":37,"geometry":{"type":"Point","coordinates":[105.978938,10.1703]},"properties":{"Tên cơ sở ":"HTX dịch vụ Nông nghiệp An Thành","Người đại diện":"Lê Thành Trí","Địa chỉ giao dịch":"An Thành-Phú Đức","Lĩnh vực SX,KD,KD+SX":"KINH DOANH SẢN XUẤT","layer_id":291,"fid":37,"label":"HTX dịch vụ Nông nghiệp An Thành"}},{"type":"Feature","id":67,"geometry":{"type":"Point","coordinates":[106.084866,10129940.0]},"properties":{"Tên cơ sở ":"HKD Minh Hương","Người đại diện":"Đạng Thế Mãi","Địa chỉ giao dịch":"Ấp Phú Thạnh C. Xã Nhơn Phú. huyện Mang Thít. tinh Vĩnh Long","Lĩnh vực SX,KD,KD+SX":"Kinh doanh","layer_id":291,"fid":67,"label":"HKD Minh Hương"}},{"type":"Feature","id":38,"geometry":{"type":"Point","coordinates":[105.975642,10.181017]},"properties":{"Tên cơ sở ":"Ba Bé","Người đại diện":"Phạm Thanh Sang","Địa chỉ giao dịch":"An Thành-Phú Đức","Lĩnh vực SX,KD,KD+SX":"KINH DOANH ","layer_id":291,"fid":38,"label":"Ba Bé"}},{"type":"Feature","id":68,"geometry":{"type":"Point","coordinates":[106.097415,10162125.0]},"properties":{"Tên cơ sở ":"HKD Thanh Lương ","Người đại diện":"Nguyễn Hoàng Lương","Địa chỉ giao dịch":"Ấp Tân Hội. xã Tân An Hội. huyện Mang Thít. tỉnh Vĩnh Long","Lĩnh vực SX,KD,KD+SX":"Kinh doanh","layer_id":291,"fid":68,"label":"HKD Thanh Lương "}},{"type":"Feature","id":39,"geometry":{"type":"Point","coordinates":[105.8936169,10.168752]},"properties":{"Tên cơ sở ":"Thanh Liêm (Tý Xuyến)","Người đại diện":"Phan Thanh Liêm","Địa chỉ giao dịch":"Thạnh Phú-Thạnh Quới","Lĩnh vực SX,KD,KD+SX":"KINH DOANH ","layer_id":291,"fid":39,"label":"Thanh Liêm (Tý Xuyến)"}},{"type":"Feature","id":40,"geometry":{"type":"Point","coordinates":[105.8903711,10.1693228]},"properties":{"Tên cơ sở ":"Ngọc Hiển","Người đại diện":"Nguyễn Ngọc Hiển","Địa chỉ giao dịch":"Hòa Thạnh 1-Thạnh Quới","Lĩnh vực SX,KD,KD+SX":"KINH DOANH ","layer_id":291,"fid":40,"label":"Ngọc Hiển"}},{"type":"Feature","id":69,"geometry":{"type":"Point","coordinates":[106.00445,10228651.0]},"properties":{"Tên cơ sở ":"HKD Nguyễn Minh Hải ","Người đại diện":"Nguyễn Minh Hải","Địa chỉ giao dịch":" Ấp An Hội. xã Tân An Hội. huyện Mang Thít. tỉnh Vĩnh Long","Lĩnh vực SX,KD,KD+SX":"Kinh doanh","layer_id":291,"fid":69,"label":"HKD Nguyễn Minh Hải "}},{"type":"Feature","id":123,"geometry":{"type":"Point","coordinates":[106.019801,10.202629]},"properties":{"Tên cơ sở ":"CH VTNN Trung Nghĩa","Người đại diện":"Lê Trung Nghĩa","Địa chỉ giao dịch":"Ấp Bình Tịnh, xã Hòa Tịnh, huyện Mang Thít, tỉnh Vĩnh Long","Lĩnh vực SX,KD,KD+SX":"kinh doanh","layer_id":291,"fid":123,"label":"CH VTNN Trung Nghĩa"}},{"type":"Feature","id":41,"geometry":{"type":"Point","coordinates":[105.95733,10.21299]},"properties":{"Tên cơ sở ":"Ngọc Phượng","Người đại diện":"Lê Thị Thu Hà","Địa chỉ giao dịch":"Phước Lợi B-Phước Hậu","Lĩnh vực SX,KD,KD+SX":"KINH DOANH ","layer_id":291,"fid":41,"label":"Ngọc Phượng"}},{"type":"Feature","id":70,"geometry":{"type":"Point","coordinates":[106.091478,10169987.0]},"properties":{"Tên cơ sở ":"HKD Đức Minh","Người đại diện":"Lê Đức Minh","Địa chỉ giao dịch":"Ấp Long Phước. xã Long Mỹ. huyện Mang Thít. tỉnh Vĩnh Long","Lĩnh vực SX,KD,KD+SX":"Kinh doanh","layer_id":291,"fid":70,"label":"HKD Đức Minh"}},{"type":"Feature","id":42,"geometry":{"type":"Point","coordinates":[105.968872,10.184665]},"properties":{"Tên cơ sở ":"Thái Phong","Người đại diện":"Thái Phong","Địa chỉ giao dịch":"Phú Tân-Lộc Hòa","Lĩnh vực SX,KD,KD+SX":"KINH DOANH ","layer_id":291,"fid":42,"label":"Thái Phong"}},{"type":"Feature","id":124,"geometry":{"type":"Point","coordinates":[106.063897,10.08866]},"properties":{"Tên cơ sở ":"Hoàng Kha","Người đại diện":"Nguyễn Hoàng Kha","Địa chỉ giao dịch":"Xuân Hiệp, Trà Ôn, Vĩnh Long","Lĩnh vực SX,KD,KD+SX":"Kinh doanh","layer_id":291,"fid":124,"label":"Hoàng Kha"}},{"type":"Feature","id":43,"geometry":{"type":"Point","coordinates":[105.936906,10.195784]},"properties":{"Tên cơ sở ":"Thành Nghĩa","Người đại diện":"Lê Thành Nghĩa","Địa chỉ giao dịch":"Phước Bình-Lộc Hòa","Lĩnh vực SX,KD,KD+SX":"KINH DOANH ","layer_id":291,"fid":43,"label":"Thành Nghĩa"}},{"type":"Feature","id":71,"geometry":{"type":"Point","coordinates":[106.089713,10130620.0]},"properties":{"Tên cơ sở ":"HKD Ngọc Thắng ","Người đại diện":"Trần Ngọc Thắng","Địa chỉ giao dịch":"Khóm 3. thị trấn Cái Nhum. huyện Mang Thít. tỉnh Vĩnh Long","Lĩnh vực SX,KD,KD+SX":"Kinh doanh","layer_id":291,"fid":71,"label":"HKD Ngọc Thắng "}},{"type":"Feature","id":44,"geometry":{"type":"Point","coordinates":[105.91743,10.20342]},"properties":{"Tên cơ sở ":"Trung hậu","Người đại diện":"Võ Trung Hậu","Địa chỉ giao dịch":"An hiệp-Lộc hòa","Lĩnh vực SX,KD,KD+SX":"KINH DOANH ","layer_id":291,"fid":44,"label":"Trung hậu"}},{"type":"Feature","id":45,"geometry":{"type":"Point","coordinates":[105.933104,10.235656]},"properties":{"Tên cơ sở ":"Tuấn Khanh","Người đại diện":"Nguyễn  Tuấn Khanh","Địa chỉ giao dịch":"Tân Thuận-Tân Hạnh","Lĩnh vực SX,KD,KD+SX":"KINH DOANH ","layer_id":291,"fid":45,"label":"Tuấn Khanh"}},{"type":"Feature","id":72,"geometry":{"type":"Point","coordinates":[106.0873,10.2076]},"properties":{"Tên cơ sở ":"HKD VTNN Năm Già","Người đại diện":"Phạm Thị Hà Thanh","Địa chỉ giao dịch":"Ấp Tân Hội. xã Tân An Hội. huyện Mang Thít. tỉnh Vĩnh Long","Lĩnh vực SX,KD,KD+SX":"Kinh doanh","layer_id":291,"fid":72,"label":"HKD VTNN Năm Già"}},{"type":"Feature","id":46,"geometry":{"type":"Point","coordinates":[105.965441,10.1579182]},"properties":{"Tên cơ sở ":"Kim Tuyết","Người đại diện":"Nguyễn Kim Tuyết","Địa chỉ giao dịch":"Long Bình-Lộc Hòa","Lĩnh vực SX,KD,KD+SX":"KINH DOANH ","layer_id":291,"fid":46,"label":"Kim Tuyết"}},{"type":"Feature","id":73,"geometry":{"type":"Point","coordinates":[106.00395,10240814.0]},"properties":{"Tên cơ sở ":"HKD Phú Khang","Người đại diện":"Phạm Ngọc Tấn","Địa chỉ giao dịch":"Ấp Phú Thạnh A. xã Nhơn Phú. huyện Mang Thít. tỉnh Vĩnh Long","Lĩnh vực SX,KD,KD+SX":"Kinh doanh","layer_id":291,"fid":73,"label":"HKD Phú Khang"}},{"type":"Feature","id":47,"geometry":{"type":"Point","coordinates":[106.02383,10.15408]},"properties":{"Tên cơ sở ":"Quang Phục","Người đại diện":"Nguyễn Quang Phục","Địa chỉ giao dịch":"Long Hiệp-Long An","Lĩnh vực SX,KD,KD+SX":"KINH DOANH ","layer_id":291,"fid":47,"label":"Quang Phục"}},{"type":"Feature","id":48,"geometry":{"type":"Point","coordinates":[106.02014,10.15122]},"properties":{"Tên cơ sở ":"Nguyễn Nghĩa","Người đại diện":"Nguyễn Văn Nghĩa","Địa chỉ giao dịch":"An Hiệp-Long An","Lĩnh vực SX,KD,KD+SX":"KINH DOANH ","layer_id":291,"fid":48,"label":"Nguyễn Nghĩa"}},{"type":"Feature","id":74,"geometry":{"type":"Point","coordinates":[106.026998,10.169692]},"properties":{"Tên cơ sở ":"HKD Út Nhỏ (VTNN Út Nhỏ)","Người đại diện":"Đinh Văn Út","Địa chỉ giao dịch":"Ấp Thanh Phong. xã Tân Long Hội. huyện Mang Thít. tỉnh Vĩnh Long","Lĩnh vực SX,KD,KD+SX":"Kinh doanh","layer_id":291,"fid":74,"label":"HKD Út Nhỏ (VTNN Út Nhỏ)"}},{"type":"Feature","id":49,"geometry":{"type":"Point","coordinates":[105.91433,10.1711]},"properties":{"Tên cơ sở ":"Kim Tiền","Người đại diện":"Lê Kim Tiến","Địa chỉ giao dịch":"Phước Bình B-Phú Quới","Lĩnh vực SX,KD,KD+SX":"KINH DOANH ","layer_id":291,"fid":49,"label":"Kim Tiền"}},{"type":"Feature","id":82,"geometry":{"type":"Point","coordinates":[10.067314,10.067314]},"properties":{"Tên cơ sở ":"HKD Đỉnh Đạt","Người đại diện":"Phùng Nhất Đỉnh","Địa chỉ giao dịch":"ấp Mỹ Phú Tân, xã Mỹ Thạnh Trung, huyện Tam Bình, tỉnh Vĩnh Long","Lĩnh vực SX,KD,KD+SX":"Kinh doanh","layer_id":291,"fid":82,"label":"HKD Đỉnh Đạt"}},{"type":"Feature","id":75,"geometry":{"type":"Point","coordinates":[106.014139,10.195402]},"properties":{"Tên cơ sở ":"CH VTNN Có Hương","Người đại diện":"Nguễn Văn Có","Địa chỉ giao dịch":"Ấp Phước Lộc Thọ. xã Bình Phước. huyện Mang Thít. tỉnh Vĩnh Long","Lĩnh vực SX,KD,KD+SX":"Kinh doanh","layer_id":291,"fid":75,"label":"CH VTNN Có Hương"}},{"type":"Feature","id":76,"geometry":{"type":"Point","coordinates":[106.019801,10.202629]},"properties":{"Tên cơ sở ":"CH VTNN Tứ Phượng 2","Người đại diện":"Nguyễn Tấn Tứ","Địa chỉ giao dịch":"Ấp Bình Tịnh. xã Hòa Tịnh. huyện Mang thít. tỉnh vĩnh Long","Lĩnh vực SX,KD,KD+SX":"Kinh doanh","layer_id":291,"fid":76,"label":"CH VTNN Tứ Phượng 2"}},{"type":"Feature","id":80,"geometry":{"type":"Point","coordinates":[10.03696,10.03696]},"properties":{"Tên cơ sở ":"HKD Út Thuận","Người đại diện":"Lưu Văn Thuận","Địa chỉ giao dịch":"Ấp Bình Quí, xã Ngãi Tứ, huyện Tam Bình, tỉnh Vĩnh Long","Lĩnh vực SX,KD,KD+SX":"Kinh doanh","layer_id":291,"fid":80,"label":"HKD Út Thuận"}},{"type":"Feature","id":81,"geometry":{"type":"Point","coordinates":[10.05935,10.05935]},"properties":{"Tên cơ sở ":"HKD Ngọc Mỹ","Người đại diện":"Nguyễn Tiến Đức","Địa chỉ giao dịch":"Ấp Mỹ Trung 2, xã Mỹ Thạnh Trung, huyện Tam Bình, tỉnh Vĩnh Long","Lĩnh vực SX,KD,KD+SX":"Kinh doanh","layer_id":291,"fid":81,"label":"HKD Ngọc Mỹ"}},{"type":"Feature","id":83,"geometry":{"type":"Point","coordinates":[10.077951,10.077951]},"properties":{"Tên cơ sở ":"HKD Huỳnh Trí","Người đại diện":"Huỳnh Anh Trí","Địa chỉ giao dịch":"Ấp Cây Bàng, xã Mỹ Thạnh Trung, huyện Tam Bình, tỉnh Vĩnh Long","Lĩnh vực SX,KD,KD+SX":"Kinh doanh","layer_id":291,"fid":83,"label":"HKD Huỳnh Trí"}},{"type":"Feature","id":84,"geometry":{"type":"Point","coordinates":[10.048472,10.048472]},"properties":{"Tên cơ sở ":"HKD Hai Minh","Người đại diện":"Phạm Văn Minh","Địa chỉ giao dịch":"Ấp Mỹ Phú 4, xã Mỹ Thạnh Trung, huyện Tam Bình, tỉnh Vĩnh Long","Lĩnh vực SX,KD,KD+SX":"Kinh doanh","layer_id":291,"fid":84,"label":"HKD Hai Minh"}},{"type":"Feature","id":85,"geometry":{"type":"Point","coordinates":[10.07688,10.07688]},"properties":{"Tên cơ sở ":"HKD Minh Phương","Người đại diện":"Đỗ Viết Phương","Địa chỉ giao dịch":"Ấp Mỹ Hưng, xã Mỹ Thạnh Trung, huyện Tam Bình, tỉnh Vĩnh Long","Lĩnh vực SX,KD,KD+SX":"Kinh doanh","layer_id":291,"fid":85,"label":"HKD Minh Phương"}},{"type":"Feature","id":86,"geometry":{"type":"Point","coordinates":[1008494.0,1008494.0]},"properties":{"Tên cơ sở ":"HKD Nhựt Định","Người đại diện":"Phạm Tấn Triều","Địa chỉ giao dịch":"Ấp  2, xã Hòa Lộc, huyện Tam Bình, tỉnh Vĩnh Long","Lĩnh vực SX,KD,KD+SX":"Kinh doanh","layer_id":291,"fid":86,"label":"HKD Nhựt Định"}},{"type":"Feature","id":87,"geometry":{"type":"Point","coordinates":[10.08485,10.08485]},"properties":{"Tên cơ sở ":"HKD Dũng Chi","Người đại diện":"Nguyễn Văn Dũng","Địa chỉ giao dịch":"Ấp  2, xã Hòa Lộc, huyện Tam Bình, tỉnh Vĩnh Long","Lĩnh vực SX,KD,KD+SX":"Kinh doanh","layer_id":291,"fid":87,"label":"HKD Dũng Chi"}},{"type":"Feature","id":88,"geometry":{"type":"Point","coordinates":[10.08412,10.08412]},"properties":{"Tên cơ sở ":"HKD  Sáu Đen","Người đại diện":"Nguyễn Thị Nguyệt Loan","Địa chỉ giao dịch":"Ấp , xã Hòa Lộc, huyện Tam Bình, tỉnh Vĩnh Long","Lĩnh vực SX,KD,KD+SX":"Kinh doanh","layer_id":291,"fid":88,"label":"HKD  Sáu Đen"}},{"type":"Feature","id":89,"geometry":{"type":"Point","coordinates":[10.12016,10.12016]},"properties":{"Tên cơ sở ":"HKD Nguyễn Kha 2 (Thanh Long)","Người đại diện":"Nguyễn Hoàng Minh Kha","Địa chỉ giao dịch":"Ấp  Thạnh Trí, xã Hòa Thạnh, huyện Tam Bình, tỉnh Vĩnh Long","Lĩnh vực SX,KD,KD+SX":"Kinh doanh","layer_id":291,"fid":89,"label":"HKD Nguyễn Kha 2 (Thanh Long)"}},{"type":"Feature","id":90,"geometry":{"type":"Point","coordinates":[10.12121,10.12121]},"properties":{"Tên cơ sở ":"HKD Toàn Thắng","Người đại diện":"Nguyễn Văn Bé Bảy","Địa chỉ giao dịch":"Ấp  Thạnh Trí, xã Hòa Thạnh, huyện Tam Bình, tỉnh Vĩnh Long","Lĩnh vực SX,KD,KD+SX":"Kinh doanh","layer_id":291,"fid":90,"label":"HKD Toàn Thắng"}},{"type":"Feature","id":91,"geometry":{"type":"Point","coordinates":[10.13153,10.13153]},"properties":{"Tên cơ sở ":"HTX Dịch vụ nông nghiệp Thành Đạt","Người đại diện":"Trần Văn Sáu","Địa chỉ giao dịch":"Ấp  Thạnh An, xã Hòa Thạnh, huyện Tam Bình, tỉnh Vĩnh Long","Lĩnh vực SX,KD,KD+SX":"Kinh doanh","layer_id":291,"fid":91,"label":"HTX Dịch vụ nông nghiệp Thành Đạt"}},{"type":"Feature","id":92,"geometry":{"type":"Point","coordinates":[10.10654,10.10654]},"properties":{"Tên cơ sở ":"HKD Hai Đạt","Người đại diện":"Nguyễn Văn Đạt","Địa chỉ giao dịch":"Ấp 3, xã Hậu Lộc, huyện Tam Bình, tỉnh Vĩnh Long","Lĩnh vực SX,KD,KD+SX":"Kinh doanh","layer_id":291,"fid":92,"label":"HKD Hai Đạt"}},{"type":"Feature","id":93,"geometry":{"type":"Point","coordinates":[10.11552,10.11552]},"properties":{"Tên cơ sở ":"HKD Nguyễn Trí","Người đại diện":"Nguyễn Văn Trí","Địa chỉ giao dịch":"Ấp  Danh Tấm, xã Hậu Lộc, huyện Tam Bình, tỉnh Vĩnh Long","Lĩnh vực SX,KD,KD+SX":"Kinh doanh","layer_id":291,"fid":93,"label":"HKD Nguyễn Trí"}},{"type":"Feature","id":94,"geometry":{"type":"Point","coordinates":[10.09351,10.09351]},"properties":{"Tên cơ sở ":"HKD Hải Hương","Người đại diện":"Đặng Thành Lợi","Địa chỉ giao dịch":"Ấp 6 A, xã Mỹ Lộc, huyện Tam Bình, tỉnh Vĩnh Long","Lĩnh vực SX,KD,KD+SX":"Kinh doanh","layer_id":291,"fid":94,"label":"HKD Hải Hương"}},{"type":"Feature","id":95,"geometry":{"type":"Point","coordinates":[10.11234,10.11234]},"properties":{"Tên cơ sở ":"HKD Nhật Ngọc","Người đại diện":"Nguyễn Ánh Ngọc","Địa chỉ giao dịch":"Ấp Mỹ Phú, xã Mỹ Lộc, huyện Tam Bình, tỉnh Vĩnh Long","Lĩnh vực SX,KD,KD+SX":"Kinh doanh","layer_id":291,"fid":95,"label":"HKD Nhật Ngọc"}},{"type":"Feature","id":96,"geometry":{"type":"Point","coordinates":[10.094321,10.094321]},"properties":{"Tên cơ sở ":"HKD Tư Chớp","Người đại diện":"Nguyễn Văn Chớp","Địa chỉ giao dịch":"Ấp 11, xã Mỹ Lộc, huyện Tam Bình, tỉnh Vĩnh Long","Lĩnh vực SX,KD,KD+SX":"Kinh doanh","layer_id":291,"fid":96,"label":"HKD Tư Chớp"}},{"type":"Feature","id":97,"geometry":{"type":"Point","coordinates":[10.10029,10.10029]},"properties":{"Tên cơ sở ":"HKD Mỹ Hương","Người đại diện":"Lê Long Hùng","Địa chỉ giao dịch":"Ấp Cái Sơn, xã Mỹ Lộc, huyện Tam Bình, tỉnh Vĩnh Long","Lĩnh vực SX,KD,KD+SX":"Kinh doanh","layer_id":291,"fid":97,"label":"HKD Mỹ Hương"}},{"type":"Feature","id":98,"geometry":{"type":"Point","coordinates":[10.108893,10.108893]},"properties":{"Tên cơ sở ":"HKD Dũng Chi","Người đại diện":"Nguyễn Thị Mỹ Hằng","Địa chỉ giao dịch":"Ấp Mỹ Phú, xã Mỹ Lộc, huyện Tam Bình, tỉnh Vĩnh Long","Lĩnh vực SX,KD,KD+SX":"Kinh doanh","layer_id":291,"fid":98,"label":"HKD Dũng Chi"}},{"type":"Feature","id":99,"geometry":{"type":"Point","coordinates":[10.13785,10.13785]},"properties":{"Tên cơ sở ":"HKD Thúy Oanh","Người đại diện":"Lữ Thị Thúy Oanh","Địa chỉ giao dịch":"Ấp  Lung Đồng, xã Phú Lộc, huyện Tam bình, tỉnh Vĩnh Long","Lĩnh vực SX,KD,KD+SX":"Kinh doanh","layer_id":291,"fid":99,"label":"HKD Thúy Oanh"}},{"type":"Feature","id":100,"geometry":{"type":"Point","coordinates":[10.14594,10.14594]},"properties":{"Tên cơ sở ":"HKD Tám Cảnh","Người đại diện":"Lâm Văn Cảnh","Địa chỉ giao dịch":"Ấp Lung Đồng, xã Phú Lộc, huyện Tam bình, tỉnh Vĩnh Long","Lĩnh vực SX,KD,KD+SX":"Kinh doanh","layer_id":291,"fid":100,"label":"HKD Tám Cảnh"}},{"type":"Feature","id":101,"geometry":{"type":"Point","coordinates":[10.15788,10.15788]},"properties":{"Tên cơ sở ":"HKD Thảo Hoàng","Người đại diện":"Nguyễn Văn Thảo","Địa chỉ giao dịch":"Ấp 3A, xã Phú Lộc, huyện Tam Bình, tỉnh Vĩnh Long","Lĩnh vực SX,KD,KD+SX":"Kinh doanh","layer_id":291,"fid":101,"label":"HKD Thảo Hoàng"}},{"type":"Feature","id":102,"geometry":{"type":"Point","coordinates":[10.15076,10.15076]},"properties":{"Tên cơ sở ":"HKD Phúc Lâm","Người đại diện":"Nguyễn Thị Mộng Tuyền","Địa chỉ giao dịch":"Ấp , xã Tân Lộc, huyện Tam Bình, tỉnh Vĩnh Long","Lĩnh vực SX,KD,KD+SX":"Kinh doanh","layer_id":291,"fid":102,"label":"HKD Phúc Lâm"}},{"type":"Feature","id":103,"geometry":{"type":"Point","coordinates":[10.14735,10.14735]},"properties":{"Tên cơ sở ":"HKD Minh Phát","Người đại diện":"Nguyễn Thanh Toàn","Địa chỉ giao dịch":"Ấp 1, xã Tân Lộc, huyện Tam Bình, tỉnh Vĩnh Long","Lĩnh vực SX,KD,KD+SX":"Kinh doanh","layer_id":291,"fid":103,"label":"HKD Minh Phát"}},{"type":"Feature","id":104,"geometry":{"type":"Point","coordinates":[10.07867,10.07867]},"properties":{"Tên cơ sở ":"HKD Lâm Thủy","Người đại diện":"Nguyễn Thu Thủy","Địa chỉ giao dịch":"Ấp Phú Sơn A, xã Long Phú, huyện Tam Bình, tỉnh Vĩnh Long","Lĩnh vực SX,KD,KD+SX":"Kinh doanh","layer_id":291,"fid":104,"label":"HKD Lâm Thủy"}},{"type":"Feature","id":105,"geometry":{"type":"Point","coordinates":[10.07761,10.07761]},"properties":{"Tên cơ sở ":"HKD Tiếng Anh Thư","Người đại diện":"Phan Thị Tiếng","Địa chỉ giao dịch":"Ấp Phú Sơn A, xã Long Phú, huyện Tam Bình, tỉnh Vĩnh Long","Lĩnh vực SX,KD,KD+SX":"Kinh doanh","layer_id":291,"fid":105,"label":"HKD Tiếng Anh Thư"}},{"type":"Feature","id":106,"geometry":{"type":"Point","coordinates":[10.08944,10.08944]},"properties":{"Tên cơ sở ":"HKD Sơn Hà","Người đại diện":"Nguyễn Ngọc Sơn","Địa chỉ giao dịch":"Ấp Phú Thọ, xã Tân Phú, huyện Tam Bình, tỉnh Vĩnh Long","Lĩnh vực SX,KD,KD+SX":"Kinh doanh","layer_id":291,"fid":106,"label":"HKD Sơn Hà"}},{"type":"Feature","id":107,"geometry":{"type":"Point","coordinates":[10.08637,10.08637]},"properties":{"Tên cơ sở ":"HKD Hoàng Nguyệt","Người đại diện":"Nguyễn Văn Hoàng","Địa chỉ giao dịch":"Ấp Phú Mỹ, xã Tân Phú, huyện Tam Bình, tỉnh Vĩnh Long","Lĩnh vực SX,KD,KD+SX":"Kinh doanh","layer_id":291,"fid":107,"label":"HKD Hoàng Nguyệt"}},{"type":"Feature","id":108,"geometry":{"type":"Point","coordinates":[10.08171,10.08171]},"properties":{"Tên cơ sở ":"HKD Tấn Quyền","Người đại diện":"Nguyễn Tấn Quyền","Địa chỉ giao dịch":"Ấp Phú Yên, xã Tân Phú, huyện Tam Bình, tỉnh Vĩnh Long","Lĩnh vực SX,KD,KD+SX":"Kinh doanh","layer_id":291,"fid":108,"label":"HKD Tấn Quyền"}},{"type":"Feature","id":109,"geometry":{"type":"Point","coordinates":[10.0805,10.0805]},"properties":{"Tên cơ sở ":"HKD Lộc Chính","Người đại diện":"Trần Thanh Lộc","Địa chỉ giao dịch":"Ấp Phú Yên, xã Tân Phú, huyện Tam Bình, tỉnh Vĩnh Long","Lĩnh vực SX,KD,KD+SX":"Kinh doanh","layer_id":291,"fid":109,"label":"HKD Lộc Chính"}},{"type":"Feature","id":110,"geometry":{"type":"Point","coordinates":[10.11409,10.11409]},"properties":{"Tên cơ sở ":"HKD Tám Huyền","Người đại diện":"Lê Thị Ái","Địa chỉ giao dịch":"Ấp  Phú Hòa, xã Phú Thịnh, huyện Tam Bình, tỉnh Vĩnh Long","Lĩnh vực SX,KD,KD+SX":"Kinh doanh","layer_id":291,"fid":110,"label":"HKD Tám Huyền"}},{"type":"Feature","id":111,"geometry":{"type":"Point","coordinates":[10.055934,10.055934]},"properties":{"Tên cơ sở ":"HKD Nguyễn Văn Tặng","Người đại diện":"Nguyễn Văn Tặng","Địa chỉ giao dịch":"Khóm 1, TT Tam Bình, huyện Tam Bình, tỉnh Vĩnh Long","Lĩnh vực SX,KD,KD+SX":"Kinh doanh","layer_id":291,"fid":111,"label":"HKD Nguyễn Văn Tặng"}}]}
