{"type":"FeatureCollection","name":"Lúa CSSXĐTC ","metadata":{"source":"https://hatang.vinhlong.gov.vn/","downloaded_at":"2026-07-20T01:15:19+00:00","layer_id":292,"layer_name":"Lúa CSSXĐTC ","catalog_endpoints":["/map/publicLayers2?inputs=bvtv"],"requested_bbox":[104.0,8.0,108.0,12.0],"tile_size":0.0,"tile_count":1,"tile_errors":[],"feature_count":2,"coordinate_order":"x,y (thường là longitude,latitude theo cấu hình EPSG:4326 của WebGIS)"},"features":[{"type":"Feature","id":9,"geometry":{"type":"Point","coordinates":[106.185226,10.028846]},"properties":{"Tổ chức":"Hợp tác xã Tấn Đạt","Địa  chỉ":"xã Trung Ngãi, huyện Vũng Liêm, tỉnh Vĩnh Long","Diện tích chứng nhận hữu cơ":"30ha","layer_id":292,"fid":9,"label":"Hợp tác xã Tấn Đạt"}},{"type":"Feature","id":10,"geometry":{"type":"Point","coordinates":[106.191179754,10.030038355]},"properties":{"Tổ chức":"Hợp tác xã Tấn Đạt","Địa  chỉ":"xã Trung Ngãi, huyện Vũng Liêm, tỉnh Vĩnh Long","Diện tích chứng nhận hữu cơ":"30ha","layer_id":292,"fid":10,"label":"Hợp tác xã Tấn Đạt"}}]}
