{"type":"FeatureCollection","name":"Cây màu CSSXĐTC ","metadata":{"source":"https://hatang.vinhlong.gov.vn/","downloaded_at":"2026-07-20T01:15:22+00:00","layer_id":293,"layer_name":"Cây màu CSSXĐTC ","catalog_endpoints":["/map/publicLayers2?inputs=bvtv"],"requested_bbox":[104.0,8.0,108.0,12.0],"tile_size":0.0,"tile_count":1,"tile_errors":[],"feature_count":2,"coordinate_order":"x,y (thường là longitude,latitude theo cấu hình EPSG:4326 của WebGIS)"},"features":[{"type":"Feature","id":6,"geometry":{"type":"Point","coordinates":[105.7451,10.1551]},"properties":{"Tên tổ chức, cá nhân được chứng nhận":"Tổ hợp tác số 04","Địa điểm":"ấp Tân Yên, ấp Tân Yên xã Tân Thành BT VL","Cây trồng":"khoai lang","Diện tích (ha)":"30","layer_id":293,"fid":6,"label":"Tổ hợp tác số 04"}},{"type":"Feature","id":5,"geometry":{"type":"Point","coordinates":[105.7929,10.1468]},"properties":{"Tên tổ chức, cá nhân được chứng nhận":"Tổ hợp tác số 2A","Địa điểm":"ấp Thành Hiếu, ấp Thành Hiếu xã  Thành Trung, BT VL.","Cây trồng":"khoai lang","Diện tích (ha)":"12.7","layer_id":293,"fid":5,"label":"Tổ hợp tác số 2A"}}]}
