{"type":"FeatureCollection","name":"Cây ăn trái CSSXĐTC ","metadata":{"source":"https://hatang.vinhlong.gov.vn/","downloaded_at":"2026-07-20T01:15:28+00:00","layer_id":294,"layer_name":"Cây ăn trái CSSXĐTC ","catalog_endpoints":["/map/publicLayers2?inputs=bvtv"],"requested_bbox":[104.0,8.0,108.0,12.0],"tile_size":0.0,"tile_count":1,"tile_errors":[],"feature_count":1,"coordinate_order":"x,y (thường là longitude,latitude theo cấu hình EPSG:4326 của WebGIS)"},"features":[{"type":"Feature","id":1,"geometry":{"type":"Point","coordinates":[106.131054,10.045511]},"properties":{"Tên tổ chức":"Dừa sản xuất Hữu Cơ","Địa điểm":"Ấp An Lạc 1 An Hậu Trung An Vũng Liêm","Cây trồng":"dừa","Diện tích (ha)":"43","layer_id":294,"fid":1,"label":"Dừa sản xuất Hữu Cơ"}}]}
