{"type":"FeatureCollection","name":"Cơ sở thu gom động vật","metadata":{"source":"https://hatang.vinhlong.gov.vn/","downloaded_at":"2026-07-20T01:15:33+00:00","layer_id":298,"layer_name":"Cơ sở thu gom động vật","catalog_endpoints":["/map/publicLayers2?inputs=thu_y"],"requested_bbox":[104.0,8.0,108.0,12.0],"tile_size":0.0,"tile_count":1,"tile_errors":[],"feature_count":8,"coordinate_order":"x,y (thường là longitude,latitude theo cấu hình EPSG:4326 của WebGIS)"},"features":[{"type":"Feature","geometry":{"type":"Point","coordinates":[105.877575,10.097678]},"properties":{"Tên cơ sở  sản xuất kinh doanh":"Thanh Nhàn","Họ tên chủ cơ sở":"Phạm Thanh Nhàn","Địa chỉ":"Phú Mỹ, Tân Phú, Tam Bình","Động vật thu gom":"Vịt","Tình trạng hoạt động":"Đang hoạt động","Công suất thiết kế (con/ngày)":"2000","Công suất Thực tế (con/ngày)":"<2.000","Kết quả thẩm định":"Đạt","Ngày thẩm định":"22/5/2024","Số cấp giấy chứng nhận điều kiện VSTY ":"06/TY-GCNVSTY                         ","Ngày cấp giấy chứng nhận điều kiện VSTY ":"31/5/2024","layer_id":298,"fid":2,"label":"Thanh Nhàn"}},{"type":"Feature","geometry":{"type":"Point","coordinates":[106.067662,10.116156]},"properties":{"Tên cơ sở  sản xuất kinh doanh":"Bảy Hùng","Họ tên chủ cơ sở":"Trần Thị Ngọc Anh","Địa chỉ":"Ấp 3, Hòa Thạnh, Tam Bình","Động vật thu gom":"Heo","Tình trạng hoạt động":"Đang hoạt động","Công suất thiết kế (con/ngày)":"600","Công suất Thực tế (con/ngày)":"< 100","Kết quả thẩm định":"Đạt","Ngày thẩm định":"17/5/2024","Số cấp giấy chứng nhận điều kiện VSTY ":"09/TY-GCNVSTY","Ngày cấp giấy chứng nhận điều kiện VSTY ":"19/6/2024","layer_id":298,"fid":1,"label":"Bảy Hùng"}},{"type":"Feature","geometry":{"type":"Point","coordinates":[106.138941,10.0785007]},"properties":{"Tên cơ sở  sản xuất kinh doanh":" Quang Hiếu (khu 1,2,3)","Họ tên chủ cơ sở":"Đinh Quang Hiếu","Địa chỉ":"An, Thành Đông, Trung Hiếu, Vũng Liêm","Động vật thu gom":"Heo","Tình trạng hoạt động":"Đang hoạt động","Công suất thiết kế (con/ngày)":"200","Công suất Thực tế (con/ngày)":"200","Kết quả thẩm định":"Đạt","Ngày thẩm định":"3/14/23 12:00:00 AM","Số cấp giấy chứng nhận điều kiện VSTY ":"07/TY-GCNVSTY","Ngày cấp giấy chứng nhận điều kiện VSTY ":"7/20/22 12:00:00 AM","layer_id":298,"fid":3,"label":" Quang Hiếu (khu 1,2,3)"}},{"type":"Feature","geometry":{"type":"Point","coordinates":[106.148733,10.076095]},"properties":{"Tên cơ sở  sản xuất kinh doanh":"Cường Duyên","Họ tên chủ cơ sở":"Đinh Ngọc Cường","Địa chỉ":"Bình Thành, Trung Hiếu, Vũng Liêm","Động vật thu gom":"Heo","Tình trạng hoạt động":"Đang hoạt động","Công suất thiết kế (con/ngày)":"200","Công suất Thực tế (con/ngày)":"<200","Kết quả thẩm định":"Đạt","Ngày thẩm định":"3/14/23 12:00:00 AM","Số cấp giấy chứng nhận điều kiện VSTY ":"05/TY-GCNVSTY                         ","Ngày cấp giấy chứng nhận điều kiện VSTY ":"5/25/22 12:00:00 AM","layer_id":298,"fid":4,"label":"Cường Duyên"}},{"type":"Feature","geometry":{"type":"Point","coordinates":[106.175312,10.082817]},"properties":{"Tên cơ sở  sản xuất kinh doanh":"Nguyễn Văn Tài","Họ tên chủ cơ sở":"Nguyễn Văn Tài","Địa chỉ":"An Điền 1, Trung Hiếu, Vũng Liêm","Động vật thu gom":"Heo","Tình trạng hoạt động":"Đang hoạt động","Công suất thiết kế (con/ngày)":"250","Công suất Thực tế (con/ngày)":"<200","Kết quả thẩm định":"Đạt","Ngày thẩm định":"30/5/2024","Số cấp giấy chứng nhận điều kiện VSTY ":"08/TY-GCNVSTY","Ngày cấp giấy chứng nhận điều kiện VSTY ":"10/6/2024","layer_id":298,"fid":5,"label":"Nguyễn Văn Tài"}},{"type":"Feature","geometry":{"type":"Point","coordinates":[106.129227,10.025646]},"properties":{"Tên cơ sở  sản xuất kinh doanh":"Quang Triều ","Họ tên chủ cơ sở":"Lê Quang Triều","Địa chỉ":"Hiếu Minh B, Hiếu Nhơn, Vũng Liêm","Động vật thu gom":"Heo","Tình trạng hoạt động":"Đang hoạt động","Công suất thiết kế (con/ngày)":"200","Công suất Thực tế (con/ngày)":"<50","Kết quả thẩm định":"Đạt","Ngày thẩm định":"3/14/23 12:00:00 AM","Số cấp giấy chứng nhận điều kiện VSTY ":"06/CN-CCCN&TY","Ngày cấp giấy chứng nhận điều kiện VSTY ":"9/7/20 12:00:00 AM","layer_id":298,"fid":7,"label":"Quang Triều "}},{"type":"Feature","geometry":{"type":"Point","coordinates":[106.077085,10.098577]},"properties":{"Tên cơ sở  sản xuất kinh doanh":"Dương Văn Chánh","Họ tên chủ cơ sở":"Dương Văn Chánh","Địa chỉ":"Nước Xoáy, Tân An Luông, Vũng Liêm","Động vật thu gom":"Heo","Tình trạng hoạt động":"Đang hoạt động","Công suất thiết kế (con/ngày)":"100","Công suất Thực tế (con/ngày)":"<100","Kết quả thẩm định":"Đạt","Ngày thẩm định":"15/5/2024","Số cấp giấy chứng nhận điều kiện VSTY ":"05/TY-GCNVSTY","Ngày cấp giấy chứng nhận điều kiện VSTY ":"22/5/2024","layer_id":298,"fid":6,"label":"Dương Văn Chánh"}},{"type":"Feature","geometry":{"type":"Point","coordinates":[106.03258,10.24662]},"properties":{"Tên cơ sở  sản xuất kinh doanh":"Trà My","Họ tên chủ cơ sở":"Hà Duy Tín","Địa chỉ":"An Hương I, Mỹ An, Mang Thít","Động vật thu gom":"Heo","Tình trạng hoạt động":"Đang hoạt động","Công suất thiết kế (con/ngày)":"300","Công suất Thực tế (con/ngày)":"<200","Kết quả thẩm định":"Đạt","Ngày thẩm định":"17/5/2024","Số cấp giấy chứng nhận điều kiện VSTY ":"07/CN-CCCN&TY","Ngày cấp giấy chứng nhận điều kiện VSTY ":"31/5/2024","layer_id":298,"fid":8,"label":"Trà My"}}]}
