{"type":"FeatureCollection","name":"Ổ dịch ASF ","metadata":{"source":"https://hatang.vinhlong.gov.vn/","downloaded_at":"2026-07-20T01:15:39+00:00","layer_id":299,"layer_name":"Ổ dịch ASF ","catalog_endpoints":["/map/publicLayers2?inputs=thu_y"],"requested_bbox":[104.0,8.0,108.0,12.0],"tile_size":0.0,"tile_count":1,"tile_errors":[],"feature_count":5,"coordinate_order":"x,y (thường là longitude,latitude theo cấu hình EPSG:4326 của WebGIS)"},"features":[{"type":"Feature","id":2,"geometry":{"type":"Point","coordinates":[106.0048,9.9502]},"properties":{"Bệnh dịch":"Bệnh Dịch tả lợn Châu Phi","Mã Quận/Huyện":"862","Mã Phường/Xã":"29845","Quận/huyện":"Trà Ôn","Phường/Xã":"Vĩnh Xuân","Ngày phát hiện":"05/10/2023","Ngày cập nhật cuối":"29/10/2023","Số thôn":"0","Số hộ":"1","Loài":"Lợn thịt","Số ốm":"49","Số chết":"5","Số hủy":"44","Tổng đàn":"9891","layer_id":299,"fid":2,"label":"Bệnh Dịch tả lợn Châu Phi"}},{"type":"Feature","id":3,"geometry":{"type":"Point","coordinates":[105.8682,10.0133]},"properties":{"Bệnh dịch":"Bệnh Dịch tả lợn Châu Phi","Mã Quận/Huyện":"861","Mã Phường/Xã":"29818","Quận/huyện":"TX. Bình Minh","Phường/Xã":"Đông Thành","Ngày phát hiện":"21/10/2023","Ngày cập nhật cuối":"22/10/2023","Số thôn":"1","Số hộ":"1","Loài":"Lợn nái","Số ốm":"3","Số chết":"2","Số hủy":"1","Tổng đàn":"0","layer_id":299,"fid":3,"label":"Bệnh Dịch tả lợn Châu Phi"}},{"type":"Feature","id":4,"geometry":{"type":"Point","coordinates":[105.867312375,10.013580139]},"properties":{"Bệnh dịch":"Bệnh Dịch tả lợn Châu Phi","Mã Quận/Huyện":"861","Mã Phường/Xã":"29818","Quận/huyện":"TX. Bình Minh","Phường/Xã":"Đông Thành","Ngày phát hiện":"21/10/2023","Ngày cập nhật cuối":"22/10/2023","Số thôn":"1","Số hộ":"1","Loài":"Lợn thịt","Số ốm":"8","Số chết":"2","Số hủy":"6","Tổng đàn":"536","layer_id":299,"fid":4,"label":"Bệnh Dịch tả lợn Châu Phi"}},{"type":"Feature","id":1,"geometry":{"type":"Point","coordinates":[106.005633302,9.950208703]},"properties":{"Bệnh dịch":"Bệnh Dịch tả lợn Châu Phi","Mã Quận/Huyện":"862","Mã Phường/Xã":"29845","Quận/huyện":"Trà Ôn","Phường/Xã":"Vĩnh Xuân","Ngày phát hiện":"05/10/2023","Ngày cập nhật cuối":"29/10/2023","Số thôn":"0","Số hộ":"1","Loài":"Lợn nái","Số ốm":"1","Số chết":"0","Số hủy":"1","Tổng đàn":"0","layer_id":299,"fid":1,"label":"Bệnh Dịch tả lợn Châu Phi"}},{"type":"Feature","id":5,"geometry":{"type":"Point","coordinates":[105.9866,10.2109]},"properties":{"Bệnh dịch":"Bệnh Dịch tả lợn Châu Phi","Mã Quận/Huyện":"857","Mã Phường/Xã":"29599","Quận/huyện":"Long Hồ","Phường/Xã":"Long Phước","Ngày phát hiện":"23/10/2023","Ngày cập nhật cuối":"24/10/2023","Số thôn":"1","Số hộ":"1","Loài":"Lợn thịt","Số ốm":"63","Số chết":"16","Số hủy":"47","Tổng đàn":"820","layer_id":299,"fid":5,"label":"Bệnh Dịch tả lợn Châu Phi"}}]}
