{"type":"FeatureCollection","name":"Cây đầu dòng và vườn cây đầu dòng ","metadata":{"source":"https://hatang.vinhlong.gov.vn/","downloaded_at":"2026-07-20T01:15:44+00:00","layer_id":303,"layer_name":"Cây đầu dòng và vườn cây đầu dòng ","catalog_endpoints":["/map/publicLayers2?inputs=bvtv"],"requested_bbox":[104.0,8.0,108.0,12.0],"tile_size":0.0,"tile_count":1,"tile_errors":[],"feature_count":9,"coordinate_order":"x,y (thường là longitude,latitude theo cấu hình EPSG:4326 của WebGIS)"},"features":[{"type":"Feature","id":4,"geometry":{"type":"Point","coordinates":[106.0051,10.2716]},"properties":{"Họ và tên ":"Nguyễn Minh Trung","Địa chỉ":"Ấp Phước Định 1, xã Bình Hòa Phước, huyện Long Hồ, tỉnh Vĩnh Long","Cây đầu dòng":"0","Vườn cây đầu dòng":"Sầu riêng RI6","layer_id":303,"fid":4,"label":"0"}},{"type":"Feature","id":3,"geometry":{"type":"Point","coordinates":[106.0098,10.3051]},"properties":{"Họ và tên ":"Nguyễn Minh Trung","Địa chỉ":"Ấp Phước Định 1, xã Bình Hòa Phước, \nhuyện Long Hồ, tỉnh Vĩnh Long","Cây đầu dòng":"Sầu riêng Monthong","Vườn cây đầu dòng":"Sầu riêng ","layer_id":303,"fid":3,"label":"Sầu riêng Monthong"}},{"type":"Feature","id":1,"geometry":{"type":"Point","coordinates":[106.003561,10.275597]},"properties":{"Họ và tên ":"Võ Văn Thiện","Địa chỉ":"Ấp Bình Thuận 2, xã Hòa Ninh,\n huyện Long Hồ, tỉnh Vĩnh Long","Cây đầu dòng":"Mận, Dừa","Vườn cây đầu dòng":null,"layer_id":303,"fid":1,"label":"Mận, Dừa"}},{"type":"Feature","id":7,"geometry":{"type":"Point","coordinates":[106.011301,10.1630466]},"properties":{"Họ và tên ":"Võ Văn Thiện","Địa chỉ":"Ấp Bình Thuận 2, xã  Hòa Ninh, huyện Long Hồ, tỉnh Vĩnh Long","Cây đầu dòng":"0","Vườn cây đầu dòng":"Xoài xanh Đài Loan,","layer_id":303,"fid":7,"label":"0"}},{"type":"Feature","id":5,"geometry":{"type":"Point","coordinates":[105.9488742,10.2164]},"properties":{"Họ và tên ":"Tô Văn Bẩy","Địa chỉ":"Ấp An Thạnh, xã An Bình, huyện Long Hồ, tỉnh Vĩnh Long","Cây đầu dòng":"0","Vườn cây đầu dòng":"Tiêu da bò","layer_id":303,"fid":5,"label":"0"}},{"type":"Feature","id":6,"geometry":{"type":"Point","coordinates":[105.9950905,10.2780047]},"properties":{"Họ và tên ":"Võ Văn Thiện","Địa chỉ":"Ấp Bình Thuận 2, xã  Hòa Ninh, huyện Long Hồ, tỉnh Vĩnh Long","Cây đầu dòng":"0","Vườn cây đầu dòng":"Cây xoài cát Hòa Lộc,","layer_id":303,"fid":6,"label":"0"}},{"type":"Feature","id":8,"geometry":{"type":"Point","coordinates":[106.010457,10.163358]},"properties":{"Họ và tên ":"Võ Văn Thiện","Địa chỉ":"Ấp Bình Thuận 2, xã  Hòa Ninh, huyện Long Hồ, tỉnh Vĩnh Long","Cây đầu dòng":"0","Vườn cây đầu dòng":"Cây chôm chôm,cây măng cụt","layer_id":303,"fid":8,"label":"0"}},{"type":"Feature","id":9,"geometry":{"type":"Point","coordinates":[106003300.0,10.276]},"properties":{"Họ và tên ":"Võ Văn Thiện","Địa chỉ":"Ấp Bình Thuận 2, xã  Hòa Ninh, huyện Long Hồ, tỉnh Vĩnh Long","Cây đầu dòng":"0","Vườn cây đầu dòng":"Mãng cầu Hoàng Hậu,","layer_id":303,"fid":9,"label":"0"}},{"type":"Feature","id":10,"geometry":{"type":"Point","coordinates":[106.0033,10.276]},"properties":{"Họ và tên ":"Võ Văn Thiện","Địa chỉ":"Ấp Bình Thuận 2, xã  Hòa Ninh, huyện Long Hồ, tỉnh Vĩnh Long","Cây đầu dòng":"0","Vườn cây đầu dòng":"Mãng cầu Hoàng Hậu,","layer_id":303,"fid":10,"label":"0"}}]}
