{"type":"FeatureCollection","name":"Cơ sở chăn nuôi dê","metadata":{"source":"https://hatang.vinhlong.gov.vn/","downloaded_at":"2026-07-20T01:15:49+00:00","layer_id":304,"layer_name":"Cơ sở chăn nuôi dê","catalog_endpoints":["/map/publicLayers2?inputs=thu_y"],"requested_bbox":[104.0,8.0,108.0,12.0],"tile_size":0.0,"tile_count":1,"tile_errors":[],"feature_count":2,"coordinate_order":"x,y (thường là longitude,latitude theo cấu hình EPSG:4326 của WebGIS)"},"features":[{"type":"Feature","id":3,"geometry":{"type":"Point","coordinates":[105.880206,10.030164]},"properties":{"Tên cơ sở":"Nguyễn Tấn Đức","Địa chỉ":"Đông Thạnh","Tổng đàn ":"300","Dê thịt":"300","Dê sinh sản":"","layer_id":304,"fid":3,"label":"Nguyễn Tấn Đức"}},{"type":"Feature","id":6,"geometry":{"type":"Point","coordinates":[105.909526,10.25588]},"properties":{"Tên cơ sở":"Nguyễn Văn Huy","Địa chỉ":"43/2, Tân Phú","Tổng đàn ":"220","Dê thịt":"220","Dê sinh sản":null,"layer_id":304,"fid":6,"label":"Nguyễn Văn Huy"}}]}
