{"type":"FeatureCollection","name":"Cơ sở chăn nuôi vịt","metadata":{"source":"https://hatang.vinhlong.gov.vn/","downloaded_at":"2026-07-20T01:15:54+00:00","layer_id":305,"layer_name":"Cơ sở chăn nuôi vịt","catalog_endpoints":["/map/publicLayers2?inputs=thu_y"],"requested_bbox":[104.0,8.0,108.0,12.0],"tile_size":0.0,"tile_count":1,"tile_errors":[],"feature_count":109,"coordinate_order":"x,y (thường là longitude,latitude theo cấu hình EPSG:4326 của WebGIS)"},"features":[{"type":"Feature","id":345,"geometry":{"type":"Point","coordinates":[105.83136,10.105404]},"properties":{"Tên cơ sở":"Ngô Bé Ngoan","Địa chỉ":"Mỹ Tú, Xã Mỹ Thuận, Bình Tân","Tổng đàn":"10000","Vịt thịt":null,"Vịt đẻ":"10000","layer_id":305,"fid":345,"label":"Ngô Bé Ngoan"}},{"type":"Feature","id":344,"geometry":{"type":"Point","coordinates":[105.813342,10.114077]},"properties":{"Tên cơ sở":"Nguyễn Văn Khanh","Địa chỉ":"Mỹ Trung B, Xã Mỹ Thuận, Bình Tân","Tổng đàn":"3000","Vịt thịt":null,"Vịt đẻ":"3000","layer_id":305,"fid":344,"label":"Nguyễn Văn Khanh"}},{"type":"Feature","id":347,"geometry":{"type":"Point","coordinates":[105.849832,10.120121]},"properties":{"Tên cơ sở":"Trần Nguyễn Minh Hoàng","Địa chỉ":"Mỹ Tú, Xã Mỹ Thuận, Bình Tân","Tổng đàn":"5000","Vịt thịt":null,"Vịt đẻ":"5000","layer_id":305,"fid":347,"label":"Trần Nguyễn Minh Hoàng"}},{"type":"Feature","id":346,"geometry":{"type":"Point","coordinates":[105.849832,10.120121]},"properties":{"Tên cơ sở":"Trần Thanh Tươi","Địa chỉ":"Kinh Mới, Xã Mỹ Thuận, Bình Tân","Tổng đàn":"3700","Vịt thịt":null,"Vịt đẻ":"3700","layer_id":305,"fid":346,"label":"Trần Thanh Tươi"}},{"type":"Feature","id":348,"geometry":{"type":"Point","coordinates":[105.824531,10.122769]},"properties":{"Tên cơ sở":"Lại Văn Ka Tê","Địa chỉ":"Mỹ Hòa, Xã Nguyễn Văn Thảnh, Bình Tân","Tổng đàn":"3500","Vịt thịt":null,"Vịt đẻ":"3500","layer_id":305,"fid":348,"label":"Lại Văn Ka Tê"}},{"type":"Feature","id":349,"geometry":{"type":"Point","coordinates":[105.805698,10.150592]},"properties":{"Tên cơ sở":"Nguyễn Văn Đẹp","Địa chỉ":"Hòa Bình, Xã Nguyễn Văn Thảnh, Bình Tân","Tổng đàn":"4000","Vịt thịt":null,"Vịt đẻ":"4000","layer_id":305,"fid":349,"label":"Nguyễn Văn Đẹp"}},{"type":"Feature","id":350,"geometry":{"type":"Point","coordinates":[105.810089,10.152072]},"properties":{"Tên cơ sở":"Lại Văn Tèo","Địa chỉ":"Hòa Bình, Xã Nguyễn Văn Thảnh, Bình Tân","Tổng đàn":"2200","Vịt thịt":null,"Vịt đẻ":"2200","layer_id":305,"fid":350,"label":"Lại Văn Tèo"}},{"type":"Feature","id":351,"geometry":{"type":"Point","coordinates":[105.754878,10.149292]},"properties":{"Tên cơ sở":"Cao Văn Nhường","Địa chỉ":"Tân Dương, Xã Tân Thành, Bình Tân","Tổng đàn":"4000","Vịt thịt":null,"Vịt đẻ":"4000","layer_id":305,"fid":351,"label":"Cao Văn Nhường"}},{"type":"Feature","id":352,"geometry":{"type":"Point","coordinates":[105.941517,10.167861]},"properties":{"Tên cơ sở":"Võ Văn Ri","Địa chỉ":"Lộc Hưng, Xã Hòa Phú, Long Hồ","Tổng đàn":"3000","Vịt thịt":"1000","Vịt đẻ":"2000","layer_id":305,"fid":352,"label":"Võ Văn Ri"}},{"type":"Feature","id":353,"geometry":{"type":"Point","coordinates":[105.941314,10.157956]},"properties":{"Tên cơ sở":"Huỳnh Hữu Phước","Địa chỉ":"Hoà Hưng, Xã Hòa Phú, Long Hồ","Tổng đàn":"2000","Vịt thịt":null,"Vịt đẻ":"2000","layer_id":305,"fid":353,"label":"Huỳnh Hữu Phước"}},{"type":"Feature","id":354,"geometry":{"type":"Point","coordinates":[105.92898,10.159888]},"properties":{"Tên cơ sở":"Nguyễn Trọng Quang","Địa chỉ":"Hoà Hưng, Xã Hòa Phú, Long Hồ","Tổng đàn":"2000","Vịt thịt":"2000","Vịt đẻ":null,"layer_id":305,"fid":354,"label":"Nguyễn Trọng Quang"}},{"type":"Feature","id":355,"geometry":{"type":"Point","coordinates":[105.941368,10.168382]},"properties":{"Tên cơ sở":"Trần Quốc Bảo","Địa chỉ":"Phước Lộc, Xã Hòa Phú, Long Hồ","Tổng đàn":"2000","Vịt thịt":null,"Vịt đẻ":"2000","layer_id":305,"fid":355,"label":"Trần Quốc Bảo"}},{"type":"Feature","id":356,"geometry":{"type":"Point","coordinates":[105.957788,10.172847]},"properties":{"Tên cơ sở":"Phạm Đức Lợi","Địa chỉ":"Phước Lộc, Xã Hòa Phú, Long Hồ","Tổng đàn":"2000","Vịt thịt":"2000","Vịt đẻ":null,"layer_id":305,"fid":356,"label":"Phạm Đức Lợi"}},{"type":"Feature","id":357,"geometry":{"type":"Point","coordinates":[105.953488,10.186931]},"properties":{"Tên cơ sở":"Nguyễn Văn Cường","Địa chỉ":"Phước Long, Xã Lộc Hòa, Long Hồ","Tổng đàn":"4500","Vịt thịt":"2000","Vịt đẻ":"2500","layer_id":305,"fid":357,"label":"Nguyễn Văn Cường"}},{"type":"Feature","id":358,"geometry":{"type":"Point","coordinates":[105.924053,10.201455]},"properties":{"Tên cơ sở":"Bùi Văn Đẹp","Địa chỉ":"An Hiệp, Xã Lộc Hòa, Long Hồ","Tổng đàn":"2000","Vịt thịt":null,"Vịt đẻ":"2000","layer_id":305,"fid":358,"label":"Bùi Văn Đẹp"}},{"type":"Feature","id":359,"geometry":{"type":"Point","coordinates":[105.933101,10.196599]},"properties":{"Tên cơ sở":"Trần Văn Nhàn","Địa chỉ":"Phước Bình, Xã Lộc Hòa, Long Hồ","Tổng đàn":"2000","Vịt thịt":"2000","Vịt đẻ":null,"layer_id":305,"fid":359,"label":"Trần Văn Nhàn"}},{"type":"Feature","id":360,"geometry":{"type":"Point","coordinates":[105.962387,10.182131]},"properties":{"Tên cơ sở":"Nguyễn Tấn Huy","Địa chỉ":"Long Bình, Xã Lộc Hòa, Long Hồ","Tổng đàn":"2200","Vịt thịt":null,"Vịt đẻ":"2200","layer_id":305,"fid":360,"label":"Nguyễn Tấn Huy"}},{"type":"Feature","id":361,"geometry":{"type":"Point","coordinates":[105.962195,10.18222]},"properties":{"Tên cơ sở":"Nguyễn Tấn Hưng","Địa chỉ":"Long Bình, Xã Lộc Hòa, Long Hồ","Tổng đàn":"2400","Vịt thịt":null,"Vịt đẻ":"2400","layer_id":305,"fid":361,"label":"Nguyễn Tấn Hưng"}},{"type":"Feature","id":362,"geometry":{"type":"Point","coordinates":[105.996477,10.15226]},"properties":{"Tên cơ sở":"Đinh Thanh Liêm","Địa chỉ":"Hậu Thành, Xã Long An, Long Hồ","Tổng đàn":"4500","Vịt thịt":null,"Vịt đẻ":"4500","layer_id":305,"fid":362,"label":"Đinh Thanh Liêm"}},{"type":"Feature","id":363,"geometry":{"type":"Point","coordinates":[106.019609,10.168711]},"properties":{"Tên cơ sở":"Lê Văn Chậm","Địa chỉ":"An Phú A, Xã Long An, Long Hồ","Tổng đàn":"2500","Vịt thịt":null,"Vịt đẻ":"2500","layer_id":305,"fid":363,"label":"Lê Văn Chậm"}},{"type":"Feature","id":364,"geometry":{"type":"Point","coordinates":[105.983758,10.194006]},"properties":{"Tên cơ sở":"Châu Hồng Tuấn ","Địa chỉ":"Phước Trinh B, Xã Long Phước, Long Hồ","Tổng đàn":"4000","Vịt thịt":null,"Vịt đẻ":"4000","layer_id":305,"fid":364,"label":"Châu Hồng Tuấn "}},{"type":"Feature","id":365,"geometry":{"type":"Point","coordinates":[105.97011,10.213115]},"properties":{"Tên cơ sở":"Bùi Phi Hùng ","Địa chỉ":"Phước Trinh , Xã Long Phước, Long Hồ","Tổng đàn":"1900","Vịt thịt":null,"Vịt đẻ":"1900","layer_id":305,"fid":365,"label":"Bùi Phi Hùng "}},{"type":"Feature","id":366,"geometry":{"type":"Point","coordinates":[105.973109,10.185043]},"properties":{"Tên cơ sở":"Trần Văn Chính ","Địa chỉ":"Phước Trinh A, Xã Lộc Hòa, Long Hồ","Tổng đàn":"2500","Vịt thịt":null,"Vịt đẻ":"2500","layer_id":305,"fid":366,"label":"Trần Văn Chính "}},{"type":"Feature","id":367,"geometry":{"type":"Point","coordinates":[105.982448,10.160815]},"properties":{"Tên cơ sở":"Quan Thanh Hùng","Địa chỉ":"Thông Quan, Xã Phú Đức, Long Hồ","Tổng đàn":"3000","Vịt thịt":null,"Vịt đẻ":"3000","layer_id":305,"fid":367,"label":"Quan Thanh Hùng"}},{"type":"Feature","id":368,"geometry":{"type":"Point","coordinates":[105.981123,10.160843]},"properties":{"Tên cơ sở":"Nguyễn Văn Trường","Địa chỉ":"Thông Quan, Xã Phú Đức, Long Hồ","Tổng đàn":"3000","Vịt thịt":null,"Vịt đẻ":"3000","layer_id":305,"fid":368,"label":"Nguyễn Văn Trường"}},{"type":"Feature","id":369,"geometry":{"type":"Point","coordinates":[105.966038,10.166364]},"properties":{"Tên cơ sở":"Nguyễn Văn Hoàng","Địa chỉ":"An thành, Xã Phú Đức, Long Hồ","Tổng đàn":"3000","Vịt thịt":null,"Vịt đẻ":"3000","layer_id":305,"fid":369,"label":"Nguyễn Văn Hoàng"}},{"type":"Feature","id":370,"geometry":{"type":"Point","coordinates":[105.986741,10.176184]},"properties":{"Tên cơ sở":"Phan Văn Tám","Địa chỉ":"An Thuận, Xã Phú Đức, Long Hồ","Tổng đàn":"3000","Vịt thịt":"3000","Vịt đẻ":null,"layer_id":305,"fid":370,"label":"Phan Văn Tám"}},{"type":"Feature","id":371,"geometry":{"type":"Point","coordinates":[105.985584,10.154609]},"properties":{"Tên cơ sở":"Nguyễn Văn Sang","Địa chỉ":"Thông Quan, Xã Phú Đức, Long Hồ","Tổng đàn":"4000","Vịt thịt":null,"Vịt đẻ":"4000","layer_id":305,"fid":371,"label":"Nguyễn Văn Sang"}},{"type":"Feature","id":372,"geometry":{"type":"Point","coordinates":[105.980926,10.182759]},"properties":{"Tên cơ sở":"Huỳnh Tấn Vũ","Địa chỉ":"Phú Thạnh, Xã Phú Đức, Long Hồ","Tổng đàn":"5000","Vịt thịt":null,"Vịt đẻ":"5000","layer_id":305,"fid":372,"label":"Huỳnh Tấn Vũ"}},{"type":"Feature","id":373,"geometry":{"type":"Point","coordinates":[105.986659,10.159605]},"properties":{"Tên cơ sở":"Phan Văn Thắng","Địa chỉ":"Thông Quan, Xã Phú Đức, Long Hồ","Tổng đàn":"6000","Vịt thịt":"3000","Vịt đẻ":"3000","layer_id":305,"fid":373,"label":"Phan Văn Thắng"}},{"type":"Feature","id":374,"geometry":{"type":"Point","coordinates":[105.981153,10.161056]},"properties":{"Tên cơ sở":"Phạm Hồng Sơn","Địa chỉ":"Thông Quan, Xã Phú Đức, Long Hồ","Tổng đàn":"12000","Vịt thịt":null,"Vịt đẻ":"12000","layer_id":305,"fid":374,"label":"Phạm Hồng Sơn"}},{"type":"Feature","id":375,"geometry":{"type":"Point","coordinates":[105.982405,10.177167]},"properties":{"Tên cơ sở":"Nguyễn Văn Mười","Địa chỉ":"An Hoà, Xã Phú Đức, Long Hồ","Tổng đàn":"2000","Vịt thịt":null,"Vịt đẻ":"2000","layer_id":305,"fid":375,"label":"Nguyễn Văn Mười"}},{"type":"Feature","id":376,"geometry":{"type":"Point","coordinates":[105.986545,10.159569]},"properties":{"Tên cơ sở":"Phan Văn Giàu","Địa chỉ":"Thông Quan, Xã Phú Đức, Long Hồ","Tổng đàn":"2500","Vịt thịt":null,"Vịt đẻ":"2500","layer_id":305,"fid":376,"label":"Phan Văn Giàu"}},{"type":"Feature","id":377,"geometry":{"type":"Point","coordinates":[105.935353,10.225228]},"properties":{"Tên cơ sở":"Văn Ngọc Sơn","Địa chỉ":"Tân Thuận , Xã Tân Hạnh, Long Hồ","Tổng đàn":"1900","Vịt thịt":null,"Vịt đẻ":"1900","layer_id":305,"fid":377,"label":"Văn Ngọc Sơn"}},{"type":"Feature","id":378,"geometry":{"type":"Point","coordinates":[105.935353,10.225228]},"properties":{"Tên cơ sở":"Văn Ngọc Ẩn","Địa chỉ":"Tân Thuận , Xã Tân Hạnh, Long Hồ","Tổng đàn":"1900","Vịt thịt":null,"Vịt đẻ":"1900","layer_id":305,"fid":378,"label":"Văn Ngọc Ẩn"}},{"type":"Feature","id":379,"geometry":{"type":"Point","coordinates":[105.949827,10.147953]},"properties":{"Tên cơ sở":"Đinh Văn Hùng","Địa chỉ":"Ấp 2, Xã Hòa Phú, Long Hồ","Tổng đàn":"3500","Vịt thịt":"3500","Vịt đẻ":null,"layer_id":305,"fid":379,"label":"Đinh Văn Hùng"}},{"type":"Feature","id":380,"geometry":{"type":"Point","coordinates":[106.148091,10.186901]},"properties":{"Tên cơ sở":"Nguyễn Hồng Phương","Địa chỉ":"Phú Hòa, Xã An Phước, Mang Thít","Tổng đàn":"2000","Vịt thịt":null,"Vịt đẻ":"2000","layer_id":305,"fid":380,"label":"Nguyễn Hồng Phương"}},{"type":"Feature","id":381,"geometry":{"type":"Point","coordinates":[106.052647,10.184756]},"properties":{"Tên cơ sở":"Trần Văn Hòa","Địa chỉ":"Phước Thượng, Xã Bình Phước, Mang Thít","Tổng đàn":"2000","Vịt thịt":null,"Vịt đẻ":"2000","layer_id":305,"fid":381,"label":"Trần Văn Hòa"}},{"type":"Feature","id":382,"geometry":{"type":"Point","coordinates":[106.061745,10.182609]},"properties":{"Tên cơ sở":"Huỳnh Cà Na","Địa chỉ":"Phước Chí, Xã Bình Phước, Mang Thít","Tổng đàn":"2000","Vịt thịt":null,"Vịt đẻ":"2000","layer_id":305,"fid":382,"label":"Huỳnh Cà Na"}},{"type":"Feature","id":383,"geometry":{"type":"Point","coordinates":[106.061844,10.182759]},"properties":{"Tên cơ sở":"Huỳnh Cà Tui","Địa chỉ":"Phước Chí, Xã Bình Phước, Mang Thít","Tổng đàn":"2000","Vịt thịt":null,"Vịt đẻ":"2000","layer_id":305,"fid":383,"label":"Huỳnh Cà Tui"}},{"type":"Feature","id":384,"geometry":{"type":"Point","coordinates":[106.064514,10.183555]},"properties":{"Tên cơ sở":"Nguyễn Ngọc Khá","Địa chỉ":"Phước Chí, Xã Bình Phước, Mang Thít","Tổng đàn":"2000","Vịt thịt":"2000","Vịt đẻ":null,"layer_id":305,"fid":384,"label":"Nguyễn Ngọc Khá"}},{"type":"Feature","id":385,"geometry":{"type":"Point","coordinates":[106.048919,10.173039]},"properties":{"Tên cơ sở":"Nguyễn Văn Hùng","Địa chỉ":"Phước Tường, Xã Bình Phước, Mang Thít","Tổng đàn":"2000","Vịt thịt":"2000","Vịt đẻ":null,"layer_id":305,"fid":385,"label":"Nguyễn Văn Hùng"}},{"type":"Feature","id":386,"geometry":{"type":"Point","coordinates":[106.052651,10.184951]},"properties":{"Tên cơ sở":"Dương Thành Diệp","Địa chỉ":"Phước Thượng, Xã Bình Phước, Mang Thít","Tổng đàn":"2000","Vịt thịt":null,"Vịt đẻ":"2000","layer_id":305,"fid":386,"label":"Dương Thành Diệp"}},{"type":"Feature","id":387,"geometry":{"type":"Point","coordinates":[106.033771,10.204098]},"properties":{"Tên cơ sở":"Nguyễn Văn Hải","Địa chỉ":"Vườn Cò, Xã Hòa Tịnh, Mang Thít","Tổng đàn":"2000","Vịt thịt":null,"Vịt đẻ":"2000","layer_id":305,"fid":387,"label":"Nguyễn Văn Hải"}},{"type":"Feature","id":388,"geometry":{"type":"Point","coordinates":[106.058815,10.2360329]},"properties":{"Tên cơ sở":"Đoàn Minh Hoàng","Địa chỉ":"Ấp Chợ, Xã Mỹ An, Mang Thít","Tổng đàn":"2000","Vịt thịt":"2000","Vịt đẻ":null,"layer_id":305,"fid":388,"label":"Đoàn Minh Hoàng"}},{"type":"Feature","id":389,"geometry":{"type":"Point","coordinates":[106.04642,10.230829]},"properties":{"Tên cơ sở":"Trương Văn Ẩn","Địa chỉ":"Hoà Mỹ 1, Xã Mỹ An, Mang Thít","Tổng đàn":"2000","Vịt thịt":null,"Vịt đẻ":"2000","layer_id":305,"fid":389,"label":"Trương Văn Ẩn"}},{"type":"Feature","id":390,"geometry":{"type":"Point","coordinates":[106.0723932,10.191743]},"properties":{"Tên cơ sở":"Nguyễn Văn Dũng Em","Địa chỉ":"Phú Thạnh C, Xã Nhơn Phú, Mang Thít","Tổng đàn":"5100","Vịt thịt":null,"Vịt đẻ":"5100","layer_id":305,"fid":390,"label":"Nguyễn Văn Dũng Em"}},{"type":"Feature","id":391,"geometry":{"type":"Point","coordinates":[106.0850864,10.214819]},"properties":{"Tên cơ sở":"Huỳnh Văn Nhàn","Địa chỉ":"Phú Hòa, Xã Nhơn Phú, Mang Thít","Tổng đàn":"2400","Vịt thịt":"800","Vịt đẻ":"1600","layer_id":305,"fid":391,"label":"Huỳnh Văn Nhàn"}},{"type":"Feature","id":392,"geometry":{"type":"Point","coordinates":[106.0836712,10.1993992]},"properties":{"Tên cơ sở":"Nguyễn Văn Dũng","Địa chỉ":"Phú Thạnh B, Xã Nhơn Phú, Mang Thít","Tổng đàn":"2700","Vịt thịt":null,"Vịt đẻ":"2700","layer_id":305,"fid":392,"label":"Nguyễn Văn Dũng"}},{"type":"Feature","id":393,"geometry":{"type":"Point","coordinates":[106.0972831,10.2166127]},"properties":{"Tên cơ sở":"Lê Văn Quang","Địa chỉ":"Phú Thọ, Xã Nhơn Phú, Mang Thít","Tổng đàn":"2700","Vịt thịt":"900","Vịt đẻ":"1800","layer_id":305,"fid":393,"label":"Lê Văn Quang"}},{"type":"Feature","id":394,"geometry":{"type":"Point","coordinates":[106.079885,10.157121]},"properties":{"Tên cơ sở":"Nguyễn Văn Ngọc","Địa chỉ":"Tân Qui, Xã Tân An Hội, Mang Thít","Tổng đàn":"2400","Vịt thịt":"1800","Vịt đẻ":"600","layer_id":305,"fid":394,"label":"Nguyễn Văn Ngọc"}},{"type":"Feature","id":395,"geometry":{"type":"Point","coordinates":[106.041801,10.1595741]},"properties":{"Tên cơ sở":"Cao Thái Nguyên","Địa chỉ":"Tân Bình, Xã Tân Long, Mang Thít","Tổng đàn":"2000","Vịt thịt":null,"Vịt đẻ":"2000","layer_id":305,"fid":395,"label":"Cao Thái Nguyên"}},{"type":"Feature","id":396,"geometry":{"type":"Point","coordinates":[105.960282,10.165121]},"properties":{"Tên cơ sở":"Võ chí Bảo","Địa chỉ":"Thạnh Phú, Xã Tân Lộc, Tam Bình","Tổng đàn":"3000","Vịt thịt":null,"Vịt đẻ":"3000","layer_id":305,"fid":396,"label":"Võ chí Bảo"}},{"type":"Feature","id":397,"geometry":{"type":"Point","coordinates":[105.857085,10.075226]},"properties":{"Tên cơ sở":"Nguyễn Thành Tín","Địa chỉ":"Đông Thạnh B, Xã Đông Thạnh, Thị xã Bình Minh","Tổng đàn":"3000","Vịt thịt":null,"Vịt đẻ":"3000","layer_id":305,"fid":397,"label":"Nguyễn Thành Tín"}},{"type":"Feature","id":398,"geometry":{"type":"Point","coordinates":[106.022655,9.952937]},"properties":{"Tên cơ sở":"Nguyễn Văn Đạt","Địa chỉ":"La Ghì, Xã Vĩnh Xuân, Trà Ôn","Tổng đàn":"6000","Vịt thịt":null,"Vịt đẻ":"6000","layer_id":305,"fid":398,"label":"Nguyễn Văn Đạt"}},{"type":"Feature","id":399,"geometry":{"type":"Point","coordinates":[106.104986,10.0004]},"properties":{"Tên cơ sở":"Trương Minh Lý","Địa chỉ":"Ngã Phú, Xã Hiếu Thành, Vũng Liêm","Tổng đàn":"3000","Vịt thịt":null,"Vịt đẻ":"3000","layer_id":305,"fid":399,"label":"Trương Minh Lý"}},{"type":"Feature","id":400,"geometry":{"type":"Point","coordinates":[106.111811,9.999482]},"properties":{"Tên cơ sở":"Trương Văn Phước","Địa chỉ":"Ngã Phú, Xã Hiếu Nhơn, Vũng Liêm","Tổng đàn":"5000","Vịt thịt":null,"Vịt đẻ":"5000","layer_id":305,"fid":400,"label":"Trương Văn Phước"}},{"type":"Feature","id":401,"geometry":{"type":"Point","coordinates":[106.115208,10.01987]},"properties":{"Tên cơ sở":"Nguyễn Văn Bay","Địa chỉ":"Hiếu Hòa A, Xã Hiếu Nhơn, Vũng Liêm","Tổng đàn":"5000","Vịt thịt":null,"Vịt đẻ":"5000","layer_id":305,"fid":401,"label":"Nguyễn Văn Bay"}},{"type":"Feature","id":402,"geometry":{"type":"Point","coordinates":[106.109647,10.078955]},"properties":{"Tên cơ sở":"Lê Thanh Phong","Địa chỉ":"Tân Huy, Xã Hiếu Phụng, Vũng Liêm","Tổng đàn":"4000","Vịt thịt":null,"Vịt đẻ":"4000","layer_id":305,"fid":402,"label":"Lê Thanh Phong"}},{"type":"Feature","id":403,"geometry":{"type":"Point","coordinates":[106.106071,10.078224]},"properties":{"Tên cơ sở":"Nguyễn Thành Sơn","Địa chỉ":"Tân Huy, Xã Hiếu Phụng, Vũng Liêm","Tổng đàn":"5000","Vịt thịt":null,"Vịt đẻ":"5000","layer_id":305,"fid":403,"label":"Nguyễn Thành Sơn"}},{"type":"Feature","id":404,"geometry":{"type":"Point","coordinates":[106.114442,10.051041]},"properties":{"Tên cơ sở":"Trần Văn Đựng","Địa chỉ":"Phú Điền , Xã Hiếu Thuận, Vũng Liêm","Tổng đàn":"3500","Vịt thịt":null,"Vịt đẻ":"3500","layer_id":305,"fid":404,"label":"Trần Văn Đựng"}},{"type":"Feature","id":405,"geometry":{"type":"Point","coordinates":[106.114458,10.050848]},"properties":{"Tên cơ sở":"Nguyễn Thế Phương","Địa chỉ":"Phú Điền , Xã Hiếu Thuận, Vũng Liêm","Tổng đàn":"20000","Vịt thịt":null,"Vịt đẻ":"20000","layer_id":305,"fid":405,"label":"Nguyễn Thế Phương"}},{"type":"Feature","id":406,"geometry":{"type":"Point","coordinates":[106.114864,10.050036]},"properties":{"Tên cơ sở":"Nguyễn Văn Tô","Địa chỉ":"Phú Điền , Xã Hiếu Thuận, Vũng Liêm","Tổng đàn":"2000","Vịt thịt":null,"Vịt đẻ":"2000","layer_id":305,"fid":406,"label":"Nguyễn Văn Tô"}},{"type":"Feature","id":407,"geometry":{"type":"Point","coordinates":[106.162305,10.113289]},"properties":{"Tên cơ sở":"Nguyễn Văn Hùng","Địa chỉ":"Quang Minh, Xã Quới An, Vũng Liêm","Tổng đàn":"3000","Vịt thịt":null,"Vịt đẻ":"3000","layer_id":305,"fid":407,"label":"Nguyễn Văn Hùng"}},{"type":"Feature","id":408,"geometry":{"type":"Point","coordinates":[106.15781,10.125064]},"properties":{"Tên cơ sở":"Phạm Thị Thắm","Địa chỉ":"Quang Minh, Xã Quới An, Vũng Liêm","Tổng đàn":"3000","Vịt thịt":null,"Vịt đẻ":"3000","layer_id":305,"fid":408,"label":"Phạm Thị Thắm"}},{"type":"Feature","id":409,"geometry":{"type":"Point","coordinates":[106.167603,10.142696]},"properties":{"Tên cơ sở":"Trần Chí Linh","Địa chỉ":"Phước Thọ, Xã Quới An, Vũng Liêm","Tổng đàn":"3000","Vịt thịt":null,"Vịt đẻ":"3000","layer_id":305,"fid":409,"label":"Trần Chí Linh"}},{"type":"Feature","id":410,"geometry":{"type":"Point","coordinates":[106.160115,10.123445]},"properties":{"Tên cơ sở":"Châu Văn Út","Địa chỉ":"Quang Minh, Xã Quới An, Vũng Liêm","Tổng đàn":"4000","Vịt thịt":null,"Vịt đẻ":"4000","layer_id":305,"fid":410,"label":"Châu Văn Út"}},{"type":"Feature","id":411,"geometry":{"type":"Point","coordinates":[106.160339,10.123319]},"properties":{"Tên cơ sở":"Trần Văn Nhân","Địa chỉ":"Quang Minh, Xã Quới An, Vũng Liêm","Tổng đàn":"4000","Vịt thịt":null,"Vịt đẻ":"4000","layer_id":305,"fid":411,"label":"Trần Văn Nhân"}},{"type":"Feature","id":412,"geometry":{"type":"Point","coordinates":[106.162314,10.113295]},"properties":{"Tên cơ sở":"Trần Văn Sáu","Địa chỉ":"Quang Minh, Xã Quới An, Vũng Liêm","Tổng đàn":"5000","Vịt thịt":null,"Vịt đẻ":"5000","layer_id":305,"fid":412,"label":"Trần Văn Sáu"}},{"type":"Feature","id":413,"geometry":{"type":"Point","coordinates":[106.161491,10.129378]},"properties":{"Tên cơ sở":"Lê Văn Việt","Địa chỉ":"Quang Hòa, Xã Quới An, Vũng Liêm","Tổng đàn":"5000","Vịt thịt":null,"Vịt đẻ":"5000","layer_id":305,"fid":413,"label":"Lê Văn Việt"}},{"type":"Feature","id":414,"geometry":{"type":"Point","coordinates":[106.161944,10.129677]},"properties":{"Tên cơ sở":"Trần Hữu Nghĩa","Địa chỉ":"Quang Hòa, Xã Quới An, Vũng Liêm","Tổng đàn":"2000","Vịt thịt":null,"Vịt đẻ":"2000","layer_id":305,"fid":414,"label":"Trần Hữu Nghĩa"}},{"type":"Feature","id":415,"geometry":{"type":"Point","coordinates":[106.131285,10.154372]},"properties":{"Tên cơ sở":"Nguyễn Văn Ý","Địa chỉ":"Quang Hiệp, Xã Tân Quới Trung, Vũng Liêm","Tổng đàn":"3000","Vịt thịt":null,"Vịt đẻ":"3000","layer_id":305,"fid":415,"label":"Nguyễn Văn Ý"}},{"type":"Feature","id":416,"geometry":{"type":"Point","coordinates":[106.122513,10.153555]},"properties":{"Tên cơ sở":"Nguyễn Văn Hiệp","Địa chỉ":"Quang Hiệp, Xã Tân Quới Trung, Vũng Liêm","Tổng đàn":"3000","Vịt thịt":null,"Vịt đẻ":"3000","layer_id":305,"fid":416,"label":"Nguyễn Văn Hiệp"}},{"type":"Feature","id":417,"geometry":{"type":"Point","coordinates":[106.154139,10.021009]},"properties":{"Tên cơ sở":"Nguyễn Tấn Tài","Địa chỉ":"Trung Hòa 1, Xã Trung An, Vũng Liêm","Tổng đàn":"4000","Vịt thịt":null,"Vịt đẻ":"4000","layer_id":305,"fid":417,"label":"Nguyễn Tấn Tài"}},{"type":"Feature","id":418,"geometry":{"type":"Point","coordinates":[106.129798,10.050043]},"properties":{"Tên cơ sở":"Dương Văn Chí","Địa chỉ":"An Hậu, Xã Trung An, Vũng Liêm","Tổng đàn":"2000","Vịt thịt":null,"Vịt đẻ":"2000","layer_id":305,"fid":418,"label":"Dương Văn Chí"}},{"type":"Feature","id":419,"geometry":{"type":"Point","coordinates":[106.173936,10.095444]},"properties":{"Tên cơ sở":"Nguyễn Minh Dũng","Địa chỉ":"Trung Trị, Xã Trung Hiệp, Vũng Liêm","Tổng đàn":"3000","Vịt thịt":null,"Vịt đẻ":"3000","layer_id":305,"fid":419,"label":"Nguyễn Minh Dũng"}},{"type":"Feature","id":420,"geometry":{"type":"Point","coordinates":[106.171878,10.091453]},"properties":{"Tên cơ sở":"Trương Quốc Việt","Địa chỉ":"Trung Trị, Xã Trung Hiệp, Vũng Liêm","Tổng đàn":"2000","Vịt thịt":null,"Vịt đẻ":"2000","layer_id":305,"fid":420,"label":"Trương Quốc Việt"}},{"type":"Feature","id":421,"geometry":{"type":"Point","coordinates":[106.173936,10.095444]},"properties":{"Tên cơ sở":"Tạ Văn Tuyển","Địa chỉ":"Trung Trị, Xã Trung Hiệp, Vũng Liêm","Tổng đàn":"2500","Vịt thịt":null,"Vịt đẻ":"2500","layer_id":305,"fid":421,"label":"Tạ Văn Tuyển"}},{"type":"Feature","id":422,"geometry":{"type":"Point","coordinates":[106.173936,10.095444]},"properties":{"Tên cơ sở":"Tạ Văn Hùng","Địa chỉ":"Trung Trị, Xã Trung Hiệp, Vũng Liêm","Tổng đàn":"2500","Vịt thịt":null,"Vịt đẻ":"2500","layer_id":305,"fid":422,"label":"Tạ Văn Hùng"}},{"type":"Feature","id":423,"geometry":{"type":"Point","coordinates":[106.17038,10.075651]},"properties":{"Tên cơ sở":"Nguyễn Thanh Liêm","Địa chỉ":"Trung Điền, Xã Trung Hiếu, Vũng Liêm","Tổng đàn":"3000","Vịt thịt":"1500","Vịt đẻ":"1500","layer_id":305,"fid":423,"label":"Nguyễn Thanh Liêm"}},{"type":"Feature","id":424,"geometry":{"type":"Point","coordinates":[106.168922,10.075077]},"properties":{"Tên cơ sở":"Nguyễn Văn Tuấn","Địa chỉ":"An Thành Đông, Xã Trung Hiếu, Vũng Liêm","Tổng đàn":"3500","Vịt thịt":"3500","Vịt đẻ":null,"layer_id":305,"fid":424,"label":"Nguyễn Văn Tuấn"}},{"type":"Feature","id":425,"geometry":{"type":"Point","coordinates":[106.140491,10.081872]},"properties":{"Tên cơ sở":"Huỳnh Văn Sang","Địa chỉ":"An Điền 2, Xã Trung Hiếu, Vũng Liêm","Tổng đàn":"3800","Vịt thịt":null,"Vịt đẻ":"3800","layer_id":305,"fid":425,"label":"Huỳnh Văn Sang"}},{"type":"Feature","id":426,"geometry":{"type":"Point","coordinates":[106.138892,10.078219]},"properties":{"Tên cơ sở":"Nguyễn Văn Hiền ","Địa chỉ":"An Điền 1, Xã Trung Hiếu, Vũng Liêm","Tổng đàn":"2500","Vịt thịt":null,"Vịt đẻ":"2500","layer_id":305,"fid":426,"label":"Nguyễn Văn Hiền "}},{"type":"Feature","id":427,"geometry":{"type":"Point","coordinates":[106.153326,10.070113]},"properties":{"Tên cơ sở":"Ngô Thành Lượng","Địa chỉ":"An Điền 2, Xã Trung Hiếu, Vũng Liêm","Tổng đàn":"2600","Vịt thịt":null,"Vịt đẻ":"2600","layer_id":305,"fid":427,"label":"Ngô Thành Lượng"}},{"type":"Feature","id":428,"geometry":{"type":"Point","coordinates":[106.182901,10.039855]},"properties":{"Tên cơ sở":"Hồ Văn Hiện","Địa chỉ":"Ấp 2, Xã Trung Ngãi, Vũng Liêm","Tổng đàn":"3000","Vịt thịt":null,"Vịt đẻ":"3000","layer_id":305,"fid":428,"label":"Hồ Văn Hiện"}},{"type":"Feature","id":429,"geometry":{"type":"Point","coordinates":[106.198112,10.048421]},"properties":{"Tên cơ sở":"Nguyễn Thanh Điền","Địa chỉ":"Ấp Một, Xã Trung Ngãi, Vũng Liêm","Tổng đàn":"5000","Vịt thịt":"5000","Vịt đẻ":null,"layer_id":305,"fid":429,"label":"Nguyễn Thanh Điền"}},{"type":"Feature","id":430,"geometry":{"type":"Point","coordinates":[106.19193,10.055784]},"properties":{"Tên cơ sở":"Lê Văn Út","Địa chỉ":"Giồng Ké, Xã Trung Ngãi, Vũng Liêm","Tổng đàn":"6000","Vịt thịt":"3000","Vịt đẻ":"3000","layer_id":305,"fid":430,"label":"Lê Văn Út"}},{"type":"Feature","id":431,"geometry":{"type":"Point","coordinates":[106.189575,10.054852]},"properties":{"Tên cơ sở":"Lê Út Thanh","Địa chỉ":"Giồng Ké, Xã Trung Ngãi, Vũng Liêm","Tổng đàn":"6000","Vịt thịt":"3000","Vịt đẻ":"3000","layer_id":305,"fid":431,"label":"Lê Út Thanh"}},{"type":"Feature","id":432,"geometry":{"type":"Point","coordinates":[106.192779,10.029518]},"properties":{"Tên cơ sở":"Lê Văn Răng","Địa chỉ":"Ấp Kinh, Xã Trung Ngãi, Vũng Liêm","Tổng đàn":"2000","Vịt thịt":null,"Vịt đẻ":"2000","layer_id":305,"fid":432,"label":"Lê Văn Răng"}},{"type":"Feature","id":433,"geometry":{"type":"Point","coordinates":[106.178943,10.026635]},"properties":{"Tên cơ sở":"Lê Văn Triều","Địa chỉ":"Ấp Kinh, Xã Trung Ngãi, Vũng Liêm","Tổng đàn":"2000","Vịt thịt":null,"Vịt đẻ":"2000","layer_id":305,"fid":433,"label":"Lê Văn Triều"}},{"type":"Feature","id":434,"geometry":{"type":"Point","coordinates":[106.185242,10.041528]},"properties":{"Tên cơ sở":"Nguyễn Văn Hùng","Địa chỉ":"Giồng Ké, Xã Trung Ngãi, Vũng Liêm","Tổng đàn":"2000","Vịt thịt":null,"Vịt đẻ":"2000","layer_id":305,"fid":434,"label":"Nguyễn Văn Hùng"}},{"type":"Feature","id":435,"geometry":{"type":"Point","coordinates":[106.190002,10.044441]},"properties":{"Tên cơ sở":"Huỳnh Văn Cường","Địa chỉ":"Ấp 2, Xã Trung Ngãi, Vũng Liêm","Tổng đàn":"2000","Vịt thịt":"2000","Vịt đẻ":null,"layer_id":305,"fid":435,"label":"Huỳnh Văn Cường"}},{"type":"Feature","id":436,"geometry":{"type":"Point","coordinates":[106.17603,10.029558]},"properties":{"Tên cơ sở":"Lê Văn Vẹn","Địa chỉ":"Ấp Kinh, Xã Trung Ngãi, Vũng Liêm","Tổng đàn":"2000","Vịt thịt":null,"Vịt đẻ":"2000","layer_id":305,"fid":436,"label":"Lê Văn Vẹn"}},{"type":"Feature","id":437,"geometry":{"type":"Point","coordinates":[106.210378,10.046381]},"properties":{"Tên cơ sở":"Huỳnh Văn Chinh","Địa chỉ":"Tân Xuân, Xã Trung Nghĩa, Vũng Liêm","Tổng đàn":"3000","Vịt thịt":null,"Vịt đẻ":"3000","layer_id":305,"fid":437,"label":"Huỳnh Văn Chinh"}},{"type":"Feature","id":438,"geometry":{"type":"Point","coordinates":[106.20169,10.033332]},"properties":{"Tên cơ sở":"Nguyễn Văn Tuấn","Địa chỉ":"Phú Tiên, Xã Trung Nghĩa, Vũng Liêm","Tổng đàn":"4000","Vịt thịt":"4000","Vịt đẻ":null,"layer_id":305,"fid":438,"label":"Nguyễn Văn Tuấn"}},{"type":"Feature","id":439,"geometry":{"type":"Point","coordinates":[106.219875,10.027545]},"properties":{"Tên cơ sở":"Đoàn Văn Quới","Địa chỉ":"Phú Ân, Xã Trung Nghĩa, Vũng Liêm","Tổng đàn":"5000","Vịt thịt":"5000","Vịt đẻ":null,"layer_id":305,"fid":439,"label":"Đoàn Văn Quới"}},{"type":"Feature","id":440,"geometry":{"type":"Point","coordinates":[106.201696,10.033158]},"properties":{"Tên cơ sở":"Nguyễn Văn Tám Em","Địa chỉ":"Phú Tiên, Xã Trung Nghĩa, Vũng Liêm","Tổng đàn":"7000","Vịt thịt":null,"Vịt đẻ":"7000","layer_id":305,"fid":440,"label":"Nguyễn Văn Tám Em"}},{"type":"Feature","id":441,"geometry":{"type":"Point","coordinates":[106.218367,10.046484]},"properties":{"Tên cơ sở":"Trần Văn Độ","Địa chỉ":"Ấp 6, Xã Trung Nghĩa, Vũng Liêm","Tổng đàn":"2000","Vịt thịt":null,"Vịt đẻ":"2000","layer_id":305,"fid":441,"label":"Trần Văn Độ"}},{"type":"Feature","id":442,"geometry":{"type":"Point","coordinates":[106.218046,10.046656]},"properties":{"Tên cơ sở":"Trần Bé Em","Địa chỉ":"Ấp 6, Xã Trung Nghĩa, Vũng Liêm","Tổng đàn":"2000","Vịt thịt":null,"Vịt đẻ":"2000","layer_id":305,"fid":442,"label":"Trần Bé Em"}},{"type":"Feature","id":443,"geometry":{"type":"Point","coordinates":[106.20667,10.027251]},"properties":{"Tên cơ sở":"Nguyễn Thị Thu Em","Địa chỉ":"Ấp 6, Xã Trung Nghĩa, Vũng Liêm","Tổng đàn":"2000","Vịt thịt":null,"Vịt đẻ":"2000","layer_id":305,"fid":443,"label":"Nguyễn Thị Thu Em"}},{"type":"Feature","id":444,"geometry":{"type":"Point","coordinates":[106.201699,10.033153]},"properties":{"Tên cơ sở":"Nguyễn Thị Tám","Địa chỉ":"Phú Tiên, Xã Trung Nghĩa, Vũng Liêm","Tổng đàn":"2000","Vịt thịt":null,"Vịt đẻ":"2000","layer_id":305,"fid":444,"label":"Nguyễn Thị Tám"}},{"type":"Feature","id":445,"geometry":{"type":"Point","coordinates":[106.189323,10.054979]},"properties":{"Tên cơ sở":"Phan Văn Hạ","Địa chỉ":"Xuân Minh 2, Xã Trung Thành, Vũng Liêm","Tổng đàn":"3600","Vịt thịt":null,"Vịt đẻ":"3600","layer_id":305,"fid":445,"label":"Phan Văn Hạ"}},{"type":"Feature","id":446,"geometry":{"type":"Point","coordinates":[106.191248,10.057489]},"properties":{"Tên cơ sở":"Nguyễn Văn Hùng Em","Địa chỉ":"Xuân Minh 2, Xã Trung Thành, Vũng Liêm","Tổng đàn":"8000","Vịt thịt":"2000","Vịt đẻ":"6000","layer_id":305,"fid":446,"label":"Nguyễn Văn Hùng Em"}},{"type":"Feature","id":447,"geometry":{"type":"Point","coordinates":[106.175249,10.042459]},"properties":{"Tên cơ sở":"Biện Thanh Thoại","Địa chỉ":"Xuân Lộc, Xã Trung Thành, Vũng Liêm","Tổng đàn":"2000","Vịt thịt":null,"Vịt đẻ":"2000","layer_id":305,"fid":447,"label":"Biện Thanh Thoại"}},{"type":"Feature","id":448,"geometry":{"type":"Point","coordinates":[106.175098,10.042265]},"properties":{"Tên cơ sở":"Nguyễn Văn Chương","Địa chỉ":"Xuân Lộc, Xã Trung Thành, Vũng Liêm","Tổng đàn":"2000","Vịt thịt":null,"Vịt đẻ":"2000","layer_id":305,"fid":448,"label":"Nguyễn Văn Chương"}},{"type":"Feature","id":449,"geometry":{"type":"Point","coordinates":[106.216061,10.092971]},"properties":{"Tên cơ sở":"Nguyễn Văn Thúc","Địa chỉ":"Đại Nghĩa, Xã Trung Thành Đông, Vũng Liêm","Tổng đàn":"2000","Vịt thịt":null,"Vịt đẻ":"2000","layer_id":305,"fid":449,"label":"Nguyễn Văn Thúc"}},{"type":"Feature","id":450,"geometry":{"type":"Point","coordinates":[106.208101,10.065369]},"properties":{"Tên cơ sở":"Nguyễn Văn Cho","Địa chỉ":"Đức Hòa, Xã Trung Thành, Vũng Liêm","Tổng đàn":"2500","Vịt thịt":"1500","Vịt đẻ":"1000","layer_id":305,"fid":450,"label":"Nguyễn Văn Cho"}},{"type":"Feature","id":451,"geometry":{"type":"Point","coordinates":[106.174735,10.114609]},"properties":{"Tên cơ sở":"Lê Hồng Trong","Địa chỉ":"Quới Hiệp, Xã Trung Thành Tây, Vũng Liêm","Tổng đàn":"2000","Vịt thịt":null,"Vịt đẻ":"2000","layer_id":305,"fid":451,"label":"Lê Hồng Trong"}},{"type":"Feature","id":452,"geometry":{"type":"Point","coordinates":[106.171751,10.114454]},"properties":{"Tên cơ sở":"Lê Văn Lành","Địa chỉ":"Hòa Hiệp, Xã Trung Thành Tây, Vũng Liêm","Tổng đàn":"2000","Vịt thịt":null,"Vịt đẻ":"2000","layer_id":305,"fid":452,"label":"Lê Văn Lành"}}]}
