{"type":"FeatureCollection","name":"Khu Kinh tế và Công nghiệp","metadata":{"source":"https://hatang.vinhlong.gov.vn/","downloaded_at":"2026-07-20T01:15:58+00:00","layer_id":307,"layer_name":"Khu Kinh tế và Công nghiệp","catalog_endpoints":["/map/publicLayers2?inputs=banqlkcn"],"requested_bbox":[104.0,8.0,108.0,12.0],"tile_size":0.0,"tile_count":1,"tile_errors":[],"feature_count":23,"coordinate_order":"x,y (thường là longitude,latitude theo cấu hình EPSG:4326 của WebGIS)"},"features":[{"type":"Feature","geometry":{"type":"Point","coordinates":[106.115675,10.220154]},"properties":{"Tên khu công nghiệp":"Khu công nghiệp An Định","Địa điểm":"Xã Cái Nhum","Diện tích":"","Vị trí":"","Thông tin":"","Trạng thái":"","layer_id":307,"fid":24,"label":"Khu công nghiệp An Định"}},{"type":"Feature","geometry":{"type":"Point","coordinates":[106.365362017,9.633045657]},"properties":{"Tên khu công nghiệp":"KKT Định An","Địa điểm":"xã Trà Cú, tỉnh Vĩnh Long","Diện tích":"39.020 ha","Vị trí":"nằm ở phía Đông Nam của tỉnh, giáp biển và sông Hậu, thuộc địa phận các xã: Đại An, Hàm Giang, Long Thành, Đôn Châu, Ngũ Lạc, Đông Hải, Long Vĩnh, phường Duyên Hải và phường Trường Long Hòa","Thông tin":"Là khu kinh tế ven biển tổng hợp đa ngành, đa lĩnh vực, gồm công nghiệp - thương mại - dịch vụ - du lịch - đô thị và nông - lâm - ngư nghiệp","Trạng thái":"Đang hoạt động","layer_id":307,"fid":25,"label":"KKT Định An"}},{"type":"Feature","geometry":{"type":"Point","coordinates":[105.941889624,10.162207223]},"properties":{"Tên khu công nghiệp":"Khu công nghiệp Hòa Phú","Địa điểm":"Xã Hòa Phú, huyện Long Hồ, tỉnh Vĩnh Long","Diện tích":"","Vị trí":"","Thông tin":"","Trạng thái":"","layer_id":307,"fid":26,"label":"Khu công nghiệp Hòa Phú"}},{"type":"Feature","geometry":{"type":"Point","coordinates":[105.789004,10.080895]},"properties":{"Tên khu công nghiệp":"Khu công nghiệp Gilimex Vĩnh Long","Địa điểm":"xã Tân Quới","Diện tích":"","Vị trí":"","Thông tin":"","Trạng thái":"","layer_id":307,"fid":27,"label":"Khu công nghiệp Gilimex Vĩnh Long"}},{"type":"Feature","geometry":{"type":"Point","coordinates":[105.847334,10.031331]},"properties":{"Tên khu công nghiệp":"Khu công nghiệp Đông Bình","Địa điểm":"Xã Đông Thành","Diện tích":"","Vị trí":"","Thông tin":"","Trạng thái":"","layer_id":307,"fid":29,"label":"Khu công nghiệp Đông Bình"}},{"type":"Feature","geometry":{"type":"Point","coordinates":[105.825075,10.043471]},"properties":{"Tên khu công nghiệp":"Khu công nghiệp Bình Minh","Địa điểm":"Xã Đông Thành","Diện tích":"","Vị trí":"","Thông tin":"","Trạng thái":"","layer_id":307,"fid":28,"label":"Khu công nghiệp Bình Minh"}},{"type":"Feature","geometry":{"type":"Point","coordinates":[105.944330123,10.173084935]},"properties":{"Tên khu công nghiệp":"KCN Hòa Phú","Địa điểm":"xã Phú Quới, tỉnh Vĩnh Long ","Diện tích":"250.79 ha","Vị trí":"xã Phú Quới, tỉnh Vĩnh Long ","Thông tin":"","Trạng thái":"Đang hoạt động","layer_id":307,"fid":31,"label":"KCN Hòa Phú"}},{"type":"Feature","geometry":{"type":"Point","coordinates":[106.349618282,9.968406095]},"properties":{"Tên khu công nghiệp":"KCN Long Đức","Địa điểm":"phường Long Đức","Diện tích":"98 ha","Vị trí":"phường Long Đức","Thông tin":"","Trạng thái":"Đang hoạt động","layer_id":307,"fid":30,"label":"KCN Long Đức"}},{"type":"Feature","geometry":{"type":"Point","coordinates":[105.825222811,10.042171163]},"properties":{"Tên khu công nghiệp":"KCN Bình Minh","Địa điểm":"phường Cái Vồn","Diện tích":"134.82 ha","Vị trí":"phường Cái Vồn","Thông tin":"","Trạng thái":"Đang hoạt động","layer_id":307,"fid":32,"label":"KCN Bình Minh"}},{"type":"Feature","geometry":{"type":"Point","coordinates":[106.254177661,10.005169583]},"properties":{"Tên khu công nghiệp":"KCN Cổ Chiên","Địa điểm":"xã Nhị Long","Diện tích":"199.98 ha","Vị trí":"xã Nhị Long","Thông tin":"","Trạng thái":"Chưa hoạt động","layer_id":307,"fid":33,"label":"KCN Cổ Chiên"}},{"type":"Feature","geometry":{"type":"Point","coordinates":[106.413931594,10.293817881]},"properties":{"Tên khu công nghiệp":"Cụm công nghiệp Long Phước","Địa điểm":"xã Giao Long","Diện tích":"","Vị trí":"xã Giao Long","Thông tin":"","Trạng thái":"Đang hoạt động","layer_id":307,"fid":36,"label":"Cụm công nghiệp Long Phước"}},{"type":"Feature","geometry":{"type":"Point","coordinates":[106.399553225,10.301791475]},"properties":{"Tên khu công nghiệp":"KCN Giao Long (I, II)","Địa điểm":"xã Giao Long","Diện tích":"164.34 ha","Vị trí":"xã Giao Long","Thông tin":"","Trạng thái":"Đang hoạt động","layer_id":307,"fid":34,"label":"KCN Giao Long (I, II)"}},{"type":"Feature","geometry":{"type":"Point","coordinates":[106.283143682,10.271111094]},"properties":{"Tên khu công nghiệp":"KCN An Hiệp","Địa điểm":"xã Phú Túc","Diện tích":"72 ha","Vị trí":"xã Phú Túc","Thông tin":"","Trạng thái":"Đang hoạt động","layer_id":307,"fid":35,"label":"KCN An Hiệp"}},{"type":"Feature","geometry":{"type":"Point","coordinates":[106.4199434,9.652313507]},"properties":{"Tên khu công nghiệp":"KCN Ngũ Lạc","Địa điểm":"xã Ngũ Lạc","Diện tích":"316 ha","Vị trí":"xã Ngũ Lạc","Thông tin":"đang thực hiện các thủ tục pháp lý sau chấp thuận chủ trương đầu tư dự án","Trạng thái":"Chưa hoạt động","layer_id":307,"fid":37,"label":"KCN Ngũ Lạc"}},{"type":"Feature","geometry":{"type":"Point","coordinates":[105.795335,10.08931387]},"properties":{"Tên khu công nghiệp":"KCN Bình Tân (KCN Gilimex Vĩnh Long)","Địa điểm":"xã Tân Quới","Diện tích":"255 ha","Vị trí":"xã Tân Quới","Thông tin":"đang chuẩn bị thực hiện công tác giải phóng mặt bằng","Trạng thái":"Chưa hoạt động","layer_id":307,"fid":39,"label":"KCN Bình Tân (KCN Gilimex Vĩnh Long)"}},{"type":"Feature","geometry":{"type":"Point","coordinates":[105.8373271,10.0623373]},"properties":{"Tên khu công nghiệp":"KCN Đông Bình","Địa điểm":"phường Đông Thành","Diện tích":"350 ha","Vị trí":"phường Đông Thành","Thông tin":"đang chuẩn bị thực hiện công tác giải phóng mặt bằng","Trạng thái":"Chưa hoạt động","layer_id":307,"fid":38,"label":"KCN Đông Bình"}},{"type":"Feature","geometry":{"type":"Point","coordinates":[106.482905,10.27149891]},"properties":{"Tên khu công nghiệp":"KCN Phú Thuận","Địa điểm":"xã Phú Thuận","Diện tích":"231.78 ha","Vị trí":"xã Phú Thuận","Thông tin":"dự kiến cuối năm 2025 sẽ hoàn thành","Trạng thái":"Chưa hoạt động","layer_id":307,"fid":40,"label":"KCN Phú Thuận"}},{"type":"Feature","geometry":{"type":"Point","coordinates":[105.795335,10.08931387]},"properties":{"Tên khu công nghiệp":"KCN Gilimex Vĩnh Long (giai đoạn 2)","Địa điểm":"xã Tân Quới","Diện tích":"145 ha","Vị trí":"xã Tân Quới","Thông tin":"","Trạng thái":"Chưa thành lập","layer_id":307,"fid":43,"label":"KCN Gilimex Vĩnh Long (giai đoạn 2)"}},{"type":"Feature","geometry":{"type":"Point","coordinates":[105.943832987,10.177456906]},"properties":{"Tên khu công nghiệp":"KCN Hòa Phú (giai đoạn 3)","Địa điểm":"xã Phú Quới","Diện tích":"157 ha","Vị trí":"xã Phú Quới","Thông tin":"","Trạng thái":"Chưa thành lập","layer_id":307,"fid":44,"label":"KCN Hòa Phú (giai đoạn 3)"}},{"type":"Feature","geometry":{"type":"Point","coordinates":[106.083047,10.19301508]},"properties":{"Tên khu công nghiệp":"KCN An Định","Địa điểm":"xã Cái Nhum","Diện tích":"200 ha","Vị trí":"xã Cái Nhum","Thông tin":"","Trạng thái":"Chưa thành lập","layer_id":307,"fid":42,"label":"KCN An Định"}},{"type":"Feature","geometry":{"type":"Point","coordinates":[106.1608944,9.760227485]},"properties":{"Tên khu công nghiệp":"KCN Cầu Quan","Địa điểm":"xã Tân Hòa và xã Phong Thạnh","Diện tích":"120 ha","Vị trí":"xã Tân Hòa và xã Phong Thạnh","Thông tin":"","Trạng thái":"Chưa thành lập","layer_id":307,"fid":41,"label":"KCN Cầu Quan"}},{"type":"Feature","geometry":{"type":"Point","coordinates":[106.4088164,10.1516345]},"properties":{"Tên khu công nghiệp":"KCN Phước Long","Địa điểm":"xã Phước Long","Diện tích":"182 ha","Vị trí":"xã Phước Long","Thông tin":"","Trạng thái":"Chưa thành lập","layer_id":307,"fid":46,"label":"KCN Phước Long"}},{"type":"Feature","geometry":{"type":"Point","coordinates":[106.4351344,10.30442069]},"properties":{"Tên khu công nghiệp":"KCN Giao Hòa","Địa điểm":"xã Giao Long","Diện tích":"249 ha","Vị trí":"xã Giao Long","Thông tin":"","Trạng thái":"Chưa thành lập","layer_id":307,"fid":45,"label":"KCN Giao Hòa"}}]}
