{"type":"FeatureCollection","name":"Các tổ chức Khoa học công nghệ","metadata":{"source":"https://hatang.vinhlong.gov.vn/","downloaded_at":"2026-07-20T01:16:03+00:00","layer_id":308,"layer_name":"Các tổ chức Khoa học công nghệ","catalog_endpoints":["/map/publicLayers2?inputs=sokhcn"],"requested_bbox":[104.0,8.0,108.0,12.0],"tile_size":0.0,"tile_count":1,"tile_errors":[],"feature_count":42,"coordinate_order":"x,y (thường là longitude,latitude theo cấu hình EPSG:4326 của WebGIS)"},"features":[{"type":"Feature","geometry":{"type":"Point","coordinates":[105.925962608,10.261353134]},"properties":{"Tên tổ chức khoa học và công nghệ":"Trung tâm Ứng dụng khoa học công nghệ Vĩnh Long","Địa chỉ":"339, K. Tân Xuân, xã Tân Ngãi","Mã số thuế":"1501158494","Loại hình kinh tế":"Tổ chức KH&CN công lập","Cơ quan quản lý trực tiếp":"Sở Khoa học và Công nghệ ỉnh Vĩnh Long","Cơ quan chủ quản":"Ủy ban nhân dân tỉnh Vĩnh Long","Điện thoại":null,"layer_id":308,"fid":9,"label":"Trung tâm Ứng dụng khoa học công nghệ Vĩnh Long"}},{"type":"Feature","geometry":{"type":"Point","coordinates":[105.954037685,10.227047797]},"properties":{"Tên tổ chức khoa học và công nghệ":"Trường Cao đẳng Vĩnh Long","Địa chỉ":"112A, Đinh Tiên Hoàng, Phường Tân Hạnh, tỉnh Vĩnh Long","Mã số thuế":"1500235883","Loại hình kinh tế":"Tổ chức KH&CN công lập","Cơ quan quản lý trực tiếp":"Ủy ban nhân dân tỉnh Vĩnh Long","Cơ quan chủ quản":"Ủy ban nhân dân tỉnh Vĩnh Long","Điện thoại":null,"layer_id":308,"fid":10,"label":"Trường Cao đẳng Vĩnh Long"}},{"type":"Feature","geometry":{"type":"Point","coordinates":[105.960457621,10.240733806]},"properties":{"Tên tổ chức khoa học và công nghệ":"Phân hiệu trường Đại học kinh tế Hồ Chí Minh tại tỉnh Vĩnh Long","Địa chỉ":"1B Nguyễn Trung Trực, phường Tân Hạnh, tỉnh Vĩnh Long","Mã số thuế":"0302378687-014","Loại hình kinh tế":"Tổ chức KH&CN công lập","Cơ quan quản lý trực tiếp":"Đại học Kinh tế TP. Hồ Chí Minh","Cơ quan chủ quản":"Đại học Kinh tế TP. Hồ Chí Minh","Điện thoại":null,"layer_id":308,"fid":11,"label":"Phân hiệu trường Đại học kinh tế Hồ Chí Minh tại tỉnh Vĩnh Long"}},{"type":"Feature","geometry":{"type":"Point","coordinates":[106.359468725,10.270101607]},"properties":{"Tên tổ chức khoa học và công nghệ":"Phân hiệu Đại học quốc gia thành phố Hồ Chí Minh tại tỉnh Bến Tre","Địa chỉ":"Số 99A, Quốc lộ 60, Khu phố 1, Phường Phú Tân, Tỉnh Vĩnh Long","Mã số thuế":"1301044940","Loại hình kinh tế":"Tổ chức KH&CN công lập","Cơ quan quản lý trực tiếp":"Đại học quốc gia thành phố Hồ Chí Minh","Cơ quan chủ quản":"Đại học quốc gia thành phố Hồ Chí Minh","Điện thoại":null,"layer_id":308,"fid":12,"label":"Phân hiệu Đại học quốc gia thành phố Hồ Chí Minh tại tỉnh Bến Tre"}},{"type":"Feature","geometry":{"type":"Point","coordinates":[106.353428225,10.262002004]},"properties":{"Tên tổ chức khoa học và công nghệ":"Trường Cao Đẳng Bến Tre","Địa chỉ":"Số 400/1, Khu phố 1, phường Sơn Đông, tỉnh Vĩnh Long","Mã số thuế":"1300358158","Loại hình kinh tế":"Tổ chức KH&CN công lập","Cơ quan quản lý trực tiếp":"Ủy ban nhân dân tỉnh Vĩnh Long","Cơ quan chủ quản":"Ủy ban nhân dân tỉnh Vĩnh Long","Điện thoại":null,"layer_id":308,"fid":13,"label":"Trường Cao Đẳng Bến Tre"}},{"type":"Feature","geometry":{"type":"Point","coordinates":[106.361278167,10.260544546]},"properties":{"Tên tổ chức khoa học và công nghệ":"Trường Cao Đẳng Đồng Khởi","Địa chỉ":"17A4, QL60, KP1, P. Phú Tân, tỉnh Vĩnh Long","Mã số thuế":"1300109391","Loại hình kinh tế":"Tổ chức KH&CN công lập","Cơ quan quản lý trực tiếp":"Tổng Liên đoàn Lao động Việt Nam","Cơ quan chủ quản":"Tổng Liên đoàn Lao động Việt Nam","Điện thoại":null,"layer_id":308,"fid":14,"label":"Trường Cao Đẳng Đồng Khởi"}},{"type":"Feature","geometry":{"type":"Point","coordinates":[106.341121413,9.954849863]},"properties":{"Tên tổ chức khoa học và công nghệ":"Trường Cao Đẳng nghề Trà Vinh","Địa chỉ":"Ấp Vĩnh Yên, phường Long Đức","Mã số thuế":null,"Loại hình kinh tế":"Tổ chức KH&CN công lập","Cơ quan quản lý trực tiếp":"UBND tỉnh Trà Vinh","Cơ quan chủ quản":null,"Điện thoại":null,"layer_id":308,"fid":15,"label":"Trường Cao Đẳng nghề Trà Vinh"}},{"type":"Feature","geometry":{"type":"Point","coordinates":[106.34474574,9.923510875]},"properties":{"Tên tổ chức khoa học và công nghệ":"Viện phát triển nguồn lực","Địa chỉ":"Số 126, Nguyễn Thiện Thành, khóm 4, phường Thanh Đức","Mã số thuế":null,"Loại hình kinh tế":"Tổ chức KH&CN công lập","Cơ quan quản lý trực tiếp":"Đại học Trà Vinh","Cơ quan chủ quản":"Ủy ban nhân dân tỉnh Trà Vinh","Điện thoại":null,"layer_id":308,"fid":16,"label":"Viện phát triển nguồn lực"}},{"type":"Feature","geometry":{"type":"Point","coordinates":[106.335468296,9.926119313]},"properties":{"Tên tổ chức khoa học và công nghệ":"Trung tâm nghiên cứu thích ứng biến đổi khí hậu và hỗ trợ phát triển cộng đồng","Địa chỉ":"105, Kiên Thị Nhẫn, Phường Nguyệt Hóa","Mã số thuế":null,"Loại hình kinh tế":"Tổ chức KH&CN công lập","Cơ quan quản lý trực tiếp":"Đại học Trà Vinh","Cơ quan chủ quản":"Ủy ban nhân dân tỉnh Trà Vinh","Điện thoại":null,"layer_id":308,"fid":17,"label":"Trung tâm nghiên cứu thích ứng biến đổi khí hậu và hỗ trợ phát triển cộng đồng"}},{"type":"Feature","geometry":{"type":"Point","coordinates":[106.347158979,9.920559009]},"properties":{"Tên tổ chức khoa học và công nghệ":"Trung tâm Phân tích - Kiểm nghiệm TVU","Địa chỉ":"Số 126, Nguyễn Thiện Thành, khóm 4, phường Hòa Thuận","Mã số thuế":null,"Loại hình kinh tế":"Tổ chức KH&CN công lập","Cơ quan quản lý trực tiếp":"Đại học Trà Vinh","Cơ quan chủ quản":"Ủy ban nhân dân tỉnh Trà Vinh","Điện thoại":null,"layer_id":308,"fid":18,"label":"Trung tâm Phân tích - Kiểm nghiệm TVU"}},{"type":"Feature","geometry":{"type":"Point","coordinates":[106.335680005,9.926036096]},"properties":{"Tên tổ chức khoa học và công nghệ":"Trung tâm nghiên cứu khoa học và sản xuất dịch vụ","Địa chỉ":"105, Kiên Thị Nhẫn, K1, Phường Nguyệt Hóa","Mã số thuế":null,"Loại hình kinh tế":"Tổ chức KH&CN công lập","Cơ quan quản lý trực tiếp":"Đại học Trà Vinh","Cơ quan chủ quản":"Ủy ban nhân dân tỉnh Trà Vinh","Điện thoại":null,"layer_id":308,"fid":19,"label":"Trung tâm nghiên cứu khoa học và sản xuất dịch vụ"}},{"type":"Feature","geometry":{"type":"Point","coordinates":[106.361992496,9.939038212]},"properties":{"Tên tổ chức khoa học và công nghệ":"Trường chính trị Trà Vinh (đã sát nhập Trường Chính trị Phạm Hùng)","Địa chỉ":"Hòa Thuận, xã Châu Thành","Mã số thuế":null,"Loại hình kinh tế":"Tổ chức KH&CN công lập","Cơ quan quản lý trực tiếp":"Tỉnh Ủy Trà Vinh","Cơ quan chủ quản":null,"Điện thoại":null,"layer_id":308,"fid":20,"label":"Trường chính trị Trà Vinh (đã sát nhập Trường Chính trị Phạm Hùng)"}},{"type":"Feature","geometry":{"type":"Point","coordinates":[106.348071005,9.920883183]},"properties":{"Tên tổ chức khoa học và công nghệ":"Viện nghiên cứu tâm lý -giáo dục đặc biệt - chi nhánh Trà Vinh","Địa chỉ":"314, Phạm Ngũ Lão, Khóm 3, Phường Trà Vinh","Mã số thuế":null,"Loại hình kinh tế":"Tổ chức KH&CN ngoài công lập","Cơ quan quản lý trực tiếp":"Viện nghiên cứu tâm lý -giáo dục đặc biệt","Cơ quan chủ quản":null,"Điện thoại":null,"layer_id":308,"fid":21,"label":"Viện nghiên cứu tâm lý -giáo dục đặc biệt - chi nhánh Trà Vinh"}},{"type":"Feature","geometry":{"type":"Point","coordinates":[106.199470531,9.981005758]},"properties":{"Tên tổ chức khoa học và công nghệ":"Trung tâm Y tế khu vực Càng Long","Địa chỉ":"Khóm 6 - xã Càng Long","Mã số thuế":null,"Loại hình kinh tế":"Tổ chức KH&CN công lập","Cơ quan quản lý trực tiếp":"Sở Y tế tỉnh Trà Vinh","Cơ quan chủ quản":"Ủy ban nhân dân tỉnh Trà Vinh","Điện thoại":null,"layer_id":308,"fid":22,"label":"Trung tâm Y tế khu vực Càng Long"}},{"type":"Feature","geometry":{"type":"Point","coordinates":[106.347567603,9.873405401]},"properties":{"Tên tổ chức khoa học và công nghệ":"Trung tâm Y tế khu vực Châu Thành","Địa chỉ":"Khóm 2, xã Châu Thành","Mã số thuế":null,"Loại hình kinh tế":"Tổ chức KH&CN công lập","Cơ quan quản lý trực tiếp":"Sở Y tế tỉnh Trà Vinh","Cơ quan chủ quản":"Ủy ban nhân dân tỉnh Trà Vinh","Điện thoại":null,"layer_id":308,"fid":23,"label":"Trung tâm Y tế khu vực Châu Thành"}},{"type":"Feature","geometry":{"type":"Point","coordinates":[106.191656381,9.815762352]},"properties":{"Tên tổ chức khoa học và công nghệ":"Trung tâm Y tế khu vực Tiểu Cần","Địa chỉ":"Khóm 2, xã Tiểu Cần","Mã số thuế":null,"Loại hình kinh tế":"Tổ chức KH&CN công lập","Cơ quan quản lý trực tiếp":"Sở Y tế tỉnh Trà Vinh","Cơ quan chủ quản":"Ủy ban nhân dân tỉnh Trà Vinh","Điện thoại":null,"layer_id":308,"fid":24,"label":"Trung tâm Y tế khu vực Tiểu Cần"}},{"type":"Feature","geometry":{"type":"Point","coordinates":[106.34038222,9.939281264]},"properties":{"Tên tổ chức khoa học và công nghệ":"Trung tâm Kiểm nghiệm Trà Vinh","Địa chỉ":"Số 01 Trưng Nữ Vương, phường Trà Vinh","Mã số thuế":null,"Loại hình kinh tế":"Tổ chức KH&CN công lập","Cơ quan quản lý trực tiếp":"Sở Y tế tỉnh Trà Vinh","Cơ quan chủ quản":"Ủy ban nhân dân tỉnh Trà Vinh","Điện thoại":null,"layer_id":308,"fid":25,"label":"Trung tâm Kiểm nghiệm Trà Vinh"}},{"type":"Feature","geometry":{"type":"Point","coordinates":[106.337993324,9.922867618]},"properties":{"Tên tổ chức khoa học và công nghệ":"Trung tâm Y tế khu vực Trà Vinh","Địa chỉ":"Số 16 Mậu Thân, Khóm 10 - Phường Trà Vinh","Mã số thuế":null,"Loại hình kinh tế":"Tổ chức KH&CN công lập","Cơ quan quản lý trực tiếp":"Sở Y tế tỉnh Trà Vinh","Cơ quan chủ quản":"Ủy ban nhân dân tỉnh Trà Vinh","Điện thoại":null,"layer_id":308,"fid":26,"label":"Trung tâm Y tế khu vực Trà Vinh"}},{"type":"Feature","geometry":{"type":"Point","coordinates":[106.447530315,9.609492753]},"properties":{"Tên tổ chức khoa học và công nghệ":"Trung tâm Y tế khu vực Duyên Hải","Địa chỉ":"Khóm 3, xã Long Thành","Mã số thuế":null,"Loại hình kinh tế":"Tổ chức KH&CN công lập","Cơ quan quản lý trực tiếp":"Sở Y tế tỉnh Trà Vinh","Cơ quan chủ quản":"Ủy ban nhân dân tỉnh Trà Vinh","Điện thoại":null,"layer_id":308,"fid":27,"label":"Trung tâm Y tế khu vực Duyên Hải"}},{"type":"Feature","geometry":{"type":"Point","coordinates":[106.34068132,9.939377784]},"properties":{"Tên tổ chức khoa học và công nghệ":"Trung tâm Kiểm soát Bệnh tật tỉnh Trà Vinh (đã sát nhập với Trung tâm Kiểm soát Bệnh tật tỉnh Vĩnh Long)","Địa chỉ":"Số 36, Tô Thị Huỳnh, Phường Trà Vinh","Mã số thuế":null,"Loại hình kinh tế":"Tổ chức KH&CN công lập","Cơ quan quản lý trực tiếp":"Sở Y tế tỉnh Trà Vinh","Cơ quan chủ quản":"Ủy ban nhân dân tỉnh Trà Vinh","Điện thoại":null,"layer_id":308,"fid":28,"label":"Trung tâm Kiểm soát Bệnh tật tỉnh Trà Vinh (đã sát nhập với Trung tâm Kiểm soát Bệnh tật tỉnh Vĩnh Long)"}},{"type":"Feature","geometry":{"type":"Point","coordinates":[106.05413785,9.868972985]},"properties":{"Tên tổ chức khoa học và công nghệ":"Trung tâm Y tế khu vực Cầu Kè","Địa chỉ":"Số 30 Đường Trần Hưng Đạo, Khóm 4, xã Cầu Kè","Mã số thuế":null,"Loại hình kinh tế":"Tổ chức KH&CN công lập","Cơ quan quản lý trực tiếp":"Sở Y tế tỉnh Trà Vinh","Cơ quan chủ quản":"Ủy ban nhân dân tỉnh Trà Vinh","Điện thoại":null,"layer_id":308,"fid":29,"label":"Trung tâm Y tế khu vực Cầu Kè"}},{"type":"Feature","geometry":{"type":"Point","coordinates":[106.33827871,9.922751547]},"properties":{"Tên tổ chức khoa học và công nghệ":"Trung tâm công nghệ thông tin tài nguyên và môi trường (Nay là Trung kỹ thuật và chuyển đổi số thuộc Sở NN&MT)","Địa chỉ":"478A, đường Mậu Thân, Khóm 3, Phường Trà Vinh","Mã số thuế":null,"Loại hình kinh tế":"Tổ chức KH&CN công lập","Cơ quan quản lý trực tiếp":"Sở Tài nguyên và Môi trường tỉnh Trà Vinh","Cơ quan chủ quản":"Ủy ban nhân dân tỉnh Trà Vinh","Điện thoại":null,"layer_id":308,"fid":30,"label":"Trung tâm công nghệ thông tin tài nguyên và môi trường (Nay là Trung kỹ thuật và chuyển đổi số thuộc Sở NN&MT)"}},{"type":"Feature","geometry":{"type":"Point","coordinates":[106.340174811,9.935704308]},"properties":{"Tên tổ chức khoa học và công nghệ":"Trung tâm xúc tiến đầu tư và hỗ trợ doanh nghiệp (Trà Vinh) (nay là Trung tâm xúc tiến đầu tư, hỗ trợ doanh nghiệp và dịch vụ tài chính (Sở Tài chính))","Địa chỉ":"19A, đường Nam Kỳ Khởi Nghĩa, Phường Trà Vinh","Mã số thuế":null,"Loại hình kinh tế":"Tổ chức KH&CN công lập","Cơ quan quản lý trực tiếp":"Sở Kế hoạch và Đầu tư tỉnh Trà Vinh","Cơ quan chủ quản":"Ủy ban nhân dân tỉnh Trà Vinh","Điện thoại":null,"layer_id":308,"fid":31,"label":"Trung tâm xúc tiến đầu tư và hỗ trợ doanh nghiệp (Trà Vinh) (nay là Trung tâm xúc tiến đầu tư, hỗ trợ doanh nghiệp và dịch vụ tài chính (Sở Tài chính))"}},{"type":"Feature","geometry":{"type":"Point","coordinates":[106.341988624,9.944979892]},"properties":{"Tên tổ chức khoa học và công nghệ":"Trung tâm Thông tin, Thống kê khoa học công nghệ và Đổi mới sáng tạo","Địa chỉ":"Số 80A, Lê Lợi, Khóm 3, Phường Trà Vinh","Mã số thuế":null,"Loại hình kinh tế":"Tổ chức KH&CN công lập","Cơ quan quản lý trực tiếp":"Sở Khoa học và Công nghệ tỉnh Trà Vinh","Cơ quan chủ quản":"Ủy ban nhân dân tỉnh Trà Vinh","Điện thoại":null,"layer_id":308,"fid":32,"label":"Trung tâm Thông tin, Thống kê khoa học công nghệ và Đổi mới sáng tạo"}},{"type":"Feature","geometry":{"type":"Point","coordinates":[106.340375043,9.956362161]},"properties":{"Tên tổ chức khoa học và công nghệ":"Trung tâm Ứng dụng và dịch vụ khoa học công nghệ","Địa chỉ":"Số 52, ấp Sa Bình, xã Long Đức","Mã số thuế":null,"Loại hình kinh tế":"Tổ chức KH&CN công lập","Cơ quan quản lý trực tiếp":"Sở Khoa học và Công nghệ tỉnh Trà Vinh","Cơ quan chủ quản":"Ủy ban nhân dân tỉnh Trà Vinh","Điện thoại":null,"layer_id":308,"fid":33,"label":"Trung tâm Ứng dụng và dịch vụ khoa học công nghệ"}},{"type":"Feature","geometry":{"type":"Point","coordinates":[106.341161361,9.937687768]},"properties":{"Tên tổ chức khoa học và công nghệ":"Trung tâm tin học và – công báo tỉnh Trà Vinh","Địa chỉ":" Số 1, đường 19 tháng 5, Phường Trà Vinh","Mã số thuế":null,"Loại hình kinh tế":"Tổ chức KH&CN công lập","Cơ quan quản lý trực tiếp":"Văn phòng Ủy ban nhân dân tỉnh Trà Vinh","Cơ quan chủ quản":"Ủy ban nhân dân tỉnh Trà Vinh","Điện thoại":null,"layer_id":308,"fid":34,"label":"Trung tâm tin học và – công báo tỉnh Trà Vinh"}},{"type":"Feature","geometry":{"type":"Point","coordinates":[106.338006477,9.923546114]},"properties":{"Tên tổ chức khoa học và công nghệ":"Trung tâm Kỹ thuật Tài nguyên và Môi trường","Địa chỉ":"478A, đường Mậu Thân, Khóm 3, Phường Trà Vinh","Mã số thuế":null,"Loại hình kinh tế":"Tổ chức KH&CN công lập","Cơ quan quản lý trực tiếp":"Sở Tài nguyên và Môi trường tỉnh Trà Vinh","Cơ quan chủ quản":"Ủy ban nhân dân tỉnh Trà Vinh","Điện thoại":null,"layer_id":308,"fid":35,"label":"Trung tâm Kỹ thuật Tài nguyên và Môi trường"}},{"type":"Feature","geometry":{"type":"Point","coordinates":[105.975268025,10.251704663]},"properties":{"Tên tổ chức khoa học và công nghệ":"Trung tâm Khuyến công và Tư vấn Phát triển Công nghiệp Vĩnh Long","Địa chỉ":"23 Hưng Đạo Vương, Phường Long Châu, tỉnh Vĩnh Long","Mã số thuế":"1500507713-002","Loại hình kinh tế":"Tổ chức KH&CN công lập","Cơ quan quản lý trực tiếp":"Sở Công thương tỉnh Vĩnh Long","Cơ quan chủ quản":"Ủy ban nhân dân tỉnh Vĩnh Long","Điện thoại":null,"layer_id":308,"fid":36,"label":"Trung tâm Khuyến công và Tư vấn Phát triển Công nghiệp Vĩnh Long"}},{"type":"Feature","geometry":{"type":"Point","coordinates":[105.955138209,10.229302533]},"properties":{"Tên tổ chức khoa học và công nghệ":"Trung tâm Sáng tạo và Kết nối cộng đồng - CC&CC","Địa chỉ":"112 Đinh Tiên Hoàng, phường Tân hạnh, tỉnh Vĩnh Long","Mã số thuế":"1500 8483 29 - 002","Loại hình kinh tế":"Tổ chức KH&CN ngoài công lập","Cơ quan quản lý trực tiếp":"Liên Hiệp Hội Khoa học và Kỹ thuật tỉnh Vĩnh Long","Cơ quan chủ quản":null,"Điện thoại":null,"layer_id":308,"fid":37,"label":"Trung tâm Sáng tạo và Kết nối cộng đồng - CC&CC"}},{"type":"Feature","geometry":{"type":"Point","coordinates":[105.929926126,10.170197728]},"properties":{"Tên tổ chức khoa học và công nghệ":"Trung tâm Ứng dụng Khoa học và Công nghệ Cửu Long","Địa chỉ":"Quốc lộ 1A, xã Phú Quới, tỉnh Vĩnh Long","Mã số thuế":"1500480606-001","Loại hình kinh tế":"Tổ chức KH&CN ngoài công lập","Cơ quan quản lý trực tiếp":"Trường Đại học Cửu Long","Cơ quan chủ quản":null,"Điện thoại":null,"layer_id":308,"fid":38,"label":"Trung tâm Ứng dụng Khoa học và Công nghệ Cửu Long"}},{"type":"Feature","geometry":{"type":"Point","coordinates":[106.400728378,10.235909505]},"properties":{"Tên tổ chức khoa học và công nghệ":"Trung tâm Khuyến nông và Tư vấn dịch vụ nông nghiệp tỉnh Bến Tre","Địa chỉ":"Số 95/7, đường 30/4, Phường An Hội, tỉnh Vĩnh Long","Mã số thuế":"1300143120","Loại hình kinh tế":"Tổ chức KH&CN công lập","Cơ quan quản lý trực tiếp":"Sở Nông nghiệp và Môi trường tỉnh Vĩnh Long","Cơ quan chủ quản":"Ủy ban nhân dân tỉnh Vĩnh Long","Điện thoại":null,"layer_id":308,"fid":39,"label":"Trung tâm Khuyến nông và Tư vấn dịch vụ nông nghiệp tỉnh Bến Tre"}},{"type":"Feature","geometry":{"type":"Point","coordinates":[106.365074949,10.241715255]},"properties":{"Tên tổ chức khoa học và công nghệ":"Đài khí Tượng Thủy văn tỉnh Bến Tre.","Địa chỉ":"131D Đoàn Hoàng Minh, Phường Sơn Đông, Tỉnh Vĩnh Long","Mã số thuế":"1301024327","Loại hình kinh tế":"Tổ chức KH&CN công lập","Cơ quan quản lý trực tiếp":"Đài Khí tượng thủy văn khu vực Nam bộ","Cơ quan chủ quản":"Đài Khí tượng thủy văn khu vực Nam bộ","Điện thoại":null,"layer_id":308,"fid":40,"label":"Đài khí Tượng Thủy văn tỉnh Bến Tre."}},{"type":"Feature","geometry":{"type":"Point","coordinates":[106.356857286,10.214862533]},"properties":{"Tên tổ chức khoa học và công nghệ":"Trung tâm Quan trắc tài nguyên và môi trường.","Địa chỉ":"99/8B ấp Mỹ An B, Phường An Hội, Tỉnh Vĩnh Long","Mã số thuế":"1300125410-017","Loại hình kinh tế":"Tổ chức KH&CN công lập","Cơ quan quản lý trực tiếp":"Sở Nông nghiệp và Môi trường tỉnh Vĩnh Long","Cơ quan chủ quản":"Ủy ban nhân dân tỉnh Vĩnh Long","Điện thoại":null,"layer_id":308,"fid":41,"label":"Trung tâm Quan trắc tài nguyên và môi trường."}},{"type":"Feature","geometry":{"type":"Point","coordinates":[106.370274499,10.240760732]},"properties":{"Tên tổ chức khoa học và công nghệ":"Trung tâm tư vấn cầu đường Bến Tre","Địa chỉ":"99/9B, ấp Mỹ An B, Phường An Hội, Tỉnh Vĩnh Long","Mã số thuế":"1300353671","Loại hình kinh tế":"Tổ chức KH&CN công lập","Cơ quan quản lý trực tiếp":"Hội Khoa học kỹ thuật cầu đường Việt Nam","Cơ quan chủ quản":"Hội Khoa học kỹ thuật cầu đường Việt Nam","Điện thoại":null,"layer_id":308,"fid":42,"label":"Trung tâm tư vấn cầu đường Bến Tre"}},{"type":"Feature","geometry":{"type":"Point","coordinates":[106.377174094,10.256388197]},"properties":{"Tên tổ chức khoa học và công nghệ":"Trung tâm Nghiên cứu và Bồi dưỡng kỹ năng sống Nụ cười Hồng","Địa chỉ":"A30, đường D1, khu đô thị Hưng Phú, Phường Phú Tân","Mã số thuế":"1301105544","Loại hình kinh tế":"Tổ chức KH&CN ngoài công lập","Cơ quan quản lý trực tiếp":"Trung ương Hội Khoa học Tâm lý – Giáo dục Việt Nam","Cơ quan chủ quản":"Trung ương Hội Khoa học Tâm lý – Giáo dục Việt Nam","Điện thoại":null,"layer_id":308,"fid":43,"label":"Trung tâm Nghiên cứu và Bồi dưỡng kỹ năng sống Nụ cười Hồng"}},{"type":"Feature","geometry":{"type":"Point","coordinates":[106.370723519,10.26011846]},"properties":{"Tên tổ chức khoa học và công nghệ":"Trung tâm Nghiên cứu Ứng dụng KH&CN Huy Thuận","Địa chỉ":"139K, khu phố 3, phường Phú Tân, tỉnh Vĩnh Long","Mã số thuế":null,"Loại hình kinh tế":"Tổ chức KH&CN ngoài công lập","Cơ quan quản lý trực tiếp":"CÔNG TY TNHH ĐẦU TƯ THỦY SẢN HUY THUẬN","Cơ quan chủ quản":"CÔNG TY TNHH ĐẦU TƯ THỦY SẢN HUY THUẬN","Điện thoại":null,"layer_id":308,"fid":44,"label":"Trung tâm Nghiên cứu Ứng dụng KH&CN Huy Thuận"}},{"type":"Feature","geometry":{"type":"Point","coordinates":[106.370758408,10.253344878]},"properties":{"Tên tổ chức khoa học và công nghệ":"Viện nghiên cứu Phát triển Công Nghệ và Nhân lực Mê Kong","Địa chỉ":"227A2 Đồng Khởi, Khu phố 3, phường Phú Tân, tỉnh Vĩnh Long","Mã số thuế":null,"Loại hình kinh tế":"Tổ chức KH&CN ngoài công lập","Cơ quan quản lý trực tiếp":"CÔNG TY TNHH MỘT THÀNH VIÊN VIÊN THÀNH","Cơ quan chủ quản":"CÔNG TY TNHH MỘT THÀNH VIÊN VIÊN THÀNH","Điện thoại":null,"layer_id":308,"fid":45,"label":"Viện nghiên cứu Phát triển Công Nghệ và Nhân lực Mê Kong"}},{"type":"Feature","geometry":{"type":"Point","coordinates":[106.370423479,10.252879632]},"properties":{"Tên tổ chức khoa học và công nghệ":"Văn phòng đại diện tại tỉnh Bến Tre Viện Khoa học Quản trị và Nhượng quyền Quốc tế","Địa chỉ":"108A1 Đoàn Hoàng Minh, Phường An Hội, tỉnh Vĩnh Long","Mã số thuế":"Không có","Loại hình kinh tế":"Tổ chức KH&CN ngoài công lập","Cơ quan quản lý trực tiếp":"Viện Khoa học Quản trị và Nhượng quyền Quốc tế","Cơ quan chủ quản":"Viện Khoa học Quản trị và Nhượng quyền Quốc tế","Điện thoại":null,"layer_id":308,"fid":46,"label":"Văn phòng đại diện tại tỉnh Bến Tre Viện Khoa học Quản trị và Nhượng quyền Quốc tế"}},{"type":"Feature","geometry":{"type":"Point","coordinates":[106.379122952,10.246664037]},"properties":{"Tên tổ chức khoa học và công nghệ":"VIỆN DƯỢC LIỆU VÙNG CÁT BIỂN","Địa chỉ":"thửa đất số 212, tờ bản đồ số 33, ấp Thạnh lợi, xã Thạnh Hải, tỉnh Vĩnh Long","Mã số thuế":"1301091588","Loại hình kinh tế":"Tổ chức KH&CN ngoài công lập","Cơ quan quản lý trực tiếp":"CÔNG TY CỔ PHẦN TẬP ĐOÀN SSAVIGROUP","Cơ quan chủ quản":"CÔNG TY CỔ PHẦN TẬP ĐOÀN SSAVIGROUP","Điện thoại":null,"layer_id":308,"fid":47,"label":"VIỆN DƯỢC LIỆU VÙNG CÁT BIỂN"}},{"type":"Feature","geometry":{"type":"Point","coordinates":[106.376569448,10.240687414]},"properties":{"Tên tổ chức khoa học và công nghệ":"Viện Khoa học Nông nghiệp Toàn Cầu","Địa chỉ":"Tòa nhà TTC lầu 6, số 8/2 Trần Quốc Tuấn, phường An Hội, tỉnh Vĩnh Long","Mã số thuế":null,"Loại hình kinh tế":"Tổ chức KH&CN ngoài công lập","Cơ quan quản lý trực tiếp":"Cá nhân thành lập","Cơ quan chủ quản":"Cá nhân thành lập","Điện thoại":null,"layer_id":308,"fid":48,"label":"Viện Khoa học Nông nghiệp Toàn Cầu"}},{"type":"Feature","geometry":{"type":"Point","coordinates":[106.344315533,10.282831343]},"properties":{"Tên tổ chức khoa học và công nghệ":"Trung tâm Giống và Hoa kiểng tỉnh Bến Tre","Địa chỉ":"Ấp Phước Thạnh, Phường Sơn Đông, Tỉnh Vĩnh Long","Mã số thuế":"1301152872","Loại hình kinh tế":"Tổ chức KH&CN công lập","Cơ quan quản lý trực tiếp":"Sở Nông nghiệp và Môi trường tỉnh Vĩnh Long","Cơ quan chủ quản":"Ủy ban nhân dân tỉnh Vĩnh Long","Điện thoại":null,"layer_id":308,"fid":49,"label":"Trung tâm Giống và Hoa kiểng tỉnh Bến Tre"}},{"type":"Feature","geometry":{"type":"Point","coordinates":[106.340709225,9.939708729]},"properties":{"Tên tổ chức khoa học và công nghệ":"Đài Khí tượng Thủy văn Trà Vinh (đã sát nhập Đài Khí tượng Thủy văn Vĩnh Long)","Địa chỉ":"Số 32, Tô Thị Huỳnh, khóm 2 - Phường 1 - Thành phố Trà Vinh - Trà Vinh.","Mã số thuế":null,"Loại hình kinh tế":"Tổ chức KH&CN công lập","Cơ quan quản lý trực tiếp":"Đài Khí tượng thủy văn khu vực Nam bộ","Cơ quan chủ quản":null,"Điện thoại":null,"layer_id":308,"fid":50,"label":"Đài Khí tượng Thủy văn Trà Vinh (đã sát nhập Đài Khí tượng Thủy văn Vĩnh Long)"}}]}
