{"type":"FeatureCollection","name":"Cơ sở giết mổ","metadata":{"source":"https://hatang.vinhlong.gov.vn/","downloaded_at":"2026-07-20T01:10:53+00:00","layer_id":31,"layer_name":"Cơ sở giết mổ","catalog_endpoints":["/map/publicLayers2?inputs=thu_y"],"requested_bbox":[104.0,8.0,108.0,12.0],"tile_size":0.0,"tile_count":1,"tile_errors":[],"feature_count":31,"coordinate_order":"x,y (thường là longitude,latitude theo cấu hình EPSG:4326 của WebGIS)"},"features":[{"type":"Feature","geometry":{"type":"Point","coordinates":[105.896698,10.262173]},"properties":{"Tên cơ sở sản xuất kinh doanh":"Thanh Tâm","Tên chủ cơ sở":"Trần Văn Lực","Địa chỉ":"Mỹ Phú, Tân Hội, TPVL","Động vật giết mổ":"Heo","Trạng thái hoạt động":"Đang hoạt động","Công suất thiết kế":"20-25","Công suất thực tế":"70-80","Hình thức sản xuất":"Bán công nghiệp","Giấy chứng nhận ATTP":"04/2022/NN&PTNT-VL-KD","layer_id":31,"fid":137,"label":"Thanh Tâm"}},{"type":"Feature","geometry":{"type":"Point","coordinates":[105.992801,10.222239]},"properties":{"Tên cơ sở sản xuất kinh doanh":"Bảy Mập","Tên chủ cơ sở":"Điều Kim Hoa","Địa chỉ":"Long Thuận B, Long Phước, Long Hồ","Động vật giết mổ":"Trâu, bò","Trạng thái hoạt động":"Đang hoạt động","Công suất thiết kế":"10-15","Công suất thực tế":"4-6","Hình thức sản xuất":"Thủ công","Giấy chứng nhận ATTP":"08/2024/ NN&PTNT-VL-KD-KD","layer_id":31,"fid":138,"label":"Bảy Mập"}},{"type":"Feature","geometry":{"type":"Point","coordinates":[105.99567,10.250487]},"properties":{"Tên cơ sở sản xuất kinh doanh":"Năm Thắng","Tên chủ cơ sở":"Tăng Quốc Thắng","Địa chỉ":"Thanh Mỹ 1, Thanh Đức, Long Hồ","Động vật giết mổ":"Gia cầm","Trạng thái hoạt động":"Đang hoạt động","Công suất thiết kế":"1500-2000","Công suất thực tế":"2.000-2.500","Hình thức sản xuất":"Bán công nghiệp","Giấy chứng nhận ATTP":"05/2024/ NN&PTNT-VL-KD-KD","layer_id":31,"fid":140,"label":"Năm Thắng"}},{"type":"Feature","geometry":{"type":"Point","coordinates":[105.994908,10.289992]},"properties":{"Tên cơ sở sản xuất kinh doanh":"Mong Lệ","Tên chủ cơ sở":"Nguyễn Văn Lẹ","Địa chỉ":"Phú An 1, Bình Hòa Phước, Long Hồ","Động vật giết mổ":"Heo","Trạng thái hoạt động":"Đang hoạt động","Công suất thiết kế":"40","Công suất thực tế":"30-35","Hình thức sản xuất":"Bán công nghiệp","Giấy chứng nhận ATTP":"14/2023/ NN&PTNT-VL-KD","layer_id":31,"fid":141,"label":"Mong Lệ"}},{"type":"Feature","geometry":{"type":"Point","coordinates":[105.993976,10.223157]},"properties":{"Tên cơ sở sản xuất kinh doanh":" Hồng Lộc","Tên chủ cơ sở":"Võ Văn Hoàng","Địa chỉ":"Long Thuận A, Long Phước, Long Hồ","Động vật giết mổ":"Heo","Trạng thái hoạt động":"Đang hoạt động","Công suất thiết kế":"200","Công suất thực tế":"40-50","Hình thức sản xuất":"Bán công nghiệp","Giấy chứng nhận ATTP":"17/2023/NN&PTNT-VL-KD","layer_id":31,"fid":139,"label":" Hồng Lộc"}},{"type":"Feature","geometry":{"type":"Point","coordinates":[106.05994,9.978021]},"properties":{"Tên cơ sở sản xuất kinh doanh":"Chín Quắn","Tên chủ cơ sở":"Trần Văn Chín","Địa chỉ":"Vĩnh Hựu, Hựu Thành, Trà Ôn","Động vật giết mổ":"Heo, bò","Trạng thái hoạt động":"Đang hoạt động","Công suất thiết kế":"Heo: 100; \nBò: 10","Công suất thực tế":"Heo: 25-30; \nBò: 3","Hình thức sản xuất":"Bán công nghiệp","Giấy chứng nhận ATTP":"08/2022/ NN&PTNT-VL-KD","layer_id":31,"fid":144,"label":"Chín Quắn"}},{"type":"Feature","geometry":{"type":"Point","coordinates":[105.941085,10.195004]},"properties":{"Tên cơ sở sản xuất kinh doanh":"Lộc Hòa","Tên chủ cơ sở":"Lê Tuấn Thuận","Địa chỉ":"Phước Long, Lộc Hòa, Long Hồ","Động vật giết mổ":"Heo, bò","Trạng thái hoạt động":"Đang hoạt động","Công suất thiết kế":"Heo: 20-30; \nBò: 10","Công suất thực tế":"Heo: 40-50; \nBò: 3","Hình thức sản xuất":"Bán công nghiệp","Giấy chứng nhận ATTP":"01/2024/ NN&PTNT-VL-KD","layer_id":31,"fid":143,"label":"Lộc Hòa"}},{"type":"Feature","geometry":{"type":"Point","coordinates":[106.023504,10.151321]},"properties":{"Tên cơ sở sản xuất kinh doanh":"Tư Lợi","Tên chủ cơ sở":"Nguyễn Thị Lợi","Địa chỉ":"An Hiệp, Long An, Long Hồ","Động vật giết mổ":"Heo","Trạng thái hoạt động":"Đang hoạt động","Công suất thiết kế":"20","Công suất thực tế":"40-50","Hình thức sản xuất":"Bán công nghiệp","Giấy chứng nhận ATTP":"16/2023/NN&PTNT-VL-KD","layer_id":31,"fid":142,"label":"Tư Lợi"}},{"type":"Feature","geometry":{"type":"Point","coordinates":[106.0099836,9.9420903]},"properties":{"Tên cơ sở sản xuất kinh doanh":"Vĩnh Xuân","Tên chủ cơ sở":"Nguyễn Văn Tự","Địa chỉ":"Gò Tranh, Vĩnh Xuân, Trà Ôn","Động vật giết mổ":"Heo","Trạng thái hoạt động":"Đang hoạt động","Công suất thiết kế":"10-15","Công suất thực tế":"25-30","Hình thức sản xuất":"Bán công nghiệp","Giấy chứng nhận ATTP":"07/2023/ NN&PTNT-VL-KD","layer_id":31,"fid":145,"label":"Vĩnh Xuân"}},{"type":"Feature","geometry":{"type":"Point","coordinates":[105.938235,9.963984]},"properties":{"Tên cơ sở sản xuất kinh doanh":"Kim Vui","Tên chủ cơ sở":"Liêu Kim Vui","Địa chỉ":"Giồng Thanh Bạch, Thiện Mỹ, Trà Ôn","Động vật giết mổ":"Gia cầm","Trạng thái hoạt động":"Đang hoạt động","Công suất thiết kế":"800-1000","Công suất thực tế":"500","Hình thức sản xuất":"Bán công nghiệp","Giấy chứng nhận ATTP":"13/2023/ NN&PTNT-VL-KD","layer_id":31,"fid":146,"label":"Kim Vui"}},{"type":"Feature","geometry":{"type":"Point","coordinates":[106.055051,10.074928]},"properties":{"Tên cơ sở sản xuất kinh doanh":"Phương Lệ","Tên chủ cơ sở":"Nguyễn Tri Phương","Địa chỉ":"Hồi Tường, Xuân Hiệp, Trà Ôn","Động vật giết mổ":"Heo","Trạng thái hoạt động":"Đang hoạt động","Công suất thiết kế":"25-30","Công suất thực tế":"10-15","Hình thức sản xuất":"Bán công nghiệp","Giấy chứng nhận ATTP":"03/2022/ NN&PTNT-VL-KD","layer_id":31,"fid":147,"label":"Phương Lệ"}},{"type":"Feature","geometry":{"type":"Point","coordinates":[105.95365,9.971228]},"properties":{"Tên cơ sở sản xuất kinh doanh":"Thiện Mỹ","Tên chủ cơ sở":"Nguyễn Thiện Tâm","Địa chỉ":"Mỹ Trung,Thiện Mỹ, Trà Ôn","Động vật giết mổ":"heo, bò","Trạng thái hoạt động":"Đang hoạt động","Công suất thiết kế":"heo:50; bò: 10","Công suất thực tế":"heo: 30; bò: 2","Hình thức sản xuất":"Bán công nghiệp","Giấy chứng nhận ATTP":"09/2022/ NN&PTNT-VL-KD","layer_id":31,"fid":148,"label":"Thiện Mỹ"}},{"type":"Feature","geometry":{"type":"Point","coordinates":[106.000962,10.053602]},"properties":{"Tên cơ sở sản xuất kinh doanh":"TT. Tam Bình","Tên chủ cơ sở":"Lê Thanh Hồng","Địa chỉ":"Tường Lễ, Tường Lộc, Tam Bình","Động vật giết mổ":"Heo, bò","Trạng thái hoạt động":"Đang hoạt động","Công suất thiết kế":"Heo: 20-30, Bò: 5-10","Công suất thực tế":"Heo: 25-30, Bò: 2","Hình thức sản xuất":"Bán công nghiệp","Giấy chứng nhận ATTP":"06/2023/ NN&PTNT-VL-KD","layer_id":31,"fid":150,"label":"TT. Tam Bình"}},{"type":"Feature","geometry":{"type":"Point","coordinates":[105.960259,10.112671]},"properties":{"Tên cơ sở sản xuất kinh doanh":"Xuân Thắng","Tên chủ cơ sở":"Lâm Thị Kim Yến","Địa chỉ":"Long Công, Phú Lộc, Tam Bình","Động vật giết mổ":"Heo","Trạng thái hoạt động":"Đang hoạt động","Công suất thiết kế":"10-15","Công suất thực tế":"15-20","Hình thức sản xuất":"Bán công nghiệp","Giấy chứng nhận ATTP":"10/2023/ NN&PTNT-VL-KD","layer_id":31,"fid":149,"label":"Xuân Thắng"}},{"type":"Feature","geometry":{"type":"Point","coordinates":[105.88858,10.10646]},"properties":{"Tên cơ sở sản xuất kinh doanh":"Công Bình","Tên chủ cơ sở":"Phạm Công Bình","Địa chỉ":"Phú Hòa Yên, Song Phú, Tam Bình","Động vật giết mổ":"Heo, gia cầm","Trạng thái hoạt động":"Đang hoạt động","Công suất thiết kế":"Heo:20-30; Gia cầm: 1.000","Công suất thực tế":"Heo:10-15, Gia cầm: 500","Hình thức sản xuất":"Bán công nghiệp","Giấy chứng nhận ATTP":"09/2023/ NN&PTNT-VL-KD","layer_id":31,"fid":153,"label":"Công Bình"}},{"type":"Feature","geometry":{"type":"Point","coordinates":[105.896228,10.110632]},"properties":{"Tên cơ sở sản xuất kinh doanh":"Song Phú","Tên chủ cơ sở":"Từ Văn Phòon","Địa chỉ":"Phú Trường Yên, Song Phú, Tam Bình","Động vật giết mổ":"Heo","Trạng thái hoạt động":"Đang hoạt động","Công suất thiết kế":"20-30","Công suất thực tế":"20-30","Hình thức sản xuất":"Bán công nghiệp","Giấy chứng nhận ATTP":"02/2022/ NN&PTNT-VL-KD","layer_id":31,"fid":152,"label":"Song Phú"}},{"type":"Feature","geometry":{"type":"Point","coordinates":[106.233378,10.104073]},"properties":{"Tên cơ sở sản xuất kinh doanh":"Thanh Bình","Tên chủ cơ sở":"Nguyễn Ngọc Sơn","Địa chỉ":"Thái Bình, Thanh Bình, Vũng Liêm","Động vật giết mổ":"Heo","Trạng thái hoạt động":"Đang hoạt động","Công suất thiết kế":"15-20","Công suất thực tế":"7-10","Hình thức sản xuất":"Bán công nghiệp","Giấy chứng nhận ATTP":"15/2023/NN&PTNT-VL-KD","layer_id":31,"fid":155,"label":"Thanh Bình"}},{"type":"Feature","geometry":{"type":"Point","coordinates":[106.087118,10.095978]},"properties":{"Tên cơ sở sản xuất kinh doanh":"Út Mười","Tên chủ cơ sở":"Nguyễn Tấn Hưng","Địa chỉ":"Ấp 8, Tân An Luông, Vũng Liêm","Động vật giết mổ":"Heo","Trạng thái hoạt động":"Đang hoạt động","Công suất thiết kế":"25-30","Công suất thực tế":"35-40","Hình thức sản xuất":"Bán công nghiệp","Giấy chứng nhận ATTP":"02/2023/ NN&PTNT-VL-KD","layer_id":31,"fid":154,"label":"Út Mười"}},{"type":"Feature","geometry":{"type":"Point","coordinates":[106.12588,10.1298]},"properties":{"Tên cơ sở sản xuất kinh doanh":"Trung Chánh","Tên chủ cơ sở":"Lý Vũ Bằng","Địa chỉ":"Bà Phận, Trung Chánh, Vũng Liêm","Động vật giết mổ":"Gia súc, gia cầm","Trạng thái hoạt động":"Đang hoạt động","Công suất thiết kế":"Heo: 50, trâu, bò: 15-20, GC: 1000","Công suất thực tế":"Heo: 20-25, trâu, bò: 01, GC: 100-200","Hình thức sản xuất":"Bán công nghiệp","Giấy chứng nhận ATTP":"07/2024/NN&PTNT-VL-KD","layer_id":31,"fid":156,"label":"Trung Chánh"}},{"type":"Feature","geometry":{"type":"Point","coordinates":[106.099597,10.089805]},"properties":{"Tên cơ sở sản xuất kinh doanh":"Tư Y","Tên chủ cơ sở":"Nguyễn Văn Quận","Địa chỉ":"Hiếu Hiệp, Hiếu Phụng, Vũng Liêm","Động vật giết mổ":"Trâu, bò","Trạng thái hoạt động":"Đang hoạt động","Công suất thiết kế":"10-15","Công suất thực tế":"10-15","Hình thức sản xuất":"Bán công nghiệp","Giấy chứng nhận ATTP":"02/2024/ NN&PTNT-VL-KD","layer_id":31,"fid":157,"label":"Tư Y"}},{"type":"Feature","geometry":{"type":"Point","coordinates":[106.116203,10.068737]},"properties":{"Tên cơ sở sản xuất kinh doanh":"Hiếu Phụng","Tên chủ cơ sở":"Nguyễn Thị Lan","Địa chỉ":"Quang Thạnh, Hiếu Phụng, Vũng Liêm","Động vật giết mổ":"Heo","Trạng thái hoạt động":"Đang hoạt động","Công suất thiết kế":"15-20","Công suất thực tế":"10-15","Hình thức sản xuất":"Bán công nghiệp","Giấy chứng nhận ATTP":"12/2023/ NN&PTNT-VL-KD","layer_id":31,"fid":158,"label":"Hiếu Phụng"}},{"type":"Feature","geometry":{"type":"Point","coordinates":[106.175312,10.082817]},"properties":{"Tên cơ sở sản xuất kinh doanh":"TT.Vũng Liêm","Tên chủ cơ sở":"Nguyễn Văn Tài","Địa chỉ":"An Điền 1, Trung Hiếu, Vũng Liêm","Động vật giết mổ":"Heo, bò, gia cầm","Trạng thái hoạt động":"Đang hoạt động","Công suất thiết kế":"Heo: 30; \nBò: 10;\n Gia cầm: 2.000","Công suất thực tế":"Heo: 30-35;\n Bò: 4; \nGia cầm: 500","Hình thức sản xuất":"Bán công nghiệp","Giấy chứng nhận ATTP":"05/2023/ NN&PTNT-VL-KD","layer_id":31,"fid":159,"label":"TT.Vũng Liêm"}},{"type":"Feature","geometry":{"type":"Point","coordinates":[105.841529,10.026999]},"properties":{"Tên cơ sở sản xuất kinh doanh":"Minh Hoa","Tên chủ cơ sở":"Phạm Hoàng Dũng Em","Địa chỉ":"Đông Hưng, Đông Thành, Bình Minh","Động vật giết mổ":"Hỗn hợp","Trạng thái hoạt động":"Đang hoạt động","Công suất thiết kế":"Heo: 100; \nTrâu, Bò: 15;\n Gia cầm: 1.500-2.000","Công suất thực tế":"Heo: 50-60","Hình thức sản xuất":"Bán công nghiệp","Giấy chứng nhận ATTP":"04/2024/ NN&PTNT-VL-KD","layer_id":31,"fid":161,"label":"Minh Hoa"}},{"type":"Feature","geometry":{"type":"Point","coordinates":[106.09315,10.09445]},"properties":{"Tên cơ sở sản xuất kinh doanh":"Hoàng Tuyết","Tên chủ cơ sở":"Đỗ Thị Tuyết","Địa chỉ":"Quang Phú, Hiếu Phụng, Vũng Liêm","Động vật giết mổ":"Gia cầm","Trạng thái hoạt động":"Đang hoạt động","Công suất thiết kế":"800","Công suất thực tế":"200","Hình thức sản xuất":"Bán công nghiệp","Giấy chứng nhận ATTP":"10/2022/ NN&PTNT-VL-KD","layer_id":31,"fid":160,"label":"Hoàng Tuyết"}},{"type":"Feature","geometry":{"type":"Point","coordinates":[105.792757,10.06887]},"properties":{"Tên cơ sở sản xuất kinh doanh":"Thái Bình","Tên chủ cơ sở":"Nguyễn Hồng Thái","Địa chỉ":"Thành Phú, Thành Lợi, Bình Tân","Động vật giết mổ":"Heo","Trạng thái hoạt động":"Đang hoạt động","Công suất thiết kế":"100","Công suất thực tế":"75-80","Hình thức sản xuất":"Bán công nghiệp","Giấy chứng nhận ATTP":"03/2023/ NN&PTNT-VL","layer_id":31,"fid":163,"label":"Thái Bình"}},{"type":"Feature","geometry":{"type":"Point","coordinates":[105.821344,10.077045]},"properties":{"Tên cơ sở sản xuất kinh doanh":"Thuận An","Tên chủ cơ sở":"Hồ Hoàng Hải","Địa chỉ":"Thuận Thới, Thuận An, Bình Minh","Động vật giết mổ":"Hỗn hợp","Trạng thái hoạt động":"Đang hoạt động","Công suất thiết kế":"Heo: 100; Trâu, Bò: 15; Gia cầm: 1.500-2.000; Dê: 20","Công suất thực tế":"Heo: 30-40; Trâu, Bò: 15-20; Dê: 5-10 Gia cầm: 1700-2.000","Hình thức sản xuất":"Bán công nghiệp","Giấy chứng nhận ATTP":"03/2024 NN&PTNT-VL-KD","layer_id":31,"fid":162,"label":"Thuận An"}},{"type":"Feature","geometry":{"type":"Point","coordinates":[106.086042,10.206909]},"properties":{"Tên cơ sở sản xuất kinh doanh":"Chí Cường","Tên chủ cơ sở":"Trương Chí Cường","Địa chỉ":"Ấp Chợ, Nhơn Phú, Mang Thít","Động vật giết mổ":"Heo, bò","Trạng thái hoạt động":"Đang hoạt động","Công suất thiết kế":"Heo: 50; \nBò: 20","Công suất thực tế":"Heo: 25-30; \nBò: 15-20","Hình thức sản xuất":"Bán công nghiệp","Giấy chứng nhận ATTP":"04/2023/ NN&PTNT-VL-KD","layer_id":31,"fid":165,"label":"Chí Cường"}},{"type":"Feature","geometry":{"type":"Point","coordinates":[105.719345,10.143195]},"properties":{"Tên cơ sở sản xuất kinh doanh":"Ngọc Thuận","Tên chủ cơ sở":"Đường Ngọc Thuận","Địa chỉ":"Tân Lộc, Tân Lược, Bình Tân","Động vật giết mổ":"Heo","Trạng thái hoạt động":"Đang hoạt động","Công suất thiết kế":"Heo: 10-15, Dê: 10","Công suất thực tế":"Heo: 20-25; Dê: 1","Hình thức sản xuất":"Bán công nghiệp","Giấy chứng nhận ATTP":"19/2023/ NN&PTNT-VL-KD","layer_id":31,"fid":164,"label":"Ngọc Thuận"}},{"type":"Feature","geometry":{"type":"Point","coordinates":[106.05355,10.24002]},"properties":{"Tên cơ sở sản xuất kinh doanh":"Mỹ An","Tên chủ cơ sở":"Phan Văn Sanh","Địa chỉ":"Ấp Chợ, Mỹ An, Mang Thít","Động vật giết mổ":"Heo","Trạng thái hoạt động":"Đang hoạt động","Công suất thiết kế":"15-20","Công suất thực tế":"30-35","Hình thức sản xuất":"Bán công nghiệp","Giấy chứng nhận ATTP":"11/2023/ NN&PTNT-VL","layer_id":31,"fid":166,"label":"Mỹ An"}},{"type":"Feature","geometry":{"type":"Point","coordinates":[106.105186,10.171531]},"properties":{"Tên cơ sở sản xuất kinh doanh":"TT Cái Nhum","Tên chủ cơ sở":"Lý Thanh Duy","Địa chỉ":"Khóm 2, TT Cái Nhum, Mang Thít","Động vật giết mổ":"heo; trâu bò","Trạng thái hoạt động":"Đang hoạt động","Công suất thiết kế":"10-15","Công suất thực tế":"20-25","Hình thức sản xuất":"Bán công nghiệp","Giấy chứng nhận ATTP":"05/2021/ NN&PTNT-VL-KD","layer_id":31,"fid":168,"label":"TT Cái Nhum"}},{"type":"Feature","geometry":{"type":"Point","coordinates":[106.053009,10.171236]},"properties":{"Tên cơ sở sản xuất kinh doanh":"Bình Phước","Tên chủ cơ sở":"Huỳnh Minh Lương","Địa chỉ":"Phước Tường B, Bình Phước, Mang Thít","Động vật giết mổ":"Heo","Trạng thái hoạt động":"Đang hoạt động","Công suất thiết kế":"10-15","Công suất thực tế":"25-30","Hình thức sản xuất":"Bán công nghiệp","Giấy chứng nhận ATTP":"01/2022/ NN&PTNT-VL-KD","layer_id":31,"fid":167,"label":"Bình Phước"}}]}
