{"type":"FeatureCollection","name":"Trung tâm GDNN - GDTX","metadata":{"source":"https://hatang.vinhlong.gov.vn/","downloaded_at":"2026-07-20T01:16:26+00:00","layer_id":315,"layer_name":"Trung tâm GDNN - GDTX","catalog_endpoints":["/map/publicLayers2?inputs=sogddt"],"requested_bbox":[104.0,8.0,108.0,12.0],"tile_size":0.0,"tile_count":1,"tile_errors":[],"feature_count":22,"coordinate_order":"x,y (thường là longitude,latitude theo cấu hình EPSG:4326 của WebGIS)"},"features":[{"type":"Feature","geometry":{"type":"Point","coordinates":[106.379616266,10.239601305]},"properties":{"Trung tâm GDNN, GDTX":"Trung tâm Giáo dục thường xuyên Bến Tre","Hiệu trưởng":null,"Điện thoại hiệu trưởng":null,"Loại hình":"Công lập","Loại trường":"TT GDTX","Đạt CQG (MĐ)":null,"Địa chỉ":"Phường An Hội","Thư điện tử":"ttgdtxtinh@bentre.edu.vn","Địa chỉ web trường":"ttgdtxtinh.bentre.edu.vn","Số điện thoại trường":"02753813190","layer_id":315,"fid":9,"label":"Trung tâm Giáo dục thường xuyên Bến Tre"}},{"type":"Feature","geometry":{"type":"Point","coordinates":[106.375463963,10.252261843]},"properties":{"Trung tâm GDNN, GDTX":"Trung tâm Giáo dục nghề nghiệp - Giáo dục thường xuyên Bến Tre","Hiệu trưởng":null,"Điện thoại hiệu trưởng":null,"Loại hình":"Công lập","Loại trường":"TT GDTX","Đạt CQG (MĐ)":null,"Địa chỉ":"phường Phú Khương","Thư điện tử":"ttgdtxthixa@bentre.edu.vn","Địa chỉ web trường":null,"Số điện thoại trường":"02753829101","layer_id":315,"fid":10,"label":"Trung tâm Giáo dục nghề nghiệp - Giáo dục thường xuyên Bến Tre"}},{"type":"Feature","geometry":{"type":"Point","coordinates":[106.358135697,10.2993359]},"properties":{"Trung tâm GDNN, GDTX":"Trung tâm Giáo dục nghề nghiệp - Giáo dục thường xuyên Phú Túc","Hiệu trưởng":null,"Điện thoại hiệu trưởng":null,"Loại hình":"Công lập","Loại trường":"TT GDTX","Đạt CQG (MĐ)":null,"Địa chỉ":"Ấp 2, Xã Phú Túc","Thư điện tử":"ttgdtxchauthanh@bentre.edu.vn","Địa chỉ web trường":"https://ttgdtxchauthanh.bentre.edu.vn","Số điện thoại trường":"02753894746","layer_id":315,"fid":11,"label":"Trung tâm Giáo dục nghề nghiệp - Giáo dục thường xuyên Phú Túc"}},{"type":"Feature","geometry":{"type":"Point","coordinates":[106.122758384,10.266529429]},"properties":{"Trung tâm GDNN, GDTX":"Trung tâm GDNN - GDTX Huyện Chợ Lách (83832905)","Hiệu trưởng":null,"Điện thoại hiệu trưởng":null,"Loại hình":"Công lập","Loại trường":"TT GDTX","Đạt CQG (MĐ)":null,"Địa chỉ":"Xã Chợ Lách","Thư điện tử":"ttgdnngdtxcholach.sgddt@vinhlong.gov.vn","Địa chỉ web trường":null,"Số điện thoại trường":"0273871802","layer_id":315,"fid":12,"label":"Trung tâm GDNN - GDTX Huyện Chợ Lách (83832905)"}},{"type":"Feature","geometry":{"type":"Point","coordinates":[106.333716312,10.143452494]},"properties":{"Trung tâm GDNN, GDTX":"Trung tâm Giáo dục nghề nghiệp - Giáo dục thường xuyên Mỏ Cày Nam","Hiệu trưởng":null,"Điện thoại hiệu trưởng":null,"Loại hình":"Công lập","Loại trường":null,"Đạt CQG (MĐ)":null,"Địa chỉ":"Xã Mỏ Cày","Thư điện tử":"ttgdtxmocay@bentre.edu.vn","Địa chỉ web trường":"https://ttgdtxmocaynam.bentre.edu.vn","Số điện thoại trường":"02753841731","layer_id":315,"fid":13,"label":"Trung tâm Giáo dục nghề nghiệp - Giáo dục thường xuyên Mỏ Cày Nam"}},{"type":"Feature","geometry":{"type":"Point","coordinates":[106.497777125,10.125681201]},"properties":{"Trung tâm GDNN, GDTX":"Trung tâm Giáo dục nghề nghiệp - Giáo dục thường xuyên Giồng Trôm","Hiệu trưởng":null,"Điện thoại hiệu trưởng":null,"Loại hình":"Công lập","Loại trường":"TT GDNN - GDTX (Sát nhập theo TTLT số 39/2015)","Đạt CQG (MĐ)":null,"Địa chỉ":"Xã Hưng Nhượng","Thư điện tử":"ttgdtxgiongtrom@bentre.edu.vn","Địa chỉ web trường":null,"Số điện thoại trường":"02753861089","layer_id":315,"fid":14,"label":"Trung tâm Giáo dục nghề nghiệp - Giáo dục thường xuyên Giồng Trôm"}},{"type":"Feature","geometry":{"type":"Point","coordinates":[106.686035,10.201846]},"properties":{"Trung tâm GDNN, GDTX":"Trung tâm Giáo dục nghề nghiệp - Giáo dục thường xuyên Bình Đại","Hiệu trưởng":null,"Điện thoại hiệu trưởng":null,"Loại hình":"Công lập","Loại trường":"TT GDNN - GDTX (Sát nhập theo TTLT số 39/2015)","Đạt CQG (MĐ)":null,"Địa chỉ":"Ấp Bình Thới 3, xã Bình Đại","Thư điện tử":"ttgdtxbinhdai@bentre.edu.vn","Địa chỉ web trường":null,"Số điện thoại trường":"02753891076","layer_id":315,"fid":15,"label":"Trung tâm Giáo dục nghề nghiệp - Giáo dục thường xuyên Bình Đại"}},{"type":"Feature","geometry":{"type":"Point","coordinates":[106.596705704,10.042362708]},"properties":{"Trung tâm GDNN, GDTX":"Trung tâm GDNN - GDTX Ba Tri","Hiệu trưởng":null,"Điện thoại hiệu trưởng":null,"Loại hình":"Công lập","Loại trường":"TT GDTX","Đạt CQG (MĐ)":null,"Địa chỉ":"Ấp 1 - Xã Ba Tri","Thư điện tử":"ttgdtxbatri@bentre.edu.vn","Địa chỉ web trường":null,"Số điện thoại trường":"02753850324","layer_id":315,"fid":16,"label":"Trung tâm GDNN - GDTX Ba Tri"}},{"type":"Feature","geometry":{"type":"Point","coordinates":[106.519725553,9.953249296]},"properties":{"Trung tâm GDNN, GDTX":"Trung tâm Giáo dục nghề nghiệp - Giáo dục thường xuyên Thạnh Phú","Hiệu trưởng":null,"Điện thoại hiệu trưởng":null,"Loại hình":"Công lập","Loại trường":"TT GDTX","Đạt CQG (MĐ)":null,"Địa chỉ":"Xã Thạnh Phú","Thư điện tử":"ttgdtxthanhphu@bentre.edu.vn","Địa chỉ web trường":"https://ttgdtxthanhphu.bentre.edu.vn/","Số điện thoại trường":"02753870836","layer_id":315,"fid":17,"label":"Trung tâm Giáo dục nghề nghiệp - Giáo dục thường xuyên Thạnh Phú"}},{"type":"Feature","geometry":{"type":"Point","coordinates":[106.273730582,10.19088265]},"properties":{"Trung tâm GDNN, GDTX":"Trung tâm Giáo dục nghề nghiệp - Giáo dục thường xuyên Mỏ Cày Bắc","Hiệu trưởng":null,"Điện thoại hiệu trưởng":null,"Loại hình":"Công lập","Loại trường":"TT GDTX","Đạt CQG (MĐ)":null,"Địa chỉ":"Xã Phước Mỹ Trung","Thư điện tử":"ttgdtxmocaybac@bentre.edu.vn","Địa chỉ web trường":null,"Số điện thoại trường":"02753669494","layer_id":315,"fid":18,"label":"Trung tâm Giáo dục nghề nghiệp - Giáo dục thường xuyên Mỏ Cày Bắc"}},{"type":"Feature","geometry":{"type":"Point","coordinates":[106.426827052,9.663382152]},"properties":{"Trung tâm GDNN, GDTX":"Trung tâm Giáo dục nghề nghiệp - Giáo dục thường xuyên Ngũ Lạc","Hiệu trưởng":null,"Điện thoại hiệu trưởng":null,"Loại hình":"Công lập","Loại trường":"TT GDTX","Đạt CQG (MĐ)":null,"Địa chỉ":"Ấp Cây Da, Xã Ngũ Lạc, tỉnh Vĩnh Long","Thư điện tử":"gdtxhuyenduyenhai@sgdtravinh.edu.vn","Địa chỉ web trường":null,"Số điện thoại trường":"02943507210","layer_id":315,"fid":19,"label":"Trung tâm Giáo dục nghề nghiệp - Giáo dục thường xuyên Ngũ Lạc"}},{"type":"Feature","geometry":{"type":"Point","coordinates":[106.34075195,9.942718009]},"properties":{"Trung tâm GDNN, GDTX":"Trung tâm Giáo dục nghề nghiệp - Giáo dục thường xuyên Trà Vinh","Hiệu trưởng":null,"Điện thoại hiệu trưởng":null,"Loại hình":"Công lập","Loại trường":"TT GDTX","Đạt CQG (MĐ)":null,"Địa chỉ":"Số 138, Khóm 2, Phường Trà Vinh, tỉnh Vĩnh Long","Thư điện tử":"gdtxtravinh@sgdtravinh.edu.vn","Địa chỉ web trường":"ttgdtxtptv.web.vnedu.vn","Số điện thoại trường":"02943864515","layer_id":315,"fid":20,"label":"Trung tâm Giáo dục nghề nghiệp - Giáo dục thường xuyên Trà Vinh"}},{"type":"Feature","geometry":{"type":"Point","coordinates":[106.345437,9.881593]},"properties":{"Trung tâm GDNN, GDTX":"Trung tâm Giáo dục nghề nghiệp - Giáo dục thường xuyên Châu Thành","Hiệu trưởng":null,"Điện thoại hiệu trưởng":null,"Loại hình":"Công lập","Loại trường":"TT GDNN - GDTX (Sát nhập theo TTLT số 39/2015)","Đạt CQG (MĐ)":null,"Địa chỉ":"Ấp 3, Xã Châu Thành, tỉnh Vĩnh Long","Thư điện tử":"gdtxchauthanh@sgdtravinh.edu.vn","Địa chỉ web trường":"http://ttgdtxchauthanh.sgdtravinh.edu.vn","Số điện thoại trường":"02943892092","layer_id":315,"fid":21,"label":"Trung tâm Giáo dục nghề nghiệp - Giáo dục thường xuyên Châu Thành"}},{"type":"Feature","geometry":{"type":"Point","coordinates":[106.204728296,9.994064149]},"properties":{"Trung tâm GDNN, GDTX":"Trung tâm Giáo dục nghề nghiệp - Giáo dục thường xuyên Càng Long","Hiệu trưởng":null,"Điện thoại hiệu trưởng":null,"Loại hình":"Công lập","Loại trường":"TT GDNN - GDTX (Sát nhập theo TTLT số 39/2015)","Đạt CQG (MĐ)":null,"Địa chỉ":null,"Thư điện tử":"gdtxcanglong@sgdtravinh.edu.vn","Địa chỉ web trường":null,"Số điện thoại trường":"02943882233","layer_id":315,"fid":22,"label":"Trung tâm Giáo dục nghề nghiệp - Giáo dục thường xuyên Càng Long"}},{"type":"Feature","geometry":{"type":"Point","coordinates":[106.187262,9.808691]},"properties":{"Trung tâm GDNN, GDTX":"TRUNG TÂM GDNN - GDTX TIỂU CẦN","Hiệu trưởng":null,"Điện thoại hiệu trưởng":null,"Loại hình":"Công lập","Loại trường":"TT GDTX","Đạt CQG (MĐ)":null,"Địa chỉ":"Xã Tiểu Cần","Thư điện tử":"ttgdtxtieucan@vinhlong.edu.vn","Địa chỉ web trường":"https://edu.viettel.vn/giaoducthuongxuyentieucan","Số điện thoại trường":"02943612900","layer_id":315,"fid":23,"label":"TRUNG TÂM GDNN - GDTX TIỂU CẦN"}},{"type":"Feature","geometry":{"type":"Point","coordinates":[106.079429,9.861441]},"properties":{"Trung tâm GDNN, GDTX":"Trung tâm Giáo dục nghề nghiệp - Giáo dục thường xuyên Cầu Kè","Hiệu trưởng":null,"Điện thoại hiệu trưởng":null,"Loại hình":"Công lập","Loại trường":"TT GDNN - GDTX (Sát nhập theo TTLT số 39/2015)","Đạt CQG (MĐ)":null,"Địa chỉ":"Xã Cầu Kè","Thư điện tử":"gdtxcauke@sgdtravinh.edu.vn","Địa chỉ web trường":"https://gdtxcauke.web.vnedu.vn","Số điện thoại trường":"02943712288","layer_id":315,"fid":24,"label":"Trung tâm Giáo dục nghề nghiệp - Giáo dục thường xuyên Cầu Kè"}},{"type":"Feature","geometry":{"type":"Point","coordinates":[106.426774336,9.663342423]},"properties":{"Trung tâm GDNN, GDTX":"Trung tâm Giáo dục nghề nghiệp - Giáo dục thường xuyên Duyên Hải","Hiệu trưởng":null,"Điện thoại hiệu trưởng":null,"Loại hình":"Công lập","Loại trường":"TT GDNN - GDTX (Sát nhập theo TTLT số 39/2015)","Đạt CQG (MĐ)":null,"Địa chỉ":"Số 114, khóm Phước Bình, phường Trường Long Hòa, tỉnh Vĩnh Long","Thư điện tử":"gdtxduyenhai@sgdtravinh.edu.vn","Địa chỉ web trường":null,"Số điện thoại trường":"02943.833252","layer_id":315,"fid":25,"label":"Trung tâm Giáo dục nghề nghiệp - Giáo dục thường xuyên Duyên Hải"}},{"type":"Feature","geometry":{"type":"Point","coordinates":[106.303845248,9.914617826]},"properties":{"Trung tâm GDNN, GDTX":"Trường Trung cấp Pali Khmer ","Hiệu trưởng":null,"Điện thoại hiệu trưởng":null,"Loại hình":"Công lập","Loại trường":"TT GDTX","Đạt CQG (MĐ)":null,"Địa chỉ":"Số 375, Nguyễn Du, Khóm 13, Phường Nguyệt Hóa ","Thư điện tử":"trungcappalikhmer@sgdtravinh.edu.vn","Địa chỉ web trường":null,"Số điện thoại trường":"0294 3602608","layer_id":315,"fid":26,"label":"Trường Trung cấp Pali Khmer "}},{"type":"Feature","geometry":{"type":"Point","coordinates":[106.445059,9.768442]},"properties":{"Trung tâm GDNN, GDTX":"Trung tâm Giáo dục nghề nghiệp - Giáo dục thường xuyên Cầu Ngang","Hiệu trưởng":null,"Điện thoại hiệu trưởng":null,"Loại hình":"Công lập","Loại trường":"TT GDNN - GDTX (Sát nhập theo TTLT số 39/2015)","Đạt CQG (MĐ)":null,"Địa chỉ":"ấp La Bang - Xã Hiệp Mỹ - Tỉnh Vĩnh Long","Thư điện tử":"gdtxcaungang@sgdtravinh.edu.vn","Địa chỉ web trường":"http://ttgdtxcaungang.sgdtravinh.edu.vn","Số điện thoại trường":"02943525088","layer_id":315,"fid":27,"label":"Trung tâm Giáo dục nghề nghiệp - Giáo dục thường xuyên Cầu Ngang"}},{"type":"Feature","geometry":{"type":"Point","coordinates":[106.262493,9.69356]},"properties":{"Trung tâm GDNN, GDTX":"Trung tâm Giáo dục nghề nghiệp - Giáo dục thường xuyên Trà Cú","Hiệu trưởng":null,"Điện thoại hiệu trưởng":null,"Loại hình":"Công lập","Loại trường":"TT GDTX - DN - HN (Các tên gọi khác)","Đạt CQG (MĐ)":null,"Địa chỉ":"Ấp 5, xã Trà Cú","Thư điện tử":"gdtxtracu@sgdtravinh.edu.vn","Địa chỉ web trường":"https://ttgdtxhtracu.web.vnedu.vn/","Số điện thoại trường":"02943874105","layer_id":315,"fid":28,"label":"Trung tâm Giáo dục nghề nghiệp - Giáo dục thường xuyên Trà Cú"}},{"type":"Feature","geometry":{"type":"Point","coordinates":[106.339061836,9.940900323]},"properties":{"Trung tâm GDNN, GDTX":"Trung tâm Giáo dục thường xuyên tỉnh Trà Vinh","Hiệu trưởng":null,"Điện thoại hiệu trưởng":null,"Loại hình":"Công lập","Loại trường":"TT GDTX","Đạt CQG (MĐ)":null,"Địa chỉ":"Số 317 đường Phạm Ngũ Lão, khóm 4, phường Trà Vinh, tỉnh Vĩnh Long","Thư điện tử":"ttgdtxtinhtravinh@sgdtravinh.edu.vn","Địa chỉ web trường":"http://ttgdtxtv. edu.vn","Số điện thoại trường":"02943863041","layer_id":315,"fid":29,"label":"Trung tâm Giáo dục thường xuyên tỉnh Trà Vinh"}},{"type":"Feature","geometry":{"type":"Point","coordinates":[105.980254625,10.248243328]},"properties":{"Trung tâm GDNN, GDTX":"TRUNG TÂM GIÁO DỤC THƯỜNG XUYÊN VĨNH LONG","Hiệu trưởng":null,"Điện thoại hiệu trưởng":null,"Loại hình":"Công lập","Loại trường":"TT GDNN - GDTX (Sát nhập theo TTLT số 39/2015)","Đạt CQG (MĐ)":null,"Địa chỉ":"Phước Hậu","Thư điện tử":"ttgdtxtpvinhlong@vinhlong.edu.vn","Địa chỉ web trường":"https://ttgdtx.vinhlong.edu.vn/","Số điện thoại trường":"02703.834489","layer_id":315,"fid":30,"label":"TRUNG TÂM GIÁO DỤC THƯỜNG XUYÊN VĨNH LONG"}}]}
