{"type":"FeatureCollection","name":"Trường THPT ","metadata":{"source":"https://hatang.vinhlong.gov.vn/","downloaded_at":"2026-07-20T01:16:34+00:00","layer_id":316,"layer_name":"Trường THPT ","catalog_endpoints":["/map/publicLayers2?inputs=sogddt"],"requested_bbox":[104.0,8.0,108.0,12.0],"tile_size":0.0,"tile_count":1,"tile_errors":[],"feature_count":111,"coordinate_order":"x,y (thường là longitude,latitude theo cấu hình EPSG:4326 của WebGIS)"},"features":[{"type":"Feature","geometry":{"type":"Point","coordinates":[106.264966,10.128176]},"properties":{"Trường THPT":"Trường Trung học phổ thông Nhuận Phú Tân","Hiệu trưởng":"Võ Thị Nhen","Điện thoại hiệu trưởng":"0946821331","Loại hình":"Công lập","Loại trường":"Trường phổ thông","Đạt CQG (MĐ)\t":null,"Địa chỉ trường":"Ấp Giồng Lớn, xã Nhuận Phú Tân, tỉnh Vĩnh Long","Thư điện tử":"thptnhuanphutan@bentre.edu.vn","Địa chỉ web trường":"https://thptnhuanphutan.bentre.edu.vn","Số điện thoại trường   ":"02753846979","layer_id":316,"fid":26,"label":"Trường Trung học phổ thông Nhuận Phú Tân"}},{"type":"Feature","geometry":{"type":"Point","coordinates":[106.191515742,10.229159918]},"properties":{"Trường THPT":"Trường Trung học phổ thông Chợ Lách","Hiệu trưởng":"Trần Quốc Cường","Điện thoại hiệu trưởng":"0942777366","Loại hình":"Công lập","Loại trường":"Trường phổ thông","Đạt CQG (MĐ)\t":null,"Địa chỉ trường":"ấp An Quy,Xã Chợ Lách","Thư điện tử":"thptvovankiet@vinhlong.edu.vn","Địa chỉ web trường":"https://thptvovankiet.bentre.edu.vn/","Số điện thoại trường   ":"02753873399","layer_id":316,"fid":27,"label":"Trường Trung học phổ thông Chợ Lách"}},{"type":"Feature","geometry":{"type":"Point","coordinates":[106.362789365,10.255349268]},"properties":{"Trường THPT":"Trường Tiểu học - Trung học cơ sở - Trung học phổ thông IGC Bến Tre","Hiệu trưởng":null,"Điện thoại hiệu trưởng":null,"Loại hình":"Tư thục","Loại trường":"Trường phổ thông","Đạt CQG (MĐ)\t":null,"Địa chỉ trường":"Đường Số 5, khu Ao Sen Chợ Chùa, Phường Bến Tre, ","Thư điện tử":null,"Địa chỉ web trường":null,"Số điện thoại trường   ":null,"layer_id":316,"fid":28,"label":"Trường Tiểu học - Trung học cơ sở - Trung học phổ thông IGC Bến Tre"}},{"type":"Feature","geometry":{"type":"Point","coordinates":[106.383298109,10.262055548]},"properties":{"Trường THPT":"Trường Trung học phổ thông Chuyên Bến Tre","Hiệu trưởng":"Nguyễn Minh Chí","Điện thoại hiệu trưởng":"0947602532","Loại hình":"Công lập","Loại trường":"Trường chuyên","Đạt CQG (MĐ)\t":null,"Địa chỉ trường":"Phường Phú Tân","Thư điện tử":"thptchuyenbentre@bentre.edu.vn","Địa chỉ web trường":"https://thptchuyenbentre.edu.vn/","Số điện thoại trường   ":"0275 3822 313","layer_id":316,"fid":29,"label":"Trường Trung học phổ thông Chuyên Bến Tre"}},{"type":"Feature","geometry":{"type":"Point","coordinates":[106.366846025,10.255712956]},"properties":{"Trường THPT":"Trường THPT Nguyễn Đình Chiểu (83829723)","Hiệu trưởng":"Đặng Thị Thùy Dương","Điện thoại hiệu trưởng":"0988996090","Loại hình":"Công lập","Loại trường":"Trường phổ thông","Đạt CQG (MĐ)\t":"Đạt chuẩn mức 2","Địa chỉ trường":"Phường Phú Tân","Thư điện tử":"thptnguyendinhchieu@bentre.edu.vn","Địa chỉ web trường":"https://thptndc.edu.vn/","Số điện thoại trường   ":" 02753822568","layer_id":316,"fid":30,"label":"Trường THPT Nguyễn Đình Chiểu (83829723)"}},{"type":"Feature","geometry":{"type":"Point","coordinates":[106.23516,10.15092]},"properties":{"Trường THPT":"Trường Trung học phổ thông Võ Trường Toản","Hiệu trưởng":"Trần Tấn Minh","Điện thoại hiệu trưởng":"0919578285","Loại hình":"Công lập","Loại trường":"Trường phổ thông","Đạt CQG (MĐ)\t":null,"Địa chỉ trường":"Phường Phú Khương","Thư điện tử":"thptvotruongtoan@bentre.edu.vn","Địa chỉ web trường":"https://thptvotruongtoan.bentre.edu.vn","Số điện thoại trường   ":"02753827929","layer_id":316,"fid":31,"label":"Trường Trung học phổ thông Võ Trường Toản"}},{"type":"Feature","geometry":{"type":"Point","coordinates":[106.366289094,10.221324727]},"properties":{"Trường THPT":"Trường THPT Lạc Long Quân (83829725)","Hiệu trưởng":"Cao Thị Ngọc Phương","Điện thoại hiệu trưởng":"0979740255","Loại hình":"Công lập","Loại trường":"Trường phổ thông","Đạt CQG (MĐ)\t":null,"Địa chỉ trường":"Phường An Hội","Thư điện tử":"thptlaclongquan@bentre.edu.vn","Địa chỉ web trường":"https://thptlaclongquan.bentre.edu.vn/","Số điện thoại trường   ":"02753.822.483","layer_id":316,"fid":32,"label":"Trường THPT Lạc Long Quân (83829725)"}},{"type":"Feature","geometry":{"type":"Point","coordinates":[106.364843009,10.246449698]},"properties":{"Trường THPT":"Trường PT Hermann Gmeiner Bến Tre","Hiệu trưởng":"Lê Duy Linh","Điện thoại hiệu trưởng":"0913105227","Loại hình":"Tư thục","Loại trường":"Trường phổ thông","Đạt CQG (MĐ)\t":null,"Địa chỉ trường":"334A Trương Định, Phường Bến Tre","Thư điện tử":null,"Địa chỉ web trường":null,"Số điện thoại trường   ":null,"layer_id":316,"fid":33,"label":"Trường PT Hermann Gmeiner Bến Tre"}},{"type":"Feature","geometry":{"type":"Point","coordinates":[0.0,0.0]},"properties":{"Trường THPT":"Trường Giáo dục chuyên biệt Bến Tre","Hiệu trưởng":"Nguyễn Phước Vinh","Điện thoại hiệu trưởng":"0938910880","Loại hình":"Công lập","Loại trường":"Khuyết tật","Đạt CQG (MĐ)\t":null,"Địa chỉ trường":"Phường Sơn Đông","Thư điện tử":"truongndtekt@bentre.edu.vn","Địa chỉ web trường":null,"Số điện thoại trường   ":"02753823187","layer_id":316,"fid":34,"label":"Trường Giáo dục chuyên biệt Bến Tre"}},{"type":"Feature","geometry":{"type":"Point","coordinates":[106.361022,10.297438]},"properties":{"Trường THPT":"Trường Trung học phổ thông Trần Văn Ơn","Hiệu trưởng":"Đỗ Văn Công","Điện thoại hiệu trưởng":"0914943544","Loại hình":"Công lập","Loại trường":"Trường phổ thông","Đạt CQG (MĐ)\t":null,"Địa chỉ trường":"Xã Giao Long","Thư điện tử":"thpttranvanon@bentre.edu.vn","Địa chỉ web trường":"http://thpttranvanon.bentre.edu.vn","Số điện thoại trường   ":"02753860273","layer_id":316,"fid":35,"label":"Trường Trung học phổ thông Trần Văn Ơn"}},{"type":"Feature","geometry":{"type":"Point","coordinates":[106.2430166,10.2715295]},"properties":{"Trường THPT":"Trường THPT Diệp Minh Châu (83831727)","Hiệu trưởng":"Nguyễn Văn Hân","Điện thoại hiệu trưởng":"0918103069","Loại hình":"Công lập","Loại trường":"Trường phổ thông","Đạt CQG (MĐ)\t":"Đạt chuẩn mức 1","Địa chỉ trường":"Ấp Chánh, Xã Tiên Thủy","Thư điện tử":"thptdiepminhchau@bentre.edu.vn","Địa chỉ web trường":"http://thptdiepminhchau.bentre.edu.vn","Số điện thoại trường   ":"02753868114","layer_id":316,"fid":36,"label":"Trường THPT Diệp Minh Châu (83831727)"}},{"type":"Feature","geometry":{"type":"Point","coordinates":[106.439483652,10.277089908]},"properties":{"Trường THPT":"Trường Trung học phổ thông Mạc Đĩnh Chi","Hiệu trưởng":"Phan Thị Hồng Cẩm","Điện thoại hiệu trưởng":"0917272904","Loại hình":"Công lập","Loại trường":"Trường phổ thông","Đạt CQG (MĐ)\t":null,"Địa chỉ trường":"Ấp An Hòa, Xã Giao Long, tỉnh Vĩnh Long","Thư điện tử":"thptmacdinhchi@bentre.edu.vn","Địa chỉ web trường":"http://thptmacdinhchi.bentre.edu.vn","Số điện thoại trường   ":"02753865410","layer_id":316,"fid":37,"label":"Trường Trung học phổ thông Mạc Đĩnh Chi"}},{"type":"Feature","geometry":{"type":"Point","coordinates":[106.262822009,10.309527992]},"properties":{"Trường THPT":"Trường THPT Nguyễn Huệ (83831729)","Hiệu trưởng":"Phan Thị Thúy Hằng","Điện thoại hiệu trưởng":"0902866553","Loại hình":"Công lập","Loại trường":"Trường phổ thông","Đạt CQG (MĐ)\t":"Đạt chuẩn mức 1","Địa chỉ trường":"Ấp Phú Hoà, xã Phú Túc","Thư điện tử":"thptnguyenhue@bentre.edu.vn","Địa chỉ web trường":"https://nguyenhuehighschool.edu.vn/","Số điện thoại trường   ":"02753866307","layer_id":316,"fid":38,"label":"Trường THPT Nguyễn Huệ (83831729)"}},{"type":"Feature","geometry":{"type":"Point","coordinates":[106.12275,10.257785]},"properties":{"Trường THPT":"Trường THPT Trần Văn Kiết (83832711)","Hiệu trưởng":"Đinh Hồ Mỹ Ngọc","Điện thoại hiệu trưởng":"0917548023","Loại hình":"Công lập","Loại trường":"Trường phổ thông","Đạt CQG (MĐ)\t":"Đạt chuẩn mức 2","Địa chỉ trường":"Ấp 1, xã Chợ Lách","Thư điện tử":"thpttranvankiet@bentre.edu.vn","Địa chỉ web trường":"https://thpttranvankiet.bentre.edu.vn/","Số điện thoại trường   ":"02753871226","layer_id":316,"fid":39,"label":"Trường THPT Trần Văn Kiết (83832711)"}},{"type":"Feature","geometry":{"type":"Point","coordinates":[106.215257,10.200245]},"properties":{"Trường THPT":"Trường Trung học phổ thông Trương Vĩnh Ký","Hiệu trưởng":null,"Điện thoại hiệu trưởng":null,"Loại hình":"Công lập","Loại trường":"Trường phổ thông","Đạt CQG (MĐ)\t":null,"Địa chỉ trường":"ấp Vĩnh Hưng I, Xã Vĩnh Thành","Thư điện tử":"thpttruongvinhky@bentre.edu.vn","Địa chỉ web trường":"https://thpttruongvinhky.bentre.edu.vn/","Số điện thoại trường   ":"02753875117","layer_id":316,"fid":40,"label":"Trường Trung học phổ thông Trương Vĩnh Ký"}},{"type":"Feature","geometry":{"type":"Point","coordinates":[106.403698309,10.015078944]},"properties":{"Trường THPT":"Trường Trung học phổ thông Nguyễn Thị Minh Khai","Hiệu trưởng":"Nguyễn Văn Hội","Điện thoại hiệu trưởng":"0915737961","Loại hình":"Công lập","Loại trường":"Trường phổ thông","Đạt CQG (MĐ)\t":"Đạt chuẩn mức 1","Địa chỉ trường":"Ấp Thị, Xã Hương Mỹ","Thư điện tử":"thptnguyenthiminhkhai@bentre.edu.vn","Địa chỉ web trường":"https://thptnguyenthiminhkhai.bentre.edu.vn/","Số điện thoại trường   ":"02753849658","layer_id":316,"fid":41,"label":"Trường Trung học phổ thông Nguyễn Thị Minh Khai"}},{"type":"Feature","geometry":{"type":"Point","coordinates":[106.366268,10.065447]},"properties":{"Trường THPT":"Trường Trung học phổ thông Ca Văn Thỉnh","Hiệu trưởng":"Lê Thị Ngọc Thảo","Điện thoại hiệu trưởng":"0838350079","Loại hình":"Công lập","Loại trường":"Trường phổ thông","Đạt CQG (MĐ)\t":"Đạt chuẩn mức 2","Địa chỉ trường":"ấp Phú Tây, xã An Định","Thư điện tử":"thptcavanthinh@bentre.edu.vn","Địa chỉ web trường":"http://thptcavanthinh.bentre.edu.vn","Số điện thoại trường   ":"02753847446","layer_id":316,"fid":42,"label":"Trường Trung học phổ thông Ca Văn Thỉnh"}},{"type":"Feature","geometry":{"type":"Point","coordinates":[106.364948752,10.069108607]},"properties":{"Trường THPT":"Trường THPT An Thới (83833706)","Hiệu trưởng":"Nguyễn Thanh Thanh","Điện thoại hiệu trưởng":"0987074409","Loại hình":"Công lập","Loại trường":"Trường phổ thông","Đạt CQG (MĐ)\t":null,"Địa chỉ trường":"Ấp Phú Tây, xã An Định","Thư điện tử":"thptanthoi2013@bentre.edu.vn","Địa chỉ web trường":"https://thptanthoi.bentre.edu.vn/","Số điện thoại trường   ":"02753683109","layer_id":316,"fid":43,"label":"Trường THPT An Thới (83833706)"}},{"type":"Feature","geometry":{"type":"Point","coordinates":[106.332215,10.122966]},"properties":{"Trường THPT":"Trường THPT Chê Ghê-va-ra (83833707)","Hiệu trưởng":"Phan Văn Sơn","Điện thoại hiệu trưởng":"0948330913","Loại hình":"Công lập","Loại trường":"Trường phổ thông","Đạt CQG (MĐ)\t":null,"Địa chỉ trường":"Ấp 4, Xã Mỏ Cày","Thư điện tử":"thptcheguevara@bentre.edu.vn","Địa chỉ web trường":"Cheguevara.edu.vn","Số điện thoại trường   ":"02753843384","layer_id":316,"fid":44,"label":"Trường THPT Chê Ghê-va-ra (83833707)"}},{"type":"Feature","geometry":{"type":"Point","coordinates":[106.298485,10.09661]},"properties":{"Trường THPT":"Trường Trung học phổ thông Quản Trọng Hoàng","Hiệu trưởng":"Bùi Tấn Lâm","Điện thoại hiệu trưởng":"0986035631","Loại hình":"Công lập","Loại trường":"Trường phổ thông","Đạt CQG (MĐ)\t":null,"Địa chỉ trường":"ấp An Lộc Giồng, Xã Mỏ Cày","Thư điện tử":"thptquantronghoang@bentre.edu.vn","Địa chỉ web trường":"http://thptquantronghoang.bentre.edu.vn","Số điện thoại trường   ":"02753848429","layer_id":316,"fid":45,"label":"Trường Trung học phổ thông Quản Trọng Hoàng"}},{"type":"Feature","geometry":{"type":"Point","coordinates":[106.493275,10.170334]},"properties":{"Trường THPT":"Trường THPT Phan Văn Trị (83834718)","Hiệu trưởng":"Võ Văn Hoàng","Điện thoại hiệu trưởng":"0964397990","Loại hình":"Công lập","Loại trường":"Trường phổ thông","Đạt CQG (MĐ)\t":"Đạt chuẩn mức 1","Địa chỉ trường":"ấp Kinh Ngoài, xã Giồng Trôm","Thư điện tử":"thptphanvantri@bentre.edu.vn","Địa chỉ web trường":"https://thptphanvantri.bentre.edu.vn/","Số điện thoại trường   ":"02753861963","layer_id":316,"fid":46,"label":"Trường THPT Phan Văn Trị (83834718)"}},{"type":"Feature","geometry":{"type":"Point","coordinates":[106.463826,10.131291]},"properties":{"Trường THPT":"Trường THPT Nguyễn Trãi (83834719)","Hiệu trưởng":null,"Điện thoại hiệu trưởng":null,"Loại hình":"Công lập","Loại trường":"Trường phổ thông","Đạt CQG (MĐ)\t":null,"Địa chỉ trường":"Ấp Tân Thị, Xã Tân Hào, tỉnh Vĩnh Long","Thư điện tử":"c3nguyentrai@vinhlong.edu.vn","Địa chỉ web trường":"https://thptnguyentrai.bentre.edu.vn/","Số điện thoại trường   ":"02753.657576","layer_id":316,"fid":47,"label":"Trường THPT Nguyễn Trãi (83834719)"}},{"type":"Feature","geometry":{"type":"Point","coordinates":[106.453015,10.213765]},"properties":{"Trường THPT":"Trường Trung học phổ thông Nguyễn Thị Định","Hiệu trưởng":"Đặng Thị Nhịnh","Điện thoại hiệu trưởng":"0911530779","Loại hình":"Công lập","Loại trường":"Trường phổ thông","Đạt CQG (MĐ)\t":null,"Địa chỉ trường":"Ấp Phong Điền, xã Lương Hoà","Thư điện tử":"thptnguyenthidinh@bentre.edu.vn","Địa chỉ web trường":"https://thptnguyenthidinh.bentre.edu.vn/","Số điện thoại trường   ":"02753 882 848","layer_id":316,"fid":48,"label":"Trường Trung học phổ thông Nguyễn Thị Định"}},{"type":"Feature","geometry":{"type":"Point","coordinates":[10.6407518,10.167919]},"properties":{"Trường THPT":"Trường THPT Nguyễn Ngọc Thăng (83834721)","Hiệu trưởng":"Lê Thanh Danh","Điện thoại hiệu trưởng":"0984145177","Loại hình":"Công lập","Loại trường":"Trường phổ thông","Đạt CQG (MĐ)\t":"Đạt chuẩn mức 1","Địa chỉ trường":"Ấp Long Điền, Xã Phước Long","Thư điện tử":"thptnguyenngocthang@bentre.edu.vn","Địa chỉ web trường":"https://thptnguyenngocthang.bentre.edu.vn","Số điện thoại trường   ":"02753863208","layer_id":316,"fid":49,"label":"Trường THPT Nguyễn Ngọc Thăng (83834721)"}},{"type":"Feature","geometry":{"type":"Point","coordinates":[106.605119467,10.214632595]},"properties":{"Trường THPT":"Trường Trung học phổ thông Lê Quí Đôn","Hiệu trưởng":"Cao Hoài Dũng","Điện thoại hiệu trưởng":"0918757761","Loại hình":"Công lập","Loại trường":"Trường phổ thông","Đạt CQG (MĐ)\t":"Đạt chuẩn mức 1","Địa chỉ trường":"Ấp Tân Định, Xã Thạnh Trị","Thư điện tử":"thptlequidon@bentre.edu.vn","Địa chỉ web trường":"http://thptlequidon.edu.vn","Số điện thoại trường   ":"02753855106","layer_id":316,"fid":50,"label":"Trường Trung học phổ thông Lê Quí Đôn"}},{"type":"Feature","geometry":{"type":"Point","coordinates":[106.498966,10.250135]},"properties":{"Trường THPT":"Trường THPT Huỳnh Tấn Phát (83835731)","Hiệu trưởng":"Nguyễn Quang Vinh","Điện thoại hiệu trưởng":"0919785005","Loại hình":"Công lập","Loại trường":"Trường phổ thông","Đạt CQG (MĐ)\t":"Đạt chuẩn mức 1","Địa chỉ trường":"Ấp Hưng Chánh, xã Châu Hưng","Thư điện tử":"thpthuynhtanphat@bentre.edu.vn","Địa chỉ web trường":"http://thpthuynhtanphat.edu.vn/","Số điện thoại trường   ":"02753. 853.102","layer_id":316,"fid":51,"label":"Trường THPT Huỳnh Tấn Phát (83835731)"}},{"type":"Feature","geometry":{"type":"Point","coordinates":[106.6915227,10.1829847]},"properties":{"Trường THPT":"Trường Trung học phổ thông Lê Hoàng Chiếu","Hiệu trưởng":"Nguyễn Viết Khang","Điện thoại hiệu trưởng":"0837595110","Loại hình":"Công lập","Loại trường":"Trường phổ thông","Đạt CQG (MĐ)\t":null,"Địa chỉ trường":"xã Bình Đại","Thư điện tử":"thptlehoangchieu@bentre.edu.vn","Địa chỉ web trường":"thptlehoangchieu.edu.vn","Số điện thoại trường   ":"02753.851.988","layer_id":316,"fid":52,"label":"Trường Trung học phổ thông Lê Hoàng Chiếu"}},{"type":"Feature","geometry":{"type":"Point","coordinates":[106.710086036,10.147657444]},"properties":{"Trường THPT":"Trường THPT Thạnh Phước (83835733)","Hiệu trưởng":"Đồng Huy Hùng","Điện thoại hiệu trưởng":"0912529301","Loại hình":"Công lập","Loại trường":"Trường phổ thông","Đạt CQG (MĐ)\t":null,"Địa chỉ trường":"Xã Thạnh Phước","Thư điện tử":"thptthanhphuoc@bentre.edu.vn","Địa chỉ web trường":null,"Số điện thoại trường   ":"02753851015","layer_id":316,"fid":53,"label":"Trường THPT Thạnh Phước (83835733)"}},{"type":"Feature","geometry":{"type":"Point","coordinates":[106.589165,10.0361149]},"properties":{"Trường THPT":"Trường THPT Phan Thanh Giản (83836713)","Hiệu trưởng":"Lê Thị Mỹ Lệ","Điện thoại hiệu trưởng":"0979765760","Loại hình":"Công lập","Loại trường":"Trường phổ thông","Đạt CQG (MĐ)\t":null,"Địa chỉ trường":" Ấp 4, Xã Ba Tri","Thư điện tử":"thptphanthanhgian@bentre.edu.vn","Địa chỉ web trường":"thptphanthanhgian.bentre.edu.vn","Số điện thoại trường   ":"02753.850.041","layer_id":316,"fid":54,"label":"Trường THPT Phan Thanh Giản (83836713)"}},{"type":"Feature","geometry":{"type":"Point","coordinates":[106.57514,10.101237]},"properties":{"Trường THPT":"Trường THPT Tán Kế (83836714)","Hiệu trưởng":"Trà Trọng Tâm","Điện thoại hiệu trưởng":"0854503843","Loại hình":"Công lập","Loại trường":"Trường phổ thông","Đạt CQG (MĐ)\t":null,"Địa chỉ trường":"Ấp Mỹ Trung, Xã An Ngãi Trung","Thư điện tử":"thpttanke@bentre.edu.vn","Địa chỉ web trường":"https://thpttanke.bentre.edu.vn","Số điện thoại trường   ":"02753858027","layer_id":316,"fid":55,"label":"Trường THPT Tán Kế (83836714)"}},{"type":"Feature","geometry":{"type":"Point","coordinates":[106.627346,10.073483]},"properties":{"Trường THPT":"Trường THPT Sương Nguyệt Anh (83836715)","Hiệu trưởng":"Nguyễn Văn Chỉnh","Điện thoại hiệu trưởng":"0985782949","Loại hình":"Công lập","Loại trường":"Trường phổ thông","Đạt CQG (MĐ)\t":"Đạt chuẩn mức 1","Địa chỉ trường":"Ấp Phú Long, Xã Tân Xuân","Thư điện tử":"thptsuongnguyetanh@bentre.edu.vn","Địa chỉ web trường":"thptsuongnguyetanh.bentre.edu.vn","Số điện thoại trường   ":"02753859575","layer_id":316,"fid":56,"label":"Trường THPT Sương Nguyệt Anh (83836715)"}},{"type":"Feature","geometry":{"type":"Point","coordinates":[106.531401738,10.055442179]},"properties":{"Trường THPT":"Trường THPT Phan Ngọc Tòng (83836716)","Hiệu trưởng":"Nguyễn Văn Thức","Điện thoại hiệu trưởng":"0937012336","Loại hình":"Công lập","Loại trường":"Trường phổ thông","Đạt CQG (MĐ)\t":"Đạt chuẩn mức 1","Địa chỉ trường":"Âp Giồng Quéo, xã An Hiệp","Thư điện tử":"c3phanngoctong@vinhlong.edu.vn","Địa chỉ web trường":"https://thptphanngoctong.bentre.edu.vn/","Số điện thoại trường   ":"02753762620","layer_id":316,"fid":57,"label":"Trường THPT Phan Ngọc Tòng (83836716)"}},{"type":"Feature","geometry":{"type":"Point","coordinates":[106.615637,10.016053]},"properties":{"Trường THPT":"Trường THPT Phan Liêm (83836717)","Hiệu trưởng":"Bùi Tấn Kiệt","Điện thoại hiệu trưởng":"0918975630","Loại hình":"Công lập","Loại trường":"Trường phổ thông","Đạt CQG (MĐ)\t":"Đạt chuẩn mức 1","Địa chỉ trường":"Ấp An Bình 2, xã Tân Thủy","Thư điện tử":"thptphanliem@bentre.edu.vn","Địa chỉ web trường":"thptphanliem.bentre.edu.vn","Số điện thoại trường   ":"02753.762.833","layer_id":316,"fid":58,"label":"Trường THPT Phan Liêm (83836717)"}},{"type":"Feature","geometry":{"type":"Point","coordinates":[106.531326636,10.055516127]},"properties":{"Trường THPT":"Trường Trung học phổ thông Lê Hoài Đôn","Hiệu trưởng":"Nguyễn Văn Tâm","Điện thoại hiệu trưởng":"0902730372","Loại hình":"Công lập","Loại trường":"Trường phổ thông","Đạt CQG (MĐ)\t":null,"Địa chỉ trường":"Ấp Thạnh Lợi, Xã Thạnh Phú","Thư điện tử":"thptlehoaidon@bentre.edu.vn","Địa chỉ web trường":"https://thptlehoaidon.bentre.edu.vn","Số điện thoại trường   ":"02753870936","layer_id":316,"fid":59,"label":"Trường Trung học phổ thông Lê Hoài Đôn"}},{"type":"Feature","geometry":{"type":"Point","coordinates":[106.607439,9.883411]},"properties":{"Trường THPT":"Trường THPT Trần Trường Sinh (83837702)","Hiệu trưởng":"Mai Văn Phượng","Điện thoại hiệu trưởng":"0913537978","Loại hình":"Công lập","Loại trường":"Trường phổ thông","Đạt CQG (MĐ)\t":null,"Địa chỉ trường":"Ấp Giao Hòa B, Xã Thạnh Phong","Thư điện tử":"thpttrantruongsinh@bentre.edu.vn","Địa chỉ web trường":"https://thpttrantruongsinh.bentre.edu.vn/","Số điện thoại trường   ":"02753876235","layer_id":316,"fid":60,"label":"Trường THPT Trần Trường Sinh (83837702)"}},{"type":"Feature","geometry":{"type":"Point","coordinates":[106.446997382,10.002433005]},"properties":{"Trường THPT":"Trường THPT Đoàn Thị Điểm (83837703)","Hiệu trưởng":"Phan Văn Phúc","Điện thoại hiệu trưởng":"0919432101","Loại hình":"Công lập","Loại trường":"Trường phổ thông","Đạt CQG (MĐ)\t":"Đạt chuẩn mức 1","Địa chỉ trường":"Ấp Thạnh  B - Xã Đại Điền","Thư điện tử":"thptdoanthidiem@bentre.edu.vn","Địa chỉ web trường":"https://thptdoanthidiem.bentre.edu.vn","Số điện thoại trường   ":"02753877718","layer_id":316,"fid":61,"label":"Trường THPT Đoàn Thị Điểm (83837703)"}},{"type":"Feature","geometry":{"type":"Point","coordinates":[106.564289981,9.907020148]},"properties":{"Trường THPT":"Trường THPT Lương Thế Vinh (83837735)","Hiệu trưởng":"Đồng Thị Thuận","Điện thoại hiệu trưởng":"0948638918","Loại hình":"Công lập","Loại trường":"Trường phổ thông","Đạt CQG (MĐ)\t":null,"Địa chỉ trường":"ấp An Phú, xã An Qui","Thư điện tử":"thptluongthevinh@bentre.edu.vn","Địa chỉ web trường":"https://thptluongthevinh.bentre.edu.vn/","Số điện thoại trường   ":"0275 3889 988","layer_id":316,"fid":62,"label":"Trường THPT Lương Thế Vinh (83837735)"}},{"type":"Feature","geometry":{"type":"Point","coordinates":[106.272281609,10.172865272]},"properties":{"Trường THPT":"Trường Trung học phổ thông Ngô Văn Cấn","Hiệu trưởng":"Phạm Thành Nhân","Điện thoại hiệu trưởng":"0357439068","Loại hình":"Công lập","Loại trường":"Trường phổ thông","Đạt CQG (MĐ)\t":null,"Địa chỉ trường":"xã Nhuận Phú Tân","Thư điện tử":"thptngovancan@bentre.edu.vn","Địa chỉ web trường":"thptngovancan.bentre.edu.vn","Số điện thoại trường   ":"02753845101","layer_id":316,"fid":63,"label":"Trường Trung học phổ thông Ngô Văn Cấn"}},{"type":"Feature","geometry":{"type":"Point","coordinates":[106.327265408,10.203073196]},"properties":{"Trường THPT":"Trường Trung học phổ thông Lê Anh Xuân","Hiệu trưởng":"Nguyễn Thị Kim Hương","Điện thoại hiệu trưởng":"0984162102","Loại hình":"Công lập","Loại trường":"Trường phổ thông","Đạt CQG (MĐ)\t":"Đạt chuẩn mức 1","Địa chỉ trường":"Ấp Chợ Xếp, xã Tân Thành Bình","Thư điện tử":"thptleanhxuan@bentre.edu.vn","Địa chỉ web trường":"http://thptleanhxuan.bentre.edu.vn","Số điện thoại trường   ":"02753840768","layer_id":316,"fid":64,"label":"Trường Trung học phổ thông Lê Anh Xuân"}},{"type":"Feature","geometry":{"type":"Point","coordinates":[106.332252,9.946836]},"properties":{"Trường THPT":"TRƯỜNG TH, THCS, THPT VIỆT ANH 5","Hiệu trưởng":"Trần Thị Hà","Điện thoại hiệu trưởng":null,"Loại hình":"Tư thục","Loại trường":"Trường phổ thông","Đạt CQG (MĐ)\t":null,"Địa chỉ trường":"118/15/2, Trương Văn Kỉnh, khóm 3, Phường Trà Vinh ","Thư điện tử":"c123vietanh5@sgdtravinh.edu.vn","Địa chỉ web trường":"https://hethonggiaoducvietanh.edu.vn","Số điện thoại trường   ":"0988424446","layer_id":316,"fid":65,"label":"TRƯỜNG TH, THCS, THPT VIỆT ANH 5"}},{"type":"Feature","geometry":{"type":"Point","coordinates":[106.426943,9.687802]},"properties":{"Trường THPT":"Trường THPT SƠN CANG","Hiệu trưởng":"Nguyễn Ngọc Đạm","Điện thoại hiệu trưởng":"0384977007","Loại hình":"Công lập","Loại trường":"Trường phổ thông","Đạt CQG (MĐ)\t":null,"Địa chỉ trường":"Ấp Sóc Ruộng, xã Ngũ Lạc","Thư điện tử":"c3soncang@sgdtravinh.edu.vn","Địa chỉ web trường":null,"Số điện thoại trường   ":"02943900949","layer_id":316,"fid":66,"label":"Trường THPT SƠN CANG"}},{"type":"Feature","geometry":{"type":"Point","coordinates":[106.340048509,9.945407572]},"properties":{"Trường THPT":"Trường THỰC HÀNH SƯ PHẠM","Hiệu trưởng":null,"Điện thoại hiệu trưởng":null,"Loại hình":"Công lập","Loại trường":"Trường phổ thông","Đạt CQG (MĐ)\t":null,"Địa chỉ trường":"Số 227, Phạm Ngũ Lão, Khóm 1, Phường Trà Vinh, tỉnh Vĩnh Long","Thư điện tử":"thsp@tvu.edu.vn","Địa chỉ web trường":"https://thsp.tvu.edu.vn/vi/","Số điện thoại trường   ":"02943.853.223","layer_id":316,"fid":67,"label":"Trường THỰC HÀNH SƯ PHẠM"}},{"type":"Feature","geometry":{"type":"Point","coordinates":[106.451424,9.790726]},"properties":{"Trường THPT":"Trường THPT DƯƠNG QUANG ĐÔNG","Hiệu trưởng":"Lê Văn Bằng","Điện thoại hiệu trưởng":"0989004230","Loại hình":"Công lập","Loại trường":"Trường phổ thông","Đạt CQG (MĐ)\t":"Đạt chuẩn mức 1","Địa chỉ trường":"ấp Minh Thuận B xã Cầu Ngang tỉnh Vĩnh Long","Thư điện tử":"c3caungang@sgdtravinh.edu.vn","Địa chỉ web trường":"http://thptduongquangdong.edu.vn/","Số điện thoại trường   ":"02943825003","layer_id":316,"fid":68,"label":"Trường THPT DƯƠNG QUANG ĐÔNG"}},{"type":"Feature","geometry":{"type":"Point","coordinates":[106.257551781,9.693504933]},"properties":{"Trường THPT":"Trường Trung học phổ thông Trần Văn Long","Hiệu trưởng":"Kim Hươe","Điện thoại hiệu trưởng":"0939575066","Loại hình":"Công lập","Loại trường":"Trường phổ thông","Đạt CQG (MĐ)\t":"Đạt chuẩn mức 1","Địa chỉ trường":"Số 2, đường 30/4, ấp 5, xã Trà Cú, tỉnh Vĩnh Long","Thư điện tử":"c3tranvanlong@sgdtravinh.edu.vn","Địa chỉ web trường":"http://truongthpttranvanlong.edu.vn/","Số điện thoại trường   ":"02943874513","layer_id":316,"fid":69,"label":"Trường Trung học phổ thông Trần Văn Long"}},{"type":"Feature","geometry":{"type":"Point","coordinates":[106.121594136,9.76691973]},"properties":{"Trường THPT":"Trường Trung học phổ thông Cầu Quan","Hiệu trưởng":"Phạm Hữu Nghĩa","Điện thoại hiệu trưởng":"0984265052","Loại hình":"Công lập","Loại trường":"Trường phổ thông","Đạt CQG (MĐ)\t":"Đạt chuẩn mức 1","Địa chỉ trường":"Khóm IV, Xã Tân Hòa","Thư điện tử":"c3cauquan@sgdtravinh.edu.vn","Địa chỉ web trường":"https://thptcauquan.web.vnedu.vn","Số điện thoại trường   ":"02943824322","layer_id":316,"fid":70,"label":"Trường Trung học phổ thông Cầu Quan"}},{"type":"Feature","geometry":{"type":"Point","coordinates":[106.286351,10.036487]},"properties":{"Trường THPT":"Trường Trung học phổ thông Bùi Hữu Nghĩa","Hiệu trưởng":"Nguyễn Thành Khương","Điện thoại hiệu trưởng":"0989212966","Loại hình":"Công lập","Loại trường":"Trường phổ thông","Đạt CQG (MĐ)\t":"Đạt chuẩn mức 1","Địa chỉ trường":"Ấp Thượng, xã  Nhị Long, tỉnh Vĩnh Long","Thư điện tử":"c3canglonga@sgdtravinh.edu.vn","Địa chỉ web trường":"https://edu.viettel.vn/tvh-thptbuihuunghia/page/home?&site=19692","Số điện thoại trường   ":"02943789170","layer_id":316,"fid":71,"label":"Trường Trung học phổ thông Bùi Hữu Nghĩa"}},{"type":"Feature","geometry":{"type":"Point","coordinates":[106.201265,9.982618]},"properties":{"Trường THPT":"Trường THPT NGUYỄN ĐÁNG","Hiệu trưởng":"Lê Thị Quyên","Điện thoại hiệu trưởng":"0985004748","Loại hình":"Công lập","Loại trường":"Trường phổ thông","Đạt CQG (MĐ)\t":"Đạt chuẩn mức 2","Địa chỉ trường":"Ấp Mỹ Huê, Xã Càng Long","Thư điện tử":"c3nguyendang@sgdtravinh.edu.vn","Địa chỉ web trường":"https://thptnguyendangclg.web.vnedu.vn/","Số điện thoại trường   ":"02943882669","layer_id":316,"fid":72,"label":"Trường THPT NGUYỄN ĐÁNG"}},{"type":"Feature","geometry":{"type":"Point","coordinates":[106.336461,9.923248]},"properties":{"Trường THPT":"Trường Trung học phổ thông Trà Vinh","Hiệu trưởng":"Châu Hạnh Thùy","Điện thoại hiệu trưởng":"0983131757","Loại hình":"Công lập","Loại trường":"Trường phổ thông","Đạt CQG (MĐ)\t":"Đạt chuẩn mức 1","Địa chỉ trường":"Phường Trà Vinh","Thư điện tử":"c3tptravinh@sgdtravinh.edu.vn","Địa chỉ web trường":null,"Số điện thoại trường   ":"02943840010","layer_id":316,"fid":73,"label":"Trường Trung học phổ thông Trà Vinh"}},{"type":"Feature","geometry":{"type":"Point","coordinates":[106.338461325,9.941215139]},"properties":{"Trường THPT":"Trường THPT PHẠM THÁI BƯỜNG","Hiệu trưởng":"Hà Thanh Duy","Điện thoại hiệu trưởng":"0919329340","Loại hình":"Công lập","Loại trường":"Trường phổ thông","Đạt CQG (MĐ)\t":"Đạt chuẩn mức 1","Địa chỉ trường":"358, Phạm Ngũ Lão, khóm 4, Phường Trà Vinh, tỉnh Vĩnh Long","Thư điện tử":"c3phamthaibuong@sgdtravinh.edu.vn","Địa chỉ web trường":"https://thptphamthaibuong.edu.vn/","Số điện thoại trường   ":"02943852780","layer_id":316,"fid":74,"label":"Trường THPT PHẠM THÁI BƯỜNG"}},{"type":"Feature","geometry":{"type":"Point","coordinates":[106.25729,9.73718]},"properties":{"Trường THPT":"TRUNG HỌC PHỔ THÔNG TẬP SƠN","Hiệu trưởng":"Tăng Hoàng Triều","Điện thoại hiệu trưởng":"0868444466","Loại hình":"Công lập","Loại trường":"Trường phổ thông","Đạt CQG (MĐ)\t":"Đạt chuẩn mức 1","Địa chỉ trường":"Ấp Chợ, Xã Tập Sơn, tỉnh Vĩnh Long","Thư điện tử":"c3tapson@sgdtravinh.edu.vn","Địa chỉ web trường":"http://thpttapson.sgdtravinh.edu.vn/","Số điện thoại trường   ":"02943879128","layer_id":316,"fid":75,"label":"TRUNG HỌC PHỔ THÔNG TẬP SƠN"}},{"type":"Feature","geometry":{"type":"Point","coordinates":[106.297438,9.663491]},"properties":{"Trường THPT":"Trường THPT HÀM GIANG","Hiệu trưởng":"Trần Thị Mai Phương","Điện thoại hiệu trưởng":"0908459444","Loại hình":"Công lập","Loại trường":"Trường phổ thông","Đạt CQG (MĐ)\t":"Đạt chuẩn mức 1","Địa chỉ trường":"Ấp Chợ, xã Hàm Giang, tình Vĩnh Long","Thư điện tử":"c3hamgiang@sgdtravinh.edu.vn","Địa chỉ web trường":null,"Số điện thoại trường   ":"02943878220","layer_id":316,"fid":76,"label":"Trường THPT HÀM GIANG"}},{"type":"Feature","geometry":{"type":"Point","coordinates":[106.480289,9.723482]},"properties":{"Trường THPT":"Trường Trung học phổ thông Cầu Ngang B","Hiệu trưởng":"DƯƠNG THANH HẢI","Điện thoại hiệu trưởng":"0911425025","Loại hình":"Công lập","Loại trường":"Trường phổ thông","Đạt CQG (MĐ)\t":null,"Địa chỉ trường":"ấp Giồng Dài xã Hiệp Mỹ","Thư điện tử":"c3caungangb@sgdtravinh.edu.vn","Địa chỉ web trường":"https://thptcaungangb.edu.vn","Số điện thoại trường   ":"02943820149","layer_id":316,"fid":77,"label":"Trường Trung học phổ thông Cầu Ngang B"}},{"type":"Feature","geometry":{"type":"Point","coordinates":[106.499155,9.634415]},"properties":{"Trường THPT":"Trường Trung học phổ thông Duyên Hải","Hiệu trưởng":"Nguyễn Thành Công","Điện thoại hiệu trưởng":"0977708114","Loại hình":"Công lập","Loại trường":"Trường phổ thông","Đạt CQG (MĐ)\t":null,"Địa chỉ trường":"Phường Duyên Hải","Thư điện tử":"c3duyenhai@sgdtravinh.edu.vn","Địa chỉ web trường":"http://thptduyenhai.web.vnedu.vn","Số điện thoại trường   ":"02943832021","layer_id":316,"fid":78,"label":"Trường Trung học phổ thông Duyên Hải"}},{"type":"Feature","geometry":{"type":"Point","coordinates":[106.505112,9.802069]},"properties":{"Trường THPT":"TRUNG HỌC PHỔ THÔNG CẦU NGANG A","Hiệu trưởng":"Võ Văn Lành","Điện thoại hiệu trưởng":"0908625559","Loại hình":"Công lập","Loại trường":"Trường phổ thông","Đạt CQG (MĐ)\t":"Đạt chuẩn mức 1","Địa chỉ trường":"ấp Bến Đáy B - xã Mỹ Long ","Thư điện tử":"c3caunganga@sgdtravinh.edu.vn","Địa chỉ web trường":"http://truongthptcaunganga.edu.vn/","Số điện thoại trường   ":"02943829676","layer_id":316,"fid":79,"label":"TRUNG HỌC PHỔ THÔNG CẦU NGANG A"}},{"type":"Feature","geometry":{"type":"Point","coordinates":[106.348778809,9.869292991]},"properties":{"Trường THPT":"Trường THPT VŨ ĐÌNH LIỆU","Hiệu trưởng":null,"Điện thoại hiệu trưởng":null,"Loại hình":"Công lập","Loại trường":"Trường phổ thông","Đạt CQG (MĐ)\t":null,"Địa chỉ trường":"số 255, đường 2/9, ấp 2, xã Châu Thành","Thư điện tử":"c3vudinhlieu@sgdtravinh.edu.vn","Địa chỉ web trường":"http://truongthptvudinhlieu.edu.vn","Số điện thoại trường   ":"02943872002","layer_id":316,"fid":80,"label":"Trường THPT VŨ ĐÌNH LIỆU"}},{"type":"Feature","geometry":{"type":"Point","coordinates":[106.198577,9.820787]},"properties":{"Trường THPT":"Trường THPT TIỂU CẦN","Hiệu trưởng":"Lê Thị Cúc Hoa","Điện thoại hiệu trưởng":"0916093437","Loại hình":"Công lập","Loại trường":"Trường phổ thông","Đạt CQG (MĐ)\t":"Đạt chuẩn mức 1","Địa chỉ trường":"Ấp Cây Hẹ, xã Tiểu Cần ","Thư điện tử":"c3tieucan@sgdtravinh.edu.vn","Địa chỉ web trường":"https://thpttieucan.web.vnedu.vn","Số điện thoại trường   ":"02943.822019","layer_id":316,"fid":81,"label":"Trường THPT TIỂU CẦN"}},{"type":"Feature","geometry":{"type":"Point","coordinates":[106.056627994,9.868929711]},"properties":{"Trường THPT":"Trường Trung học phổ thông Cầu Kè","Hiệu trưởng":"Dương Tiến Dũng","Điện thoại hiệu trưởng":"0972126636","Loại hình":"Công lập","Loại trường":"Trường phổ thông","Đạt CQG (MĐ)\t":"Đạt chuẩn mức 1","Địa chỉ trường":"số 196, đường 30/4, ấp 6, Xã Cầu Kè","Thư điện tử":"c3cauke@sgdtravinh.edu.vn","Địa chỉ web trường":"https://thptcauke.sgdtravinh.edu.vn","Số điện thoại trường   ":"02943834779","layer_id":316,"fid":82,"label":"Trường Trung học phổ thông Cầu Kè"}},{"type":"Feature","geometry":{"type":"Point","coordinates":[106.237303,9.963667]},"properties":{"Trường THPT":"Trường THPT NGUYỄN VĂN HAI","Hiệu trưởng":"Nguyễn Văn Hiền","Điện thoại hiệu trưởng":"0973023229","Loại hình":"Công lập","Loại trường":"Trường phổ thông","Đạt CQG (MĐ)\t":"Đạt chuẩn mức 1","Địa chỉ trường":"ấp Nguyệt Lãng A, Xã Bình Phú","Thư điện tử":"c3binhphu@sgdtravinh.edu.vn","Địa chỉ web trường":"thptnguyenvanhai.edu.vn","Số điện thoại trường   ":"02943888198","layer_id":316,"fid":83,"label":"Trường THPT NGUYỄN VĂN HAI"}},{"type":"Feature","geometry":{"type":"Point","coordinates":[106.157468,9.910068]},"properties":{"Trường THPT":"Trường THPT DƯƠNG HÁO HỌC","Hiệu trưởng":"Nguyễn Ngọc Thành","Điện thoại hiệu trưởng":"0982887873","Loại hình":"Công lập","Loại trường":"Trường phổ thông","Đạt CQG (MĐ)\t":"Đạt chuẩn mức 1","Địa chỉ trường":"Ấp Tân Tiến, Xã Tân An","Thư điện tử":"c3duonghaohoc@sgdtravinh.edu.vn","Địa chỉ web trường":"thptduonghaohoc.edu.vn","Số điện thoại trường   ":"02943886667","layer_id":316,"fid":84,"label":"Trường THPT DƯƠNG HÁO HỌC"}},{"type":"Feature","geometry":{"type":"Point","coordinates":[106.087398313,9.840321575]},"properties":{"Trường THPT":"Trường Trung học phổ thông Phong Phú","Hiệu trưởng":"Phạm Văn Phong","Điện thoại hiệu trưởng":"0975855748","Loại hình":"Công lập","Loại trường":"Trường phổ thông","Đạt CQG (MĐ)\t":"Đạt chuẩn mức 1","Địa chỉ trường":"Xã Phong Thạnh","Thư điện tử":"c3phongphu@sgdtravinh.edu.vn","Địa chỉ web trường":null,"Số điện thoại trường   ":"02943816545","layer_id":316,"fid":85,"label":"Trường Trung học phổ thông Phong Phú"}},{"type":"Feature","geometry":{"type":"Point","coordinates":[106.341268,9.705636]},"properties":{"Trường THPT":"Trường THPT Long Hiệp","Hiệu trưởng":"Kim Ngọc Ẩn","Điện thoại hiệu trưởng":"0966537767","Loại hình":"Công lập","Loại trường":"Trường phổ thông","Đạt CQG (MĐ)\t":"Đạt chuẩn mức 1","Địa chỉ trường":"  Ấp Chợ,  xã Long Hiệp, tỉnh Vĩnh Long","Thư điện tử":"c3longhiep@sgdtravinh.edu.vn","Địa chỉ web trường":"https://thptlonghiep.sgdtravinh.edu.vn","Số điện thoại trường   ":"02943671213","layer_id":316,"fid":86,"label":"Trường THPT Long Hiệp"}},{"type":"Feature","geometry":{"type":"Point","coordinates":[106.400512009,9.78009983]},"properties":{"Trường THPT":"Trường Trung học phổ thông Nhị Trường","Hiệu trưởng":"Trần Hớn Kiệt","Điện thoại hiệu trưởng":"0387625003","Loại hình":"Công lập","Loại trường":"Trường phổ thông","Đạt CQG (MĐ)\t":"Đạt chuẩn mức 1","Địa chỉ trường":"Ấp Bông Ven, Xã Nhị Trường, tỉnh Vĩnh Long","Thư điện tử":"c3nhitruong@sgdtravinh.edu.vn","Địa chỉ web trường":"http://thptnhitruong.edu.vn","Số điện thoại trường   ":"02942201711","layer_id":316,"fid":87,"label":"Trường Trung học phổ thông Nhị Trường"}},{"type":"Feature","geometry":{"type":"Point","coordinates":[106.401901408,9.662421147]},"properties":{"Trường THPT":"Trường THPT LONG KHÁNH","Hiệu trưởng":"Lê Bảo Toàn","Điện thoại hiệu trưởng":"0976922769","Loại hình":"Công lập","Loại trường":"Trường phổ thông","Đạt CQG (MĐ)\t":null,"Địa chỉ trường":"Xã Long Thành","Thư điện tử":"c3longkhanh@sgdtravinh.edu.vn","Địa chỉ web trường":"http://thptlongkhanh.sgdtravinh.edu.vn/","Số điện thoại trường   ":"0294837599","layer_id":316,"fid":88,"label":"Trường THPT LONG KHÁNH"}},{"type":"Feature","geometry":{"type":"Point","coordinates":[106.203515454,9.858143513]},"properties":{"Trường THPT":"Trường Trung học phổ thông Hiếu Tử","Hiệu trưởng":"Nguyễn Văn Hiếu","Điện thoại hiệu trưởng":"0949692693","Loại hình":"Công lập","Loại trường":"Trường phổ thông","Đạt CQG (MĐ)\t":"Đạt chuẩn mức 1","Địa chỉ trường":"Ấp Chợ, Xã Tập Ngãi","Thư điện tử":"c3hieutu@sgdtravinh.edu.vn","Địa chỉ web trường":"http://thpthieutu.sgdtravinh.edu.vn/","Số điện thoại trường   ":"02943619949","layer_id":316,"fid":89,"label":"Trường Trung học phổ thông Hiếu Tử"}},{"type":"Feature","geometry":{"type":"Point","coordinates":[106.019251,9.88337]},"properties":{"Trường THPT":"Trường THPT TAM NGÃI","Hiệu trưởng":"Nguyễn Văn Hợp","Điện thoại hiệu trưởng":"0945150515","Loại hình":"Công lập","Loại trường":"Trường phổ thông","Đạt CQG (MĐ)\t":"Đạt chuẩn mức 2","Địa chỉ trường":"Ấp Ngọc Hồ, Xã Tam Ngãi","Thư điện tử":"c3tamngai@sgdtravinh.edu.vn","Địa chỉ web trường":"http://thpttamngai.sgdtravinh.edu.vn/","Số điện thoại trường   ":"02943719575","layer_id":316,"fid":90,"label":"Trường THPT TAM NGÃI"}},{"type":"Feature","geometry":{"type":"Point","coordinates":[106.503022552,9.694146052]},"properties":{"Trường THPT":"Trường Trung học phổ thông Long Hữu","Hiệu trưởng":"Hồ Văn Lý","Điện thoại hiệu trưởng":"0919482767","Loại hình":"Công lập","Loại trường":"Trường phổ thông","Đạt CQG (MĐ)\t":"Đạt chuẩn mức 1","Địa chỉ trường":"Phường Trường Long Hoà","Thư điện tử":"c3longhuu@sgdtravinh.edu.vn","Địa chỉ web trường":null,"Số điện thoại trường   ":"02943736456","layer_id":316,"fid":91,"label":"Trường Trung học phổ thông Long Hữu"}},{"type":"Feature","geometry":{"type":"Point","coordinates":[106.375321508,9.656621527]},"properties":{"Trường THPT":"Trường Trung học phổ thông Đôn Châu","Hiệu trưởng":"Bùi Bạch Huệ","Điện thoại hiệu trưởng":"0918999755","Loại hình":"Công lập","Loại trường":"Trường phổ thông","Đạt CQG (MĐ)\t":"Đạt chuẩn mức 1","Địa chỉ trường":"Ấp La Bang Chợ, xã Đôn Châu, tỉnh Vĩnh Long","Thư điện tử":"c3donchau@sgdtravinh.edu.vn","Địa chỉ web trường":"Trường Trung Học Phổ Thông Đôn Châu","Số điện thoại trường   ":"02943776457","layer_id":316,"fid":92,"label":"Trường Trung học phổ thông Đôn Châu"}},{"type":"Feature","geometry":{"type":"Point","coordinates":[106.262839,10.009867]},"properties":{"Trường THPT":"Trường THPT Hồ  Thị Nhâm","Hiệu trưởng":"Lâm Văn Lịnh","Điện thoại hiệu trưởng":"0974247891","Loại hình":"Công lập","Loại trường":"Trường phổ thông","Đạt CQG (MĐ)\t":"Đạt chuẩn mức 1","Địa chỉ trường":"ấp Dừa Đỏ 1, xã Nhị Long, tỉnh Vĩnh Long","Thư điện tử":"c3hothinham@sgdtravinh.edu.vn","Địa chỉ web trường":"thpthothinham.web.vnedu.vn","Số điện thoại trường   ":"02943881041","layer_id":316,"fid":93,"label":"Trường THPT Hồ  Thị Nhâm"}},{"type":"Feature","geometry":{"type":"Point","coordinates":[106.475001,9.912058]},"properties":{"Trường THPT":"Trường Trung học cơ sở - Trung học phổ thông Hòa Minh","Hiệu trưởng":"Trần Văn Tâm","Điện thoại hiệu trưởng":"0932937832","Loại hình":"Công lập","Loại trường":"Trường phổ thông","Đạt CQG (MĐ)\t":"Đạt chuẩn mức 1","Địa chỉ trường":"Âp Giồng Giá , Xã Hoà Minh ","Thư điện tử":"c3hoaminh@sgdtravinh.edu.vn","Địa chỉ web trường":"http://hoaminhhighschool.edu.vn","Số điện thoại trường   ":"0294 3 899 052","layer_id":316,"fid":94,"label":"Trường Trung học cơ sở - Trung học phổ thông Hòa Minh"}},{"type":"Feature","geometry":{"type":"Point","coordinates":[106.303342416,9.638861364]},"properties":{"Trường THPT":"Trường Trung học phổ thông Đại An","Hiệu trưởng":"Lê Tân Đoàn","Điện thoại hiệu trưởng":null,"Loại hình":"Công lập","Loại trường":"Trường phổ thông","Đạt CQG (MĐ)\t":null,"Địa chỉ trường":"Số 91, Quốc lộ 53, ấp Chợ, xã Đại An","Thư điện tử":"c3daian@sgdtravinh.edu.vn ","Địa chỉ web trường":"http://thptdaian.web.vnedu.vn/","Số điện thoại trường   ":"02943878120","layer_id":316,"fid":95,"label":"Trường Trung học phổ thông Đại An"}},{"type":"Feature","geometry":{"type":"Point","coordinates":[106.387691,9.899002]},"properties":{"Trường THPT":"Trường THPT HÒA LỢI","Hiệu trưởng":"Kha Thanh Liêm","Điện thoại hiệu trưởng":"0918137214","Loại hình":"Công lập","Loại trường":"Trường phổ thông","Đạt CQG (MĐ)\t":"Đạt chuẩn mức 1","Địa chỉ trường":"xã Hưng Mỹ","Thư điện tử":"c3hoaloi@sgdtravinh.edu.vn","Địa chỉ web trường":"http://thpthoaloi.sgdtravinh.edu.vn/","Số điện thoại trường   ":"02943790267","layer_id":316,"fid":96,"label":"Trường THPT HÒA LỢI"}},{"type":"Feature","geometry":{"type":"Point","coordinates":[106.277573,9.856697]},"properties":{"Trường THPT":"TRƯỜNG THCS VÀ THPT LƯƠNG HÒA A","Hiệu trưởng":"Trần Văn Vũ","Điện thoại hiệu trưởng":"0916205478","Loại hình":"Công lập","Loại trường":"Trường phổ thông","Đạt CQG (MĐ)\t":null,"Địa chỉ trường":"Ấp Ô Bắp, Xã Song Lộc","Thư điện tử":"c3luonghoaa@sgdtravinh.edu.vn","Địa chỉ web trường":"http://thcsvathptluonghoaa.edu.vn/","Số điện thoại trường   ":"02943896647","layer_id":316,"fid":97,"label":"TRƯỜNG THCS VÀ THPT LƯƠNG HÒA A"}},{"type":"Feature","geometry":{"type":"Point","coordinates":[106.529688636,9.601115897]},"properties":{"Trường THPT":"Trường THCS VÀ THPT DÂN THÀNH","Hiệu trưởng":"Trần Thị Nga","Điện thoại hiệu trưởng":"0947832524","Loại hình":"Công lập","Loại trường":"Trường phổ thông","Đạt CQG (MĐ)\t":null,"Địa chỉ trường":"Khóm Láng Cháo, Phường Duyên Hải","Thư điện tử":"c3danthanh@sgdtravinh.edu.vn","Địa chỉ web trường":"c23danthanh.web.vnedu.vn","Số điện thoại trường   ":"02943515333","layer_id":316,"fid":98,"label":"Trường THCS VÀ THPT DÂN THÀNH"}},{"type":"Feature","geometry":{"type":"Point","coordinates":[106.347135,9.958472]},"properties":{"Trường THPT":"Trường PTDTNT THPT TRÀ VINH","Hiệu trưởng":"Kim Chan Ta Na","Điện thoại hiệu trưởng":"0977804749","Loại hình":"Công lập","Loại trường":"Trường phổ thông","Đạt CQG (MĐ)\t":"Đạt chuẩn mức 2","Địa chỉ trường":"Khóm Long Bình, Phường Long Đức","Thư điện tử":"dtnttravinh@sgdtravinh.edu.vn","Địa chỉ web trường":"https://ptth-ptdtnttravinh.violet.vn/","Số điện thoại trường   ":"02943852206","layer_id":316,"fid":99,"label":"Trường PTDTNT THPT TRÀ VINH"}},{"type":"Feature","geometry":{"type":"Point","coordinates":[106.257301,9.69381]},"properties":{"Trường THPT":"Trường Phổ thông Dân tộc nội trú trung học cơ sở và trung học phổ thông Trà Cú","Hiệu trưởng":"DIỆP CHANH THA","Điện thoại hiệu trưởng":"0903039964","Loại hình":"Công lập","Loại trường":"Phổ thông dân tộc nội trú","Đạt CQG (MĐ)\t":"Đạt chuẩn mức 1","Địa chỉ trường":"Số 03, đường 30/4, ấp 5, xã Trà Cú, tỉnh Vĩnh Long","Thư điện tử":"dtnttracu@sgdtravinh.edu.vn","Địa chỉ web trường":"https://dtnttracu.web.vnedu.vn","Số điện thoại trường   ":"02943874446","layer_id":316,"fid":100,"label":"Trường Phổ thông Dân tộc nội trú trung học cơ sở và trung học phổ thông Trà Cú"}},{"type":"Feature","geometry":{"type":"Point","coordinates":[106.346435,9.959146]},"properties":{"Trường THPT":"Trường Trung học phổ thông chuyên Nguyễn Thiện Thành","Hiệu trưởng":"Nguyễn Quốc Phong","Điện thoại hiệu trưởng":"0866024888","Loại hình":"Công lập","Loại trường":"Trường chuyên","Đạt CQG (MĐ)\t":"Đạt chuẩn mức 1","Địa chỉ trường":"Khóm Long Bình, Phường Long Đức","Thư điện tử":"c3chuyen@sgdtravinh.edu.vn","Địa chỉ web trường":"https://chuyennguyenthienthanh.edu.vn/","Số điện thoại trường   ":"02943854648","layer_id":316,"fid":101,"label":"Trường Trung học phổ thông chuyên Nguyễn Thiện Thành"}},{"type":"Feature","geometry":{"type":"Point","coordinates":[106.181006,9.800371]},"properties":{"Trường THPT":"Trường Phổ thông dân tộc nội trú trung học cơ sở và trung học phổ thông Tiểu Cần","Hiệu trưởng":"Thạch Thành Quang","Điện thoại hiệu trưởng":"0939848245","Loại hình":"Công lập","Loại trường":"Phổ thông dân tộc nội trú","Đạt CQG (MĐ)\t":"Đạt chuẩn mức 2","Địa chỉ trường":"Ấp Đại Mong, Xã Tiểu Cần","Thư điện tử":"dtnttieucan@sgdtravinh.edu.vn","Địa chỉ web trường":"http://dtnttieucan.web.vnedu.vn","Số điện thoại trường   ":"0294 3822 346","layer_id":316,"fid":102,"label":"Trường Phổ thông dân tộc nội trú trung học cơ sở và trung học phổ thông Tiểu Cần"}},{"type":"Feature","geometry":{"type":"Point","coordinates":[105.974706098,10.255567724]},"properties":{"Trường THPT":"Trường THPT Lưu Văn Liệt","Hiệu trưởng":"Phan Hoàng Tú Nga","Điện thoại hiệu trưởng":"0907012066","Loại hình":"Công lập","Loại trường":"Trường phổ thông","Đạt CQG (MĐ)\t":null,"Địa chỉ trường":"Khóm Hùng Vương, phường Long Châu","Thư điện tử":"c3luuvanliet@vinhlong.edu.vn","Địa chỉ web trường":"c3luuvanliet.vinhlong.edu.vn","Số điện thoại trường   ":"02703823299","layer_id":316,"fid":103,"label":"Trường THPT Lưu Văn Liệt"}},{"type":"Feature","geometry":{"type":"Point","coordinates":[105.807919,10.068962]},"properties":{"Trường THPT":"TRƯỜNG THPT BÌNH MINH","Hiệu trưởng":"HUỲNH THỊ THÙY DUNG","Điện thoại hiệu trưởng":"0939887996","Loại hình":"Công lập","Loại trường":"Trường phổ thông","Đạt CQG (MĐ)\t":"Đạt chuẩn mức 2","Địa chỉ trường":"Tổ 01, khóm 5, Phường Bình Minh","Thư điện tử":"c3binhminh@vinhlong.edu.vn","Địa chỉ web trường":"http://c3binhminh.vinhlong.edu.vn","Số điện thoại trường   ":"02703890328","layer_id":316,"fid":104,"label":"TRƯỜNG THPT BÌNH MINH"}},{"type":"Feature","geometry":{"type":"Point","coordinates":[105.924545,9.961603]},"properties":{"Trường THPT":"TRƯỜNG THPT TRÀ ÔN","Hiệu trưởng":"Trương Thúy Ái","Điện thoại hiệu trưởng":"0939580777","Loại hình":"Công lập","Loại trường":"Trường phổ thông","Đạt CQG (MĐ)\t":"Đạt chuẩn mức 1","Địa chỉ trường":"Ấp 3, xã Trà Ôn","Thư điện tử":"c3traon@vinhlong.edu.vn","Địa chỉ web trường":"https://c3traon.vinhlong.edu.vn","Số điện thoại trường   ":"02703770830","layer_id":316,"fid":105,"label":"TRƯỜNG THPT TRÀ ÔN"}},{"type":"Feature","geometry":{"type":"Point","coordinates":[105.954498,10.229932]},"properties":{"Trường THPT":"Trường THPT Nguyễn Thông","Hiệu trưởng":"Nguyễn Thảo Tâm","Điện thoại hiệu trưởng":"0933228281","Loại hình":"Công lập","Loại trường":"Trường phổ thông","Đạt CQG (MĐ)\t":"Đạt chuẩn mức 1","Địa chỉ trường":"Số 12, Đinh Tiên Hoàng, Phường Tân Hạnh","Thư điện tử":"c3nguyenthong@vinhlong.edu.vn","Địa chỉ web trường":"c3nguyenthong@vinhlong.edu.vn","Số điện thoại trường   ":"02703823409","layer_id":316,"fid":106,"label":"Trường THPT Nguyễn Thông"}},{"type":"Feature","geometry":{"type":"Point","coordinates":[105.980577,10.242436]},"properties":{"Trường THPT":"Trường THPT Vĩnh Long","Hiệu trưởng":"Võ Tấn Phát","Điện thoại hiệu trưởng":"0985944490","Loại hình":"Công lập","Loại trường":"Trường phổ thông","Đạt CQG (MĐ)\t":"Đạt chuẩn mức 1","Địa chỉ trường":"33/1 Phạm Thái Bường, phường Phước Hậu","Thư điện tử":"c3vinhlong@vinhlong.edu.vn","Địa chỉ web trường":"c3vinhlong.vinhlong.edu.vn","Số điện thoại trường   ":"02703822523","layer_id":316,"fid":107,"label":"Trường THPT Vĩnh Long"}},{"type":"Feature","geometry":{"type":"Point","coordinates":[105.743962,10.108435]},"properties":{"Trường THPT":"Trường THPT Tân Quới","Hiệu trưởng":"Nguyễn Tấn Phát","Điện thoại hiệu trưởng":"0987990821","Loại hình":"Công lập","Loại trường":"Trường phổ thông","Đạt CQG (MĐ)\t":"Đạt chuẩn mức 1","Địa chỉ trường":"Tổ 16, ấp Tân Thuận, xã Tân Quới","Thư điện tử":"c3tanquoi@vinhlong.edu.vn","Địa chỉ web trường":"http://c3tanquoi.vinhlong.edu.vn","Số điện thoại trường   ":"02703760015","layer_id":316,"fid":108,"label":"Trường THPT Tân Quới"}},{"type":"Feature","geometry":{"type":"Point","coordinates":[106.082379,9.959047]},"properties":{"Trường THPT":"Trường THPT Hựu Thành","Hiệu trưởng":"Huỳnh Ngọc Mỹ Xuyên","Điện thoại hiệu trưởng":"0907486644","Loại hình":"Công lập","Loại trường":"Trường phổ thông","Đạt CQG (MĐ)\t":null,"Địa chỉ trường":"Ấp Khu Phố, xã Vĩnh Xuân","Thư điện tử":"c3huuthanh@vinhlong.edu.vn","Địa chỉ web trường":"https://c3huuthanh.vinhlong.edu.vn/","Số điện thoại trường   ":"02703889127","layer_id":316,"fid":109,"label":"Trường THPT Hựu Thành"}},{"type":"Feature","geometry":{"type":"Point","coordinates":[106.006822,9.952463]},"properties":{"Trường THPT":"Trường THPT Vĩnh Xuân","Hiệu trưởng":"Trần Quang Huy","Điện thoại hiệu trưởng":"0907571928","Loại hình":"Công lập","Loại trường":"Trường phổ thông","Đạt CQG (MĐ)\t":"Đạt chuẩn mức 1","Địa chỉ trường":"ấp Vĩnh Trinh, Xã Vĩnh Xuân","Thư điện tử":"c3vinhxuan@vinhlong.edu.vn","Địa chỉ web trường":"https://c3vinhxuan.vinhlong.edu.vn/","Số điện thoại trường   ":"02703884869","layer_id":316,"fid":110,"label":"Trường THPT Vĩnh Xuân"}},{"type":"Feature","geometry":{"type":"Point","coordinates":[105.988454325,10.0535047]},"properties":{"Trường THPT":"TRƯỜNG PTDTNT VĨNH LONG","Hiệu trưởng":"Bùi Minh Hiếu","Điện thoại hiệu trưởng":"0983718369","Loại hình":"Công lập","Loại trường":"Phổ thông dân tộc nội trú","Đạt CQG (MĐ)\t":"Đạt chuẩn mức 1","Địa chỉ trường":"xã Tam Bình","Thư điện tử":null,"Địa chỉ web trường":null,"Số điện thoại trường   ":null,"layer_id":316,"fid":134,"label":"TRƯỜNG PTDTNT VĨNH LONG"}},{"type":"Feature","geometry":{"type":"Point","coordinates":[105.932180567,9.961439397]},"properties":{"Trường THPT":"Trường Trung học phổ thông Lê Thanh Mừng","Hiệu trưởng":"Lê Hoàng Khải","Điện thoại hiệu trưởng":"0903415772","Loại hình":"Công lập","Loại trường":"Trường phổ thông","Đạt CQG (MĐ)\t":null,"Địa chỉ trường":"Ấp Giồng Thanh Bạch, xã Trà Ôn","Thư điện tử":"c3lethanhmung@vinhlong.edu.vn","Địa chỉ web trường":"https://c3lethanhmung.vinhlong.edu.vn","Số điện thoại trường   ":"02703770235","layer_id":316,"fid":111,"label":"Trường Trung học phổ thông Lê Thanh Mừng"}},{"type":"Feature","geometry":{"type":"Point","coordinates":[105.988455463,10.048069947]},"properties":{"Trường THPT":"TRƯỜNG THPT TRẦN ĐẠI NGHĨA","Hiệu trưởng":"Nguyễn Thị Minh Hiền","Điện thoại hiệu trưởng":"0907311079","Loại hình":"Công lập","Loại trường":"Trường phổ thông","Đạt CQG (MĐ)\t":"Đạt chuẩn mức 1","Địa chỉ trường":"xã Tam Bình","Thư điện tử":"c3trandainghia@vinhlong.edu.vn","Địa chỉ web trường":"c3trandainghia.vinhlong.edu.vn","Số điện thoại trường   ":"02703713199","layer_id":316,"fid":112,"label":"TRƯỜNG THPT TRẦN ĐẠI NGHĨA"}},{"type":"Feature","geometry":{"type":"Point","coordinates":[105.810972,10.065971]},"properties":{"Trường THPT":"Trường THPT Hoàng Thái Hiếu","Hiệu trưởng":"Nguyễn Thị Hằng","Điện thoại hiệu trưởng":"0908831785","Loại hình":"Công lập","Loại trường":"Trường phổ thông","Đạt CQG (MĐ)\t":null,"Địa chỉ trường":"Tổ 1, khóm 2, Phường Cái Vồn","Thư điện tử":"c3hoangthaihieu@vinhlong.edu.vn","Địa chỉ web trường":"http://c3hoangthaihieu.vinhlong.edu.vn","Số điện thoại trường   ":"02703891755","layer_id":316,"fid":113,"label":"Trường THPT Hoàng Thái Hiếu"}},{"type":"Feature","geometry":{"type":"Point","coordinates":[106.120347452,10.0828938]},"properties":{"Trường THPT":"Trường THPT Hiếu Phụng","Hiệu trưởng":"Nguyễn Du Phúc","Điện thoại hiệu trưởng":"0918351221","Loại hình":"Công lập","Loại trường":"Trường phổ thông","Đạt CQG (MĐ)\t":null,"Địa chỉ trường":"Ấp Tân Quang xã Hiếu Phụng ","Thư điện tử":"c3hieuphung@vinhlong.edu.vn","Địa chỉ web trường":"https://c3hieuphung@vinhlongvn","Số điện thoại trường   ":"02703874360","layer_id":316,"fid":114,"label":"Trường THPT Hiếu Phụng"}},{"type":"Feature","geometry":{"type":"Point","coordinates":[105.996087,10.054379]},"properties":{"Trường THPT":"Trường THPT Tam Bình","Hiệu trưởng":"Võ Văn Hoàng","Điện thoại hiệu trưởng":"0939135535","Loại hình":"Công lập","Loại trường":"Trường phổ thông","Đạt CQG (MĐ)\t":"Đạt chuẩn mức 1","Địa chỉ trường":"Ấp 2, xã Tam Bình ","Thư điện tử":"c3tambinh@vinhlong.edu.vn","Địa chỉ web trường":"c3tambinh.vinhlong.edu.vn","Số điện thoại trường   ":"0270 3860 367","layer_id":316,"fid":115,"label":"Trường THPT Tam Bình"}},{"type":"Feature","geometry":{"type":"Point","coordinates":[106.192077282,10.091769551]},"properties":{"Trường THPT":"Trường Trung học phổ thông Nguyễn Hiếu Tự","Hiệu trưởng":"Nguyễn Văn Vũ","Điện thoại hiệu trưởng":"0984643538","Loại hình":"Công lập","Loại trường":"Trường phổ thông","Đạt CQG (MĐ)\t":null,"Địa chỉ trường":"Ấp Phong Thới, xã Trung Thành","Thư điện tử":"c3nguyenhieutu@vinhlong.edu.vn","Địa chỉ web trường":"c3nguyenhieutu.vinhlong.edu.vn","Số điện thoại trường   ":"02703870067","layer_id":316,"fid":116,"label":"Trường Trung học phổ thông Nguyễn Hiếu Tự"}},{"type":"Feature","geometry":{"type":"Point","coordinates":[106.003059,10.203039]},"properties":{"Trường THPT":"Trường THPT Phạm Hùng","Hiệu trưởng":"Lạc Minh Sơn","Điện thoại hiệu trưởng":"0972461354","Loại hình":"Công lập","Loại trường":"Trường phổ thông","Đạt CQG (MĐ)\t":"Đạt chuẩn mức 1","Địa chỉ trường":"Ấp Long Thới A, xã Long Hồ","Thư điện tử":"c3phamhung@vinhlong.edu.vn","Địa chỉ web trường":"https://c3phamhung.vinhlong.edu.vn","Số điện thoại trường   ":"02706283456","layer_id":316,"fid":117,"label":"Trường THPT Phạm Hùng"}},{"type":"Feature","geometry":{"type":"Point","coordinates":[106.114136,10.177441]},"properties":{"Trường THPT":"Trường THPT Mang Thít","Hiệu trưởng":"Đặng Phúc Thịnh","Điện thoại hiệu trưởng":"0988138028","Loại hình":"Công lập","Loại trường":"Trường phổ thông","Đạt CQG (MĐ)\t":"Đạt chuẩn mức 1","Địa chỉ trường":"Khóm 1, xã Cái Nhum","Thư điện tử":"c3mangthit@vinhlong.edu.vn","Địa chỉ web trường":"c3manghthit.vinhlong.edu.vn","Số điện thoại trường   ":"02703840257","layer_id":316,"fid":118,"label":"Trường THPT Mang Thít"}},{"type":"Feature","geometry":{"type":"Point","coordinates":[105.718946,10.139118]},"properties":{"Trường THPT":"Trường THPT Tân Lược","Hiệu trưởng":null,"Điện thoại hiệu trưởng":null,"Loại hình":"Công lập","Loại trường":"Trường phổ thông","Đạt CQG (MĐ)\t":null,"Địa chỉ trường":"Tổ 13, ấp Tân Lộc, Tân Lược","Thư điện tử":"c3tanluoc@vinhlong.edu.vn","Địa chỉ web trường":"https://c3tanluoc.vinhlong.edu.vn/","Số điện thoại trường   ":"02703754020","layer_id":316,"fid":119,"label":"Trường THPT Tân Lược"}},{"type":"Feature","geometry":{"type":"Point","coordinates":[106.112328,10.177283]},"properties":{"Trường THPT":"Trường THPT Nguyễn Văn Thiệt","Hiệu trưởng":"Nguyễn Văn Tri Ngôn","Điện thoại hiệu trưởng":"0917234269","Loại hình":"Công lập","Loại trường":"Trường phổ thông","Đạt CQG (MĐ)\t":null,"Địa chỉ trường":"Khóm 4, Xã Cái Nhum","Thư điện tử":"c3nguyenvanthiet@vinhlong.edu.vn","Địa chỉ web trường":"c3nguyenvanthiet.vinhlong.edu.vn","Số điện thoại trường   ":"02703840677","layer_id":316,"fid":120,"label":"Trường THPT Nguyễn Văn Thiệt"}},{"type":"Feature","geometry":{"type":"Point","coordinates":[105.980982309,10.241349001]},"properties":{"Trường THPT":"Trường THPT Chuyên Nguyễn Bỉnh Khiêm","Hiệu trưởng":"Nguyễn Hồng Bảo","Điện thoại hiệu trưởng":"0971079323","Loại hình":"Công lập","Loại trường":"Trường chuyên","Đạt CQG (MĐ)\t":"Đạt chuẩn mức 1","Địa chỉ trường":"Số 157, Khóm 4, đường Phạm Thái Bường, phường Phước Hậu, tỉnh Vĩnh Long","Thư điện tử":"c3nguyenbinhkhiem@vinhlong.edu.vn","Địa chỉ web trường":"c3nguyenbinhkhiem.vinhlong.edu.vn","Số điện thoại trường   ":"02703822734","layer_id":316,"fid":121,"label":"Trường THPT Chuyên Nguyễn Bỉnh Khiêm"}},{"type":"Feature","geometry":{"type":"Point","coordinates":[106.179938106,10.096648618]},"properties":{"Trường THPT":"Trường THPT VÕ VĂN KIỆT","Hiệu trưởng":"Nguyễn Thị Diễm Trang","Điện thoại hiệu trưởng":"0369769607","Loại hình":"Công lập","Loại trường":"Trường phổ thông","Đạt CQG (MĐ)\t":"Đạt chuẩn mức 1","Địa chỉ trường":"ấp Trung Tín, xã Trung Thành","Thư điện tử":"c3vovankiet@vinhlong.edu.vn","Địa chỉ web trường":"c3vovankiet.vinhlong.edu.vn","Số điện thoại trường   ":"02703971134","layer_id":316,"fid":122,"label":"Trường THPT VÕ VĂN KIỆT"}},{"type":"Feature","geometry":{"type":"Point","coordinates":[105.997547,10.280677]},"properties":{"Trường THPT":"Trường THPT Hòa Ninh","Hiệu trưởng":"Ngô Văn Degol","Điện thoại hiệu trưởng":"0988353059","Loại hình":"Công lập","Loại trường":"Trường phổ thông","Đạt CQG (MĐ)\t":null,"Địa chỉ trường":"Ấp Bình Thuận 2, xã An Bình","Thư điện tử":"c3hoaninh@vinhlong.edu.vn","Địa chỉ web trường":"c3hoaninh.vinhlong.edu.vn","Số điện thoại trường   ":"02703954554","layer_id":316,"fid":123,"label":"Trường THPT Hòa Ninh"}},{"type":"Feature","geometry":{"type":"Point","coordinates":[105.901986467,10.107893425]},"properties":{"Trường THPT":"Trung học phổ thông Song Phú","Hiệu trưởng":"Trần Hòa Nhã","Điện thoại hiệu trưởng":"0971209689","Loại hình":"Công lập","Loại trường":"Trường phổ thông","Đạt CQG (MĐ)\t":"Đạt chuẩn mức 1","Địa chỉ trường":"Ấp Phú Trường Yên, xã Song Phú","Thư điện tử":"C3songphu@vinhlong.edu.vn","Địa chỉ web trường":" https://c3songphu.vinhlong.edu.vn/","Số điện thoại trường   ":"02703724779","layer_id":316,"fid":124,"label":"Trung học phổ thông Song Phú"}},{"type":"Feature","geometry":{"type":"Point","coordinates":[105.954498,10.229932]},"properties":{"Trường THPT":"Trường THCS Và THPT Trưng Vương","Hiệu trưởng":"Lê Thị Trang","Điện thoại hiệu trưởng":"0975937346","Loại hình":"Công lập","Loại trường":"Trường phổ thông","Đạt CQG (MĐ)\t":null,"Địa chỉ trường":"Số 12, Đinh Tiên Hoàng, Phường Tân Hạnh","Thư điện tử":"c3nguyenthong@vinhlong.edu.vn","Địa chỉ web trường":"c3nguyenthong@vinhlong.edu.vn","Số điện thoại trường   ":"02703823409","layer_id":316,"fid":125,"label":"Trường THCS Và THPT Trưng Vương"}},{"type":"Feature","geometry":{"type":"Point","coordinates":[105.923602,10.161127]},"properties":{"Trường THPT":"Trường THCS và THPT Phú Quới","Hiệu trưởng":"Nguyễn Vĩnh Ca","Điện thoại hiệu trưởng":"0935188202","Loại hình":"Công lập","Loại trường":"Trường phổ thông","Đạt CQG (MĐ)\t":null,"Địa chỉ trường":"xã Phú Quới","Thư điện tử":"c3phuquoi@vinhlong.edu.vn","Địa chỉ web trường":"c23phuquoi.vinhlong.edu.vn","Số điện thoại trường   ":"02702463466","layer_id":316,"fid":126,"label":"Trường THCS và THPT Phú Quới"}},{"type":"Feature","geometry":{"type":"Point","coordinates":[105.910612,10.079523]},"properties":{"Trường THPT":"Trường THCS và THPT Long Phú","Hiệu trưởng":"Hứa Khắc Liệt","Điện thoại hiệu trưởng":"0907021217","Loại hình":"Công lập","Loại trường":"Trường phổ thông","Đạt CQG (MĐ)\t":null,"Địa chỉ trường":"Ấp Phú Sơn A, xã Song Phú","Thư điện tử":" c3longphu@vinhlong.edu.vn","Địa chỉ web trường":"https://c23longphu.vinhlong.edu.vn","Số điện thoại trường   ":"02703864312","layer_id":316,"fid":127,"label":"Trường THCS và THPT Long Phú"}},{"type":"Feature","geometry":{"type":"Point","coordinates":[105.966175,10.117654]},"properties":{"Trường THPT":"Trường THPT Phan Văn Hòa","Hiệu trưởng":null,"Điện thoại hiệu trưởng":null,"Loại hình":"Công lập","Loại trường":"Trường phổ thông","Đạt CQG (MĐ)\t":"Đạt chuẩn mức 1","Địa chỉ trường":"Ấp 6, xã Cái Ngang","Thư điện tử":"c3phanvanhoa@vinhlong.edu.vn","Địa chỉ web trường":"http://c3phanvanhoa.vinhlong.edu.vn/","Số điện thoại trường   ":"02703718119","layer_id":316,"fid":128,"label":"Trường THPT Phan Văn Hòa"}},{"type":"Feature","geometry":{"type":"Point","coordinates":[106.048159,10.038005]},"properties":{"Trường THPT":"Trường THCS và THPT Hòa Bình","Hiệu trưởng":"Nguyễn Thị Hoài Dung","Điện thoại hiệu trưởng":"0932882001","Loại hình":"Công lập","Loại trường":"Trường phổ thông","Đạt CQG (MĐ)\t":null,"Địa chỉ trường":"Ấp Tân Thuận, Xã Hoà Bình","Thư điện tử":"c3hoabinh@vinhlong.edu.vn","Địa chỉ web trường":"http://c23hoabinh.vinhlong.edu.vn","Số điện thoại trường   ":"02703722242","layer_id":316,"fid":129,"label":"Trường THCS và THPT Hòa Bình"}},{"type":"Feature","geometry":{"type":"Point","coordinates":[106.11108,10.03362]},"properties":{"Trường THPT":"Trường THCS và THPT Hiếu Nhơn","Hiệu trưởng":null,"Điện thoại hiệu trưởng":null,"Loại hình":"Công lập","Loại trường":"Trường phổ thông","Đạt CQG (MĐ)\t":null,"Địa chỉ trường":"Xã Hiếu Thành","Thư điện tử":"c3hieunhon@vinhlong.edu.vn","Địa chỉ web trường":"https://c23hieunhon@vinhlong.edu.vn","Số điện thoại trường   ":"02703987344","layer_id":316,"fid":130,"label":"Trường THCS và THPT Hiếu Nhơn"}},{"type":"Feature","geometry":{"type":"Point","coordinates":[106.096465,10.23244]},"properties":{"Trường THPT":"Trường THCS và THPT Mỹ Phước","Hiệu trưởng":"Nguyễn Phước Điền","Điện thoại hiệu trưởng":"0978216218","Loại hình":"Công lập","Loại trường":"Trường phổ thông","Đạt CQG (MĐ)\t":null,"Địa chỉ trường":"Ấp Cái Kè, xã Nhơn Phú","Thư điện tử":"c3myphuoc@vinhlong.edu.vn","Địa chỉ web trường":"c23myphuoc.vinhlong.edu.vn","Số điện thoại trường   ":"02703840700","layer_id":316,"fid":131,"label":"Trường THCS và THPT Mỹ Phước"}},{"type":"Feature","geometry":{"type":"Point","coordinates":[105.83125,10.106507]},"properties":{"Trường THPT":"Trường THCS và THPT Mỹ Thuận","Hiệu trưởng":"Nguyễn Bảo Luân","Điện thoại hiệu trưởng":"0918551811","Loại hình":"Công lập","Loại trường":"Trường phổ thông","Đạt CQG (MĐ)\t":"Đạt chuẩn mức 1","Địa chỉ trường":"Ấp Mỹ Thạnh A, Mỹ Thuận","Thư điện tử":"c3mythuan@vinhlong.edu.vn","Địa chỉ web trường":"https://c23mythuan.vinhlong.edu.vn","Số điện thoại trường   ":"02703891157","layer_id":316,"fid":132,"label":"Trường THCS và THPT Mỹ Thuận"}},{"type":"Feature","geometry":{"type":"Point","coordinates":[105.857322,10.011954]},"properties":{"Trường THPT":"Trường THCS và THPT Đông Thành","Hiệu trưởng":"TRẦN HOÀNG PHONG","Điện thoại hiệu trưởng":"0907471960","Loại hình":"Công lập","Loại trường":"Trường phổ thông","Đạt CQG (MĐ)\t":null,"Địa chỉ trường":"Ấp Đông Hưng 3, Phường Đông Thành","Thư điện tử":"c3dongthanh@vinhlong.edu.vn","Địa chỉ web trường":"https://c23dongthanh.vinhlong.edu.vn/","Số điện thoại trường   ":"02703763439","layer_id":316,"fid":133,"label":"Trường THCS và THPT Đông Thành"}},{"type":"Feature","geometry":{"type":"Point","coordinates":[106.082384,10.101702]},"properties":{"Trường THPT":"THCS và THPT Phan Văn Đáng","Hiệu trưởng":"Lê Thị Cẩm Loan","Điện thoại hiệu trưởng":"0974323400","Loại hình":"Công lập","Loại trường":"Trường phổ thông","Đạt CQG (MĐ)\t":null,"Địa chỉ trường":"ấp 8, xã Trung Hiệp","Thư điện tử":"c3phanvandang@vinhlong.edu.vn","Địa chỉ web trường":"https://c23phanvandang.vinhlong.edu.vn/","Số điện thoại trường   ":"02703874135","layer_id":316,"fid":135,"label":"THCS và THPT Phan Văn Đáng"}},{"type":"Feature","geometry":{"type":"Point","coordinates":[106.223713,10.115665]},"properties":{"Trường THPT":"Trường Trung học cơ sở - Trung học phổ thông Thanh Bình","Hiệu trưởng":"Nguyễn Hồng Phương","Điện thoại hiệu trưởng":"0985915260","Loại hình":"Công lập","Loại trường":"Trường phổ thông","Đạt CQG (MĐ)\t":null,"Địa chỉ trường":"Ấp Thanh Lương - xã  Quới Thiện","Thư điện tử":"c3thanhbinh@vinhlong.edu.vn","Địa chỉ web trường":"https://c23thanhbinh.vinhlong.edu.vn/","Số điện thoại trường   ":"02703980717","layer_id":316,"fid":136,"label":"Trường Trung học cơ sở - Trung học phổ thông Thanh Bình"}}]}
