{"type":"FeatureCollection","name":"QH Trường Mầm non, Mẫu giáo","metadata":{"source":"https://hatang.vinhlong.gov.vn/","downloaded_at":"2026-07-20T01:16:38+00:00","layer_id":317,"layer_name":"QH Trường Mầm non, Mẫu giáo","catalog_endpoints":["/map/publicLayers2?inputs=sogddt_quyhoach"],"requested_bbox":[104.0,8.0,108.0,12.0],"tile_size":0.0,"tile_count":1,"tile_errors":[],"feature_count":123,"coordinate_order":"x,y (thường là longitude,latitude theo cấu hình EPSG:4326 của WebGIS)"},"features":[{"type":"Feature","geometry":{"type":"Point","coordinates":[105.971307,10.250886]},"properties":{"Mã số":1,"Trường Mầm non, Mẫu giáo":"Trường Mầm non Huỳnh Kim Phụng","Địa chỉ trường":"116A, Nguyễn Thị Minh Khai, Phường 1, thành phố Vĩnh Long","Cấp học\t\t\t":"Mầm non","Loại hình\t\t":"Công lập","Số điện thoại trường    ":"02703822749","Số nhóm lớp\t":"19","Số trẻ\t\t":"420","Số điểm lẻ\t":"0","Đạt CQG (MĐ)\t":"Mức độ 1","Dự kiến sáp nhập":null,"Ghi chú\t\t\t":null,"layer_id":317,"fid":1,"label":"Trường Mầm non Huỳnh Kim Phụng","Xã/Phường":"Phường 1","Quận/Huyện":"Vĩnh Long"}},{"type":"Feature","geometry":{"type":"Point","coordinates":[105.976421,10.253836]},"properties":{"Mã số":2,"Trường Mầm non, Mẫu giáo":"Trường Mầm non Hoa Lan","Địa chỉ trường":"55A, đường 30/4, Phường 1, thành phố Vĩnh Long","Cấp học\t\t\t":"Mầm non","Loại hình\t\t":"Công lập","Số điện thoại trường    ":"02703822947\n","Số nhóm lớp\t":"18","Số trẻ\t\t":"495","Số điểm lẻ\t":"1","Đạt CQG (MĐ)\t":"Mức độ 1","Dự kiến sáp nhập":null,"Ghi chú\t\t\t":null,"layer_id":317,"fid":2,"label":"Trường Mầm non Hoa Lan","Xã/Phường":"Phường 1","Quận/Huyện":"Vĩnh Long"}},{"type":"Feature","geometry":{"type":"Point","coordinates":[105.96738578,10.252691421]},"properties":{"Mã số":3,"Trường Mầm non, Mẫu giáo":"Trường Mầm non 2","Địa chỉ trường":"55, Lê Thái Tổ, Khóm 7, Phường 2, thành phố Vĩnh Long","Cấp học\t\t\t":"Mầm non","Loại hình\t\t":"Công lập","Số điện thoại trường    ":"02703863076","Số nhóm lớp\t":"15","Số trẻ\t\t":"440","Số điểm lẻ\t":"0","Đạt CQG (MĐ)\t":" ","Dự kiến sáp nhập":null,"Ghi chú\t\t\t":null,"layer_id":317,"fid":3,"label":"Trường Mầm non 2","Xã/Phường":"Phường 2","Quận/Huyện":"Vĩnh Long"}},{"type":"Feature","geometry":{"type":"Point","coordinates":[105.965735,10.235259]},"properties":{"Mã số":4,"Trường Mầm non, Mẫu giáo":"Trường Mầm non 3","Địa chỉ trường":"71, Mậu Thân, Khóm 3, Phường 3, thành phố Vĩnh Long","Cấp học\t\t\t":"Mầm non","Loại hình\t\t":"Công lập","Số điện thoại trường    ":"02706250192","Số nhóm lớp\t":"12","Số trẻ\t\t":"360","Số điểm lẻ\t":"1","Đạt CQG (MĐ)\t":" ","Dự kiến sáp nhập":null,"Ghi chú\t\t\t":null,"layer_id":317,"fid":4,"label":"Trường Mầm non 3","Xã/Phường":"Phường 3","Quận/Huyện":"Vĩnh Long"}},{"type":"Feature","geometry":{"type":"Point","coordinates":[105.98279,10.239313]},"properties":{"Mã số":5,"Trường Mầm non, Mẫu giáo":"Trường Mầm non 4","Địa chỉ trường":"249/5, đường Phạm Thái Bường, Khóm 4, Phường 4, thành phố Vĩnh Long","Cấp học\t\t\t":"Mầm non","Loại hình\t\t":"Công lập","Số điện thoại trường    ":"02703829508","Số nhóm lớp\t":"12","Số trẻ\t\t":"350","Số điểm lẻ\t":"2","Đạt CQG (MĐ)\t":" ","Dự kiến sáp nhập":null,"Ghi chú\t\t\t":null,"layer_id":317,"fid":5,"label":"Trường Mầm non 4","Xã/Phường":"Phường 4","Quận/Huyện":"Vĩnh Long"}},{"type":"Feature","geometry":{"type":"Point","coordinates":[105.98487,10.22961]},"properties":{"Mã số":6,"Trường Mầm non, Mẫu giáo":"Trường Mầm non Sao Mai","Địa chỉ trường":"G1, Trần Phú, Khóm 6, Phường 4, thành phố Vĩnh Long","Cấp học\t\t\t":"Mầm non","Loại hình\t\t":"Công lập","Số điện thoại trường    ":"02703852800","Số nhóm lớp\t":"10","Số trẻ\t\t":"300","Số điểm lẻ\t":"0","Đạt CQG (MĐ)\t":"Mức độ 1","Dự kiến sáp nhập":null,"Ghi chú\t\t\t":null,"layer_id":317,"fid":6,"label":"Trường Mầm non Sao Mai","Xã/Phường":"Phường 4","Quận/Huyện":"Vĩnh Long"}},{"type":"Feature","geometry":{"type":"Point","coordinates":[105.987961,10.240948]},"properties":{"Mã số":7,"Trường Mầm non, Mẫu giáo":"Trường Mầm non 5","Địa chỉ trường":"100, đường 8/3 Khóm 4, Phường 5 , thành phố Vĩnh Long","Cấp học\t\t\t":"Mầm non","Loại hình\t\t":"Công lập","Số điện thoại trường    ":"02703829465","Số nhóm lớp\t":"13","Số trẻ\t\t":"360","Số điểm lẻ\t":"2","Đạt CQG (MĐ)\t":"Mức độ 1","Dự kiến sáp nhập":null,"Ghi chú\t\t\t":null,"layer_id":317,"fid":7,"label":"Trường Mầm non 5","Xã/Phường":"Phường 5","Quận/Huyện":"Vĩnh Long"}},{"type":"Feature","geometry":{"type":"Point","coordinates":[105.947452,10.232329]},"properties":{"Mã số":8,"Trường Mầm non, Mẫu giáo":"Trường Mầm non 8","Địa chỉ trường":"K1, Đinh Tiên Hoàng,  Khóm 5, Phường 8, thành phố Vĩnh Long","Cấp học\t\t\t":"Mầm non","Loại hình\t\t":"Công lập","Số điện thoại trường    ":"02703824326","Số nhóm lớp\t":"13","Số trẻ\t\t":"400","Số điểm lẻ\t":"1","Đạt CQG (MĐ)\t":"Mức độ 1","Dự kiến sáp nhập":null,"Ghi chú\t\t\t":null,"layer_id":317,"fid":8,"label":"Trường Mầm non 8","Xã/Phường":"Phường 8","Quận/Huyện":"Vĩnh Long"}},{"type":"Feature","geometry":{"type":"Point","coordinates":[105.942633,10.250182]},"properties":{"Mã số":9,"Trường Mầm non, Mẫu giáo":"Trường Mầm non 9","Địa chỉ trường":"109D, Võ Văn Kiệt, Khóm 3, Phường 9, thành phố Vĩnh Long","Cấp học\t\t\t":"Mầm non","Loại hình\t\t":"Công lập","Số điện thoại trường    ":"02703824467","Số nhóm lớp\t":"12","Số trẻ\t\t":"340","Số điểm lẻ\t":"0","Đạt CQG (MĐ)\t":"Mức độ 1","Dự kiến sáp nhập":null,"Ghi chú\t\t\t":null,"layer_id":317,"fid":9,"label":"Trường Mầm non 9","Xã/Phường":"Phường 9","Quận/Huyện":"Vĩnh Long"}},{"type":"Feature","geometry":{"type":"Point","coordinates":[105.95847,10.257698]},"properties":{"Mã số":10,"Trường Mầm non, Mẫu giáo":"Trường Mầm non Thực hành Măng non Phường 9","Địa chỉ trường":"200, Phạm Hùng, Phường 9, thành phố Vĩnh Long","Cấp học\t\t\t":"Mầm non","Loại hình\t\t":"Công lập","Số điện thoại trường    ":"02703823687","Số nhóm lớp\t":"12","Số trẻ\t\t":"320","Số điểm lẻ\t":"0","Đạt CQG (MĐ)\t":" ","Dự kiến sáp nhập":null,"Ghi chú\t\t\t":null,"layer_id":317,"fid":10,"label":"Trường Mầm non Thực hành Măng non Phường 9","Xã/Phường":"Phường 9","Quận/Huyện":"Vĩnh Long"}},{"type":"Feature","geometry":{"type":"Point","coordinates":[105.934933,10.257514]},"properties":{"Mã số":11,"Trường Mầm non, Mẫu giáo":"Trường Mầm non Sơn Ca Trường An","Địa chỉ trường":"Số 579, khóm Tân Quới Đông, phường Trường An, thành phố Vĩnh Long","Cấp học\t\t\t":"Mầm non","Loại hình\t\t":"Công lập","Số điện thoại trường    ":"02703816348","Số nhóm lớp\t":"9","Số trẻ\t\t":"230","Số điểm lẻ\t":"2","Đạt CQG (MĐ)\t":"Mức độ 1","Dự kiến sáp nhập":null,"Ghi chú\t\t\t":null,"layer_id":317,"fid":11,"label":"Trường Mầm non Sơn Ca Trường An","Xã/Phường":"Phường Long Châu","Quận/Huyện":"Vĩnh Long"}},{"type":"Feature","geometry":{"type":"Point","coordinates":[105.924635,10.264397]},"properties":{"Mã số":12,"Trường Mầm non, Mẫu giáo":"Trường Mầm non Sơn Ca Tân Ngãi","Địa chỉ trường":"Đường số 9ND, khóm Vĩnh Hòa, phường Tân Ngãi, thành phố Vĩnh Long","Cấp học\t\t\t":"Mầm non","Loại hình\t\t":"Công lập","Số điện thoại trường    ":"02703815907","Số nhóm lớp\t":"10","Số trẻ\t\t":"290","Số điểm lẻ\t":"2","Đạt CQG (MĐ)\t":"Mức độ 2","Dự kiến sáp nhập":null,"Ghi chú\t\t\t":null,"layer_id":317,"fid":12,"label":"Trường Mầm non Sơn Ca Tân Ngãi","Xã/Phường":"Phường Tân Ngãi","Quận/Huyện":"Vĩnh Long"}},{"type":"Feature","geometry":{"type":"Point","coordinates":[105.90981,10.260592]},"properties":{"Mã số":13,"Trường Mầm non, Mẫu giáo":"Trường Mầm non Tuổi Xanh 1","Địa chỉ trường":"khóm Tân phú, phường Tân Hòa, thành phố Vĩnh Long","Cấp học\t\t\t":"Mầm non","Loại hình\t\t":"Công lập","Số điện thoại trường    ":"02702205111","Số nhóm lớp\t":"9","Số trẻ\t\t":"265","Số điểm lẻ\t":"1","Đạt CQG (MĐ)\t":"Mức độ 1","Dự kiến sáp nhập":null,"Ghi chú\t\t\t":null,"layer_id":317,"fid":13,"label":"Trường Mầm non Tuổi Xanh 1","Xã/Phường":"Phường Tân Hòa","Quận/Huyện":"Vĩnh Long"}},{"type":"Feature","geometry":{"type":"Point","coordinates":[105.896282,10.2688]},"properties":{"Mã số":14,"Trường Mầm non, Mẫu giáo":"Trường Mầm non Tuổi Xanh 2","Địa chỉ trường":"khóm Mỹ Thuận, phường Tân Hội, thành phố Vĩnh Long","Cấp học\t\t\t":"Mầm non","Loại hình\t\t":"Công lập","Số điện thoại trường    ":"02703815890","Số nhóm lớp\t":"10","Số trẻ\t\t":"285","Số điểm lẻ\t":"1","Đạt CQG (MĐ)\t":"Mức độ 1","Dự kiến sáp nhập":null,"Ghi chú\t\t\t":null,"layer_id":317,"fid":14,"label":"Trường Mầm non Tuổi Xanh 2","Xã/Phường":"Phường Tân Hội","Quận/Huyện":"Vĩnh Long"}},{"type":"Feature","geometry":{"type":"Point","coordinates":[105.974731,10.253191]},"properties":{"Mã số":15,"Trường Mầm non, Mẫu giáo":"Nhà trẻ Trinh Vương","Địa chỉ trường":"32, Nguyễn Thị Minh Khai, Phường1, thành phố Vĩnh Long","Cấp học\t\t\t":"Mầm non","Loại hình\t\t":"Tư thục","Số điện thoại trường    ":"02703824963","Số nhóm lớp\t":"2","Số trẻ\t\t":"40","Số điểm lẻ\t":"0","Đạt CQG (MĐ)\t":" ","Dự kiến sáp nhập":null,"Ghi chú\t\t\t":null,"layer_id":317,"fid":15,"label":"Nhà trẻ Trinh Vương","Xã/Phường":"Phường 1","Quận/Huyện":"Vĩnh Long"}},{"type":"Feature","geometry":{"type":"Point","coordinates":[105.964674022,10.253818087]},"properties":{"Mã số":16,"Trường Mầm non, Mẫu giáo":"Trường Mầm non Thanh An","Địa chỉ trường":"141, Lê THái Tổ, Phường 2, thành phố Vĩnh Long","Cấp học\t\t\t":"Mầm non","Loại hình\t\t":"Tư thục","Số điện thoại trường    ":"02703828110","Số nhóm lớp\t":"16","Số trẻ\t\t":"630","Số điểm lẻ\t":"0","Đạt CQG (MĐ)\t":" ","Dự kiến sáp nhập":null,"Ghi chú\t\t\t":null,"layer_id":317,"fid":16,"label":"Trường Mầm non Thanh An","Xã/Phường":"Phường 2","Quận/Huyện":"Vĩnh Long"}},{"type":"Feature","geometry":{"type":"Point","coordinates":[105.96614,10.25627]},"properties":{"Mã số":17,"Trường Mầm non, Mẫu giáo":"Trường Mầm non Hoa Sen","Địa chỉ trường":"27, Xóm Bún, Phường 2, thành phố Vĩnh Long","Cấp học\t\t\t":"Mầm non","Loại hình\t\t":"Tư thục","Số điện thoại trường    ":"0939943488","Số nhóm lớp\t":"4","Số trẻ\t\t":"90","Số điểm lẻ\t":"0","Đạt CQG (MĐ)\t":" ","Dự kiến sáp nhập":null,"Ghi chú\t\t\t":null,"layer_id":317,"fid":17,"label":"Trường Mầm non Hoa Sen","Xã/Phường":"Phường 2","Quận/Huyện":"Vĩnh Long"}},{"type":"Feature","geometry":{"type":"Point","coordinates":[105.976704,10.247491]},"properties":{"Mã số":18,"Trường Mầm non, Mẫu giáo":"Trường Mầm non Mai Linh","Địa chỉ trường":"47/16, Phạm Thái Bường, Phường 4, thành phố Vĩnh Long","Cấp học\t\t\t":"Mầm non","Loại hình\t\t":"Tư thục","Số điện thoại trường    ":"02703822288","Số nhóm lớp\t":"8","Số trẻ\t\t":"220","Số điểm lẻ\t":"0","Đạt CQG (MĐ)\t":" ","Dự kiến sáp nhập":null,"Ghi chú\t\t\t":null,"layer_id":317,"fid":18,"label":"Trường Mầm non Mai Linh","Xã/Phường":"Phường 4","Quận/Huyện":"Vĩnh Long"}},{"type":"Feature","geometry":{"type":"Point","coordinates":[105.962864,10.255462]},"properties":{"Mã số":19,"Trường Mầm non, Mẫu giáo":"Trường Mầm non Bé By Ngoan","Địa chỉ trường":"52/22, Phạm Hùng, Phường 2, thành phố Vĩnh Long","Cấp học\t\t\t":"Mầm non","Loại hình\t\t":"Tư thục","Số điện thoại trường    ":"02703829767","Số nhóm lớp\t":"15","Số trẻ\t\t":"600","Số điểm lẻ\t":"0","Đạt CQG (MĐ)\t":" ","Dự kiến sáp nhập":null,"Ghi chú\t\t\t":null,"layer_id":317,"fid":19,"label":"Trường Mầm non Bé By Ngoan","Xã/Phường":"Phường 2","Quận/Huyện":"Vĩnh Long"}},{"type":"Feature","geometry":{"type":"Point","coordinates":[105.93984,10.261175]},"properties":{"Mã số":20,"Trường Mầm non, Mẫu giáo":"Trường Mầm non Diễm Phúc","Địa chỉ trường":"5/1A, Phạm Hùng, Phường 9, thành Phố Vĩnh Long","Cấp học\t\t\t":"Mầm non","Loại hình\t\t":"Tư thục","Số điện thoại trường    ":"02703829856","Số nhóm lớp\t":"9","Số trẻ\t\t":"260","Số điểm lẻ\t":"0","Đạt CQG (MĐ)\t":" ","Dự kiến sáp nhập":null,"Ghi chú\t\t\t":null,"layer_id":317,"fid":20,"label":"Trường Mầm non Diễm Phúc","Xã/Phường":"Phường 9","Quận/Huyện":"Vĩnh Long"}},{"type":"Feature","geometry":{"type":"Point","coordinates":[105.954201,10.227982]},"properties":{"Mã số":21,"Trường Mầm non, Mẫu giáo":"Trường Mầm non Sư phạm Thực hành","Địa chỉ trường":"112 A, Đinh Tiên Hoàng, Phường 8, thành phố Vĩnh Long","Cấp học\t\t\t":"Mầm non","Loại hình\t\t":"Tư thục","Số điện thoại trường    ":"0933070959","Số nhóm lớp\t":"6","Số trẻ\t\t":"120","Số điểm lẻ\t":"0","Đạt CQG (MĐ)\t":" ","Dự kiến sáp nhập":null,"Ghi chú\t\t\t":null,"layer_id":317,"fid":21,"label":"Trường Mầm non Sư phạm Thực hành","Xã/Phường":"Phường 8","Quận/Huyện":"Vĩnh Long"}},{"type":"Feature","geometry":{"type":"Point","coordinates":[105.969517,10.253741]},"properties":{"Mã số":22,"Trường Mầm non, Mẫu giáo":"Trường Mầm non Quốc Tế","Địa chỉ trường":"Lầu 1, số 64 đường Lê Văn Tám, Phường 1, thành phố Vĩnh Long","Cấp học\t\t\t":"Mầm non","Loại hình\t\t":"Tư thục","Số điện thoại trường    ":"02706277796","Số nhóm lớp\t":"18","Số trẻ\t\t":"424","Số điểm lẻ\t":"0","Đạt CQG (MĐ)\t":" ","Dự kiến sáp nhập":null,"Ghi chú\t\t\t":null,"layer_id":317,"fid":22,"label":"Trường Mầm non Quốc Tế","Xã/Phường":"Phường 1","Quận/Huyện":"Vĩnh Long"}},{"type":"Feature","geometry":{"type":"Point","coordinates":[105.958138,9.988538]},"properties":{"Mã số":23,"Trường Mầm non, Mẫu giáo":"Trường Mầm non Tân Mỹ","Địa chỉ trường":"ấp Mỹ An, xã Tân Mỹ, huyện Trà Ôn","Cấp học\t\t\t":"Mầm non","Loại hình\t\t":"Công lập","Số điện thoại trường    ":"02703775086","Số nhóm lớp\t":"15","Số trẻ\t\t":"390","Số điểm lẻ\t":"2","Đạt CQG (MĐ)\t":"Mức độ 1","Dự kiến sáp nhập":null,"Ghi chú\t\t\t":null,"layer_id":317,"fid":23,"label":"Trường Mầm non Tân Mỹ","Xã/Phường":"Xã Tân Mỹ","Quận/Huyện":"Huyện Trà Ôn"}},{"type":"Feature","geometry":{"type":"Point","coordinates":[106.047372,10.076409]},"properties":{"Mã số":24,"Trường Mầm non, Mẫu giáo":"Trường Mầm non Xuân Hiệp","Địa chỉ trường":"ấp Hồi Xuân, xã Xuân Hiệp, huyện Trà Ôn","Cấp học\t\t\t":"Mầm non","Loại hình\t\t":"Công lập","Số điện thoại trường    ":"02703789070","Số nhóm lớp\t":"11","Số trẻ\t\t":"281","Số điểm lẻ\t":"2","Đạt CQG (MĐ)\t":"Mức độ 1","Dự kiến sáp nhập":null,"Ghi chú\t\t\t":null,"layer_id":317,"fid":24,"label":"Trường Mầm non Xuân Hiệp","Xã/Phường":"Xã Xuân Hiệp","Quận/Huyện":"Huyện Trà Ôn"}},{"type":"Feature","geometry":{"type":"Point","coordinates":[106.00971,9.948479]},"properties":{"Mã số":25,"Trường Mầm non, Mẫu giáo":"Trường Mầm non Vĩnh Xuân","Địa chỉ trường":"ấp Vĩnh Trinh, xã Vĩnh Xuân, huyện Trà Ôn","Cấp học\t\t\t":"Mầm non","Loại hình\t\t":"Công lập","Số điện thoại trường    ":"02703884533","Số nhóm lớp\t":"19","Số trẻ\t\t":"500","Số điểm lẻ\t":"1","Đạt CQG (MĐ)\t":"Mức độ 1","Dự kiến sáp nhập":null,"Ghi chú\t\t\t":null,"layer_id":317,"fid":25,"label":"Trường Mầm non Vĩnh Xuân","Xã/Phường":"Xã Vĩnh Xuân","Quận/Huyện":"Huyện Trà Ôn"}},{"type":"Feature","geometry":{"type":"Point","coordinates":[105.976942,9.916287]},"properties":{"Mã số":26,"Trường Mầm non, Mẫu giáo":"Trường Mầm non Tích Thiện","Địa chỉ trường":"ấp Tích Lộc, xã Tích Thiện, huyện Trà Ôn","Cấp học\t\t\t":"Mầm non","Loại hình\t\t":"Công lập","Số điện thoại trường    ":"02703784297","Số nhóm lớp\t":"13","Số trẻ\t\t":"355","Số điểm lẻ\t":"1","Đạt CQG (MĐ)\t":"Mức độ 2","Dự kiến sáp nhập":null,"Ghi chú\t\t\t":null,"layer_id":317,"fid":26,"label":"Trường Mầm non Tích Thiện","Xã/Phường":"Xã Tích Thiện","Quận/Huyện":"Huyện Trà Ôn"}},{"type":"Feature","geometry":{"type":"Point","coordinates":[105.991528,10.016125]},"properties":{"Mã số":27,"Trường Mầm non, Mẫu giáo":"Trường Mầm non Trà Côn","Địa chỉ trường":"ấp Trà Ngoa, xã Trà côn, huyện Trà Ôn","Cấp học\t\t\t":"Mầm non","Loại hình\t\t":"Công lập","Số điện thoại trường    ":"02703723568","Số nhóm lớp\t":"20","Số trẻ\t\t":"530","Số điểm lẻ\t":"3","Đạt CQG (MĐ)\t":"Mức độ 1","Dự kiến sáp nhập":null,"Ghi chú\t\t\t":null,"layer_id":317,"fid":27,"label":"Trường Mầm non Trà Côn","Xã/Phường":"Xã Trà Côn","Quận/Huyện":"Huyện Trà Ôn"}},{"type":"Feature","geometry":{"type":"Point","coordinates":[105.880295,9.979309]},"properties":{"Mã số":28,"Trường Mầm non, Mẫu giáo":"Trường Mầm non Phú Thành","Địa chỉ trường":"ấp Phú Sung, xã Phú Thành, huyện Trà Ôn","Cấp học\t\t\t":"Mầm non","Loại hình\t\t":"Công lập","Số điện thoại trường    ":"02703781353","Số nhóm lớp\t":"9","Số trẻ\t\t":"180","Số điểm lẻ\t":"0","Đạt CQG (MĐ)\t":"Mức độ 2","Dự kiến sáp nhập":null,"Ghi chú\t\t\t":null,"layer_id":317,"fid":28,"label":"Trường Mầm non Phú Thành","Xã/Phường":"Xã Phú Thành","Quận/Huyện":"Huyện Trà Ôn"}},{"type":"Feature","geometry":{"type":"Point","coordinates":[105.962314,9.965973]},"properties":{"Mã số":29,"Trường Mầm non, Mẫu giáo":"Trường Mầm non Thiện Mỹ","Địa chỉ trường":"ấp Mỹ Trung, xã Thiện Mỹ, huyện Trà Ôn","Cấp học\t\t\t":"Mầm non","Loại hình\t\t":"Công lập","Số điện thoại trường    ":"02703776308","Số nhóm lớp\t":"13","Số trẻ\t\t":"290","Số điểm lẻ\t":"3","Đạt CQG (MĐ)\t":"Mức độ 1","Dự kiến sáp nhập":null,"Ghi chú\t\t\t":null,"layer_id":317,"fid":29,"label":"Trường Mầm non Thiện Mỹ","Xã/Phường":"Xã Thiện Mỹ","Quận/Huyện":"Huyện Trà Ôn"}},{"type":"Feature","geometry":{"type":"Point","coordinates":[106.01353,10.023]},"properties":{"Mã số":30,"Trường Mầm non, Mẫu giáo":"Trường Mầm non Nhơn Bình","Địa chỉ trường":"ấp Tường Ngãi, xã Nhơn Bình, huyện Trà Ôn","Cấp học\t\t\t":"Mầm non","Loại hình\t\t":"Công lập","Số điện thoại trường    ":"02703721515","Số nhóm lớp\t":"10","Số trẻ\t\t":"245","Số điểm lẻ\t":"1","Đạt CQG (MĐ)\t":"Mức độ 1","Dự kiến sáp nhập":null,"Ghi chú\t\t\t":null,"layer_id":317,"fid":30,"label":"Trường Mầm non Nhơn Bình","Xã/Phường":"Xã Trà Côn","Quận/Huyện":"Huyện Trà Ôn"}},{"type":"Feature","geometry":{"type":"Point","coordinates":[105.908888,9.954644]},"properties":{"Mã số":31,"Trường Mầm non, Mẫu giáo":"Trường Mầm non Lục Sĩ Thành","Địa chỉ trường":"ấp Tân An, xã Lục Sĩ Thành, huyện Trà Ôn","Cấp học\t\t\t":"Mầm non","Loại hình\t\t":"Công lập","Số điện thoại trường    ":"02703780813","Số nhóm lớp\t":"11","Số trẻ\t\t":"295","Số điểm lẻ\t":"3","Đạt CQG (MĐ)\t":"Mức độ 1","Dự kiến sáp nhập":null,"Ghi chú\t\t\t":null,"layer_id":317,"fid":31,"label":"Trường Mầm non Lục Sĩ Thành","Xã/Phường":"Xã Lục Sĩ Thành","Quận/Huyện":"Huyện Trà Ôn"}},{"type":"Feature","geometry":{"type":"Point","coordinates":[106.055659,9.947773]},"properties":{"Mã số":32,"Trường Mầm non, Mẫu giáo":"Trường Mầm non Thuận Thới","Địa chỉ trường":"ấp Cống Đá, xã Thuận Thới, huyện Trà Ôn","Cấp học\t\t\t":"Mầm non","Loại hình\t\t":"Công lập","Số điện thoại trường    ":"02703884460","Số nhóm lớp\t":"12","Số trẻ\t\t":"360","Số điểm lẻ\t":"1","Đạt CQG (MĐ)\t":"Mức độ 1","Dự kiến sáp nhập":null,"Ghi chú\t\t\t":null,"layer_id":317,"fid":32,"label":"Trường Mầm non Thuận Thới","Xã/Phường":"Xã Thuận Thới","Quận/Huyện":"Huyện Trà Ôn"}},{"type":"Feature","geometry":{"type":"Point","coordinates":[106.046998,10.037993]},"properties":{"Mã số":33,"Trường Mầm non, Mẫu giáo":"Trường Mầm non Hòa Bình ","Địa chỉ trường":"ấp Tân Thuận, xã Hòa Bình, huyện Trà Ôn","Cấp học\t\t\t":"Mầm non","Loại hình\t\t":"Công lập","Số điện thoại trường    ":"02703722080","Số nhóm lớp\t":"13","Số trẻ\t\t":"350","Số điểm lẻ\t":"1","Đạt CQG (MĐ)\t":"Mức độ 1","Dự kiến sáp nhập":null,"Ghi chú\t\t\t":null,"layer_id":317,"fid":33,"label":"Trường Mầm non Hòa Bình ","Xã/Phường":"Xã Hòa Bình","Quận/Huyện":"Huyện Trà Ôn"}},{"type":"Feature","geometry":{"type":"Point","coordinates":[106.08127,9.957289]},"properties":{"Mã số":34,"Trường Mầm non, Mẫu giáo":"Trường Mầm non Hựu Thành","Địa chỉ trường":"ấp Khu Phố, xã Hựu Thành, huyện Trà Ôn","Cấp học\t\t\t":"Mầm non","Loại hình\t\t":"Công lập","Số điện thoại trường    ":"02703889921","Số nhóm lớp\t":"17","Số trẻ\t\t":"500","Số điểm lẻ\t":"1","Đạt CQG (MĐ)\t":"Mức độ 1","Dự kiến sáp nhập":null,"Ghi chú\t\t\t":null,"layer_id":317,"fid":34,"label":"Trường Mầm non Hựu Thành","Xã/Phường":"Xã Hựu Thành","Quận/Huyện":"Huyện Trà Ôn"}},{"type":"Feature","geometry":{"type":"Point","coordinates":[106.038333,9.997702]},"properties":{"Mã số":35,"Trường Mầm non, Mẫu giáo":"Trường Mầm non Thới Hòa","Địa chỉ trường":"ấp Tường Hưng, xã Thới Hòa, huyện Trà Ôn","Cấp học\t\t\t":"Mầm non","Loại hình\t\t":"Công lập","Số điện thoại trường    ":"02703889370","Số nhóm lớp\t":"14","Số trẻ\t\t":"425","Số điểm lẻ\t":"2","Đạt CQG (MĐ)\t":"Mức độ 1","Dự kiến sáp nhập":null,"Ghi chú\t\t\t":null,"layer_id":317,"fid":35,"label":"Trường Mầm non Thới Hòa","Xã/Phường":"Xã Hựu Thành","Quận/Huyện":"Huyện Trà Ôn"}},{"type":"Feature","geometry":{"type":"Point","coordinates":[106.022184,10.157968]},"properties":{"Mã số":85,"Trường Mầm non, Mẫu giáo":"Trường Mầm non Long An ","Địa chỉ trường":"ấp Long Hiệp, xã Long An, huyện Long Hồ","Cấp học\t\t\t":"Mầm non","Loại hình\t\t":"Công lập","Số điện thoại trường    ":"02706295555","Số nhóm lớp\t":"12","Số trẻ\t\t":"310","Số điểm lẻ\t":"1","Đạt CQG (MĐ)\t":"Mức độ 1","Dự kiến sáp nhập":null,"Ghi chú\t\t\t":null,"layer_id":317,"fid":85,"label":"Trường Mầm non Long An ","Xã/Phường":"Xã Bình Phước","Quận/Huyện":"Huyện Mang Thít"}},{"type":"Feature","geometry":{"type":"Point","coordinates":[105.921261,9.96389]},"properties":{"Mã số":36,"Trường Mầm non, Mẫu giáo":"Trường Mầm non Ánh Dương","Địa chỉ trường":"Khu 2, thị trấn Trà Ôn, huyện Trà Ôn","Cấp học\t\t\t":"Mầm non","Loại hình\t\t":"Công lập","Số điện thoại trường    ":"02703770712","Số nhóm lớp\t":"20","Số trẻ\t\t":"502","Số điểm lẻ\t":"0","Đạt CQG (MĐ)\t":"Mức độ 2","Dự kiến sáp nhập":null,"Ghi chú\t\t\t":null,"layer_id":317,"fid":36,"label":"Trường Mầm non Ánh Dương","Xã/Phường":"Xã Trà Ôn","Quận/Huyện":"Huyện Trà Ôn"}},{"type":"Feature","geometry":{"type":"Point","coordinates":[106.189534,10.087201]},"properties":{"Mã số":37,"Trường Mầm non, Mẫu giáo":"Trường Mầm non Thị trấn Vũng Liêm","Địa chỉ trường":"Khóm 2, thị trấn Vũng Liêm, huyện Vũng Liêm","Cấp học\t\t\t":"Mầm non","Loại hình\t\t":"Công lập","Số điện thoại trường    ":"02703970202","Số nhóm lớp\t":"16","Số trẻ\t\t":"435","Số điểm lẻ\t":"0","Đạt CQG (MĐ)\t":"Mức độ 1","Dự kiến sáp nhập":null,"Ghi chú\t\t\t":null,"layer_id":317,"fid":37,"label":"Trường Mầm non Thị trấn Vũng Liêm","Xã/Phường":"Thị trấn Vũng Liêm","Quận/Huyện":"Huyện Vũng Liêm"}},{"type":"Feature","geometry":{"type":"Point","coordinates":[106.075082,10.095933]},"properties":{"Mã số":38,"Trường Mầm non, Mẫu giáo":"Trường Mầm non Tân An Luông","Địa chỉ trường":"ấp Nước Xoáy, xã Tân An Luông, huyện Vũng Liêm","Cấp học\t\t\t":"Mầm non","Loại hình\t\t":"Công lập","Số điện thoại trường    ":"0939183080","Số nhóm lớp\t":"10","Số trẻ\t\t":"264","Số điểm lẻ\t":"1","Đạt CQG (MĐ)\t":"Mức độ 1","Dự kiến sáp nhập":null,"Ghi chú\t\t\t":null,"layer_id":317,"fid":38,"label":"Trường Mầm non Tân An Luông","Xã/Phường":"Xã Tân An Luông","Quận/Huyện":"Huyện Vũng Liêm"}},{"type":"Feature","geometry":{"type":"Point","coordinates":[106.120245,10.080884]},"properties":{"Mã số":39,"Trường Mầm non, Mẫu giáo":"Trường Mầm non Hiếu Phụng","Địa chỉ trường":"ấp Tân Quang, xã Hiếu Phụng, huyện Vũng Liêm","Cấp học\t\t\t":"Mầm non","Loại hình\t\t":"Công lập","Số điện thoại trường    ":"02706271005","Số nhóm lớp\t":"13","Số trẻ\t\t":"350","Số điểm lẻ\t":"2","Đạt CQG (MĐ)\t":"Mức độ 1","Dự kiến sáp nhập":null,"Ghi chú\t\t\t":null,"layer_id":317,"fid":39,"label":"Trường Mầm non Hiếu Phụng","Xã/Phường":"Xã Hiếu Phụng","Quận/Huyện":"Huyện Vũng Liêm"}},{"type":"Feature","geometry":{"type":"Point","coordinates":[106.111832,10.032465]},"properties":{"Mã số":40,"Trường Mầm non, Mẫu giáo":"Trường Mầm non Hiếu Nhơn","Địa chỉ trường":"ấp Hiếu Minh B, xã Hiếu Nhơn, huyện Vũng Liêm","Cấp học\t\t\t":"Mầm non","Loại hình\t\t":"Công lập","Số điện thoại trường    ":"02703987407","Số nhóm lớp\t":"16","Số trẻ\t\t":"465","Số điểm lẻ\t":"3","Đạt CQG (MĐ)\t":"Mức độ 1","Dự kiến sáp nhập":null,"Ghi chú\t\t\t":null,"layer_id":317,"fid":40,"label":"Trường Mầm non Hiếu Nhơn","Xã/Phường":"Xã Hiếu Nhơn","Quận/Huyện":"Huyện Vũng Liêm"}},{"type":"Feature","geometry":{"type":"Point","coordinates":[106.164059,10.080204]},"properties":{"Mã số":41,"Trường Mầm non, Mẫu giáo":"Trường Mầm non Trung Hiếu","Địa chỉ trường":"ấp An Điền 1, xã Trung Hiếu, huyện Vũng Liêm ","Cấp học\t\t\t":"Mầm non","Loại hình\t\t":"Công lập","Số điện thoại trường    ":"02703870381","Số nhóm lớp\t":"13","Số trẻ\t\t":"296","Số điểm lẻ\t":"1","Đạt CQG (MĐ)\t":"Mức độ 1","Dự kiến sáp nhập":null,"Ghi chú\t\t\t":null,"layer_id":317,"fid":41,"label":"Trường Mầm non Trung Hiếu","Xã/Phường":"Xã Trung Hiếu","Quận/Huyện":"Huyện Vũng Liêm"}},{"type":"Feature","geometry":{"type":"Point","coordinates":[106.140686,10.026692]},"properties":{"Mã số":42,"Trường Mầm non, Mẫu giáo":"Trường Mầm non Trung An","Địa chỉ trường":"ấp An Phước, xã Trung An, huyện Vũng Liêm","Cấp học\t\t\t":"Mầm non","Loại hình\t\t":"Công lập","Số điện thoại trường    ":"02703607609","Số nhóm lớp\t":"11","Số trẻ\t\t":"266","Số điểm lẻ\t":"3","Đạt CQG (MĐ)\t":"Mức độ 1","Dự kiến sáp nhập":null,"Ghi chú\t\t\t":null,"layer_id":317,"fid":42,"label":"Trường Mầm non Trung An","Xã/Phường":"Xã Trung An","Quận/Huyện":"Huyện Vũng Liêm"}},{"type":"Feature","geometry":{"type":"Point","coordinates":[106.187493245,10.061726974]},"properties":{"Mã số":43,"Trường Mầm non, Mẫu giáo":"Trường Mẫu giáo Trung Thành","Địa chỉ trường":"ấp Trung Trạch, xã Trung Thành, huyện Vũng Liêm","Cấp học\t\t\t":"Mầm non","Loại hình\t\t":"Công lập","Số điện thoại trường    ":"02703976778","Số nhóm lớp\t":"13","Số trẻ\t\t":"320","Số điểm lẻ\t":"2","Đạt CQG (MĐ)\t":"Mức độ 1","Dự kiến sáp nhập":null,"Ghi chú\t\t\t":null,"layer_id":317,"fid":43,"label":"Trường Mẫu giáo Trung Thành","Xã/Phường":"Xã Trung Thành","Quận/Huyện":"Huyện Vũng Liêm"}},{"type":"Feature","geometry":{"type":"Point","coordinates":[106.200127,10.058315]},"properties":{"Mã số":44,"Trường Mầm non, Mẫu giáo":"Trường Mầm non Trịnh Liên Hoa","Địa chỉ trường":"ấp Giồng Ké, xã Trung Ngãi, huyện Vũng Liêm","Cấp học\t\t\t":"Mầm non","Loại hình\t\t":"Công lập","Số điện thoại trường    ":"02703977232","Số nhóm lớp\t":"9","Số trẻ\t\t":"265","Số điểm lẻ\t":"0","Đạt CQG (MĐ)\t":"Mức độ 1","Dự kiến sáp nhập":null,"Ghi chú\t\t\t":null,"layer_id":317,"fid":44,"label":"Trường Mầm non Trịnh Liên Hoa","Xã/Phường":"Xã Trung Ngãi","Quận/Huyện":"Huyện Vũng Liêm"}},{"type":"Feature","geometry":{"type":"Point","coordinates":[106.202962,10.037851]},"properties":{"Mã số":45,"Trường Mầm non, Mẫu giáo":"Trường Mẫu giáo Trung Nghĩa","Địa chỉ trường":"ấp Phú Tiên, xã Trung Nghĩa, huyện Vũng Liêm","Cấp học\t\t\t":"Mầm non","Loại hình\t\t":"Công lập","Số điện thoại trường    ":"0356470889","Số nhóm lớp\t":"9","Số trẻ\t\t":"260","Số điểm lẻ\t":"3","Đạt CQG (MĐ)\t":" ","Dự kiến sáp nhập":null,"Ghi chú\t\t\t":null,"layer_id":317,"fid":45,"label":"Trường Mẫu giáo Trung Nghĩa","Xã/Phường":"Xã Trung Nghĩa","Quận/Huyện":"Huyện Vũng Liêm"}},{"type":"Feature","geometry":{"type":"Point","coordinates":[106.187959,10.104284]},"properties":{"Mã số":46,"Trường Mầm non, Mẫu giáo":"Trường Mầm non Trung Thành Tây","Địa chỉ trường":"ấ́p Trung Hậu, xã Trung Thành Tây, huyện Vũng Liêm","Cấp học\t\t\t":"Mầm non","Loại hình\t\t":"Công lập","Số điện thoại trường    ":"02703996456","Số nhóm lớp\t":"9","Số trẻ\t\t":"203","Số điểm lẻ\t":"0","Đạt CQG (MĐ)\t":"Mức độ 1","Dự kiến sáp nhập":null,"Ghi chú\t\t\t":null,"layer_id":317,"fid":46,"label":"Trường Mầm non Trung Thành Tây","Xã/Phường":"Xã Trung Thành Tây","Quận/Huyện":"Huyện Vũng Liêm"}},{"type":"Feature","geometry":{"type":"Point","coordinates":[106.133651,10.110288]},"properties":{"Mã số":47,"Trường Mầm non, Mẫu giáo":"Trường Mẫu giáo Trung Hiệp","Địa chỉ trường":"ấp Rạch Ngay, xã Trung Hiệp, huyện Vũng Liêm","Cấp học\t\t\t":"Mầm non","Loại hình\t\t":"Công lập","Số điện thoại trường    ":"0354480467","Số nhóm lớp\t":"10","Số trẻ\t\t":"270","Số điểm lẻ\t":"2","Đạt CQG (MĐ)\t":" ","Dự kiến sáp nhập":null,"Ghi chú\t\t\t":null,"layer_id":317,"fid":47,"label":"Trường Mẫu giáo Trung Hiệp","Xã/Phường":"Xã Trung Hiệp","Quận/Huyện":"Huyện Vũng Liêm"}},{"type":"Feature","geometry":{"type":"Point","coordinates":[106.123895,10.128123]},"properties":{"Mã số":48,"Trường Mầm non, Mẫu giáo":"Trường Mẫu giáo Trung Chánh","Địa chỉ trường":"ấp Rạch Rô, xã Trung Chánh, huyện Vũng Liêm","Cấp học\t\t\t":"Mầm non","Loại hình\t\t":"Công lập","Số điện thoại trường    ":"02703995177","Số nhóm lớp\t":"9","Số trẻ\t\t":"205","Số điểm lẻ\t":"2","Đạt CQG (MĐ)\t":" ","Dự kiến sáp nhập":null,"Ghi chú\t\t\t":null,"layer_id":317,"fid":48,"label":"Trường Mẫu giáo Trung Chánh","Xã/Phường":"Xã Trung Chánh","Quận/Huyện":"Huyện Vũng Liêm"}},{"type":"Feature","geometry":{"type":"Point","coordinates":[106.117538,10.160682]},"properties":{"Mã số":49,"Trường Mầm non, Mẫu giáo":"Trường Mẫu giáo Tân Quới Trung","Địa chỉ trường":"ấp Rạch Đôi, xã Tân Quới Trung, huyện Vũng Liêm","Cấp học\t\t\t":"Mầm non","Loại hình\t\t":"Công lập","Số điện thoại trường    ":"0939846456","Số nhóm lớp\t":"10","Số trẻ\t\t":"242","Số điểm lẻ\t":"2","Đạt CQG (MĐ)\t":"Mức độ 1","Dự kiến sáp nhập":null,"Ghi chú\t\t\t":null,"layer_id":317,"fid":49,"label":"Trường Mẫu giáo Tân Quới Trung","Xã/Phường":"Xã Tân Quới Trung","Quận/Huyện":"Huyện Vũng Liêm"}},{"type":"Feature","geometry":{"type":"Point","coordinates":[106.162844,10.159504]},"properties":{"Mã số":50,"Trường Mầm non, Mẫu giáo":"Trường Mầm non Quới An","Địa chỉ trường":"ấp Vàm An, xã Quới An, huyện Vũng Liêm","Cấp học\t\t\t":"Mầm non","Loại hình\t\t":"Công lập","Số điện thoại trường    ":"02706291939","Số nhóm lớp\t":"9","Số trẻ\t\t":"247","Số điểm lẻ\t":"2","Đạt CQG (MĐ)\t":"Mức độ 2","Dự kiến sáp nhập":null,"Ghi chú\t\t\t":null,"layer_id":317,"fid":50,"label":"Trường Mầm non Quới An","Xã/Phường":"Xã Quới An","Quận/Huyện":"Huyện Vũng Liêm"}},{"type":"Feature","geometry":{"type":"Point","coordinates":[106.207075,10.15081]},"properties":{"Mã số":51,"Trường Mầm non, Mẫu giáo":"Trường Mầm non Quới Thiện","Địa chỉ trường":"ấp Rạch Vọp, xã Quới Thiện, huyện Vũng Liêm","Cấp học\t\t\t":"Mầm non","Loại hình\t\t":"Công lập","Số điện thoại trường    ":"02703981001","Số nhóm lớp\t":"11","Số trẻ\t\t":"305","Số điểm lẻ\t":"2","Đạt CQG (MĐ)\t":"Mức độ 2","Dự kiến sáp nhập":null,"Ghi chú\t\t\t":null,"layer_id":317,"fid":51,"label":"Trường Mầm non Quới Thiện","Xã/Phường":"Xã Quới Thiện","Quận/Huyện":"Huyện Vũng Liêm"}},{"type":"Feature","geometry":{"type":"Point","coordinates":[106.250146844,10.091671869]},"properties":{"Mã số":52,"Trường Mầm non, Mẫu giáo":"Trường Mầm non Thanh Bình","Địa chỉ trường":"ấp Bình Thủy, xã Thanh Bình, huyện Vũng Liêm, ","Cấp học\t\t\t":"Mầm non","Loại hình\t\t":"Công lập","Số điện thoại trường    ":"0367995134","Số nhóm lớp\t":"14","Số trẻ\t\t":"430","Số điểm lẻ\t":"1","Đạt CQG (MĐ)\t":"Mức độ 2","Dự kiến sáp nhập":null,"Ghi chú\t\t\t":null,"layer_id":317,"fid":52,"label":"Trường Mầm non Thanh Bình","Xã/Phường":"Xã Thanh Bình","Quận/Huyện":"Huyện Vũng Liêm"}},{"type":"Feature","geometry":{"type":"Point","coordinates":[106.090775,9.961607]},"properties":{"Mã số":53,"Trường Mầm non, Mẫu giáo":"Trường Mầm non Hiếu Nghĩa","Địa chỉ trường":"ấp Hiếu Trung A, xã Hiếu Nghĩa, huyện Vũng Liêm","Cấp học\t\t\t":"Mầm non","Loại hình\t\t":"Công lập","Số điện thoại trường    ":"02703991568","Số nhóm lớp\t":"9","Số trẻ\t\t":"205","Số điểm lẻ\t":"0","Đạt CQG (MĐ)\t":"Mức độ 1","Dự kiến sáp nhập":null,"Ghi chú\t\t\t":null,"layer_id":317,"fid":53,"label":"Trường Mầm non Hiếu Nghĩa","Xã/Phường":"Xã Hiếu Nghĩa","Quận/Huyện":"Huyện Vũng Liêm"}},{"type":"Feature","geometry":{"type":"Point","coordinates":[105.705223,10.147344]},"properties":{"Mã số":54,"Trường Mầm non, Mẫu giáo":"Trường Mầm non Hoa Phượng","Địa chỉ trường":"ấp An Thới, xã Tân An Thạnh, huyện Bình Tân","Cấp học\t\t\t":"Mầm non","Loại hình\t\t":"Công lập","Số điện thoại trường    ":"0945282051","Số nhóm lớp\t":"12","Số trẻ\t\t":"310","Số điểm lẻ\t":"3","Đạt CQG (MĐ)\t":"Mức độ 1","Dự kiến sáp nhập":null,"Ghi chú\t\t\t":null,"layer_id":317,"fid":54,"label":"Trường Mầm non Hoa Phượng","Xã/Phường":"Xã Tân An Thạnh","Quận/Huyện":"Huyện Bình Tân"}},{"type":"Feature","geometry":{"type":"Point","coordinates":[105.718123,10.140622]},"properties":{"Mã số":55,"Trường Mầm non, Mẫu giáo":"Trường Mầm non Sơn Ca","Địa chỉ trường":"Tổ 13, ấp Tân Lộc, xã Tân Lược, huyện Bình Tân","Cấp học\t\t\t":"Mầm non","Loại hình\t\t":"Công lập","Số điện thoại trường    ":"0939693836","Số nhóm lớp\t":"15","Số trẻ\t\t":"363","Số điểm lẻ\t":"2","Đạt CQG (MĐ)\t":"Mức độ 1","Dự kiến sáp nhập":null,"Ghi chú\t\t\t":null,"layer_id":317,"fid":55,"label":"Trường Mầm non Sơn Ca","Xã/Phường":"Xã Tân Lược","Quận/Huyện":"Huyện Bình Tân"}},{"type":"Feature","geometry":{"type":"Point","coordinates":[105.729823,10.123822]},"properties":{"Mã số":56,"Trường Mầm non, Mẫu giáo":"Trường Mẫu giáo Hướng Dương","Địa chỉ trường":"Tổ 1, ấp Tân Hậu, xã Tân Bình, huyện Bình Tân","Cấp học\t\t\t":"Mầm non","Loại hình\t\t":"Công lập","Số điện thoại trường    ":"0939930494","Số nhóm lớp\t":"10","Số trẻ\t\t":"261","Số điểm lẻ\t":"2","Đạt CQG (MĐ)\t":" ","Dự kiến sáp nhập":null,"Ghi chú\t\t\t":null,"layer_id":317,"fid":56,"label":"Trường Mẫu giáo Hướng Dương","Xã/Phường":"Xã Tân Bình","Quận/Huyện":"Huyện Bình Tân"}},{"type":"Feature","geometry":{"type":"Point","coordinates":[105.775648,10.171068]},"properties":{"Mã số":57,"Trường Mầm non, Mẫu giáo":"Trường Mầm non Tân Thành","Địa chỉ trường":"Tổ 5, ấp Tân Lập, xã Tân Thành, huyện Bình Tân","Cấp học\t\t\t":"Mầm non","Loại hình\t\t":"Công lập","Số điện thoại trường    ":"02702242208","Số nhóm lớp\t":"9","Số trẻ\t\t":"237","Số điểm lẻ\t":"1","Đạt CQG (MĐ)\t":"Mức độ 1","Dự kiến sáp nhập":null,"Ghi chú\t\t\t":null,"layer_id":317,"fid":57,"label":"Trường Mầm non Tân Thành","Xã/Phường":"Xã Tân Thành","Quận/Huyện":"Huyện Bình Tân"}},{"type":"Feature","geometry":{"type":"Point","coordinates":[105.759179,10.104527]},"properties":{"Mã số":58,"Trường Mầm non, Mẫu giáo":"Trường Mầm non Tuổi Thơ","Địa chỉ trường":"Tổ 1, khóm Thành Quới, thị trấn Tân Quới, huyện Bình Tân","Cấp học\t\t\t":"Mầm non","Loại hình\t\t":"Công lập","Số điện thoại trường    ":"02706556855","Số nhóm lớp\t":"17","Số trẻ\t\t":"480","Số điểm lẻ\t":"0","Đạt CQG (MĐ)\t":"Mức độ 1","Dự kiến sáp nhập":null,"Ghi chú\t\t\t":null,"layer_id":317,"fid":58,"label":"Trường Mầm non Tuổi Thơ","Xã/Phường":"Xã Thành Đông","Quận/Huyện":"Huyện Bình Tân"}},{"type":"Feature","geometry":{"type":"Point","coordinates":[105.788146,10.089021]},"properties":{"Mã số":59,"Trường Mầm non, Mẫu giáo":"Trường Mầm non Hoa Mai","Địa chỉ trường":"Tổ 14, ấp Thành Nghĩa, xã Thành Lợi, huyện Bình Tân","Cấp học\t\t\t":"Mầm non","Loại hình\t\t":"Công lập","Số điện thoại trường    ":"027022 2204","Số nhóm lớp\t":"13","Số trẻ\t\t":"330","Số điểm lẻ\t":"3","Đạt CQG (MĐ)\t":" ","Dự kiến sáp nhập":null,"Ghi chú\t\t\t":null,"layer_id":317,"fid":59,"label":"Trường Mầm non Hoa Mai","Xã/Phường":"Xã Thành Lợi","Quận/Huyện":"Huyện Bình Tân"}},{"type":"Feature","geometry":{"type":"Point","coordinates":[105.791741,10.152794]},"properties":{"Mã số":60,"Trường Mầm non, Mẫu giáo":"Trường Mầm non Thành Trung","Địa chỉ trường":"Tổ 2, ấp Thành Thuận, xã Thành Trung, huyện Bình Tân","Cấp học\t\t\t":"Mầm non","Loại hình\t\t":"Công lập","Số điện thoại trường    ":"0394746292","Số nhóm lớp\t":"9","Số trẻ\t\t":"185","Số điểm lẻ\t":"1","Đạt CQG (MĐ)\t":"Mức độ 1","Dự kiến sáp nhập":null,"Ghi chú\t\t\t":null,"layer_id":317,"fid":60,"label":"Trường Mầm non Thành Trung","Xã/Phường":"Xã Thành Trung","Quận/Huyện":"Huyện Bình Tân"}},{"type":"Feature","geometry":{"type":"Point","coordinates":[105.835053,10.106131]},"properties":{"Mã số":61,"Trường Mầm non, Mẫu giáo":"Trường Mầm non Mỹ Thuận","Địa chỉ trường":"Tổ 7, ấp Mỹ Tú, xã Mỹ Thuận, huyện Bình Tân","Cấp học\t\t\t":"Mầm non","Loại hình\t\t":"Công lập","Số điện thoại trường    ":"0907330012","Số nhóm lớp\t":"9","Số trẻ\t\t":"194","Số điểm lẻ\t":"1","Đạt CQG (MĐ)\t":"Mức độ 1","Dự kiến sáp nhập":null,"Ghi chú\t\t\t":null,"layer_id":317,"fid":61,"label":"Trường Mầm non Mỹ Thuận","Xã/Phường":"Xã Mỹ Thuận","Quận/Huyện":"Huyện Bình Tân"}},{"type":"Feature","geometry":{"type":"Point","coordinates":[105.82238,10.145166]},"properties":{"Mã số":62,"Trường Mầm non, Mẫu giáo":"Trường Mầm non Nguyễn Văn Thảnh","Địa chỉ trường":"Tổ 16, ấp Hòa Bình, xã Nguyễn Văn Thảnh, huyện Bình Tân","Cấp học\t\t\t":"Mầm non","Loại hình\t\t":"Công lập","Số điện thoại trường    ":"0932832716","Số nhóm lớp\t":"9","Số trẻ\t\t":"259","Số điểm lẻ\t":"0","Đạt CQG (MĐ)\t":"Mức độ 1","Dự kiến sáp nhập":null,"Ghi chú\t\t\t":null,"layer_id":317,"fid":62,"label":"Trường Mầm non Nguyễn Văn Thảnh","Xã/Phường":"Xã Nguyễn Văn Thảnh","Quận/Huyện":"Huyện Bình Tân"}},{"type":"Feature","geometry":{"type":"Point","coordinates":[105.835809,10.042567]},"properties":{"Mã số":63,"Trường Mầm non, Mẫu giáo":"Trường Mầm non Hoa Sen","Địa chỉ trường":"Tổ 8, ấp Đông Hậu, xã Đông Bình, thị xã Bình Minh","Cấp học\t\t\t":"Mầm non","Loại hình\t\t":"Công lập","Số điện thoại trường    ":"02703891068","Số nhóm lớp\t":"11","Số trẻ\t\t":"281","Số điểm lẻ\t":"1","Đạt CQG (MĐ)\t":"Mức độ 1","Dự kiến sáp nhập":null,"Ghi chú\t\t\t":null,"layer_id":317,"fid":63,"label":"Trường Mầm non Hoa Sen","Xã/Phường":"Xã Đông Bình","Quận/Huyện":"Thị xã Bình Minh"}},{"type":"Feature","geometry":{"type":"Point","coordinates":[105.810053,10.048039]},"properties":{"Mã số":64,"Trường Mầm non, Mẫu giáo":"Trường Mầm non Khai Trí","Địa chỉ trường":"Tổ 8, ấp Mỹ Hưng 1, xã Mỹ Hoà, thị xã Bình Minh","Cấp học\t\t\t":"Mầm non","Loại hình\t\t":"Công lập","Số điện thoại trường    ":"02703891707","Số nhóm lớp\t":"10","Số trẻ\t\t":"235","Số điểm lẻ\t":"1","Đạt CQG (MĐ)\t":"Mức độ 1","Dự kiến sáp nhập":null,"Ghi chú\t\t\t":null,"layer_id":317,"fid":64,"label":"Trường Mầm non Khai Trí","Xã/Phường":"Xã Mỹ Hòa","Quận/Huyện":"Thị xã Bình Minh"}},{"type":"Feature","geometry":{"type":"Point","coordinates":[105.838437,10.0231]},"properties":{"Mã số":65,"Trường Mầm non, Mẫu giáo":"Trường Mầm non Mỹ Hòa","Địa chỉ trường":"Tổ 10, ấp Mỹ Lợi, xã Mỹ Hòa, thị xã Bình Minh","Cấp học\t\t\t":"Mầm non","Loại hình\t\t":"Công lập","Số điện thoại trường    ":"02703765876","Số nhóm lớp\t":"16","Số trẻ\t\t":"390","Số điểm lẻ\t":"2","Đạt CQG (MĐ)\t":"Mức độ 1","Dự kiến sáp nhập":null,"Ghi chú\t\t\t":null,"layer_id":317,"fid":65,"label":"Trường Mầm non Mỹ Hòa","Xã/Phường":"Xã Mỹ Hòa","Quận/Huyện":"Thị xã Bình Minh"}},{"type":"Feature","geometry":{"type":"Point","coordinates":[105.818727,10.067403]},"properties":{"Mã số":66,"Trường Mầm non, Mẫu giáo":"Trường Mầm non Hoa Hồng","Địa chỉ trường":"Tổ 35, Khóm 2, phường Cái vồn, thị xã Bình Minh","Cấp học\t\t\t":"Mầm non","Loại hình\t\t":"Công lập","Số điện thoại trường    ":"02702212271","Số nhóm lớp\t":"17","Số trẻ\t\t":"500","Số điểm lẻ\t":"1","Đạt CQG (MĐ)\t":"Mức độ 1","Dự kiến sáp nhập":null,"Ghi chú\t\t\t":null,"layer_id":317,"fid":66,"label":"Trường Mầm non Hoa Hồng","Xã/Phường":"Phường Cái Vồn","Quận/Huyện":"Thị xã Bình Minh"}},{"type":"Feature","geometry":{"type":"Point","coordinates":[105.863941,10.047058]},"properties":{"Mã số":67,"Trường Mầm non, Mẫu giáo":"Trường Mầm non Đông Thạnh","Địa chỉ trường":"Tổ 13, ấp Đông Thạnh B, xã Đông Thạnh, thị xã Bình Minh","Cấp học\t\t\t":"Mầm non","Loại hình\t\t":"Công lập","Số điện thoại trường    ":"02703751189","Số nhóm lớp\t":"10","Số trẻ\t\t":"270","Số điểm lẻ\t":"1","Đạt CQG (MĐ)\t":"Mức độ 2","Dự kiến sáp nhập":null,"Ghi chú\t\t\t":null,"layer_id":317,"fid":67,"label":"Trường Mầm non Đông Thạnh","Xã/Phường":"Xã Đông Thạnh","Quận/Huyện":"Thị xã Bình Minh"}},{"type":"Feature","geometry":{"type":"Point","coordinates":[105.826001,10.06343]},"properties":{"Mã số":68,"Trường Mầm non, Mẫu giáo":"Trường Mầm non Sen Hồng","Địa chỉ trường":"Tổ 48, khóm Đông Bình A, phường Đông Thuận, thị xã Bình Minh","Cấp học\t\t\t":"Mầm non","Loại hình\t\t":"Công lập","Số điện thoại trường    ":"02703765405","Số nhóm lớp\t":"13","Số trẻ\t\t":"380","Số điểm lẻ\t":"2","Đạt CQG (MĐ)\t":"Mức độ 2","Dự kiến sáp nhập":null,"Ghi chú\t\t\t":null,"layer_id":317,"fid":68,"label":"Trường Mầm non Sen Hồng","Xã/Phường":"Phường Đông Thuận","Quận/Huyện":"Thị xã Bình Minh"}},{"type":"Feature","geometry":{"type":"Point","coordinates":[105.797376,10.068543]},"properties":{"Mã số":69,"Trường Mầm non, Mẫu giáo":"Trường Mầm non Hoa Hồng 2","Địa chỉ trường":"Tổ 7, Khóm 4, phường Thành Phước, thị xã Bình Minh","Cấp học\t\t\t":"Mầm non","Loại hình\t\t":"Công lập","Số điện thoại trường    ":"02703740323","Số nhóm lớp\t":"16","Số trẻ\t\t":"470","Số điểm lẻ\t":"0","Đạt CQG (MĐ)\t":"Mức độ 2","Dự kiến sáp nhập":null,"Ghi chú\t\t\t":null,"layer_id":317,"fid":69,"label":"Trường Mầm non Hoa Hồng 2","Xã/Phường":"Phường Thành Phước","Quận/Huyện":"Thị xã Bình Minh"}},{"type":"Feature","geometry":{"type":"Point","coordinates":[105.829133,10.086119]},"properties":{"Mã số":70,"Trường Mầm non, Mẫu giáo":"Trường Mầm non Hoa Lan","Địa chỉ trường":"Tổ 8, ấp Thuận Phú A, xã Thuận An, thị xã Bình Minh","Cấp học\t\t\t":"Mầm non","Loại hình\t\t":"Công lập","Số điện thoại trường    ":"02703767241","Số nhóm lớp\t":"12","Số trẻ\t\t":"260","Số điểm lẻ\t":"3","Đạt CQG (MĐ)\t":"Mức độ 1","Dự kiến sáp nhập":null,"Ghi chú\t\t\t":null,"layer_id":317,"fid":70,"label":"Trường Mầm non Hoa Lan","Xã/Phường":"Phường BÌnh Minh","Quận/Huyện":"Thị xã Bình Minh"}},{"type":"Feature","geometry":{"type":"Point","coordinates":[105.879338,10.002035]},"properties":{"Mã số":71,"Trường Mầm non, Mẫu giáo":"Trường Mầm non Sao Mai","Địa chỉ trường":"Tổ 9, ấp Đông Hoà 2, xã Đông Thành, thị xã Bình Minh","Cấp học\t\t\t":"Mầm non","Loại hình\t\t":"Công lập","Số điện thoại trường    ":"02702242173","Số nhóm lớp\t":"14","Số trẻ\t\t":"350","Số điểm lẻ\t":"3","Đạt CQG (MĐ)\t":"Mức độ 1","Dự kiến sáp nhập":null,"Ghi chú\t\t\t":null,"layer_id":317,"fid":71,"label":"Trường Mầm non Sao Mai","Xã/Phường":"Phường Đông Thành","Quận/Huyện":"Thị xã Bình Minh"}},{"type":"Feature","geometry":{"type":"Point","coordinates":[105.831295,10.037356]},"properties":{"Mã số":72,"Trường Mầm non, Mẫu giáo":"Trường Mầm non Hoàng Lam","Địa chỉ trường":" Tổ 4, ấp Mỹ Lợi, xã Mỹ hòa, thị xã Bình Minh","Cấp học\t\t\t":"Mầm non","Loại hình\t\t":"Tư Thục","Số điện thoại trường    ":"02706520999","Số nhóm lớp\t":"9","Số trẻ\t\t":"270","Số điểm lẻ\t":"0","Đạt CQG (MĐ)\t":" ","Dự kiến sáp nhập":null,"Ghi chú\t\t\t":null,"layer_id":317,"fid":72,"label":"Trường Mầm non Hoàng Lam","Xã/Phường":"Xã Mỹ Hòa","Quận/Huyện":"Thị xã Bình Minh"}},{"type":"Feature","geometry":{"type":"Point","coordinates":[105.815246,10.069011]},"properties":{"Mã số":73,"Trường Mầm non, Mẫu giáo":"Trường Mầm non  Bình Minh","Địa chỉ trường":" Tổ 11, Khóm 2, phường Cái Vồn, thị xã Bình Minh","Cấp học\t\t\t":"Mầm non","Loại hình\t\t":"Tư Thục","Số điện thoại trường    ":"0786894332","Số nhóm lớp\t":"4","Số trẻ\t\t":"120","Số điểm lẻ\t":"0","Đạt CQG (MĐ)\t":" ","Dự kiến sáp nhập":null,"Ghi chú\t\t\t":null,"layer_id":317,"fid":73,"label":"Trường Mầm non  Bình Minh","Xã/Phường":"Phường Cái Vồn","Quận/Huyện":"Thị xã Bình Minh"}},{"type":"Feature","geometry":{"type":"Point","coordinates":[106.009731,10.196877]},"properties":{"Mã số":74,"Trường Mầm non, Mẫu giáo":"Trường Mầm non Thị trấn Long Hồ","Địa chỉ trường":"Khóm 5, thị trấn Long Hồ, huyện Long Hồ","Cấp học\t\t\t":"Mầm non","Loại hình\t\t":"Công lập","Số điện thoại trường    ":"02703850693","Số nhóm lớp\t":"9","Số trẻ\t\t":"202","Số điểm lẻ\t":"0","Đạt CQG (MĐ)\t":"Mức độ 1","Dự kiến sáp nhập":null,"Ghi chú\t\t\t":null,"layer_id":317,"fid":74,"label":"Trường Mầm non Thị trấn Long Hồ","Xã/Phường":"Xã Long Hồ","Quận/Huyện":"Huyện Long Hồ"}},{"type":"Feature","geometry":{"type":"Point","coordinates":[105.93387,10.235684]},"properties":{"Mã số":75,"Trường Mầm non, Mẫu giáo":"Trường Mầm non Tân Hạnh ","Địa chỉ trường":"ấp Tân An, xã Tân Hạnh, huyện Long Hồ","Cấp học\t\t\t":"Mầm non","Loại hình\t\t":"Công lập","Số điện thoại trường    ":"02703949207","Số nhóm lớp\t":"12","Số trẻ\t\t":"350","Số điểm lẻ\t":"2","Đạt CQG (MĐ)\t":"Mức độ 1","Dự kiến sáp nhập":null,"Ghi chú\t\t\t":null,"layer_id":317,"fid":75,"label":"Trường Mầm non Tân Hạnh ","Xã/Phường":"Phường Tân Hạnh","Quận/Huyện":"Huyện Long Hồ"}},{"type":"Feature","geometry":{"type":"Point","coordinates":[106.015912,10.238446]},"properties":{"Mã số":76,"Trường Mầm non, Mẫu giáo":"Trường Mầm non Thanh Đức ","Địa chỉ trường":"ấp Cái Sơn Lớn, xã Thanh Đức, huyện Long Hồ ","Cấp học\t\t\t":"Mầm non","Loại hình\t\t":"Công lập","Số điện thoại trường    ":"02703964484","Số nhóm lớp\t":"13","Số trẻ\t\t":"320","Số điểm lẻ\t":"2","Đạt CQG (MĐ)\t":"Mức độ 1","Dự kiến sáp nhập":null,"Ghi chú\t\t\t":null,"layer_id":317,"fid":76,"label":"Trường Mầm non Thanh Đức ","Xã/Phường":"Phường Thanh Đức","Quận/Huyện":"Huyện Long Hồ"}},{"type":"Feature","geometry":{"type":"Point","coordinates":[105.953233,10.238749]},"properties":{"Mã số":77,"Trường Mầm non, Mẫu giáo":"Trường Mầm non An Bình ","Địa chỉ trường":"ấp An Hưng, xã An Bình, huyện Long Hồ","Cấp học\t\t\t":"Mầm non","Loại hình\t\t":"Công lập","Số điện thoại trường    ":"02703950308","Số nhóm lớp\t":"11","Số trẻ\t\t":"316","Số điểm lẻ\t":"3","Đạt CQG (MĐ)\t":"Mức độ 1","Dự kiến sáp nhập":null,"Ghi chú\t\t\t":null,"layer_id":317,"fid":77,"label":"Trường Mầm non An Bình ","Xã/Phường":"Phường 8","Quận/Huyện":"Vĩnh Long"}},{"type":"Feature","geometry":{"type":"Point","coordinates":[106.018886,10.186325]},"properties":{"Mã số":78,"Trường Mầm non, Mẫu giáo":"Trường Mầm non Họa Mi Thị Trấn Long Hồ","Địa chỉ trường":"Khóm 2, thị trấn Long Hồ, huyện Long Hồ","Cấp học\t\t\t":"Mầm non","Loại hình\t\t":"Công lập","Số điện thoại trường    ":"02703942597","Số nhóm lớp\t":"11","Số trẻ\t\t":"320","Số điểm lẻ\t":"0","Đạt CQG (MĐ)\t":"Mức độ 1","Dự kiến sáp nhập":null,"Ghi chú\t\t\t":null,"layer_id":317,"fid":78,"label":"Trường Mầm non Họa Mi Thị Trấn Long Hồ","Xã/Phường":"Xã Long Hồ","Quận/Huyện":"Huyện Long Hồ"}},{"type":"Feature","geometry":{"type":"Point","coordinates":[106.010778,10.279694]},"properties":{"Mã số":79,"Trường Mầm non, Mẫu giáo":"Trường Mầm non Bình Hòa Phước","Địa chỉ trường":"ấp Bình Hòa 1, xã Bình Hòa Phước, huyện Long Hồ","Cấp học\t\t\t":"Mầm non","Loại hình\t\t":"Công lập","Số điện thoại trường    ":"02703956553","Số nhóm lớp\t":"14","Số trẻ\t\t":"340","Số điểm lẻ\t":"1","Đạt CQG (MĐ)\t":"Mức độ 1","Dự kiến sáp nhập":null,"Ghi chú\t\t\t":null,"layer_id":317,"fid":79,"label":"Trường Mầm non Bình Hòa Phước","Xã/Phường":"Xã Bình Hòa Phước","Quận/Huyện":"Huyện Long Hồ"}},{"type":"Feature","geometry":{"type":"Point","coordinates":[105.998269,10.303853]},"properties":{"Mã số":80,"Trường Mầm non, Mẫu giáo":"Trường Mầm non Đồng Phú ","Địa chỉ trường":"ấp Phú Thạnh 1, xã Đồng Phú, huyện Long Hồ","Cấp học\t\t\t":"Mầm non","Loại hình\t\t":"Công lập","Số điện thoại trường    ":"02703952598","Số nhóm lớp\t":"16","Số trẻ\t\t":"290","Số điểm lẻ\t":"2","Đạt CQG (MĐ)\t":null,"Dự kiến sáp nhập":null,"Ghi chú\t\t\t":null,"layer_id":317,"fid":80,"label":"Trường Mầm non Đồng Phú ","Xã/Phường":"Xã Đồng Phú","Quận/Huyện":"Huyện Long Hồ"}},{"type":"Feature","geometry":{"type":"Point","coordinates":[105.989258,10.216323]},"properties":{"Mã số":81,"Trường Mầm non, Mẫu giáo":"Trường Mầm non Long Phước ","Địa chỉ trường":"ấp Long Thuận, xã Long Phước, huyện Long Hồ","Cấp học\t\t\t":"Mầm non","Loại hình\t\t":"Công lập","Số điện thoại trường    ":"02703850669","Số nhóm lớp\t":"9","Số trẻ\t\t":"220","Số điểm lẻ\t":"1","Đạt CQG (MĐ)\t":"Mức độ 1","Dự kiến sáp nhập":null,"Ghi chú\t\t\t":null,"layer_id":317,"fid":81,"label":"Trường Mầm non Long Phước ","Xã/Phường":"Xã Long Phước","Quận/Huyện":"Huyện Long Hồ"}},{"type":"Feature","geometry":{"type":"Point","coordinates":[105.917444,10.203]},"properties":{"Mã số":82,"Trường Mầm non, Mẫu giáo":"Trường Mẫu giáo Hoa Hồng Lộc Hòa","Địa chỉ trường":"ấp An Hiệp, xã Lộc Hòa, huyện Long Hồ","Cấp học\t\t\t":"Mầm non","Loại hình\t\t":"Công lập","Số điện thoại trường    ":"02703957772","Số nhóm lớp\t":"9","Số trẻ\t\t":"230","Số điểm lẻ\t":"2","Đạt CQG (MĐ)\t":null,"Dự kiến sáp nhập":null,"Ghi chú\t\t\t":null,"layer_id":317,"fid":82,"label":"Trường Mẫu giáo Hoa Hồng Lộc Hòa","Xã/Phường":"Xã Lộc Hòa","Quận/Huyện":"Huyện Long Hồ"}},{"type":"Feature","geometry":{"type":"Point","coordinates":[105.922072,10.166218]},"properties":{"Mã số":83,"Trường Mầm non, Mẫu giáo":"Trường mẫu giáo Phú Quới ","Địa chỉ trường":"ấp Phước Yên A, xã Phú Qưới, huyện Long Hồ","Cấp học\t\t\t":"Mầm non","Loại hình\t\t":"Công lập","Số điện thoại trường    ":"02703960850","Số nhóm lớp\t":"15","Số trẻ\t\t":"445","Số điểm lẻ\t":"2","Đạt CQG (MĐ)\t":"Mức độ 1","Dự kiến sáp nhập":null,"Ghi chú\t\t\t":null,"layer_id":317,"fid":83,"label":"Trường mẫu giáo Phú Quới ","Xã/Phường":"Xã Phú Quới","Quận/Huyện":"Huyện Long Hồ"}},{"type":"Feature","geometry":{"type":"Point","coordinates":[105.968118,10.218653]},"properties":{"Mã số":84,"Trường Mầm non, Mẫu giáo":"Trường Mầm non Phước Hậu ","Địa chỉ trường":"ấp Phước Hanh A, xã Phước Hậu, huyện Long Hồ","Cấp học\t\t\t":"Mầm non","Loại hình\t\t":"Công lập","Số điện thoại trường    ":"02703963818","Số nhóm lớp\t":"16","Số trẻ\t\t":"400","Số điểm lẻ\t":"1","Đạt CQG (MĐ)\t":"Mức độ 1","Dự kiến sáp nhập":null,"Ghi chú\t\t\t":null,"layer_id":317,"fid":84,"label":"Trường Mầm non Phước Hậu ","Xã/Phường":"Phường Phước Hậu","Quận/Huyện":"Huyện Long Hồ"}},{"type":"Feature","geometry":{"type":"Point","coordinates":[105.983291,10.178133]},"properties":{"Mã số":86,"Trường Mầm non, Mẫu giáo":"Trường Mầm non Phú Đức ","Địa chỉ trường":"ấp An Hòa, xã Phú Đức, huyện Long Hồ","Cấp học\t\t\t":"Mầm non","Loại hình\t\t":"Công lập","Số điện thoại trường    ":"02702200886","Số nhóm lớp\t":"15","Số trẻ\t\t":"370","Số điểm lẻ\t":"2","Đạt CQG (MĐ)\t":"Mức độ 1","Dự kiến sáp nhập":null,"Ghi chú\t\t\t":null,"layer_id":317,"fid":86,"label":"Trường Mầm non Phú Đức ","Xã/Phường":"Xã Phú Đức","Quận/Huyện":"Huyện Long Hồ"}},{"type":"Feature","geometry":{"type":"Point","coordinates":[105.992411,10.282538]},"properties":{"Mã số":87,"Trường Mầm non, Mẫu giáo":"Trường mầm non Hòa Ninh ","Địa chỉ trường":"ấp Bình Thuận 1, xã Hòa Ninh, huyện Long Hồ","Cấp học\t\t\t":"Mầm non","Loại hình\t\t":"Công lập","Số điện thoại trường    ":"02703954567","Số nhóm lớp\t":"10","Số trẻ\t\t":"270","Số điểm lẻ\t":"2","Đạt CQG (MĐ)\t":null,"Dự kiến sáp nhập":null,"Ghi chú\t\t\t":null,"layer_id":317,"fid":87,"label":"Trường mầm non Hòa Ninh ","Xã/Phường":"Xã Hòa Ninh","Quận/Huyện":"Huyện Long Hồ"}},{"type":"Feature","geometry":{"type":"Point","coordinates":[105.89673,10.16601]},"properties":{"Mã số":88,"Trường Mầm non, Mẫu giáo":"Trường Mầm non Thạnh Quới ","Địa chỉ trường":"ấp Thạnh Phú, xã Thạnh Quới, huyện Long Hồ","Cấp học\t\t\t":"Mầm non","Loại hình\t\t":"Công lập","Số điện thoại trường    ":"02702,460210","Số nhóm lớp\t":"10","Số trẻ\t\t":"270","Số điểm lẻ\t":"1","Đạt CQG (MĐ)\t":"Mức độ 2","Dự kiến sáp nhập":null,"Ghi chú\t\t\t":null,"layer_id":317,"fid":88,"label":"Trường Mầm non Thạnh Quới ","Xã/Phường":"Xã Thạnh Quới","Quận/Huyện":"Huyện Long Hồ"}},{"type":"Feature","geometry":{"type":"Point","coordinates":[105.950291,10.157918]},"properties":{"Mã số":89,"Trường Mầm non, Mẫu giáo":"Trường Mầm non Hòa Phú ","Địa chỉ trường":"ấp Lộc Hưng, xã Hòa Phú, huyện Long Hồ","Cấp học\t\t\t":"Mầm non","Loại hình\t\t":"Công lập","Số điện thoại trường    ":"02702213596","Số nhóm lớp\t":"9","Số trẻ\t\t":"250","Số điểm lẻ\t":"1","Đạt CQG (MĐ)\t":"Mức độ 1","Dự kiến sáp nhập":null,"Ghi chú\t\t\t":null,"layer_id":317,"fid":89,"label":"Trường Mầm non Hòa Phú ","Xã/Phường":"Xã Hòa Phú","Quận/Huyện":"Huyện Long Hồ"}},{"type":"Feature","geometry":{"type":"Point","coordinates":[105.939965,10.194012]},"properties":{"Mã số":90,"Trường Mầm non, Mẫu giáo":"Trường Mầm non Lộc Hòa ","Địa chỉ trường":"ấp Phước Long, xã Lộc Hòa, huyện Long Hồ","Cấp học\t\t\t":"Mầm non","Loại hình\t\t":"Công lập","Số điện thoại trường    ":"02703957347","Số nhóm lớp\t":"9","Số trẻ\t\t":"235","Số điểm lẻ\t":"1","Đạt CQG (MĐ)\t":"Mức độ 1","Dự kiến sáp nhập":null,"Ghi chú\t\t\t":null,"layer_id":317,"fid":90,"label":"Trường Mầm non Lộc Hòa ","Xã/Phường":"Xã Lộc Hòa","Quận/Huyện":"Huyện Long Hồ"}},{"type":"Feature","geometry":{"type":"Point","coordinates":[105.928123,10.171988]},"properties":{"Mã số":91,"Trường Mầm non, Mẫu giáo":"Trường Mầm non Khu công nghiệp Hoà Phú","Địa chỉ trường":"ấp Phước Yên B, xã Phú Quới, huyện Long Hồ","Cấp học\t\t\t":"Mầm non","Loại hình\t\t":"Công lập","Số điện thoại trường    ":null,"Số nhóm lớp\t":"15","Số trẻ\t\t":"450","Số điểm lẻ\t":null,"Đạt CQG (MĐ)\t":"Mức độ 1","Dự kiến sáp nhập":null,"Ghi chú\t\t\t":null,"layer_id":317,"fid":91,"label":"Trường Mầm non Khu công nghiệp Hoà Phú","Xã/Phường":"Xã Phú Quới","Quận/Huyện":"Huyện Long Hồ"}},{"type":"Feature","geometry":{"type":"Point","coordinates":[105.9382,10.184714]},"properties":{"Mã số":92,"Trường Mầm non, Mẫu giáo":"Trường Mầm non Hồng Ân","Địa chỉ trường":"ấp Long Hòa, xã Lộc Hòa, huyện Long Hồ","Cấp học\t\t\t":"Mầm non","Loại hình\t\t":"Tư thục","Số điện thoại trường    ":"02703957776","Số nhóm lớp\t":"8","Số trẻ\t\t":"322","Số điểm lẻ\t":null,"Đạt CQG (MĐ)\t":null,"Dự kiến sáp nhập":null,"Ghi chú\t\t\t":null,"layer_id":317,"fid":92,"label":"Trường Mầm non Hồng Ân","Xã/Phường":"Xã Lộc Hòa","Quận/Huyện":"Huyện Long Hồ"}},{"type":"Feature","geometry":{"type":"Point","coordinates":[105.92436,10.166277]},"properties":{"Mã số":93,"Trường Mầm non, Mẫu giáo":"Trường Mầm non Họa Mi Hòa Phú","Địa chỉ trường":"396a, ấp Phước Yên A, xã Phú Quới, huyện Long Hồ","Cấp học\t\t\t":"Mầm non","Loại hình\t\t":"Tư thục","Số điện thoại trường    ":null,"Số nhóm lớp\t":"8","Số trẻ\t\t":"230","Số điểm lẻ\t":null,"Đạt CQG (MĐ)\t":null,"Dự kiến sáp nhập":null,"Ghi chú\t\t\t":null,"layer_id":317,"fid":93,"label":"Trường Mầm non Họa Mi Hòa Phú","Xã/Phường":"Xã Phú Quới","Quận/Huyện":"Huyện Long Hồ"}},{"type":"Feature","geometry":{"type":"Point","coordinates":[106.137708,10.203093]},"properties":{"Mã số":94,"Trường Mầm non, Mẫu giáo":"Trường Mầm non Tuổi Thơ II","Địa chỉ trường":"ấp Thanh Thủy, xã An Phước, huyện Mang Thít","Cấp học\t\t\t":"Mầm non","Loại hình\t\t":"Công lập","Số điện thoại trường    ":"02703841850","Số nhóm lớp\t":"9","Số trẻ\t\t":"213","Số điểm lẻ\t":"1","Đạt CQG (MĐ)\t":null,"Dự kiến sáp nhập":null,"Ghi chú\t\t\t":null,"layer_id":317,"fid":94,"label":"Trường Mầm non Tuổi Thơ II","Xã/Phường":"Xã An Phước","Quận/Huyện":"Huyện Mang Thít"}},{"type":"Feature","geometry":{"type":"Point","coordinates":[106.14349,10.171259]},"properties":{"Mã số":95,"Trường Mầm non, Mẫu giáo":"Trường Mầm non Tuổi Thơ IV","Địa chỉ trường":"ấp Tân Mỹ, xã Chánh An, huyện Mang Thít","Cấp học\t\t\t":"Mầm non","Loại hình\t\t":"Công lập","Số điện thoại trường    ":"02703841853","Số nhóm lớp\t":"9","Số trẻ\t\t":"225","Số điểm lẻ\t":"2","Đạt CQG (MĐ)\t":null,"Dự kiến sáp nhập":null,"Ghi chú\t\t\t":null,"layer_id":317,"fid":95,"label":"Trường Mầm non Tuổi Thơ IV","Xã/Phường":"Xã Chánh An","Quận/Huyện":"Huyện Mang Thít"}},{"type":"Feature","geometry":{"type":"Point","coordinates":[106.101037,10.23179]},"properties":{"Mã số":96,"Trường Mầm non, Mẫu giáo":"Trường Mầm non Măng non I","Địa chỉ trường":"ấp Cái Kè, xã Mỹ Phước, huyện Mang Thít","Cấp học\t\t\t":"Mầm non","Loại hình\t\t":"Công lập","Số điện thoại trường    ":"02703938256","Số nhóm lớp\t":"10","Số trẻ\t\t":"226","Số điểm lẻ\t":"3","Đạt CQG (MĐ)\t":null,"Dự kiến sáp nhập":null,"Ghi chú\t\t\t":null,"layer_id":317,"fid":96,"label":"Trường Mầm non Măng non I","Xã/Phường":"Xã Mỹ Phước","Quận/Huyện":"Huyện Mang Thít"}},{"type":"Feature","geometry":{"type":"Point","coordinates":[106.074897,10.121547]},"properties":{"Mã số":97,"Trường Mầm non, Mẫu giáo":"Trường Mầm non Oanh Vũ II","Địa chỉ trường":"ấp Thanh Phong, xã Tân Long Hội, huyện Mang Thít","Cấp học\t\t\t":"Mầm non","Loại hình\t\t":"Công lập","Số điện thoại trường    ":"02703933079","Số nhóm lớp\t":"9","Số trẻ\t\t":"205","Số điểm lẻ\t":"1","Đạt CQG (MĐ)\t":null,"Dự kiến sáp nhập":null,"Ghi chú\t\t\t":null,"layer_id":317,"fid":97,"label":"Trường Mầm non Oanh Vũ II","Xã/Phường":"Xã Tân Long Hội","Quận/Huyện":"Huyện Mang Thít"}},{"type":"Feature","geometry":{"type":"Point","coordinates":[106.017436,10.202279]},"properties":{"Mã số":98,"Trường Mầm non, Mẫu giáo":"Trường Mầm non Sơn Ca I","Địa chỉ trường":"ấp Bình Tịnh, xã Hòa Tịnh, huyện Mang Thít","Cấp học\t\t\t":"Mầm non","Loại hình\t\t":"Công lập","Số điện thoại trường    ":"02702243868","Số nhóm lớp\t":"7","Số trẻ\t\t":"149","Số điểm lẻ\t":"2","Đạt CQG (MĐ)\t":null,"Dự kiến sáp nhập":null,"Ghi chú\t\t\t":null,"layer_id":317,"fid":98,"label":"Trường Mầm non Sơn Ca I","Xã/Phường":"Xã Hòa Tịnh","Quận/Huyện":"Huyện Mang Thít"}},{"type":"Feature","geometry":{"type":"Point","coordinates":[106.10524,10.173204]},"properties":{"Mã số":99,"Trường Mầm non, Mẫu giáo":"Trường Mầm non Thị Trấn ","Địa chỉ trường":"Khóm 2, thị trấn Cái Nhum, huyện Mang Thít","Cấp học\t\t\t":"Mầm non","Loại hình\t\t":"Công lập","Số điện thoại trường    ":"02702930280","Số nhóm lớp\t":"13","Số trẻ\t\t":"345","Số điểm lẻ\t":"2","Đạt CQG (MĐ)\t":null,"Dự kiến sáp nhập":null,"Ghi chú\t\t\t":null,"layer_id":317,"fid":99,"label":"Trường Mầm non Thị Trấn ","Xã/Phường":"Xã Cái Nhum","Quận/Huyện":"Huyện Mang Thít"}},{"type":"Feature","geometry":{"type":"Point","coordinates":[106.090156,10.209605]},"properties":{"Mã số":100,"Trường Mầm non, Mẫu giáo":"Trường Mầm non Tuổi Thơ III","Địa chỉ trường":"ấp phú Thọ, xã Nhơn Phú, huyện Mang Thít","Cấp học\t\t\t":"Mầm non","Loại hình\t\t":"Công lập","Số điện thoại trường    ":"02703504578","Số nhóm lớp\t":"10","Số trẻ\t\t":"258","Số điểm lẻ\t":"2","Đạt CQG (MĐ)\t":null,"Dự kiến sáp nhập":null,"Ghi chú\t\t\t":null,"layer_id":317,"fid":100,"label":"Trường Mầm non Tuổi Thơ III","Xã/Phường":"Xã Nhơn Phú","Quận/Huyện":"Huyện Mang Thít"}},{"type":"Feature","geometry":{"type":"Point","coordinates":[106.027895,10.169306]},"properties":{"Mã số":101,"Trường Mầm non, Mẫu giáo":"Trường Mầm non Sơn Ca II","Địa chỉ trường":"ấp Phước Lộc Thọ, xã Bình Phước, huyện Mang Thít","Cấp học\t\t\t":"Mầm non","Loại hình\t\t":"Công lập","Số điện thoại trường    ":"02703937359","Số nhóm lớp\t":"9","Số trẻ\t\t":"272","Số điểm lẻ\t":"3","Đạt CQG (MĐ)\t":null,"Dự kiến sáp nhập":null,"Ghi chú\t\t\t":null,"layer_id":317,"fid":101,"label":"Trường Mầm non Sơn Ca II","Xã/Phường":"Xã Bình Phước","Quận/Huyện":"Huyện Mang Thít"}},{"type":"Feature","geometry":{"type":"Point","coordinates":[106.054178,10.240804]},"properties":{"Mã số":102,"Trường Mầm non, Mẫu giáo":"Trường Mầm non Măng non II","Địa chỉ trường":"ấp Chợ, xã Mỹ An, huyện Mang Thít","Cấp học\t\t\t":"Mầm non","Loại hình\t\t":"Công lập","Số điện thoại trường    ":"02703939454","Số nhóm lớp\t":"9","Số trẻ\t\t":"214","Số điểm lẻ\t":"2","Đạt CQG (MĐ)\t":null,"Dự kiến sáp nhập":null,"Ghi chú\t\t\t":null,"layer_id":317,"fid":102,"label":"Trường Mầm non Măng non II","Xã/Phường":"Xã Mỹ An","Quận/Huyện":"Huyện Mang Thít"}},{"type":"Feature","geometry":{"type":"Point","coordinates":[106.003794,10.217607]},"properties":{"Mã số":103,"Trường Mầm non, Mẫu giáo":"Trường Mầm non Sơn Ca III","Địa chỉ trường":"ấp Long Hòa II, xã Long Mỹ, huyện Mang Thít","Cấp học\t\t\t":"Mầm non","Loại hình\t\t":"Công lập","Số điện thoại trường    ":null,"Số nhóm lớp\t":"6","Số trẻ\t\t":"196","Số điểm lẻ\t":"1","Đạt CQG (MĐ)\t":null,"Dự kiến sáp nhập":null,"Ghi chú\t\t\t":null,"layer_id":317,"fid":103,"label":"Trường Mầm non Sơn Ca III","Xã/Phường":"Xã Long Mỹ","Quận/Huyện":"Huyện Mang Thít"}},{"type":"Feature","geometry":{"type":"Point","coordinates":[106.041172,10.16598]},"properties":{"Mã số":104,"Trường Mầm non, Mẫu giáo":"Trường Mầm Non Oanh Vũ I","Địa chỉ trường":"ấp Thân Bình, xã Tân Long, huyện Mang Thít","Cấp học\t\t\t":"Mầm non","Loại hình\t\t":"Công lập","Số điện thoại trường    ":"02703933105","Số nhóm lớp\t":"8","Số trẻ\t\t":"315","Số điểm lẻ\t":"1","Đạt CQG (MĐ)\t":null,"Dự kiến sáp nhập":null,"Ghi chú\t\t\t":null,"layer_id":317,"fid":104,"label":"Trường Mầm Non Oanh Vũ I","Xã/Phường":"Xã Tân Long","Quận/Huyện":"Huyện Mang Thít"}},{"type":"Feature","geometry":{"type":"Point","coordinates":[106.09386,10.140398]},"properties":{"Mã số":105,"Trường Mầm non, Mẫu giáo":"Trường Mầm Non Oanh Vũ III","Địa chỉ trường":"ấp Tân An, xã Tân An Hội, huyện Mang Thít","Cấp học\t\t\t":"Mầm non","Loại hình\t\t":"Công lập","Số điện thoại trường    ":"02703935424","Số nhóm lớp\t":"9","Số trẻ\t\t":"184","Số điểm lẻ\t":"1","Đạt CQG (MĐ)\t":null,"Dự kiến sáp nhập":null,"Ghi chú\t\t\t":null,"layer_id":317,"fid":105,"label":"Trường Mầm Non Oanh Vũ III","Xã/Phường":"Xã Tân An Hội","Quận/Huyện":"Huyện Mang Thít"}},{"type":"Feature","geometry":{"type":"Point","coordinates":[106.09701,10.191477]},"properties":{"Mã số":106,"Trường Mầm non, Mẫu giáo":"Trường Mầm non Tuổi Thơ I","Địa chỉ trường":"Khóm 5, thị trấn Cái Nhum, huyện Mang Thít","Cấp học\t\t\t":"Mầm non","Loại hình\t\t":"Công lập","Số điện thoại trường    ":"02703933105","Số nhóm lớp\t":"6","Số trẻ\t\t":"137","Số điểm lẻ\t":"2","Đạt CQG (MĐ)\t":null,"Dự kiến sáp nhập":null,"Ghi chú\t\t\t":null,"layer_id":317,"fid":106,"label":"Trường Mầm non Tuổi Thơ I","Xã/Phường":"Xã Chánh Hội","Quận/Huyện":"Huyện Mang Thít"}},{"type":"Feature","geometry":{"type":"Point","coordinates":[106.122659,10.188286]},"properties":{"Mã số":107,"Trường Mầm non, Mẫu giáo":"Trường Mầm non Hoa Sen","Địa chỉ trường":"ấp Phú An, xã An Phước, huyện Mang Thít","Cấp học\t\t\t":"Mầm non","Loại hình\t\t":"Tư thục","Số điện thoại trường    ":null,"Số nhóm lớp\t":"6","Số trẻ\t\t":"130","Số điểm lẻ\t":"1","Đạt CQG (MĐ)\t":null,"Dự kiến sáp nhập":null,"Ghi chú\t\t\t":null,"layer_id":317,"fid":107,"label":"Trường Mầm non Hoa Sen","Xã/Phường":"Xã An Phước","Quận/Huyện":"Huyện Mang Thít"}},{"type":"Feature","geometry":{"type":"Point","coordinates":[105.99568,10.055121]},"properties":{"Mã số":108,"Trường Mầm non, Mẫu giáo":"Trường Mầm non Họa Mi","Địa chỉ trường":"Khóm 2, thị trấn Tam Bình, huyện Tam Bình\n","Cấp học\t\t\t":"Mầm non","Loại hình\t\t":"Công lập","Số điện thoại trường    ":"02703860486","Số nhóm lớp\t":"17","Số trẻ\t\t":"510","Số điểm lẻ\t":"3","Đạt CQG (MĐ)\t":"Mức độ 1","Dự kiến sáp nhập":null,"Ghi chú\t\t\t":null,"layer_id":317,"fid":108,"label":"Trường Mầm non Họa Mi","Xã/Phường":"Xã Tam Bình","Quận/Huyện":"Huyện Tam Bình"}},{"type":"Feature","geometry":{"type":"Point","coordinates":[105.990986,10.061717]},"properties":{"Mã số":109,"Trường Mầm non, Mẫu giáo":"Trường Mầm non Hoa Hồng","Địa chỉ trường":"ấp Mỹ Trung 1, xã Mỹ Thạnh Trung, huyện Tam Bình","Cấp học\t\t\t":"Mầm non","Loại hình\t\t":"Công lập","Số điện thoại trường    ":"02703714600","Số nhóm lớp\t":"17","Số trẻ\t\t":"450","Số điểm lẻ\t":"2","Đạt CQG (MĐ)\t":"Mức độ 1","Dự kiến sáp nhập":null,"Ghi chú\t\t\t":null,"layer_id":317,"fid":109,"label":"Trường Mầm non Hoa Hồng","Xã/Phường":"Xã Mỹ Thạnh Trung","Quận/Huyện":"Huyện Tam Bình"}},{"type":"Feature","geometry":{"type":"Point","coordinates":[105.912108,10.079415]},"properties":{"Mã số":110,"Trường Mầm non, Mẫu giáo":"Trường Mầm non Tuổi Thơ","Địa chỉ trường":"ấp Phú Sơn A, xã Long Phú, huyện Tam Bình","Cấp học\t\t\t":"Mầm non","Loại hình\t\t":"Công lập","Số điện thoại trường    ":"02703729231","Số nhóm lớp\t":"12","Số trẻ\t\t":"390","Số điểm lẻ\t":"0","Đạt CQG (MĐ)\t":"Mức độ 1","Dự kiến sáp nhập":null,"Ghi chú\t\t\t":null,"layer_id":317,"fid":110,"label":"Trường Mầm non Tuổi Thơ","Xã/Phường":"Xã Long Phú","Quận/Huyện":"Huyện Tam Bình"}},{"type":"Feature","geometry":{"type":"Point","coordinates":[105.865242,10.085504]},"properties":{"Mã số":111,"Trường Mầm non, Mẫu giáo":"Trường Mầm non Hoa Lan","Địa chỉ trường":"ấp Phú Mỹ, xã Tân Phú, huyện Tam Bình","Cấp học\t\t\t":"Mầm non","Loại hình\t\t":"Công lập","Số điện thoại trường    ":"02706272299","Số nhóm lớp\t":"12","Số trẻ\t\t":"360","Số điểm lẻ\t":"2","Đạt CQG (MĐ)\t":"Mức độ 2","Dự kiến sáp nhập":null,"Ghi chú\t\t\t":null,"layer_id":317,"fid":111,"label":"Trường Mầm non Hoa Lan","Xã/Phường":"Xã Tân Phú","Quận/Huyện":"Huyện Tam Bình"}},{"type":"Feature","geometry":{"type":"Point","coordinates":[105.896237,10.106492]},"properties":{"Mã số":112,"Trường Mầm non, Mẫu giáo":"Trường Mầm non Vành Khuyên","Địa chỉ trường":"ấp Phú Hòa Yên, xã Song Phú, huyện Tam Bình","Cấp học\t\t\t":"Mầm non","Loại hình\t\t":"Công lập","Số điện thoại trường    ":"02703864177","Số nhóm lớp\t":"12","Số trẻ\t\t":"357","Số điểm lẻ\t":"2","Đạt CQG (MĐ)\t":"Mức độ 1","Dự kiến sáp nhập":null,"Ghi chú\t\t\t":null,"layer_id":317,"fid":112,"label":"Trường Mầm non Vành Khuyên","Xã/Phường":"Xã Song Phú","Quận/Huyện":"Huyện Tam Bình"}},{"type":"Feature","geometry":{"type":"Point","coordinates":[105.98453,10.114891]},"properties":{"Mã số":113,"Trường Mầm non, Mẫu giáo":"Trường Mầm non Hoa Mai","Địa chỉ trường":"Ấp 5, xã Hậu Lộc, huyện Tam Bình","Cấp học\t\t\t":"Mầm non","Loại hình\t\t":"Công lập","Số điện thoại trường    ":"02706271468","Số nhóm lớp\t":"9","Số trẻ\t\t":"215","Số điểm lẻ\t":"2","Đạt CQG (MĐ)\t":"Mức độ 1","Dự kiến sáp nhập":null,"Ghi chú\t\t\t":null,"layer_id":317,"fid":113,"label":"Trường Mầm non Hoa Mai","Xã/Phường":"Xã Hậu Lộc","Quận/Huyện":"Huyện Tam Bình"}},{"type":"Feature","geometry":{"type":"Point","coordinates":[105.971296037,10.151681]},"properties":{"Mã số":114,"Trường Mầm non, Mẫu giáo":"Trường Mầm non Bông Sen","Địa chỉ trường":"Ấp 8, xã Tân Lộc, huyện Tam Bình","Cấp học\t\t\t":"Mầm non","Loại hình\t\t":"Công lập","Số điện thoại trường    ":"02703731679","Số nhóm lớp\t":"9","Số trẻ\t\t":"255","Số điểm lẻ\t":"2","Đạt CQG (MĐ)\t":"Mức độ 1","Dự kiến sáp nhập":null,"Ghi chú\t\t\t":null,"layer_id":317,"fid":114,"label":"Trường Mầm non Bông Sen","Xã/Phường":"Xã Tân Lộc","Quận/Huyện":"Huyện Tam Bình"}},{"type":"Feature","geometry":{"type":"Point","coordinates":[106.037211,10.08011]},"properties":{"Mã số":115,"Trường Mầm non, Mẫu giáo":"Trường Mầm non Hoa Sen","Địa chỉ trường":"Ấp 7, xã Hòa Hiệp, huyện Tam Bình","Cấp học\t\t\t":"Mầm non","Loại hình\t\t":"Công lập","Số điện thoại trường    ":"0972851339","Số nhóm lớp\t":"10","Số trẻ\t\t":"220","Số điểm lẻ\t":"2","Đạt CQG (MĐ)\t":"Mức độ 1","Dự kiến sáp nhập":null,"Ghi chú\t\t\t":null,"layer_id":317,"fid":115,"label":"Trường Mầm non Hoa Sen","Xã/Phường":"Xã Hòa Hiệp","Quận/Huyện":"Huyện Tam Bình"}},{"type":"Feature","geometry":{"type":"Point","coordinates":[106.046491,10.123478]},"properties":{"Mã số":116,"Trường Mầm non, Mẫu giáo":"Trường Mầm non Sơn Ca","Địa chỉ trường":"ấp Thạnh Trí, xã Hòa Thạnh, huyện Tam Bình","Cấp học\t\t\t":"Mầm non","Loại hình\t\t":"Công lập","Số điện thoại trường    ":"02706503999","Số nhóm lớp\t":"9","Số trẻ\t\t":"230","Số điểm lẻ\t":"2","Đạt CQG (MĐ)\t":"Mức độ 1","Dự kiến sáp nhập":null,"Ghi chú\t\t\t":null,"layer_id":317,"fid":116,"label":"Trường Mầm non Sơn Ca","Xã/Phường":"Xã Hòa Thạnh","Quận/Huyện":"Huyện Tam Bình"}},{"type":"Feature","geometry":{"type":"Point","coordinates":[105.944678,10.097016]},"properties":{"Mã số":117,"Trường Mầm non, Mẫu giáo":"Trường Mầm non Sao Mai","Địa chỉ trường":"ấp Cây Điều, xã Phú Lộc, huyện Tam Bình","Cấp học\t\t\t":"Mầm non","Loại hình\t\t":"Công lập","Số điện thoại trường    ":"02703731298","Số nhóm lớp\t":"10","Số trẻ\t\t":"300","Số điểm lẻ\t":"2","Đạt CQG (MĐ)\t":"Mức độ 1","Dự kiến sáp nhập":null,"Ghi chú\t\t\t":null,"layer_id":317,"fid":117,"label":"Trường Mầm non Sao Mai","Xã/Phường":"Xã Cái Ngang","Quận/Huyện":"Huyện Tam Bình"}},{"type":"Feature","geometry":{"type":"Point","coordinates":[106.005268,10.085303]},"properties":{"Mã số":118,"Trường Mầm non, Mẫu giáo":"Trường Mầm non Măng Non","Địa chỉ trường":"Ấp 2, xã Hòa Lộc, huyện Tam Bình","Cấp học\t\t\t":"Mầm non","Loại hình\t\t":"Công lập","Số điện thoại trường    ":"0978749156","Số nhóm lớp\t":"11","Số trẻ\t\t":"414","Số điểm lẻ\t":"3","Đạt CQG (MĐ)\t":"Mức độ 1","Dự kiến sáp nhập":null,"Ghi chú\t\t\t":null,"layer_id":317,"fid":118,"label":"Trường Mầm non Măng Non","Xã/Phường":"Xã Hòa Lộc","Quận/Huyện":"Huyện Tam Bình"}},{"type":"Feature","geometry":{"type":"Point","coordinates":[105.938226,9.986938]},"properties":{"Mã số":119,"Trường Mầm non, Mẫu giáo":"Trường Mầm non Kim Đồng","Địa chỉ trường":"ấp An Phú Tân, xã Bình Ninh, huyện Tam Bình","Cấp học\t\t\t":"Mầm non","Loại hình\t\t":"Công lập","Số điện thoại trường    ":"0976684111","Số nhóm lớp\t":"14","Số trẻ\t\t":"400","Số điểm lẻ\t":"2","Đạt CQG (MĐ)\t":"Mức độ 1","Dự kiến sáp nhập":null,"Ghi chú\t\t\t":null,"layer_id":317,"fid":119,"label":"Trường Mầm non Kim Đồng","Xã/Phường":"Xã Thiện Mỹ","Quận/Huyện":"Huyện Trà Ôn"}},{"type":"Feature","geometry":{"type":"Point","coordinates":[105.91288,10.010625]},"properties":{"Mã số":120,"Trường Mầm non, Mẫu giáo":"Trường Mầm non Rạng Đông","Địa chỉ trường":"ấp Nhứt, xã Ngãi Tứ, huyện Tam Bình","Cấp học\t\t\t":"Mầm non","Loại hình\t\t":"Công lập","Số điện thoại trường    ":"02702215905","Số nhóm lớp\t":"15","Số trẻ\t\t":"450","Số điểm lẻ\t":"3","Đạt CQG (MĐ)\t":"Mức độ 1","Dự kiến sáp nhập":null,"Ghi chú\t\t\t":null,"layer_id":317,"fid":120,"label":"Trường Mầm non Rạng Đông","Xã/Phường":"Xã Ngãi Tứ","Quận/Huyện":"Huyện Tam Bình"}},{"type":"Feature","geometry":{"type":"Point","coordinates":[105.956746,10.023293]},"properties":{"Mã số":121,"Trường Mầm non, Mẫu giáo":"Trường Mầm non Hướng Dương","Địa chỉ trường":"ấp Kỳ Son, xã Loan Mỹ, huyện Tam Bình","Cấp học\t\t\t":"Mầm non","Loại hình\t\t":"Công lập","Số điện thoại trường    ":"02703715726","Số nhóm lớp\t":"23","Số trẻ\t\t":"690","Số điểm lẻ\t":"5","Đạt CQG (MĐ)\t":"Mức độ 1","Dự kiến sáp nhập":null,"Ghi chú\t\t\t":null,"layer_id":317,"fid":121,"label":"Trường Mầm non Hướng Dương","Xã/Phường":"Xã Loan Mỹ","Quận/Huyện":"Huyện Tam Bình"}},{"type":"Feature","geometry":{"type":"Point","coordinates":[105.884384,10.138741]},"properties":{"Mã số":122,"Trường Mầm non, Mẫu giáo":"Trường Mầm non Hoa Đào","Địa chỉ trường":"ấp Phú Hữu Đông, xã Phú Thịnh, huyện Tam Bình","Cấp học\t\t\t":"Mầm non","Loại hình\t\t":"Công lập","Số điện thoại trường    ":"02706289888","Số nhóm lớp\t":"12","Số trẻ\t\t":"350","Số điểm lẻ\t":"2","Đạt CQG (MĐ)\t":"Mức độ 1","Dự kiến sáp nhập":null,"Ghi chú\t\t\t":null,"layer_id":317,"fid":122,"label":"Trường Mầm non Hoa Đào","Xã/Phường":"Xã Phú Thịnh","Quận/Huyện":"Huyện Tam Bình"}},{"type":"Feature","geometry":{"type":"Point","coordinates":[105.967653,10.111173]},"properties":{"Mã số":123,"Trường Mầm non, Mẫu giáo":"Trường Mầm non Cái Ngang","Địa chỉ trường":"ấp Mỹ Phú, xã Mỹ Lộc, huyện Tam Bình","Cấp học\t\t\t":"Mầm non","Loại hình\t\t":"Công lập","Số điện thoại trường    ":"0906118823","Số nhóm lớp\t":"14","Số trẻ\t\t":"400","Số điểm lẻ\t":"0","Đạt CQG (MĐ)\t":"Mức độ 1","Dự kiến sáp nhập":null,"Ghi chú\t\t\t":null,"layer_id":317,"fid":123,"label":"Trường Mầm non Cái Ngang","Xã/Phường":"Xã Mỹ Lộc","Quận/Huyện":"Huyện Tam Bình"}}]}
