{"type":"FeatureCollection","name":"QH Trường Tiểu học","metadata":{"source":"https://hatang.vinhlong.gov.vn/","downloaded_at":"2026-07-20T01:16:43+00:00","layer_id":318,"layer_name":"QH Trường Tiểu học","catalog_endpoints":["/map/publicLayers2?inputs=sogddt_quyhoach"],"requested_bbox":[104.0,8.0,108.0,12.0],"tile_size":0.0,"tile_count":1,"tile_errors":[],"feature_count":131,"coordinate_order":"x,y (thường là longitude,latitude theo cấu hình EPSG:4326 của WebGIS)"},"features":[{"type":"Feature","geometry":{"type":"Point","coordinates":[105.822154,10.062324]},"properties":{"Mã số":134,"Trường Tiểu học\t\t":"Trường Tiểu học Trần Bình Trọng","Địa chỉ trường\t\t":"Tổ 3, ấp Mỹ Khánh 2, xã Mỹ Hòa, thị xã Bình Minh  ","Cấp học\t\t\t":"Tiểu học","Loại hình\t\t":"Công lập","Số điện thoại trường    ":"02703891615","Số lớp":"15","Số học sinh\t":"480","Số điểm lẻ\t":null,"Đạt CQG (MĐ)\t":"Mức độ 2","Dự kiến sáp nhập\t":null,"Ghi chú\t\t\t":null,"layer_id":318,"fid":134,"label":"Trường Tiểu học Trần Bình Trọng","Xã/Phường":"Xã Mỹ Hòa","Quận/Huyện":"Thị xã Bình Minh"}},{"type":"Feature","geometry":{"type":"Point","coordinates":[105.816841,10.06669]},"properties":{"Mã số":132,"Trường Tiểu học\t\t":"Trường Tiểu học Lê Thánh Tông","Địa chỉ trường\t\t":"Số 110, Lê Văn Vị, khóm 2, phường Cái Vồn, thị xã Bình Minh  ","Cấp học\t\t\t":"Tiểu học","Loại hình\t\t":"Công lập","Số điện thoại trường    ":"02703890767","Số lớp":"30","Số học sinh\t":"1050","Số điểm lẻ\t":null,"Đạt CQG (MĐ)\t":"Mức độ 2","Dự kiến sáp nhập\t":null,"Ghi chú\t\t\t":null,"layer_id":318,"fid":132,"label":"Trường Tiểu học Lê Thánh Tông","Xã/Phường":"Phường Cái Vồn","Quận/Huyện":"Thị xã Bình Minh"}},{"type":"Feature","geometry":{"type":"Point","coordinates":[105.806907,10.065414]},"properties":{"Mã số":133,"Trường Tiểu học\t\t":"Trường Tiểu học Phan Bội Châu","Địa chỉ trường\t\t":"đường Phan Văn Năm, khóm 2, phường Cái Vồn, thị xã Bình Minh  ","Cấp học\t\t\t":"Tiểu học","Loại hình\t\t":"Công lập","Số điện thoại trường    ":"02703890028","Số lớp":"30","Số học sinh\t":"1050","Số điểm lẻ\t":null,"Đạt CQG (MĐ)\t":"Mức độ 1","Dự kiến sáp nhập\t":null,"Ghi chú\t\t\t":null,"layer_id":318,"fid":133,"label":"Trường Tiểu học Phan Bội Châu","Xã/Phường":"Phường Thành Phước","Quận/Huyện":"Thị xã Bình Minh"}},{"type":"Feature","geometry":{"type":"Point","coordinates":[105.836662,10.045722]},"properties":{"Mã số":137,"Trường Tiểu học\t\t":"Trường Tiểu học Võ Thị Sáu","Địa chỉ trường\t\t":"Tổ 51, khóm Đông Thuận, phường Đông Thuận, thị xã Bình Minh  ","Cấp học\t\t\t":"Tiểu học","Loại hình\t\t":"Công lập","Số điện thoại trường    ":"02703752257","Số lớp":"15","Số học sinh\t":"480","Số điểm lẻ\t":null,"Đạt CQG (MĐ)\t":"Mức độ 1","Dự kiến sáp nhập\t":null,"Ghi chú\t\t\t":null,"layer_id":318,"fid":137,"label":"Trường Tiểu học Võ Thị Sáu","Xã/Phường":"Phường Đông Thuận","Quận/Huyện":"Thị xã Bình Minh"}},{"type":"Feature","geometry":{"type":"Point","coordinates":[105.878114,10.001998]},"properties":{"Mã số":136,"Trường Tiểu học\t\t":"Trường Tiểu học Nguyễn Văn Trỗi","Địa chỉ trường\t\t":"Tổ 5, ấp Đông Hòa 2, xã Đông Thành, xã Mỹ Hòa, thị xã Bình Minh  ","Cấp học\t\t\t":"Tiểu học","Loại hình\t\t":"Công lập","Số điện thoại trường    ":"02703891664","Số lớp":"15","Số học sinh\t":"525","Số điểm lẻ\t":"1","Đạt CQG (MĐ)\t":"Mức độ 2","Dự kiến sáp nhập\t":null,"Ghi chú\t\t\t":null,"layer_id":318,"fid":136,"label":"Trường Tiểu học Nguyễn Văn Trỗi","Xã/Phường":"Phường Đông Thành","Quận/Huyện":"Thị xã Bình Minh"}},{"type":"Feature","geometry":{"type":"Point","coordinates":[105.835993,10.021069]},"properties":{"Mã số":135,"Trường Tiểu học\t\t":"Trường Tiểu học Mỹ Hòa C","Địa chỉ trường\t\t":"Tổ 1, ấp Mỹ Phước 1, xã Mỹ Hòa, thị xã Bình Minh","Cấp học\t\t\t":"Tiểu học","Loại hình\t\t":"Công lập","Số điện thoại trường    ":"02703891160","Số lớp":"30","Số học sinh\t":"960","Số điểm lẻ\t":"1","Đạt CQG (MĐ)\t":"Mức độ 1","Dự kiến sáp nhập\t":null,"Ghi chú\t\t\t":null,"layer_id":318,"fid":135,"label":"Trường Tiểu học Mỹ Hòa C","Xã/Phường":"Xã Mỹ Hòa","Quận/Huyện":"Thị xã Bình Minh"}},{"type":"Feature","geometry":{"type":"Point","coordinates":[105.844664,10.045887]},"properties":{"Mã số":139,"Trường Tiểu học\t\t":"Trường Tiểu học Phù Ly","Địa chỉ trường\t\t":"ấp Phù Ly 1, xã Đông Bình, thị xã Bình Minh  ","Cấp học\t\t\t":"Tiểu học","Loại hình\t\t":"Công lập","Số điện thoại trường    ":"02703752271","Số lớp":"10","Số học sinh\t":"310","Số điểm lẻ\t":null,"Đạt CQG (MĐ)\t":"Mức độ 2","Dự kiến sáp nhập\t":null,"Ghi chú\t\t\t":null,"layer_id":318,"fid":139,"label":"Trường Tiểu học Phù Ly","Xã/Phường":"Xã Đông Bình","Quận/Huyện":"Thị xã Bình Minh"}},{"type":"Feature","geometry":{"type":"Point","coordinates":[105.825493,10.062463]},"properties":{"Mã số":138,"Trường Tiểu học\t\t":"Trường Tiểu học Nguyễn Thị Minh Khai","Địa chỉ trường\t\t":"Tổ 37, khóm Đông Bình A, phường Đông Thuận, thị xã Bình Minh  ","Cấp học\t\t\t":"Tiểu học","Loại hình\t\t":"Công lập","Số điện thoại trường    ":"02703891175","Số lớp":"15","Số học sinh\t":"495","Số điểm lẻ\t":null,"Đạt CQG (MĐ)\t":"Mức độ 1","Dự kiến sáp nhập\t":null,"Ghi chú\t\t\t":null,"layer_id":318,"fid":138,"label":"Trường Tiểu học Nguyễn Thị Minh Khai","Xã/Phường":"Phường Đông Thuận","Quận/Huyện":"Thị xã Bình Minh"}},{"type":"Feature","geometry":{"type":"Point","coordinates":[105.875697,10.038822]},"properties":{"Mã số":140,"Trường Tiểu học\t\t":"Trường Tiểu học Phan Văn Năm","Địa chỉ trường\t\t":"Tổ 10, ấp Thạnh An, xã Đông Thạnh, thị xã Bình Minh  ","Cấp học\t\t\t":"Tiểu học","Loại hình\t\t":"Công lập","Số điện thoại trường    ":"02703891604","Số lớp":"15","Số học sinh\t":"495","Số điểm lẻ\t":"1","Đạt CQG (MĐ)\t":"Mức độ 1","Dự kiến sáp nhập\t":null,"Ghi chú\t\t\t":null,"layer_id":318,"fid":140,"label":"Trường Tiểu học Phan Văn Năm","Xã/Phường":"Xã Đông Thạnh","Quận/Huyện":"Thị xã Bình Minh"}},{"type":"Feature","geometry":{"type":"Point","coordinates":[105.738571324,10.182522607]},"properties":{"Mã số":143,"Trường Tiểu học\t\t":"Trường Tiểu học Tân Hưng","Địa chỉ trường\t\t":"Tổ 1, ấp Hưng Thuận, xã Tân Hưng, huyện Bình Tân  ","Cấp học\t\t\t":"Tiểu học","Loại hình\t\t":"Công lập","Số điện thoại trường    ":"0975492188","Số lớp":"10","Số học sinh\t":"320","Số điểm lẻ\t":null,"Đạt CQG (MĐ)\t":"Mức độ 1","Dự kiến sáp nhập\t":null,"Ghi chú\t\t\t":null,"layer_id":318,"fid":143,"label":"Trường Tiểu học Tân Hưng","Xã/Phường":"Xã Tân Hưng","Quận/Huyện":"Huyện Bình Tân"}},{"type":"Feature","geometry":{"type":"Point","coordinates":[105.832948,10.072385]},"properties":{"Mã số":141,"Trường Tiểu học\t\t":"Trường Tiểu học Thoại Ngọc Hầu","Địa chỉ trường\t\t":"ấp Thuận Tiến A, xã Thuận An, thị xã Bình Minh  ","Cấp học\t\t\t":"Tiểu học","Loại hình\t\t":"Công lập","Số điện thoại trường    ":"02703890879","Số lớp":"25","Số học sinh\t":"850","Số điểm lẻ\t":null,"Đạt CQG (MĐ)\t":"Mức độ 1","Dự kiến sáp nhập\t":null,"Ghi chú\t\t\t":null,"layer_id":318,"fid":141,"label":"Trường Tiểu học Thoại Ngọc Hầu","Xã/Phường":"Phường BÌnh Minh","Quận/Huyện":"Thị xã Bình Minh"}},{"type":"Feature","geometry":{"type":"Point","coordinates":[105.816238,10.073267]},"properties":{"Mã số":142,"Trường Tiểu học\t\t":"Trường Tiểu học Phan Văn Đáng","Địa chỉ trường\t\t":"Tổ 23, ấp Thuận Tân A, xã Thuận An, thị xã Bình Minh  ","Cấp học\t\t\t":"Tiểu học","Loại hình\t\t":"Công lập","Số điện thoại trường    ":"02703891172","Số lớp":"10","Số học sinh\t":"340","Số điểm lẻ\t":null,"Đạt CQG (MĐ)\t":"Mức độ 1","Dự kiến sáp nhập\t":null,"Ghi chú\t\t\t":null,"layer_id":318,"fid":142,"label":"Trường Tiểu học Phan Văn Đáng","Xã/Phường":"Phường BÌnh Minh","Quận/Huyện":"Thị xã Bình Minh"}},{"type":"Feature","geometry":{"type":"Point","coordinates":[105.70593,10.149407]},"properties":{"Mã số":144,"Trường Tiểu học\t\t":"Trường Tiểu học Tân An Thạnh A","Địa chỉ trường\t\t":"Tổ 2, ấp An Thới, xã Tân An Thạnh, huyện Bình Tân  ","Cấp học\t\t\t":"Tiểu học","Loại hình\t\t":"Công lập","Số điện thoại trường    ":"0946494094","Số lớp":"20","Số học sinh\t":"620","Số điểm lẻ\t":null,"Đạt CQG (MĐ)\t":"Mức độ 1","Dự kiến sáp nhập\t":null,"Ghi chú\t\t\t":null,"layer_id":318,"fid":144,"label":"Trường Tiểu học Tân An Thạnh A","Xã/Phường":"Xã Tân An Thạnh","Quận/Huyện":"Huyện Bình Tân"}},{"type":"Feature","geometry":{"type":"Point","coordinates":[105.720101,10.155005]},"properties":{"Mã số":145,"Trường Tiểu học\t\t":"Trường Tiểu học Tân An Thạnh B","Địa chỉ trường\t\t":"Tổ 21, ấp An Khánh, xã Tân An Thạnh, huyện Bình Tân  ","Cấp học\t\t\t":"Tiểu học","Loại hình\t\t":"Công lập","Số điện thoại trường    ":"0916470027","Số lớp":"10","Số học sinh\t":"251","Số điểm lẻ\t":"1","Đạt CQG (MĐ)\t":null,"Dự kiến sáp nhập\t":null,"Ghi chú\t\t\t":null,"layer_id":318,"fid":145,"label":"Trường Tiểu học Tân An Thạnh B","Xã/Phường":"Xã Tân An Thạnh","Quận/Huyện":"Huyện Bình Tân"}},{"type":"Feature","geometry":{"type":"Point","coordinates":[105.71441,10.14226]},"properties":{"Mã số":146,"Trường Tiểu học\t\t":"Trường Tiểu học Tân Lược","Địa chỉ trường\t\t":"Tổ 14, ấp Tân Vĩnh, xã Tân Lược, huyện Bình Tân  ","Cấp học\t\t\t":"Tiểu học","Loại hình\t\t":"Công lập","Số điện thoại trường    ":"0949209129","Số lớp":"29","Số học sinh\t":"1015","Số điểm lẻ\t":"1","Đạt CQG (MĐ)\t":"Mức độ 2","Dự kiến sáp nhập\t":null,"Ghi chú\t\t\t":null,"layer_id":318,"fid":146,"label":"Trường Tiểu học Tân Lược","Xã/Phường":"Xã Tân Lược","Quận/Huyện":"Huyện Bình Tân"}},{"type":"Feature","geometry":{"type":"Point","coordinates":[105.732464,10.12645]},"properties":{"Mã số":147,"Trường Tiểu học\t\t":"Trường Tiểu học Tân Bình","Địa chỉ trường\t\t":"Tổ 5, ấp Tân Qui, xã Tân Bình, huyện Bình Tân  ","Cấp học\t\t\t":"Tiểu học","Loại hình\t\t":"Công lập","Số điện thoại trường    ":"02703758358","Số lớp":"28","Số học sinh\t":"806","Số điểm lẻ\t":"4","Đạt CQG (MĐ)\t":"Mức độ 2","Dự kiến sáp nhập\t":null,"Ghi chú\t\t\t":null,"layer_id":318,"fid":147,"label":"Trường Tiểu học Tân Bình","Xã/Phường":"Xã Tân Bình","Quận/Huyện":"Huyện Bình Tân"}},{"type":"Feature","geometry":{"type":"Point","coordinates":[105.777194991,10.171965147]},"properties":{"Mã số":148,"Trường Tiểu học\t\t":"Trường Tiểu học Tân Thành A","Địa chỉ trường\t\t":"Tổ 5, ấp Tân Lập, xã Tân Thành, huyện Bình Tân  ","Cấp học\t\t\t":"Tiểu học","Loại hình\t\t":"Công lập","Số điện thoại trường    ":"0989997735","Số lớp":"18","Số học sinh\t":"574","Số điểm lẻ\t":null,"Đạt CQG (MĐ)\t":"Mức độ 1","Dự kiến sáp nhập\t":null,"Ghi chú\t\t\t":null,"layer_id":318,"fid":148,"label":"Trường Tiểu học Tân Thành A","Xã/Phường":"Xã Tân Thành","Quận/Huyện":"Huyện Bình Tân"}},{"type":"Feature","geometry":{"type":"Point","coordinates":[105.74955,10.10378]},"properties":{"Mã số":149,"Trường Tiểu học\t\t":"Trường Tiểu học Tân Quới A","Địa chỉ trường\t\t":"Tổ 16, khóm Tân Thuận, thị trấn Tân Quới, huyện Bình Tân  ","Cấp học\t\t\t":"Tiểu học","Loại hình\t\t":"Công lập","Số điện thoại trường    ":"0702760267","Số lớp":"28","Số học sinh\t":"876","Số điểm lẻ\t":null,"Đạt CQG (MĐ)\t":"Mức độ 2","Dự kiến sáp nhập\t":null,"Ghi chú\t\t\t":null,"layer_id":318,"fid":149,"label":"Trường Tiểu học Tân Quới A","Xã/Phường":"Xã Tân Quới","Quận/Huyện":"Huyện Bình Tân"}},{"type":"Feature","geometry":{"type":"Point","coordinates":[105.763025955,10.109033068]},"properties":{"Mã số":150,"Trường Tiểu học\t\t":"Trường Tiểu học Thành Đông A","Địa chỉ trường\t\t":"Đường huyện 80, ấp Thành Khương, thị trấn Tân Quới, huyện Bình Tân  ","Cấp học\t\t\t":"Tiểu học","Loại hình\t\t":"Công lập","Số điện thoại trường    ":"0908342847","Số lớp":"18","Số học sinh\t":"600","Số điểm lẻ\t":null,"Đạt CQG (MĐ)\t":"Mức độ 2","Dự kiến sáp nhập\t":null,"Ghi chú\t\t\t":null,"layer_id":318,"fid":150,"label":"Trường Tiểu học Thành Đông A","Xã/Phường":"Xã Tân Quới","Quận/Huyện":"Huyện Bình Tân"}},{"type":"Feature","geometry":{"type":"Point","coordinates":[105.779792,10.082526]},"properties":{"Mã số":151,"Trường Tiểu học\t\t":"Trường Tiểu học Thành Lợi A","Địa chỉ trường\t\t":"Tổ 01, Khóm Thành Tâm, Thị Trấn Tân Quới, huyện Bình Tân  ","Cấp học\t\t\t":"Tiểu học","Loại hình\t\t":"Công lập","Số điện thoại trường    ":"0869623709","Số lớp":"21","Số học sinh\t":"627","Số điểm lẻ\t":"1","Đạt CQG (MĐ)\t":"Mức độ 1","Dự kiến sáp nhập\t":null,"Ghi chú\t\t\t":null,"layer_id":318,"fid":151,"label":"Trường Tiểu học Thành Lợi A","Xã/Phường":"Xã Thành Lợi","Quận/Huyện":"Huyện Bình Tân"}},{"type":"Feature","geometry":{"type":"Point","coordinates":[105.7934,10.06662]},"properties":{"Mã số":152,"Trường Tiểu học\t\t":"Trường Tiểu học Thành Lợi C","Địa chỉ trường\t\t":"Tổ 19, ấp Thành Phú, xã Thành Lợi, huyện Bình Tân  ","Cấp học\t\t\t":"Tiểu học","Loại hình\t\t":"Công lập","Số điện thoại trường    ":"0775946663","Số lớp":"10","Số học sinh\t":"228","Số điểm lẻ\t":"1","Đạt CQG (MĐ)\t":"Mức độ 1","Dự kiến sáp nhập\t":null,"Ghi chú\t\t\t":null,"layer_id":318,"fid":152,"label":"Trường Tiểu học Thành Lợi C","Xã/Phường":"Xã Thành Lợi","Quận/Huyện":"Huyện Bình Tân"}},{"type":"Feature","geometry":{"type":"Point","coordinates":[105.774691,10.143166]},"properties":{"Mã số":153,"Trường Tiểu học\t\t":"Trường Tiểu học Thành Trung A","Địa chỉ trường\t\t":"Tổ 1, ấp Thành Thuận, xã Thành Trung, huyện Bình Tân  ","Cấp học\t\t\t":"Tiểu học","Loại hình\t\t":"Công lập","Số điện thoại trường    ":"0387599597","Số lớp":"15","Số học sinh\t":"500","Số điểm lẻ\t":"1","Đạt CQG (MĐ)\t":"Mức độ 1","Dự kiến sáp nhập\t":null,"Ghi chú\t\t\t":null,"layer_id":318,"fid":153,"label":"Trường Tiểu học Thành Trung A","Xã/Phường":"Xã Thành Trung","Quận/Huyện":"Huyện Bình Tân"}},{"type":"Feature","geometry":{"type":"Point","coordinates":[105.8507981,10.11066026]},"properties":{"Mã số":154,"Trường Tiểu học\t\t":"Trường Tiểu học Mỹ Thuận","Địa chỉ trường\t\t":"Ấp Mỹ Thạnh B , xã Mỹ Thuận, huyện Bình Tân  ","Cấp học\t\t\t":"Tiểu học","Loại hình\t\t":"Công lập","Số điện thoại trường    ":"0939802097","Số lớp":"28","Số học sinh\t":"730","Số điểm lẻ\t":"2","Đạt CQG (MĐ)\t":"Mức độ 2","Dự kiến sáp nhập\t":null,"Ghi chú\t\t\t":null,"layer_id":318,"fid":154,"label":"Trường Tiểu học Mỹ Thuận","Xã/Phường":"Xã Mỹ Thuận","Quận/Huyện":"Huyện Bình Tân"}},{"type":"Feature","geometry":{"type":"Point","coordinates":[105.963976,10.271038]},"properties":{"Mã số":156,"Trường Tiểu học\t\t":"Trường Tiểu học An Bình B","Địa chỉ trường\t\t":"ấp An Thuận, xã An Bình, huyện Long Hồ  ","Cấp học\t\t\t":"Tiểu học","Loại hình\t\t":"Công lập","Số điện thoại trường    ":"02703858872","Số lớp":"22","Số học sinh\t":"624","Số điểm lẻ\t":"2","Đạt CQG (MĐ)\t":"Mức độ 1","Dự kiến sáp nhập\t":null,"Ghi chú\t\t\t":null,"layer_id":318,"fid":156,"label":"Trường Tiểu học An Bình B","Xã/Phường":"Xã An Bình","Quận/Huyện":"Huyện Long Hồ"}},{"type":"Feature","geometry":{"type":"Point","coordinates":[105.821821,10.132983]},"properties":{"Mã số":155,"Trường Tiểu học\t\t":"Trường Tiểu học Nguyễn Văn Thảnh A","Địa chỉ trường\t\t":"Tổ 6, ấp Mỹ Hòa, xã Nguyễn Văn Thảnh, huyện Bình Tân  ","Cấp học\t\t\t":"Tiểu học","Loại hình\t\t":"Công lập","Số điện thoại trường    ":"0907852277","Số lớp":"21","Số học sinh\t":"648","Số điểm lẻ\t":"1","Đạt CQG (MĐ)\t":"Mức độ 1","Dự kiến sáp nhập\t":null,"Ghi chú\t\t\t":null,"layer_id":318,"fid":155,"label":"Trường Tiểu học Nguyễn Văn Thảnh A","Xã/Phường":"Xã Nguyễn Văn Thảnh","Quận/Huyện":"Huyện Bình Tân"}},{"type":"Feature","geometry":{"type":"Point","coordinates":[106.01635,10.282254]},"properties":{"Mã số":157,"Trường Tiểu học\t\t":"Trường Tiểu học Bình Hòa Phước A","Địa chỉ trường\t\t":"ấp Bình Hòa 2, xã Bình Hòa Phước, huyện Long Hồ  ","Cấp học\t\t\t":"Tiểu học","Loại hình\t\t":"Công lập","Số điện thoại trường    ":"02703859761","Số lớp":"15","Số học sinh\t":"506","Số điểm lẻ\t":"1","Đạt CQG (MĐ)\t":"Mức độ 1","Dự kiến sáp nhập\t":null,"Ghi chú\t\t\t":null,"layer_id":318,"fid":157,"label":"Trường Tiểu học Bình Hòa Phước A","Xã/Phường":"Xã Bình Hòa Phước","Quận/Huyện":"Huyện Long Hồ"}},{"type":"Feature","geometry":{"type":"Point","coordinates":[105.990579,10.285164]},"properties":{"Mã số":158,"Trường Tiểu học\t\t":"Trường Tiểu học Trương Văn Ba","Địa chỉ trường\t\t":"ấp Hòa Quí, xã Hòa Ninh, hyện Long Hồ  ","Cấp học\t\t\t":"Tiểu học","Loại hình\t\t":"Công lập","Số điện thoại trường    ":"02703859629","Số lớp":"20","Số học sinh\t":"640","Số điểm lẻ\t":"3","Đạt CQG (MĐ)\t":"Mức độ 1","Dự kiến sáp nhập\t":null,"Ghi chú\t\t\t":null,"layer_id":318,"fid":158,"label":"Trường Tiểu học Trương Văn Ba","Xã/Phường":"Xã Hòa Ninh","Quận/Huyện":"Huyện Long Hồ"}},{"type":"Feature","geometry":{"type":"Point","coordinates":[105.996843,10.30929]},"properties":{"Mã số":159,"Trường Tiểu học\t\t":"Trường Tiểu học Đồng Phú A","Địa chỉ trường\t\t":"ấp Phú Mỹ 2, xã Đồng Phú, huyện Long Hồ  ","Cấp học\t\t\t":"Tiểu học","Loại hình\t\t":"Công lập","Số điện thoại trường    ":"02703859740","Số lớp":"23","Số học sinh\t":"652","Số điểm lẻ\t":"3","Đạt CQG (MĐ)\t":"Mức độ 1","Dự kiến sáp nhập\t":null,"Ghi chú\t\t\t":null,"layer_id":318,"fid":159,"label":"Trường Tiểu học Đồng Phú A","Xã/Phường":"Xã Đồng Phú","Quận/Huyện":"Huyện Long Hồ"}},{"type":"Feature","geometry":{"type":"Point","coordinates":[105.962556,10.206286]},"properties":{"Mã số":160,"Trường Tiểu học\t\t":"Trường Tiểu học Long Phước B","Địa chỉ trường\t\t":"ấp Phước Trinh, xã Long Phước, huyện Long Hồ  ","Cấp học\t\t\t":"Tiểu học","Loại hình\t\t":"Công lập","Số điện thoại trường    ":"02703851440","Số lớp":"13","Số học sinh\t":"365","Số điểm lẻ\t":"2","Đạt CQG (MĐ)\t":"Mức độ 1","Dự kiến sáp nhập\t":null,"Ghi chú\t\t\t":null,"layer_id":318,"fid":160,"label":"Trường Tiểu học Long Phước B","Xã/Phường":"Xã Long Phước","Quận/Huyện":"Huyện Long Hồ"}},{"type":"Feature","geometry":{"type":"Point","coordinates":[105.967712,10.218163]},"properties":{"Mã số":161,"Trường Tiểu học\t\t":"Trường Tiểu học Phước Hậu A","Địa chỉ trường\t\t":"ấp Phước Hanh A, xã Phước Hậu, huyện Long Hồ  ","Cấp học\t\t\t":"Tiểu học","Loại hình\t\t":"Công lập","Số điện thoại trường    ":"02706297136","Số lớp":"20","Số học sinh\t":"631","Số điểm lẻ\t":"1","Đạt CQG (MĐ)\t":"Mức độ 2","Dự kiến sáp nhập\t":null,"Ghi chú\t\t\t":null,"layer_id":318,"fid":161,"label":"Trường Tiểu học Phước Hậu A","Xã/Phường":"Phường Phước Hậu","Quận/Huyện":"Huyện Long Hồ"}},{"type":"Feature","geometry":{"type":"Point","coordinates":[105.950683,10.213236]},"properties":{"Mã số":162,"Trường Tiểu học\t\t":"Trường Tiểu học Phước Hậu C","Địa chỉ trường\t\t":"ấp Phước Lợi B, xã Phước Hậu, huyện Long Hồ  ","Cấp học\t\t\t":"Tiểu học","Loại hình\t\t":"Công lập","Số điện thoại trường    ":"02703811688","Số lớp":"10","Số học sinh\t":"330","Số điểm lẻ\t":"1","Đạt CQG (MĐ)\t":"Mức độ 1","Dự kiến sáp nhập\t":null,"Ghi chú\t\t\t":null,"layer_id":318,"fid":162,"label":"Trường Tiểu học Phước Hậu C","Xã/Phường":"Phường Phước Hậu","Quận/Huyện":"Huyện Long Hồ"}},{"type":"Feature","geometry":{"type":"Point","coordinates":[105.934813,10.222031]},"properties":{"Mã số":163,"Trường Tiểu học\t\t":"Trường Tiểu học Tân Hạnh B","Địa chỉ trường\t\t":"ấp Tân Hòa, xã Tân Hạnh, huyện Long Hồ  ","Cấp học\t\t\t":"Tiểu học","Loại hình\t\t":"Công lập","Số điện thoại trường    ":"02703811123","Số lớp":"16","Số học sinh\t":"376","Số điểm lẻ\t":"2","Đạt CQG (MĐ)\t":"Mức độ 1","Dự kiến sáp nhập\t":null,"Ghi chú\t\t\t":null,"layer_id":318,"fid":163,"label":"Trường Tiểu học Tân Hạnh B","Xã/Phường":"Phường Tân Hạnh","Quận/Huyện":"Huyện Long Hồ"}},{"type":"Feature","geometry":{"type":"Point","coordinates":[105.941797,10.226132]},"properties":{"Mã số":164,"Trường Tiểu học\t\t":"Trường Tiểu học Tân Hạnh C","Địa chỉ trường\t\t":"ấp Tân Thới, xã Tân Hạnh, huyện Long Hồ  ","Cấp học\t\t\t":"Tiểu học","Loại hình\t\t":"Công lập","Số điện thoại trường    ":"02706271025","Số lớp":"10","Số học sinh\t":"331","Số điểm lẻ\t":"1","Đạt CQG (MĐ)\t":"Mức độ 1","Dự kiến sáp nhập\t":null,"Ghi chú\t\t\t":null,"layer_id":318,"fid":164,"label":"Trường Tiểu học Tân Hạnh C","Xã/Phường":"Phường Tân Hạnh","Quận/Huyện":"Huyện Long Hồ"}},{"type":"Feature","geometry":{"type":"Point","coordinates":[105.9708,10.182678]},"properties":{"Mã số":165,"Trường Tiểu học\t\t":"Trường Tiểu học Lộc Hòa A","Địa chỉ trường\t\t":"ấp Phước Tân, xã Lộc Hòa, huyện Long Hồ  ","Cấp học\t\t\t":"Tiểu học","Loại hình\t\t":"Công lập","Số điện thoại trường    ":"02703811925","Số lớp":"15","Số học sinh\t":"525","Số điểm lẻ\t":null,"Đạt CQG (MĐ)\t":"Mức độ 2","Dự kiến sáp nhập\t":null,"Ghi chú\t\t\t":null,"layer_id":318,"fid":165,"label":"Trường Tiểu học Lộc Hòa A","Xã/Phường":"Xã Lộc Hòa","Quận/Huyện":"Huyện Long Hồ"}},{"type":"Feature","geometry":{"type":"Point","coordinates":[105.933685,10.185935]},"properties":{"Mã số":166,"Trường Tiểu học\t\t":"Trường Tiểu học Lộc Hòa B","Địa chỉ trường\t\t":"ấp Long Hòa, xã Lộc Hòa, huyện Long Hồ  ","Cấp học\t\t\t":"Tiểu học","Loại hình\t\t":"Công lập","Số điện thoại trường    ":"02703811929","Số lớp":"22","Số học sinh\t":"800","Số điểm lẻ\t":"1","Đạt CQG (MĐ)\t":"Mức độ 1","Dự kiến sáp nhập\t":null,"Ghi chú\t\t\t":null,"layer_id":318,"fid":166,"label":"Trường Tiểu học Lộc Hòa B","Xã/Phường":"Xã Lộc Hòa","Quận/Huyện":"Huyện Long Hồ"}},{"type":"Feature","geometry":{"type":"Point","coordinates":[105.945274,10.156335]},"properties":{"Mã số":167,"Trường Tiểu học\t\t":"Trường Tiểu học Hòa Phú A","Địa chỉ trường\t\t":"ấp Hoà Hưng, xã Hoà Phú, huyện Long Hồ  ","Cấp học\t\t\t":"Tiểu học","Loại hình\t\t":"Công lập","Số điện thoại trường    ":"02703811217","Số lớp":"20","Số học sinh\t":"700","Số điểm lẻ\t":"1","Đạt CQG (MĐ)\t":"Mức độ 1","Dự kiến sáp nhập\t":null,"Ghi chú\t\t\t":null,"layer_id":318,"fid":167,"label":"Trường Tiểu học Hòa Phú A","Xã/Phường":"Xã Hòa Phú","Quận/Huyện":"Huyện Long Hồ"}},{"type":"Feature","geometry":{"type":"Point","coordinates":[105.920244,10.159533]},"properties":{"Mã số":168,"Trường Tiểu học\t\t":" Trường Tiểu học Phú Quới A","Địa chỉ trường\t\t":"ấp Phú Long A, xã Phú Quới, huyện Long Hồ  ","Cấp học\t\t\t":"Tiểu học","Loại hình\t\t":"Công lập","Số điện thoại trường    ":"02706277779","Số lớp":"30","Số học sinh\t":"1050","Số điểm lẻ\t":null,"Đạt CQG (MĐ)\t":"Mức độ 2","Dự kiến sáp nhập\t":null,"Ghi chú\t\t\t":null,"layer_id":318,"fid":168,"label":" Trường Tiểu học Phú Quới A","Xã/Phường":"Xã Phú Quới","Quận/Huyện":"Huyện Long Hồ"}},{"type":"Feature","geometry":{"type":"Point","coordinates":[105.910894,10.184114]},"properties":{"Mã số":169,"Trường Tiểu học\t\t":"Trường Tiểu học Phú Quới C","Địa chỉ trường\t\t":"ấp Phước Bình B, xã Phú Quới, huyện Long Hồ  ","Cấp học\t\t\t":"Tiểu học","Loại hình\t\t":"Công lập","Số điện thoại trường    ":"02703960813","Số lớp":"10","Số học sinh\t":"350","Số điểm lẻ\t":"1","Đạt CQG (MĐ)\t":"Mức độ 1","Dự kiến sáp nhập\t":null,"Ghi chú\t\t\t":null,"layer_id":318,"fid":169,"label":"Trường Tiểu học Phú Quới C","Xã/Phường":"Xã Phú Quới","Quận/Huyện":"Huyện Long Hồ"}},{"type":"Feature","geometry":{"type":"Point","coordinates":[105.897993,10.168019]},"properties":{"Mã số":170,"Trường Tiểu học\t\t":"Trường Tiểu học Thạnh Quới A","Địa chỉ trường\t\t":"ấp Thạnh Phú, xã Thạnh Quới, huyện Long Hồ  ","Cấp học\t\t\t":"Tiểu học","Loại hình\t\t":"Công lập","Số điện thoại trường    ":"02703811221","Số lớp":"20","Số học sinh\t":"607","Số điểm lẻ\t":"1","Đạt CQG (MĐ)\t":"Mức độ 1","Dự kiến sáp nhập\t":null,"Ghi chú\t\t\t":null,"layer_id":318,"fid":170,"label":"Trường Tiểu học Thạnh Quới A","Xã/Phường":"Xã Thạnh Quới","Quận/Huyện":"Huyện Long Hồ"}},{"type":"Feature","geometry":{"type":"Point","coordinates":[106.023166,10.152938]},"properties":{"Mã số":171,"Trường Tiểu học\t\t":"Trường Tiểu học Long An A","Địa chỉ trường\t\t":"ấp An Hiệp, xã Long An, huyện Long Hồ  ","Cấp học\t\t\t":"Tiểu học ","Loại hình\t\t":"Công lập ","Số điện thoại trường    ":"02703850694","Số lớp":"20","Số học sinh\t":"683","Số điểm lẻ\t":"1","Đạt CQG (MĐ)\t":"Mức độ 1","Dự kiến sáp nhập\t":null,"Ghi chú\t\t\t":null,"layer_id":318,"fid":171,"label":"Trường Tiểu học Long An A","Xã/Phường":"Xã Long An","Quận/Huyện":"Huyện Long Hồ"}},{"type":"Feature","geometry":{"type":"Point","coordinates":[105.982239,10.179924]},"properties":{"Mã số":172,"Trường Tiểu học\t\t":"Trường Tiểu học Phú Đức A","Địa chỉ trường\t\t":"ấp An Thành, xã Phú Đức, huyện Long Hồ  ","Cấp học\t\t\t":"Tiểu học","Loại hình\t\t":"Công lập","Số điện thoại trường    ":"02706271626","Số lớp":"25","Số học sinh\t":"800","Số điểm lẻ\t":"3","Đạt CQG (MĐ)\t":"Mức độ 1","Dự kiến sáp nhập\t":null,"Ghi chú\t\t\t":null,"layer_id":318,"fid":172,"label":"Trường Tiểu học Phú Đức A","Xã/Phường":"Xã Phú Đức","Quận/Huyện":"Huyện Long Hồ"}},{"type":"Feature","geometry":{"type":"Point","coordinates":[106.010856,10.253324]},"properties":{"Mã số":173,"Trường Tiểu học\t\t":"Trường Tiểu học Thanh Đức C","Địa chỉ trường\t\t":"ấp Sơn Đông, xã Thanh Đức, huyện Long Hồ  ","Cấp học\t\t\t":"Tiểu học","Loại hình\t\t":"Công lập","Số điện thoại trường    ":"02703850695","Số lớp":"10","Số học sinh\t":"265","Số điểm lẻ\t":"1","Đạt CQG (MĐ)\t":"Mức độ 1","Dự kiến sáp nhập\t":null,"Ghi chú\t\t\t":null,"layer_id":318,"fid":173,"label":"Trường Tiểu học Thanh Đức C","Xã/Phường":"Phường Thanh Đức","Quận/Huyện":"Huyện Long Hồ"}},{"type":"Feature","geometry":{"type":"Point","coordinates":[106.013967,10.193096]},"properties":{"Mã số":174,"Trường Tiểu học\t\t":"Trường Tiểu học A Thị Trấn","Địa chỉ trường\t\t":"Khóm 1, thị trấn Long Hồ, huyện Long Hồ  ","Cấp học\t\t\t":"Tiểu học","Loại hình\t\t":"Công lập","Số điện thoại trường    ":"02703850488","Số lớp":"30","Số học sinh\t":"1120","Số điểm lẻ\t":"1","Đạt CQG (MĐ)\t":"Mức độ 1","Dự kiến sáp nhập\t":null,"Ghi chú\t\t\t":null,"layer_id":318,"fid":174,"label":"Trường Tiểu học A Thị Trấn","Xã/Phường":"Xã Long Hồ","Quận/Huyện":"Huyện Long Hồ"}},{"type":"Feature","geometry":{"type":"Point","coordinates":[106.13786,10.202859]},"properties":{"Mã số":175,"Trường Tiểu học\t\t":"Trường Tiểu học An Phước A","Địa chỉ trường\t\t":"Đường tỉnh 902, ấp Thanh Thủy, xã An Phước, huyện Mang Thít","Cấp học\t\t\t":"Tiểu học","Loại hình\t\t":"Công lập","Số điện thoại trường    ":"02703840686","Số lớp":"25","Số học sinh\t":"680","Số điểm lẻ\t":"1","Đạt CQG (MĐ)\t":"Mức độ 2","Dự kiến sáp nhập\t":null,"Ghi chú\t\t\t":null,"layer_id":318,"fid":175,"label":"Trường Tiểu học An Phước A","Xã/Phường":"Xã An Phước","Quận/Huyện":"Huyện Mang Thít"}},{"type":"Feature","geometry":{"type":"Point","coordinates":[106.052998892,10.182265825]},"properties":{"Mã số":177,"Trường Tiểu học\t\t":"Trường Tiểu học Bình Phước C","Địa chỉ trường\t\t":"ấp Phước Chí, xã Bình Phước, huyện Mang Thít ","Cấp học\t\t\t":"Tiểu học","Loại hình\t\t":"Công lập","Số điện thoại trường    ":"02703937380","Số lớp":"10","Số học sinh\t":"304","Số điểm lẻ\t":"1","Đạt CQG (MĐ)\t":"Mức độ 1","Dự kiến sáp nhập\t":null,"Ghi chú\t\t\t":null,"layer_id":318,"fid":177,"label":"Trường Tiểu học Bình Phước C","Xã/Phường":"Xã Bình Phước","Quận/Huyện":"Huyện Mang Thít"}},{"type":"Feature","geometry":{"type":"Point","coordinates":[106.029562381,10.187610206]},"properties":{"Mã số":176,"Trường Tiểu học\t\t":"Trường Tiểu học Bình Phước A","Địa chỉ trường\t\t":"Đường tỉnh 903, ấp Phước Lộc Thọ, xã Bình Phước, huyện Mang Thít  ","Cấp học\t\t\t":"Tiểu học","Loại hình\t\t":"Công lập","Số điện thoại trường    ":"02706279479","Số lớp":"15","Số học sinh\t":"410","Số điểm lẻ\t":"2","Đạt CQG (MĐ)\t":"Mức độ 1","Dự kiến sáp nhập\t":null,"Ghi chú\t\t\t":null,"layer_id":318,"fid":176,"label":"Trường Tiểu học Bình Phước A","Xã/Phường":"Xã Bình Phước","Quận/Huyện":"Huyện Mang Thít"}},{"type":"Feature","geometry":{"type":"Point","coordinates":[106.16897,10.1677]},"properties":{"Mã số":178,"Trường Tiểu học\t\t":"Trường Tiểu học Chánh An A","Địa chỉ trường\t\t":"Đường hương lộ 33, ấp Mỹ Chánh, xã Chánh An, huyện Mang Thít ","Cấp học\t\t\t":"Tiểu học","Loại hình\t\t":"Công lập","Số điện thoại trường    ":"02703933977","Số lớp":"20","Số học sinh\t":"451","Số điểm lẻ\t":"1","Đạt CQG (MĐ)\t":"Mức độ 2","Dự kiến sáp nhập\t":null,"Ghi chú\t\t\t":null,"layer_id":318,"fid":178,"label":"Trường Tiểu học Chánh An A","Xã/Phường":"Xã Chánh An","Quận/Huyện":"Huyện Mang Thít"}},{"type":"Feature","geometry":{"type":"Point","coordinates":[106.09774,10.19245]},"properties":{"Mã số":179,"Trường Tiểu học\t\t":"Trường Tiểu học Chánh Hội A","Địa chỉ trường\t\t":"Đường ĐH 32B, khóm 5, thị trấn Cái Nhum, huyện Mang Thít  ","Cấp học\t\t\t":"Tiểu học","Loại hình\t\t":"Công lập","Số điện thoại trường    ":"0986199267","Số lớp":"16","Số học sinh\t":"410","Số điểm lẻ\t":"1","Đạt CQG (MĐ)\t":"Mức độ 1","Dự kiến sáp nhập\t":null,"Ghi chú\t\t\t":null,"layer_id":318,"fid":179,"label":"Trường Tiểu học Chánh Hội A","Xã/Phường":"Xã Chánh Hội","Quận/Huyện":"Huyện Mang Thít"}},{"type":"Feature","geometry":{"type":"Point","coordinates":[106.021788,10.204378]},"properties":{"Mã số":180,"Trường Tiểu học\t\t":"Trường Tiểu học Hòa Tịnh A","Địa chỉ trường\t\t":"Đường tỉnh 909, ấp Bình Tịnh A, xã Hòa Tinh, huyện Mang Thít","Cấp học\t\t\t":"Tiểu học","Loại hình\t\t":"Công lập","Số điện thoại trường    ":"02703506224","Số lớp":"10","Số học sinh\t":"238","Số điểm lẻ\t":"0","Đạt CQG (MĐ)\t":"Mức độ 2","Dự kiến sáp nhập\t":null,"Ghi chú\t\t\t":null,"layer_id":318,"fid":180,"label":"Trường Tiểu học Hòa Tịnh A","Xã/Phường":"Xã Hòa Tịnh","Quận/Huyện":"Huyện Mang Thít"}},{"type":"Feature","geometry":{"type":"Point","coordinates":[106.047031,10.215572]},"properties":{"Mã số":181,"Trường Tiểu học\t\t":"Trường Tiểu học Hòa Tịnh B\n","Địa chỉ trường\t\t":"ấp Bình Hòa 2, xã Hòa Tịnh, huyện Mang Thít","Cấp học\t\t\t":"Tiểu học","Loại hình\t\t":"Công lập","Số điện thoại trường    ":"02703940383","Số lớp":"10","Số học sinh\t":"200","Số điểm lẻ\t":"1","Đạt CQG (MĐ)\t":"Mức độ 1","Dự kiến sáp nhập\t":null,"Ghi chú\t\t\t":null,"layer_id":318,"fid":181,"label":"Trường Tiểu học Hòa Tịnh B\n","Xã/Phường":"Xã Hòa Tịnh","Quận/Huyện":"Huyện Mang Thít"}},{"type":"Feature","geometry":{"type":"Point","coordinates":[106.005221,10.213095]},"properties":{"Mã số":182,"Trường Tiểu học\t\t":"Trường Tiểu học Long Mỹ","Địa chỉ trường\t\t":"ấp Long Khánh, xã Long Mỹ, huyện Mang Thít","Cấp học\t\t\t":"Tiểu học","Loại hình\t\t":"Công lập","Số điện thoại trường    ":"02703940544","Số lớp":"12","Số học sinh\t":"385","Số điểm lẻ\t":"0","Đạt CQG (MĐ)\t":"Mức độ 2","Dự kiến sáp nhập\t":null,"Ghi chú\t\t\t":null,"layer_id":318,"fid":182,"label":"Trường Tiểu học Long Mỹ","Xã/Phường":"Xã Long Mỹ","Quận/Huyện":"Huyện Mang Thít"}},{"type":"Feature","geometry":{"type":"Point","coordinates":[106.049426,10.240151]},"properties":{"Mã số":183,"Trường Tiểu học\t\t":"Trường Tiểu học Mỹ An A","Địa chỉ trường\t\t":"Đường tỉnh 902, ấp Hòa Long, xã Mỹ An, huyện Mang Thít","Cấp học\t\t\t":"Tiểu học","Loại hình\t\t":"Công lập","Số điện thoại trường    ":"02703849034","Số lớp":"18","Số học sinh\t":"530","Số điểm lẻ\t":"0","Đạt CQG (MĐ)\t":"Mức độ 2","Dự kiến sáp nhập\t":null,"Ghi chú\t\t\t":null,"layer_id":318,"fid":183,"label":"Trường Tiểu học Mỹ An A","Xã/Phường":"Xã Mỹ An","Quận/Huyện":"Huyện Mang Thít"}},{"type":"Feature","geometry":{"type":"Point","coordinates":[106.036525,10.245195]},"properties":{"Mã số":184,"Trường Tiểu học\t\t":"Trường Tiểu học Mỹ An B","Địa chỉ trường\t\t":"Đường tỉnh 902, ấp An Hương 1, xã Mỹ An, huyện Mang Thít","Cấp học\t\t\t":"Tiểu học","Loại hình\t\t":"Công lập","Số điện thoại trường    ":"02703849702","Số lớp":"10","Số học sinh\t":"215","Số điểm lẻ\t":"1","Đạt CQG (MĐ)\t":"Mức độ 2","Dự kiến sáp nhập\t":null,"Ghi chú\t\t\t":null,"layer_id":318,"fid":184,"label":"Trường Tiểu học Mỹ An B","Xã/Phường":"Xã Mỹ An","Quận/Huyện":"Huyện Mang Thít"}},{"type":"Feature","geometry":{"type":"Point","coordinates":[106.099544,10.231916]},"properties":{"Mã số":185,"Trường Tiểu học\t\t":"Trường Tiểu học Mỹ Phước A","Địa chỉ trường\t\t":"Đường tỉnh 902, ấp Cái Kè, xã Mỹ Phước, huyện Mang Thít","Cấp học\t\t\t":"Tiểu học","Loại hình\t\t":"Công lập","Số điện thoại trường    ":"02703849716","Số lớp":"20","Số học sinh\t":"650","Số điểm lẻ\t":"1","Đạt CQG (MĐ)\t":"Mức độ 2","Dự kiến sáp nhập\t":null,"Ghi chú\t\t\t":null,"layer_id":318,"fid":185,"label":"Trường Tiểu học Mỹ Phước A","Xã/Phường":"Xã Mỹ Phước","Quận/Huyện":"Huyện Mang Thít"}},{"type":"Feature","geometry":{"type":"Point","coordinates":[106.09075,10.21222]},"properties":{"Mã số":186,"Trường Tiểu học\t\t":"Trường Tiểu học Nhơn Phú A","Địa chỉ trường\t\t":"Đường huyện 31B, ấp Phú Thọ, xã Nhơn Phú, huyện Mang Thít  ","Cấp học\t\t\t":"Tiểu học","Loại hình\t\t":"Công lập","Số điện thoại trường    ":"02703840386","Số lớp":"15","Số học sinh\t":"435","Số điểm lẻ\t":"0","Đạt CQG (MĐ)\t":"Mức độ 1","Dự kiến sáp nhập\t":null,"Ghi chú\t\t\t":null,"layer_id":318,"fid":186,"label":"Trường Tiểu học Nhơn Phú A","Xã/Phường":"Xã Nhơn Phú","Quận/Huyện":"Huyện Mang Thít"}},{"type":"Feature","geometry":{"type":"Point","coordinates":[106.07243,10.19364]},"properties":{"Mã số":187,"Trường Tiểu học\t\t":"Trường Tiểu học Nhơn Phú C","Địa chỉ trường\t\t":"Đường 31 B, ấp Phú Thạnh C, xã Nhơn Phú, huyện Mang Thít","Cấp học\t\t\t":"Tiểu học","Loại hình\t\t":"Công lập","Số điện thoại trường    ":"02703849130","Số lớp":"10","Số học sinh\t":"200","Số điểm lẻ\t":"1","Đạt CQG (MĐ)\t":"Mức độ 2","Dự kiến sáp nhập\t":null,"Ghi chú\t\t\t":null,"layer_id":318,"fid":187,"label":"Trường Tiểu học Nhơn Phú C","Xã/Phường":"Xã Nhơn Phú","Quận/Huyện":"Huyện Mang Thít"}},{"type":"Feature","geometry":{"type":"Point","coordinates":[106.093575709,10.141148562]},"properties":{"Mã số":188,"Trường Tiểu học\t\t":"Trường Tiểu học Tân An Hội A","Địa chỉ trường\t\t":"ấp Tân An, xã Tân An Hội, huyện Mang Thít","Cấp học\t\t\t":"Tiểu học","Loại hình\t\t":"Công lập","Số điện thoại trường    ":"02703840843","Số lớp":"18","Số học sinh\t":"486","Số điểm lẻ\t":"2","Đạt CQG (MĐ)\t":"Mức độ 2","Dự kiến sáp nhập\t":null,"Ghi chú\t\t\t":null,"layer_id":318,"fid":188,"label":"Trường Tiểu học Tân An Hội A","Xã/Phường":"Xã Tân Long Hội","Quận/Huyện":"Huyện Mang Thít"}},{"type":"Feature","geometry":{"type":"Point","coordinates":[106.041475,10.166471]},"properties":{"Mã số":189,"Trường Tiểu học\t\t":"Trường Tiểu học Tân Long A","Địa chỉ trường\t\t":"ấp Thân Bình, Xã Tân Long, huyện Mang Thít","Cấp học\t\t\t":"Tiểu học","Loại hình\t\t":"Công lập","Số điện thoại trường    ":"02703933293","Số lớp":"20","Số học sinh\t":"520","Số điểm lẻ\t":"1","Đạt CQG (MĐ)\t":"Mức độ 2","Dự kiến sáp nhập\t":null,"Ghi chú\t\t\t":null,"layer_id":318,"fid":189,"label":"Trường Tiểu học Tân Long A","Xã/Phường":"Xã Tân Long","Quận/Huyện":"Huyện Mang Thít"}},{"type":"Feature","geometry":{"type":"Point","coordinates":[106.075799,10.122728]},"properties":{"Mã số":190,"Trường Tiểu học\t\t":"Trường Tiểu học Tân Long Hội A","Địa chỉ trường\t\t":"ấp Thanh Phong, xã Tân Long Hôi, huyện Mang Thít","Cấp học\t\t\t":"Tiểu học","Loại hình\t\t":"Công lập","Số điện thoại trường    ":"0703941065","Số lớp":"15","Số học sinh\t":"430","Số điểm lẻ\t":"1","Đạt CQG (MĐ)\t":"Mức độ 2","Dự kiến sáp nhập\t":null,"Ghi chú\t\t\t":null,"layer_id":318,"fid":190,"label":"Trường Tiểu học Tân Long Hội A","Xã/Phường":"Xã Tân Long Hội","Quận/Huyện":"Huyện Mang Thít"}},{"type":"Feature","geometry":{"type":"Point","coordinates":[106.104117,10.173366]},"properties":{"Mã số":191,"Trường Tiểu học\t\t":"Trường Tiểu học Thị trấn Cái Nhum","Địa chỉ trường\t\t":"đường Hùng Vương, Khóm 2, thị trấn Cái Nhum, huyện Mang Thít","Cấp học\t\t\t":"Tiểu học","Loại hình\t\t":"Công lập","Số điện thoại trường    ":"02703840675","Số lớp":"25","Số học sinh\t":"875","Số điểm lẻ\t":"0","Đạt CQG (MĐ)\t":"Mức độ 2","Dự kiến sáp nhập\t":null,"Ghi chú\t\t\t":null,"layer_id":318,"fid":191,"label":"Trường Tiểu học Thị trấn Cái Nhum","Xã/Phường":"Xã Cái Nhum","Quận/Huyện":"Huyện Mang Thít"}},{"type":"Feature","geometry":{"type":"Point","coordinates":[105.970937,10.251525]},"properties":{"Mã số":192,"Trường Tiểu học\t\t":"Trường Tiểu học Nguyễn Du","Địa chỉ trường\t\t":"Số 58, đường 19/8, Phường 1, thành phố Vĩnh Long  ","Cấp học\t\t\t":"Tiểu học","Loại hình\t\t":"Công lập","Số điện thoại trường    ":"02703823402","Số lớp":"30","Số học sinh\t":"1050","Số điểm lẻ\t":null,"Đạt CQG (MĐ)\t":null,"Dự kiến sáp nhập\t":null,"Ghi chú\t\t\t":null,"layer_id":318,"fid":192,"label":"Trường Tiểu học Nguyễn Du","Xã/Phường":"Phường 1","Quận/Huyện":"Vĩnh Long"}},{"type":"Feature","geometry":{"type":"Point","coordinates":[105.975029,10.251963]},"properties":{"Mã số":193,"Trường Tiểu học\t\t":"Trường Tiểu học Hùng Vương","Địa chỉ trường\t\t":"Số 27, Hưng Đạo Vương, Phường 1, thành phố Vĩnh Long  ","Cấp học\t\t\t":"Tiểu học","Loại hình\t\t":"Công lập","Số điện thoại trường    ":"02703822046","Số lớp":"20","Số học sinh\t":"728","Số điểm lẻ\t":null,"Đạt CQG (MĐ)\t":null,"Dự kiến sáp nhập\t":null,"Ghi chú\t\t\t":null,"layer_id":318,"fid":193,"label":"Trường Tiểu học Hùng Vương","Xã/Phường":"Phường 1","Quận/Huyện":"Vĩnh Long"}},{"type":"Feature","geometry":{"type":"Point","coordinates":[105.962532,10.251776]},"properties":{"Mã số":194,"Trường Tiểu học\t\t":"Trường Tiểu học Nguyễn Huệ","Địa chỉ trường\t\t":"Số 71, Nguyễn Huệ, Khóm 6, Phường 2, thành phố Vĩnh Long  ","Cấp học\t\t\t":"Tiểu học","Loại hình\t\t":"Công lập","Số điện thoại trường    ":"Không có","Số lớp":"29","Số học sinh\t":"1062","Số điểm lẻ\t":null,"Đạt CQG (MĐ)\t":"Mức độ 2","Dự kiến sáp nhập\t":null,"Ghi chú\t\t\t":null,"layer_id":318,"fid":194,"label":"Trường Tiểu học Nguyễn Huệ","Xã/Phường":"Phường 2","Quận/Huyện":"Vĩnh Long"}},{"type":"Feature","geometry":{"type":"Point","coordinates":[105.968575,10.239123]},"properties":{"Mã số":195,"Trường Tiểu học\t\t":"Trường Tiểu học Lê Lợi","Địa chỉ trường\t\t":"Số 58, đường Mậu Thân, Phường 3, thành phố Vĩnh Long  ","Cấp học\t\t\t":"Tiểu học","Loại hình\t\t":"Công lập","Số điện thoại trường    ":"02703827463","Số lớp":"27","Số học sinh\t":"1017","Số điểm lẻ\t":null,"Đạt CQG (MĐ)\t":null,"Dự kiến sáp nhập\t":null,"Ghi chú\t\t\t":null,"layer_id":318,"fid":195,"label":"Trường Tiểu học Lê Lợi","Xã/Phường":"Phường 3","Quận/Huyện":"Vĩnh Long"}},{"type":"Feature","geometry":{"type":"Point","coordinates":[105.981216,10.241974]},"properties":{"Mã số":196,"Trường Tiểu học\t\t":"Trường Tiểu học Trần Đại Nghĩa","Địa chỉ trường\t\t":"Số 33/1A, đường Phạm Thái Bường, Khóm 4, Phường 4, thành phố Vĩnh Long  ","Cấp học\t\t\t":"Tiểu học","Loại hình\t\t":"Công lập","Số điện thoại trường    ":"02703829175","Số lớp":"29","Số học sinh\t":"998","Số điểm lẻ\t":null,"Đạt CQG (MĐ)\t":"Mức độ 2","Dự kiến sáp nhập\t":null,"Ghi chú\t\t\t":null,"layer_id":318,"fid":196,"label":"Trường Tiểu học Trần Đại Nghĩa","Xã/Phường":"Phường 4","Quận/Huyện":"Vĩnh Long"}},{"type":"Feature","geometry":{"type":"Point","coordinates":[105.989067,10.233902]},"properties":{"Mã số":197,"Trường Tiểu học\t\t":"Trường Tiểu học Trần Quốc Tuấn","Địa chỉ trường\t\t":"Số 64/3, đuờng Trần Phú, Phuờng 4, thành phố Vĩnh Long  ","Cấp học\t\t\t":"Tiểu học","Loại hình\t\t":"Công lập","Số điện thoại trường    ":"02703823029","Số lớp":"20","Số học sinh\t":"700","Số điểm lẻ\t":"1","Đạt CQG (MĐ)\t":"Mức độ 1","Dự kiến sáp nhập\t":null,"Ghi chú\t\t\t":null,"layer_id":318,"fid":197,"label":"Trường Tiểu học Trần Quốc Tuấn","Xã/Phường":"Phường 4","Quận/Huyện":"Vĩnh Long"}},{"type":"Feature","geometry":{"type":"Point","coordinates":[105.982121,10.249394]},"properties":{"Mã số":198,"Trường Tiểu học\t\t":"Trường Tiểu học Thiềng Đức","Địa chỉ trường\t\t":"Số 129, đường 8 tháng 3, Khóm 3, Phường 5, thành phố Vĩnh Long  ","Cấp học\t\t\t":"Tiểu học","Loại hình\t\t":"Công lập","Số điện thoại trường    ":"02703823964","Số lớp":"25","Số học sinh\t":"875","Số điểm lẻ\t":"1","Đạt CQG (MĐ)\t":"Mức độ 2","Dự kiến sáp nhập\t":null,"Ghi chú\t\t\t":null,"layer_id":318,"fid":198,"label":"Trường Tiểu học Thiềng Đức","Xã/Phường":"Phường 5","Quận/Huyện":"Vĩnh Long"}},{"type":"Feature","geometry":{"type":"Point","coordinates":[105.989914,10.239036]},"properties":{"Mã số":199,"Trường Tiểu học\t\t":"Trường Tiểu học Trương Định","Địa chỉ trường\t\t":"Số 110, đường 8/3, Khóm 4, Phường 5,thành phố Vĩnh Long  ","Cấp học\t\t\t":"Tiểu học","Loại hình\t\t":"Công lập","Số điện thoại trường    ":"02703825710","Số lớp":"10","Số học sinh\t":"350","Số điểm lẻ\t":null,"Đạt CQG (MĐ)\t":"Mức độ 2","Dự kiến sáp nhập\t":null,"Ghi chú\t\t\t":null,"layer_id":318,"fid":199,"label":"Trường Tiểu học Trương Định","Xã/Phường":"Phường 5","Quận/Huyện":"Vĩnh Long"}},{"type":"Feature","geometry":{"type":"Point","coordinates":[105.957892,10.234391]},"properties":{"Mã số":200,"Trường Tiểu học\t\t":"Trường Tiểu học Chu Văn An","Địa chỉ trường\t\t":"Số 25, Phan Đình Phùng, Khóm 2, Phường 8, thành phố Vĩnh Long","Cấp học\t\t\t":"Tiểu học","Loại hình\t\t":"Công lập","Số điện thoại trường    ":"02703822913","Số lớp":"30","Số học sinh\t":"1051","Số điểm lẻ\t":"1","Đạt CQG (MĐ)\t":"Mức độ 2","Dự kiến sáp nhập\t":null,"Ghi chú\t\t\t":null,"layer_id":318,"fid":200,"label":"Trường Tiểu học Chu Văn An","Xã/Phường":"Phường 8","Quận/Huyện":"Vĩnh Long"}},{"type":"Feature","geometry":{"type":"Point","coordinates":[105.943,10.249972]},"properties":{"Mã số":201,"Trường Tiểu học\t\t":"Trường Tiểu học Phạm Hùng","Địa chỉ trường\t\t":"Số 39N, đường D7A, Khóm 3, Phường 9, thành phố Vĩnh Long  ","Cấp học\t\t\t":"Tiểu học","Loại hình\t\t":"Công lập","Số điện thoại trường    ":"02703823513","Số lớp":"24","Số học sinh\t":"800","Số điểm lẻ\t":"1","Đạt CQG (MĐ)\t":"Mức độ 1","Dự kiến sáp nhập\t":null,"Ghi chú\t\t\t":null,"layer_id":318,"fid":201,"label":"Trường Tiểu học Phạm Hùng","Xã/Phường":"Phường 9","Quận/Huyện":"Vĩnh Long"}},{"type":"Feature","geometry":{"type":"Point","coordinates":[105.935982,10.260346]},"properties":{"Mã số":202,"Trường Tiểu học\t\t":"Trường Tiểu học Nguyễn Hữu Huân","Địa chỉ trường\t\t":"Số 424, khóm Tân Quới Đông, phường Trường An, thành phố Vĩnh Long  ","Cấp học\t\t\t":"Tiểu học","Loại hình\t\t":"Công lập","Số điện thoại trường    ":"02703823061","Số lớp":"21","Số học sinh\t":"715","Số điểm lẻ\t":null,"Đạt CQG (MĐ)\t":"Mức độ 1","Dự kiến sáp nhập\t":null,"Ghi chú\t\t\t":null,"layer_id":318,"fid":202,"label":"Trường Tiểu học Nguyễn Hữu Huân","Xã/Phường":"Phường Long Châu","Quận/Huyện":"Vĩnh Long"}},{"type":"Feature","geometry":{"type":"Point","coordinates":[105.920831,10.259287]},"properties":{"Mã số":203,"Trường Tiểu học\t\t":"Trường Tiểu học Nguyễn Trung Trực","Địa chỉ trường\t\t":"Số 139, Hương lộ 15, khóm Vĩnh Hòa, phường Tân Ngãi, thành phố Vĩnh Long  ","Cấp học\t\t\t":"Tiểu học","Loại hình\t\t":"Công lập","Số điện thoại trường    ":"02703815292","Số lớp":"18","Số học sinh\t":"472","Số điểm lẻ\t":"2","Đạt CQG (MĐ)\t":"Mức độ 1","Dự kiến sáp nhập\t":null,"Ghi chú\t\t\t":null,"layer_id":318,"fid":203,"label":"Trường Tiểu học Nguyễn Trung Trực","Xã/Phường":"Phường Tân Ngãi","Quận/Huyện":"Vĩnh Long"}},{"type":"Feature","geometry":{"type":"Point","coordinates":[105.908428167,10.267369946]},"properties":{"Mã số":204,"Trường Tiểu học\t\t":"Trường Tiểu học Lê Hồng Phong","Địa chỉ trường\t\t":"Số 5C, khóm Tân Phú, phường Tân Hoà, thành phố Vĩnh Long  ","Cấp học\t\t\t":"Tiểu học","Loại hình\t\t":"Công lập","Số điện thoại trường    ":"02703823583","Số lớp":"20","Số học sinh\t":"560","Số điểm lẻ\t":"1","Đạt CQG (MĐ)\t":"Mức độ 1","Dự kiến sáp nhập\t":null,"Ghi chú\t\t\t":null,"layer_id":318,"fid":204,"label":"Trường Tiểu học Lê Hồng Phong","Xã/Phường":null,"Quận/Huyện":null}},{"type":"Feature","geometry":{"type":"Point","coordinates":[105.924354,9.961952]},"properties":{"Mã số":206,"Trường Tiểu học\t\t":"Trường Tiểu học Thị Trấn Trà Ôn","Địa chỉ trường\t\t":"Đường Thống Chế Điều Bát, Khu 3, thị trấn Trà Ôn  ","Cấp học\t\t\t":"Tiểu học","Loại hình\t\t":"Công lập","Số điện thoại trường    ":"02703770016","Số lớp":"30","Số học sinh\t":"1185","Số điểm lẻ\t":"1","Đạt CQG (MĐ)\t":"Mức độ 2","Dự kiến sáp nhập\t":null,"Ghi chú\t\t\t":null,"layer_id":318,"fid":206,"label":"Trường Tiểu học Thị Trấn Trà Ôn","Xã/Phường":"Xã Trà Ôn","Quận/Huyện":"Huyện Trà Ôn"}},{"type":"Feature","geometry":{"type":"Point","coordinates":[105.894907,10.265279]},"properties":{"Mã số":205,"Trường Tiểu học\t\t":"Trường Tiểu học Lý Thường Kiệt","Địa chỉ trường\t\t":"Hương lộ 18, khóm Mỹ Phú, phường Tân Hội, thành phố Vĩnh Long  ","Cấp học\t\t\t":"Tiểu học","Loại hình\t\t":"Công lập","Số điện thoại trường    ":"02703823940","Số lớp":"15","Số học sinh\t":"450","Số điểm lẻ\t":"1","Đạt CQG (MĐ)\t":"Mức độ 1","Dự kiến sáp nhập\t":null,"Ghi chú\t\t\t":null,"layer_id":318,"fid":205,"label":"Trường Tiểu học Lý Thường Kiệt","Xã/Phường":"Phường Tân Hội","Quận/Huyện":"Vĩnh Long"}},{"type":"Feature","geometry":{"type":"Point","coordinates":[105.882780695,9.979747286]},"properties":{"Mã số":207,"Trường Tiểu học\t\t":"Trường Tiểu học Phú Thành","Địa chỉ trường\t\t":"ấp Phú Sung, xã Phú Thành, huyện Trà Ôn   ","Cấp học\t\t\t":"Tiểu học","Loại hình\t\t":"Công lập","Số điện thoại trường    ":"02703780512","Số lớp":"15","Số học sinh\t":"450","Số điểm lẻ\t":"0","Đạt CQG (MĐ)\t":"Mức độ 1","Dự kiến sáp nhập\t":null,"Ghi chú\t\t\t":null,"layer_id":318,"fid":207,"label":"Trường Tiểu học Phú Thành","Xã/Phường":"Xã Phú Thành","Quận/Huyện":"Huyện Trà Ôn"}},{"type":"Feature","geometry":{"type":"Point","coordinates":[105.911491,9.951522]},"properties":{"Mã số":208,"Trường Tiểu học\t\t":"Trường Tiểu học Lục Sĩ Thành A","Địa chỉ trường\t\t":"ấp Long Thạnh, xã Lục Sĩ Thành, huyện Trà Ôn  ","Cấp học\t\t\t":"Tiểu học","Loại hình\t\t":"Công lập","Số điện thoại trường    ":"02703780067","Số lớp":"20","Số học sinh\t":"640","Số điểm lẻ\t":"2","Đạt CQG (MĐ)\t":"Mức độ 2","Dự kiến sáp nhập\t":null,"Ghi chú\t\t\t":null,"layer_id":318,"fid":208,"label":"Trường Tiểu học Lục Sĩ Thành A","Xã/Phường":"Xã Lục Sĩ Thành","Quận/Huyện":"Huyện Trà Ôn"}},{"type":"Feature","geometry":{"type":"Point","coordinates":[105.961666,9.965886]},"properties":{"Mã số":209,"Trường Tiểu học\t\t":"Trường Tiểu học Thiện Mỹ A","Địa chỉ trường\t\t":"ấp Mỹ Trung, xã Thiện Mỹ, huyện Trà Ôn  ","Cấp học\t\t\t":"Tiểu học","Loại hình\t\t":"Công lập","Số điện thoại trường    ":"02703770751","Số lớp":"25","Số học sinh\t":"670","Số điểm lẻ\t":"3","Đạt CQG (MĐ)\t":"Mức độ 1","Dự kiến sáp nhập\t":null,"Ghi chú\t\t\t":null,"layer_id":318,"fid":209,"label":"Trường Tiểu học Thiện Mỹ A","Xã/Phường":"Xã Thiện Mỹ","Quận/Huyện":"Huyện Trà Ôn"}},{"type":"Feature","geometry":{"type":"Point","coordinates":[105.97867,9.916357]},"properties":{"Mã số":210,"Trường Tiểu học\t\t":"Trường Tiểu học Tích Thiện A","Địa chỉ trường\t\t":"ấp Tích Lộc, xã Tích Thiện, huyện Trà Ôn  ","Cấp học\t\t\t":"Tiểu học","Loại hình\t\t":"Công lập","Số điện thoại trường    ":"02703884220","Số lớp":"20","Số học sinh\t":"650","Số điểm lẻ\t":"1","Đạt CQG (MĐ)\t":"Mức độ 1","Dự kiến sáp nhập\t":null,"Ghi chú\t\t\t":null,"layer_id":318,"fid":210,"label":"Trường Tiểu học Tích Thiện A","Xã/Phường":"Xã Tích Thiện","Quận/Huyện":"Huyện Trà Ôn"}},{"type":"Feature","geometry":{"type":"Point","coordinates":[106.009509,9.949321]},"properties":{"Mã số":211,"Trường Tiểu học\t\t":"Trường Tiểu học Vĩnh Xuân","Địa chỉ trường\t\t":"ấp Vĩnh Trinh, xã Vĩnh Xuân, huyện Trà Ôn  ","Cấp học\t\t\t":"Tiểu học","Loại hình\t\t":"Công lập","Số điện thoại trường    ":"02703884536","Số lớp":"30","Số học sinh\t":"1020","Số điểm lẻ\t":"1","Đạt CQG (MĐ)\t":"Mức độ 1","Dự kiến sáp nhập\t":null,"Ghi chú\t\t\t":null,"layer_id":318,"fid":211,"label":"Trường Tiểu học Vĩnh Xuân","Xã/Phường":"Xã Vĩnh Xuân","Quận/Huyện":"Huyện Trà Ôn"}},{"type":"Feature","geometry":{"type":"Point","coordinates":[106.055323,9.949884]},"properties":{"Mã số":212,"Trường Tiểu học\t\t":"Trường Tiểu học Thuận Thới A","Địa chỉ trường\t\t":"ấp Cống Đá, xã Thuận Thới, huyện Trà Ôn  ","Cấp học\t\t\t":"Tiểu học","Loại hình\t\t":"Công lập","Số điện thoại trường    ":"02703884199","Số lớp":"13","Số học sinh\t":"430","Số điểm lẻ\t":"0","Đạt CQG (MĐ)\t":"Mức độ 1","Dự kiến sáp nhập\t":null,"Ghi chú\t\t\t":null,"layer_id":318,"fid":212,"label":"Trường Tiểu học Thuận Thới A","Xã/Phường":"Xã Thuận Thới","Quận/Huyện":"Huyện Trà Ôn"}},{"type":"Feature","geometry":{"type":"Point","coordinates":[106.033090724,9.951504171]},"properties":{"Mã số":213,"Trường Tiểu học\t\t":"Trường Tiểu học Thuận Thới B","Địa chỉ trường\t\t":"Quốc lộ 54, ấp Vĩnh Thuận, xã Thuận Thới, huyện Trà Ôn","Cấp học\t\t\t":"Tiểu học","Loại hình\t\t":"Công lập","Số điện thoại trường    ":"02703884260","Số lớp":"10","Số học sinh\t":"300","Số điểm lẻ\t":"0","Đạt CQG (MĐ)\t":"Mức độ 1","Dự kiến sáp nhập\t":null,"Ghi chú\t\t\t":null,"layer_id":318,"fid":213,"label":"Trường Tiểu học Thuận Thới B","Xã/Phường":"Xã Thuận Thới","Quận/Huyện":"Huyện Trà Ôn"}},{"type":"Feature","geometry":{"type":"Point","coordinates":[106.079408,9.961969]},"properties":{"Mã số":214,"Trường Tiểu học\t\t":"Trường Tiểu học Hựu Thành A","Địa chỉ trường\t\t":"ấp Khu Phố, xã Hựu Thành, huyện Trà Ôn  ","Cấp học\t\t\t":"Tiểu học","Loại hình\t\t":"Công lập","Số điện thoại trường    ":"02703889156","Số lớp":"28","Số học sinh\t":"930","Số điểm lẻ\t":"0","Đạt CQG (MĐ)\t":"Mức độ 2","Dự kiến sáp nhập\t":null,"Ghi chú\t\t\t":null,"layer_id":318,"fid":214,"label":"Trường Tiểu học Hựu Thành A","Xã/Phường":"Xã Hựu Thành","Quận/Huyện":"Huyện Trà Ôn"}},{"type":"Feature","geometry":{"type":"Point","coordinates":[106.006988,10.069237]},"properties":{"Mã số":215,"Trường Tiểu học\t\t":"Trường Tiểu học Hựu Thành  B","Địa chỉ trường\t\t":"tỉnh lộ 901, ấp Vĩnh Hòa, xã Hựu Thành, huyện Trà Ôn  ","Cấp học\t\t\t":"Tiểu học","Loại hình\t\t":"Công lập","Số điện thoại trường    ":"02703884198","Số lớp":"10","Số học sinh\t":"350","Số điểm lẻ\t":"0","Đạt CQG (MĐ)\t":"Mức độ 2","Dự kiến sáp nhập\t":null,"Ghi chú\t\t\t":null,"layer_id":318,"fid":215,"label":"Trường Tiểu học Hựu Thành  B","Xã/Phường":"Xã Tường Lộc","Quận/Huyện":"Huyện Tam Bình"}},{"type":"Feature","geometry":{"type":"Point","coordinates":[106.048004,10.038633]},"properties":{"Mã số":217,"Trường Tiểu học\t\t":"Trường Tiểu học Hòa Bình A","Địa chỉ trường\t\t":"tỉnh lộ 901, ấp Tân Thuận, xã Hòa Bình, huyện Trà Ôn  ","Cấp học\t\t\t":"Tiểu học","Loại hình\t\t":"Công Lập","Số điện thoại trường    ":"02703722243","Số lớp":"20","Số học sinh\t":"600","Số điểm lẻ\t":"0","Đạt CQG (MĐ)\t":"Mức độ 2","Dự kiến sáp nhập\t":null,"Ghi chú\t\t\t":null,"layer_id":318,"fid":217,"label":"Trường Tiểu học Hòa Bình A","Xã/Phường":"Xã Hòa Bình","Quận/Huyện":"Huyện Trà Ôn"}},{"type":"Feature","geometry":{"type":"Point","coordinates":[106.042356685,9.998674917]},"properties":{"Mã số":216,"Trường Tiểu học\t\t":"Trường Tiểu học Thới Hòa A","Địa chỉ trường\t\t":"ấp Ninh Thuận, xã Thới Hòa, huyện Trà Ôn   ","Cấp học\t\t\t":"Tiểu học","Loại hình\t\t":"Công lập","Số điện thoại trường    ":"02703884199","Số lớp":"20","Số học sinh\t":"620","Số điểm lẻ\t":"2","Đạt CQG (MĐ)\t":"Mức độ 1","Dự kiến sáp nhập\t":null,"Ghi chú\t\t\t":null,"layer_id":318,"fid":216,"label":"Trường Tiểu học Thới Hòa A","Xã/Phường":"Xã Thới Hòa","Quận/Huyện":"Huyện Trà Ôn"}},{"type":"Feature","geometry":{"type":"Point","coordinates":[106.088998,10.048247]},"properties":{"Mã số":218,"Trường Tiểu học\t\t":"Trường Tiểu học Hòa Bình C","Địa chỉ trường\t\t":"ấp Hiệp Lợi, xã Hòa Bình, huyện Trà Ôn  ","Cấp học\t\t\t":"Tiểu học","Loại hình\t\t":"Công Lập","Số điện thoại trường    ":"02703722090","Số lớp":"10","Số học sinh\t":"270","Số điểm lẻ\t":"1","Đạt CQG (MĐ)\t":"Mức độ 1","Dự kiến sáp nhập\t":null,"Ghi chú\t\t\t":null,"layer_id":318,"fid":218,"label":"Trường Tiểu học Hòa Bình C","Xã/Phường":"Xã Hòa Bình","Quận/Huyện":"Huyện Trà Ôn"}},{"type":"Feature","geometry":{"type":"Point","coordinates":[106.047368,10.078033]},"properties":{"Mã số":219,"Trường Tiểu học\t\t":"Trường Tiểu học Xuân Hiệp A","Địa chỉ trường\t\t":"ấp Hồi Xuân, xã Xuân Hiệp, huyện Trà Ôn  ","Cấp học\t\t\t":"Tiểu học","Loại hình\t\t":"Công lập","Số điện thoại trường    ":"02703789898","Số lớp":"20","Số học sinh\t":"480","Số điểm lẻ\t":"1","Đạt CQG (MĐ)\t":"Mức độ 1","Dự kiến sáp nhập\t":null,"Ghi chú\t\t\t":null,"layer_id":318,"fid":219,"label":"Trường Tiểu học Xuân Hiệp A","Xã/Phường":"Xã Xuân Hiệp","Quận/Huyện":"Huyện Trà Ôn"}},{"type":"Feature","geometry":{"type":"Point","coordinates":[106.002921,10.045052]},"properties":{"Mã số":220,"Trường Tiểu học\t\t":"Trường Tiểu học Nhơn Bình A","Địa chỉ trường\t\t":"ấp Tường Trí, xã nhơn Bình, huyện Trà Ôn  ","Cấp học\t\t\t":"Tiểu học","Loại hình\t\t":"Công lập","Số điện thoại trường    ":"02703721260","Số lớp":"15","Số học sinh\t":"385","Số điểm lẻ\t":"2","Đạt CQG (MĐ)\t":"Mức độ 1","Dự kiến sáp nhập\t":null,"Ghi chú\t\t\t":null,"layer_id":318,"fid":220,"label":"Trường Tiểu học Nhơn Bình A","Xã/Phường":"Xã Nhơn Bình","Quận/Huyện":"Huyện Trà Ôn"}},{"type":"Feature","geometry":{"type":"Point","coordinates":[105.990425,10.015943]},"properties":{"Mã số":221,"Trường Tiểu học\t\t":"Trường Tiểu học Trà Côn A","Địa chỉ trường\t\t":"ấp Trà Ngoa, xã Trà Côn, huyện Trà Ôn  ","Cấp học\t\t\t":"Tiểu học","Loại hình\t\t":"Công lập","Số điện thoại trường    ":"02703723311","Số lớp":"25","Số học sinh\t":"710","Số điểm lẻ\t":"2","Đạt CQG (MĐ)\t":"Mức độ 1","Dự kiến sáp nhập\t":null,"Ghi chú\t\t\t":null,"layer_id":318,"fid":221,"label":"Trường Tiểu học Trà Côn A","Xã/Phường":"Xã Trà Côn","Quận/Huyện":"Huyện Trà Ôn"}},{"type":"Feature","geometry":{"type":"Point","coordinates":[106.085252,10.111392]},"properties":{"Mã số":224,"Trường Tiểu học\t\t":"Trường Tiểu học Tân An Luông","Địa chỉ trường\t\t":"đường tỉnh 901, ấp Gò Ân, xã Tân An Luông, huyện Vũng Liêm  ","Cấp học\t\t\t":"Tiểu học","Loại hình\t\t":"Công lập","Số điện thoại trường    ":"02703874410","Số lớp":"20","Số học sinh\t":"620","Số điểm lẻ\t":"1","Đạt CQG (MĐ)\t":"Mức độ 1","Dự kiến sáp nhập\t":null,"Ghi chú\t\t\t":null,"layer_id":318,"fid":224,"label":"Trường Tiểu học Tân An Luông","Xã/Phường":"Xã Tân An Luông","Quận/Huyện":"Huyện Vũng Liêm"}},{"type":"Feature","geometry":{"type":"Point","coordinates":[105.957971,9.990944]},"properties":{"Mã số":222,"Trường Tiểu học\t\t":"Trường Tiểu học Tân Mỹ A","Địa chỉ trường\t\t":"ấp Sóc Ruộng, xã Tân Mỹ, huyện Trà Ôn  ","Cấp học\t\t\t":"Tiểu học","Loại hình\t\t":"Công lập","Số điện thoại trường    ":"02703775358","Số lớp":"14","Số học sinh\t":"400","Số điểm lẻ\t":"0","Đạt CQG (MĐ)\t":"Mức độ 2","Dự kiến sáp nhập\t":null,"Ghi chú\t\t\t":null,"layer_id":318,"fid":222,"label":"Trường Tiểu học Tân Mỹ A","Xã/Phường":"Xã Tân Mỹ","Quận/Huyện":"Huyện Trà Ôn"}},{"type":"Feature","geometry":{"type":"Point","coordinates":[105.981271,9.985423]},"properties":{"Mã số":223,"Trường Tiểu học\t\t":"Trường Tiểu học Tân Mỹ B","Địa chỉ trường\t\t":"ấp Trà  Mòn, xã Tân Mỹ, huyện Trà Ôn","Cấp học\t\t\t":"Tiểu học","Loại hình\t\t":"Công lập","Số điện thoại trường    ":"02703775464","Số lớp":"15","Số học sinh\t":"420","Số điểm lẻ\t":"1","Đạt CQG (MĐ)\t":"Mức độ 1","Dự kiến sáp nhập\t":null,"Ghi chú\t\t\t":null,"layer_id":318,"fid":223,"label":"Trường Tiểu học Tân Mỹ B","Xã/Phường":"Xã Tân Mỹ","Quận/Huyện":"Huyện Trà Ôn"}},{"type":"Feature","geometry":{"type":"Point","coordinates":[106.112969,10.087223]},"properties":{"Mã số":225,"Trường Tiểu học\t\t":"Trường Tiểu học Hiếu Phụng A","Địa chỉ trường\t\t":"ấp Hiếu Hiệp, xã Hiếu Phụng, huyện Vũng Liêm  ","Cấp học\t\t\t":"Tiểu học","Loại hình\t\t":"Công lập","Số điện thoại trường    ":"02703874789","Số lớp":"20","Số học sinh\t":"665","Số điểm lẻ\t":"0","Đạt CQG (MĐ)\t":"Mức độ 1","Dự kiến sáp nhập\t":null,"Ghi chú\t\t\t":null,"layer_id":318,"fid":225,"label":"Trường Tiểu học Hiếu Phụng A","Xã/Phường":"Xã Hiếu Phụng","Quận/Huyện":"Huyện Vũng Liêm"}},{"type":"Feature","geometry":{"type":"Point","coordinates":[106.114889,10.056484]},"properties":{"Mã số":226,"Trường Tiểu học\t\t":"Trường Tiểu học Huỳnh Văn Lời","Địa chỉ trường\t\t":"Đường tỉnh 906, ấp Quang Trường, xã Hiếu Thuận, huyện Vũng Liêm  ","Cấp học\t\t\t":"Tiểu học","Loại hình\t\t":"Công lập","Số điện thoại trường    ":"02703987303","Số lớp":"10","Số học sinh\t":"265","Số điểm lẻ\t":"1","Đạt CQG (MĐ)\t":"Mức độ 1","Dự kiến sáp nhập\t":null,"Ghi chú\t\t\t":null,"layer_id":318,"fid":226,"label":"Trường Tiểu học Huỳnh Văn Lời","Xã/Phường":"Xã Hiếu Thuận","Quận/Huyện":"Huyện Vũng Liêm"}},{"type":"Feature","geometry":{"type":"Point","coordinates":[106.110327,10.032293]},"properties":{"Mã số":227,"Trường Tiểu học\t\t":"Trường Tiểu học Nguyễn Văn Quỳ","Địa chỉ trường\t\t":"Đường tỉnh 906, ấp Hiếu Minh B, xã Hiếu Nhơn, huyện Vũng Liêm  ","Cấp học\t\t\t":"Tiểu học","Loại hình\t\t":"Công lập","Số điện thoại trường    ":"02703987340","Số lớp":"15","Số học sinh\t":"525","Số điểm lẻ\t":"0","Đạt CQG (MĐ)\t":"Mức độ 2","Dự kiến sáp nhập\t":null,"Ghi chú\t\t\t":null,"layer_id":318,"fid":227,"label":"Trường Tiểu học Nguyễn Văn Quỳ","Xã/Phường":"Xã Hiếu Nhơn","Quận/Huyện":"Huyện Vũng Liêm"}},{"type":"Feature","geometry":{"type":"Point","coordinates":[106.09703,9.98903]},"properties":{"Mã số":228,"Trường Tiểu học\t\t":"Trường Tiểu học Hiếu Thành","Địa chỉ trường\t\t":"Đường tỉnh 906, ấp Hiếu Xuân, xã Hiếu Thành, huyện Vũng Liêm ","Cấp học\t\t\t":"Tiểu học","Loại hình\t\t":"Công lập","Số điện thoại trường    ":"02703889730","Số lớp":"15","Số học sinh\t":"425","Số điểm lẻ\t":"1","Đạt CQG (MĐ)\t":"Mức độ 1","Dự kiến sáp nhập\t":null,"Ghi chú\t\t\t":null,"layer_id":318,"fid":228,"label":"Trường Tiểu học Hiếu Thành","Xã/Phường":"Xã Hiếu Thành","Quận/Huyện":"Huyện Vũng Liêm"}},{"type":"Feature","geometry":{"type":"Point","coordinates":[106.088329,9.965523]},"properties":{"Mã số":229,"Trường Tiểu học\t\t":"Trường Tiểu học Đỗ Quang Mười","Địa chỉ trường\t\t":"Đường tỉnh 906, ấp Hiếu Văn, xã Hiếu Nghĩa, huyện Vũng Liêm  ","Cấp học\t\t\t":"Tiểu học","Loại hình\t\t":"Công lập","Số điện thoại trường    ":"02703889194","Số lớp":"10","Số học sinh\t":"325","Số điểm lẻ\t":"0","Đạt CQG (MĐ)\t":"0","Dự kiến sáp nhập\t":null,"Ghi chú\t\t\t":null,"layer_id":318,"fid":229,"label":"Trường Tiểu học Đỗ Quang Mười","Xã/Phường":"Xã Hiếu Nghĩa","Quận/Huyện":"Huyện Vũng Liêm"}},{"type":"Feature","geometry":{"type":"Point","coordinates":[106.152187,10.070687]},"properties":{"Mã số":230,"Trường Tiểu học\t\t":"Trường Tiểu học Nguyễn Trung Kiên","Địa chỉ trường\t\t":"ấp Bình Thành, xã Trung Hiếu, huyện Vũng Liêm  ","Cấp học\t\t\t":"Tiểu học","Loại hình\t\t":"Công lập","Số điện thoại trường    ":"02703870311","Số lớp":"25","Số học sinh\t":"875","Số điểm lẻ\t":"1","Đạt CQG (MĐ)\t":"Mức độ 2","Dự kiến sáp nhập\t":null,"Ghi chú\t\t\t":null,"layer_id":318,"fid":230,"label":"Trường Tiểu học Nguyễn Trung Kiên","Xã/Phường":"Xã Trung Hiếu","Quận/Huyện":"Huyện Vũng Liêm"}},{"type":"Feature","geometry":{"type":"Point","coordinates":[106.140889,10.027936]},"properties":{"Mã số":231,"Trường Tiểu học\t\t":"Trường Tiểu học Trung An A","Địa chỉ trường\t\t":"ấp An Phước, xã Trung An, huyện Vũng Liêm  ","Cấp học\t\t\t":"Tiểu học","Loại hình\t\t":"Công lập","Số điện thoại trường    ":"02703987023","Số lớp":"15","Số học sinh\t":"460","Số điểm lẻ\t":"1","Đạt CQG (MĐ)\t":"Mức độ 2","Dự kiến sáp nhập\t":null,"Ghi chú\t\t\t":null,"layer_id":318,"fid":231,"label":"Trường Tiểu học Trung An A","Xã/Phường":"Xã Trung An","Quận/Huyện":"Huyện Vũng Liêm"}},{"type":"Feature","geometry":{"type":"Point","coordinates":[106.198094,10.058814]},"properties":{"Mã số":232,"Trường Tiểu học\t\t":"Trường Tiểu học Nguyễn Văn Thời","Địa chỉ trường\t\t":"Quốc lộ 53, ấp Giồng ké, xã Trung NGãi, huyện Vũng Liêm","Cấp học\t\t\t":"Tiểu học","Loại hình\t\t":"Công lập","Số điện thoại trường    ":"02703870427","Số lớp":"15","Số học sinh\t":"450","Số điểm lẻ\t":"0","Đạt CQG (MĐ)\t":"Mức độ 2","Dự kiến sáp nhập\t":null,"Ghi chú\t\t\t":null,"layer_id":318,"fid":232,"label":"Trường Tiểu học Nguyễn Văn Thời","Xã/Phường":"Xã Trung Ngãi","Quận/Huyện":"Huyện Vũng Liêm"}},{"type":"Feature","geometry":{"type":"Point","coordinates":[106.207362,10.042134]},"properties":{"Mã số":233,"Trường Tiểu học\t\t":"Trường Tiểu học Đặng Thị Chính","Địa chỉ trường\t\t":"ấp Phú Tân, xã Trung Nghĩa, huyện Vũng Liêm  ","Cấp học\t\t\t":"Tiểu học","Loại hình\t\t":"Công lập","Số điện thoại trường    ":"0384400585","Số lớp":"20","Số học sinh\t":"562","Số điểm lẻ\t":"2","Đạt CQG (MĐ)\t":"Mức độ 1","Dự kiến sáp nhập\t":null,"Ghi chú\t\t\t":null,"layer_id":318,"fid":233,"label":"Trường Tiểu học Đặng Thị Chính","Xã/Phường":"Xã Trung Nghĩa","Quận/Huyện":"Huyện Vũng Liêm"}},{"type":"Feature","geometry":{"type":"Point","coordinates":[106.192482,10.047223]},"properties":{"Mã số":234,"Trường Tiểu học\t\t":"Trường Tiểu học Trung Thành A","Địa chỉ trường\t\t":"ấp Trung Trạch, xã Trung Thành, huyện Vũng Liêm   ","Cấp học\t\t\t":"Tiểu học","Loại hình\t\t":"Công lập","Số điện thoại trường    ":"0703870787","Số lớp":"15","Số học sinh\t":"450","Số điểm lẻ\t":"1","Đạt CQG (MĐ)\t":"Mức độ 1","Dự kiến sáp nhập\t":null,"Ghi chú\t\t\t":null,"layer_id":318,"fid":234,"label":"Trường Tiểu học Trung Thành A","Xã/Phường":"Xã Trung Ngãi","Quận/Huyện":"Huyện Vũng Liêm"}},{"type":"Feature","geometry":{"type":"Point","coordinates":[106.210045,10.075125]},"properties":{"Mã số":235,"Trường Tiểu học\t\t":"Trường Tiểu học Trung Thành Đông A","Địa chỉ trường\t\t":"ấp Đức Hòa, xã Trung Thành Đông, huyện Vũng Liêm  ","Cấp học\t\t\t":"Tiểu học","Loại hình\t\t":"Công lập","Số điện thoại trường    ":"02703871271","Số lớp":"10","Số học sinh\t":"260","Số điểm lẻ\t":"0","Đạt CQG (MĐ)\t":"Mức độ 1","Dự kiến sáp nhập\t":null,"Ghi chú\t\t\t":null,"layer_id":318,"fid":235,"label":"Trường Tiểu học Trung Thành Đông A","Xã/Phường":"Xã Trung Thành Đông","Quận/Huyện":"Huyện Vũng Liêm"}},{"type":"Feature","geometry":{"type":"Point","coordinates":[106.182999,10.1033]},"properties":{"Mã số":236,"Trường Tiểu học\t\t":"Trường Tiểu học Trung Thành Tây A","Địa chỉ trường\t\t":"Đường tỉnh 902, ấp Hòa Nghĩa, xã Trung Thành Tây, huyện Vũng Liêm  ","Cấp học\t\t\t":"Tiểu học","Loại hình\t\t":"Công lập","Số điện thoại trường    ":"02703871265","Số lớp":"14","Số học sinh\t":"420","Số điểm lẻ\t":"1","Đạt CQG (MĐ)\t":"Mức độ 1","Dự kiến sáp nhập\t":null,"Ghi chú\t\t\t":null,"layer_id":318,"fid":236,"label":"Trường Tiểu học Trung Thành Tây A","Xã/Phường":"Xã Trung Thành Tây","Quận/Huyện":"Huyện Vũng Liêm"}},{"type":"Feature","geometry":{"type":"Point","coordinates":[106.188808,10.089478]},"properties":{"Mã số":237,"Trường Tiểu học\t\t":"Trường Tiểu học TT Vũng Liêm","Địa chỉ trường\t\t":"Số 48, đường Nam Kỳ Khởi Nghĩa, Khóm 2, thị trấn Vũng Liêm, huyện Vũng Liêm","Cấp học\t\t\t":"Tiểu học","Loại hình\t\t":"Công lập","Số điện thoại trường    ":"02703870298","Số lớp":"29","Số học sinh\t":"1016","Số điểm lẻ\t":"0","Đạt CQG (MĐ)\t":"Mức độ 1","Dự kiến sáp nhập\t":null,"Ghi chú\t\t\t":null,"layer_id":318,"fid":237,"label":"Trường Tiểu học TT Vũng Liêm","Xã/Phường":"Thị trấn Vũng Liêm","Quận/Huyện":"Huyện Vũng Liêm"}},{"type":"Feature","geometry":{"type":"Point","coordinates":[106.144949,10.093854]},"properties":{"Mã số":238,"Trường Tiểu học\t\t":"Trường Tiểu học Trung Hiệp A","Địa chỉ trường\t\t":"Đường 61B, ấp Bình Phụng, xã Trung Hiệp, huyện Vũng Liêm  ","Cấp học\t\t\t":"Tiểu học","Loại hình\t\t":"Công lập","Số điện thoại trường    ":"02703870556","Số lớp":"18","Số học sinh\t":"600","Số điểm lẻ\t":"2","Đạt CQG (MĐ)\t":"Mức độ 2","Dự kiến sáp nhập\t":null,"Ghi chú\t\t\t":null,"layer_id":318,"fid":238,"label":"Trường Tiểu học Trung Hiệp A","Xã/Phường":"Xã Trung Hiệp","Quận/Huyện":"Huyện Vũng Liêm"}},{"type":"Feature","geometry":{"type":"Point","coordinates":[106.127778,10.1237028]},"properties":{"Mã số":239,"Trường Tiểu học\t\t":"Trường Tiểu học Trung Chánh A","Địa chỉ trường\t\t":"ấp Rạch Chim, xã Trumng Chánh, huyện Vũng Liêm   ","Cấp học\t\t\t":"Tiểu học","Loại hình\t\t":"Công lập","Số điện thoại trường    ":"02703870561","Số lớp":"10","Số học sinh\t":"350","Số điểm lẻ\t":"0","Đạt CQG (MĐ)\t":"Mức độ 1","Dự kiến sáp nhập\t":null,"Ghi chú\t\t\t":null,"layer_id":318,"fid":239,"label":"Trường Tiểu học Trung Chánh A","Xã/Phường":"Xã Trung Chánh","Quận/Huyện":"Huyện Vũng Liêm"}},{"type":"Feature","geometry":{"type":"Point","coordinates":[106.117043,10.160654]},"properties":{"Mã số":240,"Trường Tiểu học\t\t":"Trường Tiểu học Tân Quới Trung A","Địa chỉ trường\t\t":"Đường tỉnh lộ 901, ấp Rạch Đôi, xã Tân Quới Trung, huyện Vũng Liêm  ","Cấp học\t\t\t":"Tiểu học","Loại hình\t\t":"Công lập","Số điện thoại trường    ":"02703993722","Số lớp":"20","Số học sinh\t":"565","Số điểm lẻ\t":"2","Đạt CQG (MĐ)\t":"Mức độ 1","Dự kiến sáp nhập\t":null,"Ghi chú\t\t\t":null,"layer_id":318,"fid":240,"label":"Trường Tiểu học Tân Quới Trung A","Xã/Phường":"Xã Tân Quới Trung","Quận/Huyện":"Huyện Vũng Liêm"}},{"type":"Feature","geometry":{"type":"Point","coordinates":[106.164703,10.153356]},"properties":{"Mã số":241,"Trường Tiểu học\t\t":"Trường Tiểu học Nguyễn Văn Kết","Địa chỉ trường\t\t":"Đường tỉnh 902, ấp Phước Trường, xã Quới An, huyện Vũng Liêm  ","Cấp học\t\t\t":"Tiểu học","Loại hình\t\t":"Công lập","Số điện thoại trường    ":"02703871272","Số lớp":"16","Số học sinh\t":"585","Số điểm lẻ\t":"1","Đạt CQG (MĐ)\t":"Mức độ 1","Dự kiến sáp nhập\t":null,"Ghi chú\t\t\t":null,"layer_id":318,"fid":241,"label":"Trường Tiểu học Nguyễn Văn Kết","Xã/Phường":"Xã Quới An","Quận/Huyện":"Huyện Vũng Liêm"}},{"type":"Feature","geometry":{"type":"Point","coordinates":[106.189312,10.145893]},"properties":{"Mã số":242,"Trường Tiểu học\t\t":"Trường Tiểu học Võ Ngọc Tốt","Địa chỉ trường\t\t":"ấp Phước Lý Nhất, xã Quới Thiện, huyện Vũng Liêm  ","Cấp học\t\t\t":"Tiểu học","Loại hình\t\t":"Công lập","Số điện thoại trường    ":"02706280779","Số lớp":"25","Số học sinh\t":"670","Số điểm lẻ\t":"3","Đạt CQG (MĐ)\t":"Mức độ 1","Dự kiến sáp nhập\t":null,"Ghi chú\t\t\t":null,"layer_id":318,"fid":242,"label":"Trường Tiểu học Võ Ngọc Tốt","Xã/Phường":"Xã Quới Thiện","Quận/Huyện":"Huyện Vũng Liêm"}},{"type":"Feature","geometry":{"type":"Point","coordinates":[106.23121,10.110802]},"properties":{"Mã số":243,"Trường Tiểu học\t\t":"Trường Tiểu học Thanh Bình B","Địa chỉ trường\t\t":"ấp Thái Bình, xã Thanh Bình, huyện Vũng Liêm  ","Cấp học\t\t\t":"Tiểu học","Loại hình\t\t":"Công lập","Số điện thoại trường    ":"02703980676","Số lớp":"28","Số học sinh\t":"980","Số điểm lẻ\t":"2","Đạt CQG (MĐ)\t":"Mức độ 2","Dự kiến sáp nhập\t":null,"Ghi chú\t\t\t":null,"layer_id":318,"fid":243,"label":"Trường Tiểu học Thanh Bình B","Xã/Phường":"Xã Thanh Bình","Quận/Huyện":"Huyện Vũng Liêm"}},{"type":"Feature","geometry":{"type":"Point","coordinates":[105.997982,10.044242]},"properties":{"Mã số":244,"Trường Tiểu học\t\t":"Trường Tiểu học Lưu Văn Liệt","Địa chỉ trường\t\t":"đường Lưu Văn Liệt, Khóm 1, thị trấn Tam Bình, huyện Tam Bình  ","Cấp học\t\t\t":"Tiểu học","Loại hình\t\t":"Công lập","Số điện thoại trường    ":"02703860383","Số lớp":"20","Số học sinh\t":"700","Số điểm lẻ\t":"0","Đạt CQG (MĐ)\t":"Mức độ 2","Dự kiến sáp nhập\t":null,"Ghi chú\t\t\t":null,"layer_id":318,"fid":244,"label":"Trường Tiểu học Lưu Văn Liệt","Xã/Phường":"Xã Tam Bình","Quận/Huyện":"Huyện Tam Bình"}},{"type":"Feature","geometry":{"type":"Point","coordinates":[105.98318,10.02562]},"properties":{"Mã số":245,"Trường Tiểu học\t\t":"Trường Tiểu học Tường Lộc ","Địa chỉ trường\t\t":"Đường tỉnh 904, ấp Mỹ Phú 5, xã Tường Lộc, huyện Tam Bình  ","Cấp học\t\t\t":"Tiểu học","Loại hình\t\t":"Công lập","Số điện thoại trường    ":"02706272726","Số lớp":"20","Số học sinh\t":"597","Số điểm lẻ\t":"2","Đạt CQG (MĐ)\t":"Mức độ 1","Dự kiến sáp nhập\t":null,"Ghi chú\t\t\t":null,"layer_id":318,"fid":245,"label":"Trường Tiểu học Tường Lộc ","Xã/Phường":"Xã Tường Lộc","Quận/Huyện":"Huyện Tam Bình"}},{"type":"Feature","geometry":{"type":"Point","coordinates":[105.989566882,10.057743919]},"properties":{"Mã số":246,"Trường Tiểu học\t\t":"Trường Tiểu học Mỹ Thạnh Trung","Địa chỉ trường\t\t":"ấp Bằng Tăng, xã Mỹ Thạnh Trung, huyện Tam Bình  ","Cấp học\t\t\t":"Tiểu học","Loại hình\t\t":"Công lập","Số điện thoại trường    ":"02703717171","Số lớp":"28","Số học sinh\t":"728","Số điểm lẻ\t":"2","Đạt CQG (MĐ)\t":"Mức độ 2","Dự kiến sáp nhập\t":null,"Ghi chú\t\t\t":null,"layer_id":318,"fid":246,"label":"Trường Tiểu học Mỹ Thạnh Trung","Xã/Phường":"Xã Mỹ Thạnh Trung","Quận/Huyện":"Huyện Tam Bình"}},{"type":"Feature","geometry":{"type":"Point","coordinates":[106.004542,10.0983]},"properties":{"Mã số":247,"Trường Tiểu học\t\t":"Trường Tiểu học Hòa Lộc","Địa chỉ trường\t\t":"ấp 7, xã Hòa Lộc, huyện Tam Bình  ","Cấp học\t\t\t":"Tiểu học","Loại hình\t\t":"Công lập","Số điện thoại trường    ":"02702200010","Số lớp":"28","Số học sinh\t":"792","Số điểm lẻ\t":"3","Đạt CQG (MĐ)\t":"Mức độ 2","Dự kiến sáp nhập\t":null,"Ghi chú\t\t\t":null,"layer_id":318,"fid":247,"label":"Trường Tiểu học Hòa Lộc","Xã/Phường":"Xã Hòa Lộc","Quận/Huyện":"Huyện Tam Bình"}},{"type":"Feature","geometry":{"type":"Point","coordinates":[106.052338,10.101799]},"properties":{"Mã số":248,"Trường Tiểu học\t\t":"Trường Tiểu học Hòa Hiệp","Địa chỉ trường\t\t":"ấp 4, xã Hòa Hiệp, huyện Tam Bình  ","Cấp học\t\t\t":"Tiểu học","Loại hình\t\t":"Công lập","Số điện thoại trường    ":"02702216193","Số lớp":"15","Số học sinh\t":"391","Số điểm lẻ\t":"2","Đạt CQG (MĐ)\t":"Mức độ 2","Dự kiến sáp nhập\t":null,"Ghi chú\t\t\t":null,"layer_id":318,"fid":248,"label":"Trường Tiểu học Hòa Hiệp","Xã/Phường":"Xã Hòa Hiệp","Quận/Huyện":"Huyện Tam Bình"}},{"type":"Feature","geometry":{"type":"Point","coordinates":[106.043739,10.120071]},"properties":{"Mã số":249,"Trường Tiểu học\t\t":"Trường Tiểu học Hòa Thạnh","Địa chỉ trường\t\t":"ấp 2, xã Hòa Thạnh, huyện Tam Bình  ","Cấp học\t\t\t":"Tiểu học","Loại hình\t\t":"Công lập","Số điện thoại trường    ":"02702216169","Số lớp":"15","Số học sinh\t":"353","Số điểm lẻ\t":"1","Đạt CQG (MĐ)\t":"Mức độ 1","Dự kiến sáp nhập\t":null,"Ghi chú\t\t\t":null,"layer_id":318,"fid":249,"label":"Trường Tiểu học Hòa Thạnh","Xã/Phường":"Xã Hòa Thạnh","Quận/Huyện":"Huyện Tam Bình"}},{"type":"Feature","geometry":{"type":"Point","coordinates":[105.958643,10.126698]},"properties":{"Mã số":250,"Trường Tiểu học\t\t":"Trường Tiểu học Tân Lộc","Địa chỉ trường\t\t":"ấp 2, xã Tân Lộc, huyện Tam Bình  ","Cấp học\t\t\t":"Tiểu học","Loại hình\t\t":"Công lập","Số điện thoại trường    ":"0270718579","Số lớp":"19","Số học sinh\t":"437","Số điểm lẻ\t":"2","Đạt CQG (MĐ)\t":"Mức độ 2","Dự kiến sáp nhập\t":null,"Ghi chú\t\t\t":null,"layer_id":318,"fid":250,"label":"Trường Tiểu học Tân Lộc","Xã/Phường":"Xã Tân Lộc","Quận/Huyện":"Huyện Tam Bình"}},{"type":"Feature","geometry":{"type":"Point","coordinates":[105.948463,10.096784]},"properties":{"Mã số":251,"Trường Tiểu học\t\t":"Trường Tiểu học Phú Lộc","Địa chỉ trường\t\t":"ấp Cây Điều, xã Phú Lộc, huyện Tam Bình  ","Cấp học\t\t\t":"Tiểu học","Loại hình\t\t":"Công lập","Số điện thoại trường    ":"0702477393","Số lớp":"15","Số học sinh\t":"375","Số điểm lẻ\t":"2","Đạt CQG (MĐ)\t":"Mức độ 2","Dự kiến sáp nhập\t":null,"Ghi chú\t\t\t":null,"layer_id":318,"fid":251,"label":"Trường Tiểu học Phú Lộc","Xã/Phường":"Xã Cái Ngang","Quận/Huyện":"Huyện Tam Bình"}},{"type":"Feature","geometry":{"type":"Point","coordinates":[105.966902,10.115821]},"properties":{"Mã số":252,"Trường Tiểu học\t\t":"Trường Tiểu học Cái Ngang","Địa chỉ trường\t\t":"Đường tỉnh 909, ấp 6, xã Hậu Lộc, huyện Tam Bình  ","Cấp học\t\t\t":"Tiểu học","Loại hình\t\t":"Công lập","Số điện thoại trường    ":"02703717211","Số lớp":"30","Số học sinh\t":"1095","Số điểm lẻ\t":"2","Đạt CQG (MĐ)\t":"Mức độ 2","Dự kiến sáp nhập\t":null,"Ghi chú\t\t\t":null,"layer_id":318,"fid":252,"label":"Trường Tiểu học Cái Ngang","Xã/Phường":"Xã Hậu Lộc","Quận/Huyện":"Huyện Tam Bình"}},{"type":"Feature","geometry":{"type":"Point","coordinates":[105.95846,10.092621]},"properties":{"Mã số":253,"Trường Tiểu học\t\t":"Trường Tiểu học Mỹ Lộc","Địa chỉ trường\t\t":"Đường tỉnh 909, ấp 10, xã Mỹ Lộc, huyện Tam Bình  ","Cấp học\t\t\t":"Tiểu học","Loại hình\t\t":"Công lập","Số điện thoại trường    ":"0703717298","Số lớp":"13","Số học sinh\t":"445","Số điểm lẻ\t":"1","Đạt CQG (MĐ)\t":"Mức độ 1","Dự kiến sáp nhập\t":null,"Ghi chú\t\t\t":null,"layer_id":318,"fid":253,"label":"Trường Tiểu học Mỹ Lộc","Xã/Phường":"Xã Mỹ Lộc","Quận/Huyện":"Huyện Tam Bình"}},{"type":"Feature","geometry":{"type":"Point","coordinates":[105.911125,10.079505]},"properties":{"Mã số":254,"Trường Tiểu học\t\t":"Trường Tiểu học Long Phú","Địa chỉ trường\t\t":"ấp Phú Sơn A, xã Long Phú, huyện Tam Bình  ","Cấp học\t\t\t":"Tiểu học","Loại hình\t\t":"Công lập","Số điện thoại trường    ":"02703729739","Số lớp":"22","Số học sinh\t":"724","Số điểm lẻ\t":"1","Đạt CQG (MĐ)\t":"Mức độ 2","Dự kiến sáp nhập\t":null,"Ghi chú\t\t\t":null,"layer_id":318,"fid":254,"label":"Trường Tiểu học Long Phú","Xã/Phường":"Xã Long Phú","Quận/Huyện":"Huyện Tam Bình"}},{"type":"Feature","geometry":{"type":"Point","coordinates":[105.888657,10.071712]},"properties":{"Mã số":255,"Trường Tiểu học\t\t":"Trường Tiểu học Tô Hùng Vĩ","Địa chỉ trường\t\t":"ấp Phú Yên, xã Tân Phú, huyện Tam Bình  ","Cấp học\t\t\t":"Tiểu học","Loại hình\t\t":"Công lập","Số điện thoại trường    ":"02706273969","Số lớp":"18","Số học sinh\t":"530","Số điểm lẻ\t":"2","Đạt CQG (MĐ)\t":"Mức độ 1","Dự kiến sáp nhập\t":null,"Ghi chú\t\t\t":null,"layer_id":318,"fid":255,"label":"Trường Tiểu học Tô Hùng Vĩ","Xã/Phường":"Xã Long Phú","Quận/Huyện":"Huyện Tam Bình"}},{"type":"Feature","geometry":{"type":"Point","coordinates":[105.896635,10.106035]},"properties":{"Mã số":256,"Trường Tiểu học\t\t":"Trường Tiểu học Song Phú","Địa chỉ trường\t\t":"ấp Phú Hòa Yên, xã Song Phú, huyện Tam Bình   ","Cấp học\t\t\t":"Tiểu học","Loại hình\t\t":"Công lập","Số điện thoại trường    ":"02703864292","Số lớp":"28","Số học sinh\t":"890","Số điểm lẻ\t":"2","Đạt CQG (MĐ)\t":"Mức độ 2","Dự kiến sáp nhập\t":null,"Ghi chú\t\t\t":null,"layer_id":318,"fid":256,"label":"Trường Tiểu học Song Phú","Xã/Phường":"Xã Song Phú","Quận/Huyện":"Huyện Tam Bình"}},{"type":"Feature","geometry":{"type":"Point","coordinates":[105.887629,10.131915]},"properties":{"Mã số":257,"Trường Tiểu học\t\t":"Trường Tiểu học Phú Thịnh A","Địa chỉ trường\t\t":"ấp Phú Thuận, xã Phú Thịnh, huyện Tam Bình  ","Cấp học\t\t\t":"Tiểu học","Loại hình\t\t":"Công lập","Số điện thoại trường    ":"02703864746","Số lớp":"15","Số học sinh\t":"439","Số điểm lẻ\t":"0","Đạt CQG (MĐ)\t":"Mức độ 2","Dự kiến sáp nhập\t":null,"Ghi chú\t\t\t":null,"layer_id":318,"fid":257,"label":"Trường Tiểu học Phú Thịnh A","Xã/Phường":"Xã Phú Thịnh","Quận/Huyện":"Huyện Tam Bình"}},{"type":"Feature","geometry":{"type":"Point","coordinates":[105.908649,10.132785]},"properties":{"Mã số":258,"Trường Tiểu học\t\t":"Trường Tiểu học Phú Thịnh B","Địa chỉ trường\t\t":"ấp Phú An, xã Phú Thịnh, huyên Tam Bình  ","Cấp học\t\t\t":"Tiểu học","Loại hình\t\t":"Công lập","Số điện thoại trường    ":"02703864738","Số lớp":"13","Số học sinh\t":"340","Số điểm lẻ\t":"1","Đạt CQG (MĐ)\t":"Mức độ 1","Dự kiến sáp nhập\t":null,"Ghi chú\t\t\t":null,"layer_id":318,"fid":258,"label":"Trường Tiểu học Phú Thịnh B","Xã/Phường":"Xã Phú Thịnh","Quận/Huyện":"Huyện Tam Bình"}},{"type":"Feature","geometry":{"type":"Point","coordinates":[105.939872,9.995624]},"properties":{"Mã số":259,"Trường Tiểu học\t\t":"Trường Tiểu học Bình Ninh","Địa chỉ trường\t\t":"ấp An Thạnh B, xã Bình Ninh, huyện Tam Bình  ","Cấp học\t\t\t":"Tiểu học","Loại hình\t\t":"Công lập","Số điện thoại trường    ":"0939827542","Số lớp":"22","Số học sinh\t":"655","Số điểm lẻ\t":"2","Đạt CQG (MĐ)\t":"Mức độ 2","Dự kiến sáp nhập\t":null,"Ghi chú\t\t\t":null,"layer_id":318,"fid":259,"label":"Trường Tiểu học Bình Ninh","Xã/Phường":"Xã Bình Ninh","Quận/Huyện":"Huyện Tam Bình"}},{"type":"Feature","geometry":{"type":"Point","coordinates":[105.902756,10.04752]},"properties":{"Mã số":260,"Trường Tiểu học\t\t":"Trường Tiểu học Ngãi Tứ A","Địa chỉ trường\t\t":"ấp An Phong, xã Ngãi Tứ, huyện Tam Bình  ","Cấp học\t\t\t":"Tiểu học","Loại hình\t\t":"Công lập","Số điện thoại trường    ":"02706272679","Số lớp":"21","Số học sinh\t":"650","Số điểm lẻ\t":"1","Đạt CQG (MĐ)\t":"Mức độ 2","Dự kiến sáp nhập\t":null,"Ghi chú\t\t\t":null,"layer_id":318,"fid":260,"label":"Trường Tiểu học Ngãi Tứ A","Xã/Phường":"Xã Ngãi Tứ","Quận/Huyện":"Huyện Tam Bình"}},{"type":"Feature","geometry":{"type":"Point","coordinates":[105.906491,9.990667]},"properties":{"Mã số":261,"Trường Tiểu học\t\t":"Trường Tiểu học Ngãi Tứ B","Địa chỉ trường\t\t":"ấp Ngã Cái, xã Ngãi Tứ, huyện Tam Bình  ","Cấp học\t\t\t":"Tiểu học","Loại hình\t\t":"Công lập","Số điện thoại trường    ":"02703720243","Số lớp":"15","Số học sinh\t":"460","Số điểm lẻ\t":"2","Đạt CQG (MĐ)\t":"Mức độ 1","Dự kiến sáp nhập\t":null,"Ghi chú\t\t\t":null,"layer_id":318,"fid":261,"label":"Trường Tiểu học Ngãi Tứ B","Xã/Phường":"Xã Ngãi Tứ","Quận/Huyện":"Huyện Tam Bình"}},{"type":"Feature","geometry":{"type":"Point","coordinates":[105.954037,10.026306]},"properties":{"Mã số":262,"Trường Tiểu học\t\t":"Trường Tiểu học Thạch Thia","Địa chỉ trường\t\t":"ấp Giữa, xã Loan Mỹ, huyện Tam Bình  ","Cấp học\t\t\t":"Tiểu học","Loại hình\t\t":"Công lập","Số điện thoại trường    ":"02703860662","Số lớp":"32","Số học sinh\t":"850","Số điểm lẻ\t":"3","Đạt CQG (MĐ)\t":"Mức độ 1","Dự kiến sáp nhập\t":null,"Ghi chú\t\t\t":null,"layer_id":318,"fid":262,"label":"Trường Tiểu học Thạch Thia","Xã/Phường":"Xã Loan Mỹ","Quận/Huyện":"Huyện Tam Bình"}}]}
