{"type":"FeatureCollection","name":"QH Trường THCS","metadata":{"source":"https://hatang.vinhlong.gov.vn/","downloaded_at":"2026-07-20T01:16:48+00:00","layer_id":319,"layer_name":"QH Trường THCS","catalog_endpoints":["/map/publicLayers2?inputs=sogddt_quyhoach"],"requested_bbox":[104.0,8.0,108.0,12.0],"tile_size":0.0,"tile_count":1,"tile_errors":[],"feature_count":80,"coordinate_order":"x,y (thường là longitude,latitude theo cấu hình EPSG:4326 của WebGIS)"},"features":[{"type":"Feature","geometry":{"type":"Point","coordinates":[106.1604,10.07712]},"properties":{"Mã số":208,"Trường THCS\t\t":"Trường THCS Lưu Văn Mót","Địa chỉ trường\t\t":"Ấp Phú Thới, xã Quới Thiện, huyện Vũng Liêm ","Cấp học\t\t\t":"THCS","Loại hình\t\t":"Công lập","Số điện thoại trường ":"02703980724","Số lớp\t":"30","Số học sinh\t":"1060","Đạt CQG (MĐ)\t":"Mức độ 1","Dự kiến sáp nhập":null,"Ghi chú\t\t\t":null,"layer_id":319,"fid":208,"label":"Trường THCS Lưu Văn Mót","Xã/Phường":"Xã Trung Hiếu","Quận/Huyện":"Huyện Vũng Liêm"}},{"type":"Feature","geometry":{"type":"Point","coordinates":[106.201022511,10.0437942]},"properties":{"Mã số":199,"Trường THCS\t\t":"Trường THCS Nguyễn Việt Hùng","Địa chỉ trường\t\t":"Ấp Hòa Nghĩa, Trung Thành Tây, huyện Vũng Liêm","Cấp học\t\t\t":"THCS","Loại hình\t\t":"Công lập","Số điện thoại trường ":"02703870196","Số lớp\t":"11","Số học sinh\t":"360","Đạt CQG (MĐ)\t":"Mức độ 2","Dự kiến sáp nhập":null,"Ghi chú\t\t\t":null,"layer_id":319,"fid":199,"label":"Trường THCS Nguyễn Việt Hùng","Xã/Phường":"Xã Trung Thành","Quận/Huyện":"Huyện Vũng Liêm"}},{"type":"Feature","geometry":{"type":"Point","coordinates":[106.165975488,10.16281709]},"properties":{"Mã số":201,"Trường THCS\t\t":"Trường THCS Tân Quới Trung","Địa chỉ trường\t\t":"ấp Rạch Đôi, xã Tân Quới Trung, huyện Vũng Liêm","Cấp học\t\t\t":"THCS","Loại hình\t\t":"Công lập","Số điện thoại trường ":"02703993555","Số lớp\t":"24","Số học sinh\t":"892","Đạt CQG (MĐ)\t":null,"Dự kiến sáp nhập":null,"Ghi chú\t\t\t":null,"layer_id":319,"fid":201,"label":"Trường THCS Tân Quới Trung","Xã/Phường":"Xã Quới An","Quận/Huyện":"Huyện Vũng Liêm"}},{"type":"Feature","geometry":{"type":"Point","coordinates":[106.133275,10.109747]},"properties":{"Mã số":207,"Trường THCS\t\t":"Trường THCS Lê Hữu Thanh","Địa chỉ trường\t\t":"ấp Mướp Sát, xã Trung Hiệp, huyện Vũng Liêm ","Cấp học\t\t\t":"THCS","Loại hình\t\t":"Công lập ","Số điện thoại trường ":"02703870518","Số lớp\t":"15","Số học sinh\t":"570","Đạt CQG (MĐ)\t":"Mức độ 1","Dự kiến sáp nhập":null,"Ghi chú\t\t\t":null,"layer_id":319,"fid":207,"label":"Trường THCS Lê Hữu Thanh","Xã/Phường":"Xã Trung Hiệp","Quận/Huyện":"Huyện Vũng Liêm"}},{"type":"Feature","geometry":{"type":"Point","coordinates":[106.1445,10.0223]},"properties":{"Mã số":204,"Trường THCS\t\t":"Trường THCS Trương Văn Chỉ","Địa chỉ trường\t\t":"ấp Hiếu Văn, xã Hiếu Nghĩa, huyện Vũng Liêm","Cấp học\t\t\t":"THCS","Loại hình\t\t":"Công lập","Số điện thoại trường ":"02703988380","Số lớp\t":"10","Số học sinh\t":"332","Đạt CQG (MĐ)\t":" Mức độ 1","Dự kiến sáp nhập":null,"Ghi chú\t\t\t":null,"layer_id":319,"fid":204,"label":"Trường THCS Trương Văn Chỉ","Xã/Phường":"Xã Trung An","Quận/Huyện":"Huyện Vũng Liêm"}},{"type":"Feature","geometry":{"type":"Point","coordinates":[106.088005111,9.965214131]},"properties":{"Mã số":205,"Trường THCS\t\t":"Trường THCS Trung An","Địa chỉ trường\t\t":"Ấp An Phước, xã Trung An, huyện Vũng Liêm","Cấp học\t\t\t":"THCS","Loại hình\t\t":"Công lập","Số điện thoại trường ":"02703987058","Số lớp\t":"16","Số học sinh\t":null,"Đạt CQG (MĐ)\t":null,"Dự kiến sáp nhập":null,"Ghi chú\t\t\t":null,"layer_id":319,"fid":205,"label":"Trường THCS Trung An","Xã/Phường":"Xã Hiếu Nghĩa","Quận/Huyện":"Huyện Vũng Liêm"}},{"type":"Feature","geometry":{"type":"Point","coordinates":[106.097848,9.983377]},"properties":{"Mã số":202,"Trường THCS\t\t":"Trường THCS Hiếu Phụng","Địa chỉ trường\t\t":"ấp Tân Quang,xã Hiếu Phụng, huyện Vũng Liêm","Cấp học\t\t\t":"THCS","Loại hình\t\t":"Công lập","Số điện thoại trường ":"02703874302","Số lớp\t":"25","Số học sinh\t":"887","Đạt CQG (MĐ)\t":" Mức độ 1","Dự kiến sáp nhập":null,"Ghi chú\t\t\t":null,"layer_id":319,"fid":202,"label":"Trường THCS Hiếu Phụng","Xã/Phường":"Xã Hiếu Thành","Quận/Huyện":"Huyện Vũng Liêm"}},{"type":"Feature","geometry":{"type":"Point","coordinates":[105.97607,9.91531]},"properties":{"Mã số":229,"Trường THCS\t\t":"Trường THCS Phú Thành","Địa chỉ trường\t\t":"Ấp Phú Hứng, xã Phú Thành, huyện Trà Ôn","Cấp học\t\t\t":"THCS","Loại hình\t\t":"Công lập","Số điện thoại trường ":"02703780096","Số lớp\t":"16","Số học sinh\t":"560","Đạt CQG (MĐ)\t":"Mức độ 2","Dự kiến sáp nhập":null,"Ghi chú\t\t\t":null,"layer_id":319,"fid":229,"label":"Trường THCS Phú Thành","Xã/Phường":"Xã Tích Thiện","Quận/Huyện":"Huyện Trà Ôn"}},{"type":"Feature","geometry":{"type":"Point","coordinates":[105.9576614,9.9899397]},"properties":{"Mã số":228,"Trường THCS\t\t":"Trường THCS Lục Sĩ Thành","Địa chỉ trường\t\t":"Ấp Tân An, Xã Lục Sĩ Thành, Huyện Trà Ôn","Cấp học\t\t\t":"THCS","Loại hình\t\t":"Công lập","Số điện thoại trường ":"0273780506","Số lớp\t":"13","Số học sinh\t":"450","Đạt CQG (MĐ)\t":"Mức độ 1","Dự kiến sáp nhập":null,"Ghi chú\t\t\t":null,"layer_id":319,"fid":228,"label":"Trường THCS Lục Sĩ Thành","Xã/Phường":"Xã Tân Mỹ","Quận/Huyện":"Huyện Trà Ôn"}},{"type":"Feature","geometry":{"type":"Point","coordinates":[105.96939,10.23686]},"properties":{"Mã số":166,"Trường THCS\t\t":"Trường THCS Nguyễn Trãi","Địa chỉ trường\t\t":"Số 59, Mậu Thân, Phường 3, thành phố Vĩnh Long","Cấp học\t\t\t":"THCS","Loại hình\t\t":"Công lập","Số điện thoại trường ":"02703822091","Số lớp\t":"30","Số học sinh\t":"1415","Đạt CQG (MĐ)\t":"Mức độ 1","Dự kiến sáp nhập":null,"Ghi chú\t\t\t":null,"layer_id":319,"fid":166,"label":"Trường THCS Nguyễn Trãi","Xã/Phường":"Phường 3","Quận/Huyện":"Vĩnh Long"}},{"type":"Feature","geometry":{"type":"Point","coordinates":[106.00262,10.24678]},"properties":{"Mã số":182,"Trường THCS\t\t":"Trường THCS Thanh Đức","Địa chỉ trường\t\t":"ấp Thanh Sơn, xã Thanh Đức, huyện Long Hồ","Cấp học\t\t\t":"THCS","Loại hình\t\t":"Công lập","Số điện thoại trường ":"02703824248","Số lớp\t":"12","Số học sinh\t":"469","Đạt CQG (MĐ)\t":"Mức độ 1","Dự kiến sáp nhập":null,"Ghi chú\t\t\t":null,"layer_id":319,"fid":182,"label":"Trường THCS Thanh Đức","Xã/Phường":"Phường Thanh Đức","Quận/Huyện":"Huyện Long Hồ"}},{"type":"Feature","geometry":{"type":"Point","coordinates":[105.9603,10.25194]},"properties":{"Mã số":164,"Trường THCS\t\t":"Trường THCS Lê Quí Đôn","Địa chỉ trường\t\t":"Số 01 đường 19/8, Phường 1, thành phố Vĩnh Long","Cấp học\t\t\t":"THCS","Loại hình\t\t":"Công lập","Số điện thoại trường ":"02703822496","Số lớp\t":"44","Số học sinh\t":"1800","Đạt CQG (MĐ)\t":" ","Dự kiến sáp nhập":null,"Ghi chú\t\t\t":null,"layer_id":319,"fid":164,"label":"Trường THCS Lê Quí Đôn","Xã/Phường":"Phường 2","Quận/Huyện":"Vĩnh Long"}},{"type":"Feature","geometry":{"type":"Point","coordinates":[105.8621,10.04381]},"properties":{"Mã số":233,"Trường THCS\t\t":"Trường THCS  Đông Bình","Địa chỉ trường\t\t":"Ấp Đông Hậu, xã Đông Bình, thị xã Bình Minh","Cấp học\t\t\t":"THCS","Loại hình\t\t":"Công lập","Số điện thoại trường ":"02703890990","Số lớp\t":"24","Số học sinh\t":"939","Đạt CQG (MĐ)\t":" Mức độ 1","Dự kiến sáp nhập":null,"Ghi chú\t\t\t":null,"layer_id":319,"fid":233,"label":"Trường THCS  Đông Bình","Xã/Phường":"Xã Đông Thạnh","Quận/Huyện":"Thị xã Bình Minh"}},{"type":"Feature","geometry":{"type":"Point","coordinates":[106.02343,10.15228]},"properties":{"Mã số":177,"Trường THCS\t\t":"Trường THCS Long An","Địa chỉ trường\t\t":"Ấp An Hiệp, xã Long An, huyện Long Hồ","Cấp học\t\t\t":"THCS","Loại hình\t\t":"Công lập","Số điện thoại trường ":"02703946223","Số lớp\t":"16","Số học sinh\t":"670","Đạt CQG (MĐ)\t":"Mức độ 1","Dự kiến sáp nhập":null,"Ghi chú\t\t\t":null,"layer_id":319,"fid":177,"label":"Trường THCS Long An","Xã/Phường":"Xã Long An","Quận/Huyện":"Huyện Long Hồ"}},{"type":"Feature","geometry":{"type":"Point","coordinates":[106.01155,10.02328]},"properties":{"Mã số":226,"Trường THCS\t\t":"Trường THCS Trà Côn","Địa chỉ trường\t\t":"Ấp Trà Ngoa, xã Trà Côn, huyện Trà Ôn","Cấp học\t\t\t":"THCS","Loại hình\t\t":"Công lập","Số điện thoại trường ":"02703723154","Số lớp\t":"18","Số học sinh\t":"588","Đạt CQG (MĐ)\t":"Mức độ 1","Dự kiến sáp nhập":null,"Ghi chú\t\t\t":null,"layer_id":319,"fid":226,"label":"Trường THCS Trà Côn","Xã/Phường":"Xã Trà Côn","Quận/Huyện":"Huyện Trà Ôn"}},{"type":"Feature","geometry":{"type":"Point","coordinates":[106.0508778,9.9486969]},"properties":{"Mã số":220,"Trường THCS\t\t":"Trường THCS Thuận Thới","Địa chỉ trường\t\t":"Ấp Cống Đá, xã  Thuận Thới,  huyện Trà Ôn","Cấp học\t\t\t":"THCS","Loại hình\t\t":"Công lập","Số điện thoại trường ":"02703884251","Số lớp\t":"20","Số học sinh\t":"800","Đạt CQG (MĐ)\t":"Mức độ 1","Dự kiến sáp nhập":null,"Ghi chú\t\t\t":null,"layer_id":319,"fid":220,"label":"Trường THCS Thuận Thới","Xã/Phường":"Xã Thuận Thới","Quận/Huyện":"Huyện Trà Ôn"}},{"type":"Feature","geometry":{"type":"Point","coordinates":[106.00517,9.95287]},"properties":{"Mã số":218,"Trường THCS\t\t":"Trường THCS Thị trấn Trà Ôn","Địa chỉ trường\t\t":"Khu 2, Thị trấn Trà Ôn, huyện Trà Ôn","Cấp học\t\t\t":"THCS","Loại hình\t\t":"Công lập","Số điện thoại trường ":"02703770367","Số lớp\t":"8","Số học sinh\t":"300","Đạt CQG (MĐ)\t":"Mức độ 1","Dự kiến sáp nhập":null,"Ghi chú\t\t\t":null,"layer_id":319,"fid":218,"label":"Trường THCS Thị trấn Trà Ôn","Xã/Phường":"Xã Vĩnh Xuân","Quận/Huyện":"Huyện Trà Ôn"}},{"type":"Feature","geometry":{"type":"Point","coordinates":[105.966084475,10.1180608]},"properties":{"Mã số":217,"Trường THCS\t\t":"Trường THCS Loan Mỹ","Địa chỉ trường\t\t":"Ấp Sóc Rừng, xã Loan Mỹ, huyện Tam Bình","Cấp học\t\t\t":"THCS","Loại hình\t\t":"Công lập","Số điện thoại trường ":"02703715035","Số lớp\t":"42","Số học sinh\t":"1680","Đạt CQG (MĐ)\t":"Mức độ 2","Dự kiến sáp nhập":null,"Ghi chú\t\t\t":null,"layer_id":319,"fid":217,"label":"Trường THCS Loan Mỹ","Xã/Phường":"Xã Hậu Lộc","Quận/Huyện":"Huyện Tam Bình"}},{"type":"Feature","geometry":{"type":"Point","coordinates":[105.99286,10.0629]},"properties":{"Mã số":211,"Trường THCS\t\t":"Trường THCS Hòa Lộc","Địa chỉ trường\t\t":"Ấp 2, xã Hòa Lộc, huyện Tam Bình","Cấp học\t\t\t":"THCS","Loại hình\t\t":"Công lập","Số điện thoại trường ":"02702215992","Số lớp\t":"14","Số học sinh\t":"516","Đạt CQG (MĐ)\t":null,"Dự kiến sáp nhập":null,"Ghi chú\t\t\t":null,"layer_id":319,"fid":211,"label":"Trường THCS Hòa Lộc","Xã/Phường":"Xã Hòa Lộc","Quận/Huyện":"Huyện Tam Bình"}},{"type":"Feature","geometry":{"type":"Point","coordinates":[106.013638581,10.096493203]},"properties":{"Mã số":212,"Trường THCS\t\t":"Trường THCS Hòa Hiệp","Địa chỉ trường\t\t":"ấp 4, xã Hòa Hiệp, huyện Tam Bình ","Cấp học\t\t\t":"THCS ","Loại hình\t\t":"Công lập ","Số điện thoại trường ":"02706544449","Số lớp\t":"7","Số học sinh\t":"213","Đạt CQG (MĐ)\t":null,"Dự kiến sáp nhập":null,"Ghi chú\t\t\t":null,"layer_id":319,"fid":212,"label":"Trường THCS Hòa Hiệp","Xã/Phường":"Xã Hòa Lộc","Quận/Huyện":"Huyện Tam Bình"}},{"type":"Feature","geometry":{"type":"Point","coordinates":[105.933751849,10.039590717]},"properties":{"Mã số":215,"Trường THCS\t\t":"Trường THCS Bình Ninh","Địa chỉ trường\t\t":"ấp An Phú Tân, xã Bình Ninh, huyện Tam Bình ","Cấp học\t\t\t":"THCS","Loại hình\t\t":"Công lập ","Số điện thoại trường ":"02702215954","Số lớp\t":"16","Số học sinh\t":"570","Đạt CQG (MĐ)\t":"Mức độ 2","Dự kiến sáp nhập":null,"Ghi chú\t\t\t":null,"layer_id":319,"fid":215,"label":"Trường THCS Bình Ninh","Xã/Phường":"Xã Loan Mỹ","Quận/Huyện":"Huyện Tam Bình"}},{"type":"Feature","geometry":{"type":"Point","coordinates":[105.962027,10.019916]},"properties":{"Mã số":213,"Trường THCS\t\t":"Trường THCS Cái Ngang","Địa chỉ trường\t\t":"Ấp 6 - xã Hậu Lộc - huyện Tam Bình - ","Cấp học\t\t\t":"THCS ","Loại hình\t\t":"Công lập ","Số điện thoại trường ":"02703718039","Số lớp\t":"38","Số học sinh\t":"1530","Đạt CQG (MĐ)\t":null,"Dự kiến sáp nhập":null,"Ghi chú\t\t\t":null,"layer_id":319,"fid":213,"label":"Trường THCS Cái Ngang","Xã/Phường":"Xã Loan Mỹ","Quận/Huyện":"Huyện Tam Bình"}},{"type":"Feature","geometry":{"type":"Point","coordinates":[105.909155842,10.01993508]},"properties":{"Mã số":216,"Trường THCS\t\t":"Trường THCS Ngãi Tứ             ","Địa chỉ trường\t\t":"Ấp An Phong, xã Ngãi Tứ, huyện Tam Bình","Cấp học\t\t\t":"THCS ","Loại hình\t\t":"Công lập ","Số điện thoại trường ":"02703720132","Số lớp\t":"15","Số học sinh\t":"526","Đạt CQG (MĐ)\t":"Mức độ 2","Dự kiến sáp nhập":null,"Ghi chú\t\t\t":null,"layer_id":319,"fid":216,"label":"Trường THCS Ngãi Tứ             ","Xã/Phường":"Xã Ngãi Tứ","Quận/Huyện":"Huyện Tam Bình"}},{"type":"Feature","geometry":{"type":"Point","coordinates":[105.730176,10.128944]},"properties":{"Mã số":237,"Trường THCS\t\t":"Trường THCS Thành Lợi","Địa chỉ trường\t\t":"Khóm Thành Tâm, thị trấn Tân Quới, huyện Bình Tân","Cấp học\t\t\t":"THCS","Loại hình\t\t":"Công lập","Số điện thoại trường ":"02703890202","Số lớp\t":"37","Số học sinh\t":"1461","Đạt CQG (MĐ)\t":" ","Dự kiến sáp nhập":null,"Ghi chú\t\t\t":null,"layer_id":319,"fid":237,"label":"Trường THCS Thành Lợi","Xã/Phường":"Xã Tân Bình","Quận/Huyện":"Huyện Bình Tân"}},{"type":"Feature","geometry":{"type":"Point","coordinates":[106.009,10.27872]},"properties":{"Mã số":174,"Trường THCS\t\t":"Trường THCS Đồng Phú","Địa chỉ trường\t\t":"ấp Phú Mỹ 2, xã Đồng Phú, huyện Long Hồ","Cấp học\t\t\t":"THCS","Loại hình\t\t":"Công lập","Số điện thoại trường ":"02703859347","Số lớp\t":"15","Số học sinh\t":"615","Đạt CQG (MĐ)\t":"Mức độ 1","Dự kiến sáp nhập":null,"Ghi chú\t\t\t":null,"layer_id":319,"fid":174,"label":"Trường THCS Đồng Phú","Xã/Phường":"Xã Bình Hòa Phước","Quận/Huyện":"Huyện Long Hồ"}},{"type":"Feature","geometry":{"type":"Point","coordinates":[106.04351,9.99861]},"properties":{"Mã số":221,"Trường THCS\t\t":"Trường THCS Hựu Thành A","Địa chỉ trường\t\t":"Ấp Khu Phố, xã Hựu Thành, huyện Trà Ôn ","Cấp học\t\t\t":"THCS","Loại hình\t\t":"Công lập","Số điện thoại trường ":"02703889215","Số lớp\t":"8","Số học sinh\t":"325","Đạt CQG (MĐ)\t":"Mức độ 1","Dự kiến sáp nhập":null,"Ghi chú\t\t\t":null,"layer_id":319,"fid":221,"label":"Trường THCS Hựu Thành A","Xã/Phường":"Xã Thới Hòa","Quận/Huyện":"Huyện Trà Ôn"}},{"type":"Feature","geometry":{"type":"Point","coordinates":[106.06368,10.11787]},"properties":{"Mã số":210,"Trường THCS\t\t":"Trường THCS Mỹ Thạnh Trung","Địa chỉ trường\t\t":"Ấp Mỹ Trung 1, xã Mỹ Thạnh Trung, huyện Tam Bình ","Cấp học\t\t\t":"THCS ","Loại hình\t\t":"Công lập","Số điện thoại trường ":"02703714078","Số lớp\t":"14","Số học sinh\t":"516","Đạt CQG (MĐ)\t":" ","Dự kiến sáp nhập":null,"Ghi chú\t\t\t":null,"layer_id":319,"fid":210,"label":"Trường THCS Mỹ Thạnh Trung","Xã/Phường":"Xã Hòa Thạnh","Quận/Huyện":"Huyện Tam Bình"}},{"type":"Feature","geometry":{"type":"Point","coordinates":[105.777217493,10.171531439]},"properties":{"Mã số":243,"Trường THCS\t\t":"Trường THCS Thành Trung","Địa chỉ trường\t\t":"Ấp Thành Thuận, xã Thành Trung, huyện Bình Tân","Cấp học\t\t\t":"THCS","Loại hình\t\t":"Công lập","Số điện thoại trường ":"02703762431","Số lớp\t":"14","Số học sinh\t":"543","Đạt CQG (MĐ)\t":"Mức độ 2","Dự kiến sáp nhập":null,"Ghi chú\t\t\t":null,"layer_id":319,"fid":243,"label":"Trường THCS Thành Trung","Xã/Phường":"Xã Tân Thành","Quận/Huyện":"Huyện Bình Tân"}},{"type":"Feature","geometry":{"type":"Point","coordinates":[105.70686,10.15046]},"properties":{"Mã số":242,"Trường THCS\t\t":"Trường THCS Tân Thành","Địa chỉ trường\t\t":"Ấp Tân Lập, xã Tân Thành, huyện Bình Tân","Cấp học\t\t\t":"THCS","Loại hình\t\t":"Công lập","Số điện thoại trường ":"02703763234","Số lớp\t":"8","Số học sinh\t":"286","Đạt CQG (MĐ)\t":"Mức độ 2","Dự kiến sáp nhập":null,"Ghi chú\t\t\t":null,"layer_id":319,"fid":242,"label":"Trường THCS Tân Thành","Xã/Phường":"Xã Tân An Thạnh","Quận/Huyện":"Huyện Bình Tân"}},{"type":"Feature","geometry":{"type":"Point","coordinates":[105.9976,10.31024]},"properties":{"Mã số":171,"Trường THCS\t\t":"Trường THCS Nguyễn Đình Chiểu","Địa chỉ trường\t\t":"Quốc lộ 80, khóm Tân Phú, phường Tân Hòa, thành phố Vĩnh Long","Cấp học\t\t\t":"THCS","Loại hình\t\t":"Công lập","Số điện thoại trường ":"02703824005","Số lớp\t":"21","Số học sinh\t":"880","Đạt CQG (MĐ)\t":"Mức độ 1","Dự kiến sáp nhập":null,"Ghi chú\t\t\t":null,"layer_id":319,"fid":171,"label":"Trường THCS Nguyễn Đình Chiểu","Xã/Phường":"Phường Tân Hòa","Quận/Huyện":"Vĩnh Long"}},{"type":"Feature","geometry":{"type":"Point","coordinates":[105.78653,10.147295]},"properties":{"Mã số":240,"Trường THCS\t\t":"Trường THCS Tân Lược","Địa chỉ trường\t\t":"ẤP Tân Lộc, xã Tân Lược, huyện Bình Tân","Cấp học\t\t\t":"THCS","Loại hình\t\t":"Công lập","Số điện thoại trường ":"02703766032","Số lớp\t":"24","Số học sinh\t":"850","Đạt CQG (MĐ)\t":null,"Dự kiến sáp nhập":null,"Ghi chú\t\t\t":null,"layer_id":319,"fid":240,"label":"Trường THCS Tân Lược","Xã/Phường":"Xã Thành Trung","Quận/Huyện":"Huyện Bình Tân"}},{"type":"Feature","geometry":{"type":"Point","coordinates":[105.822127,10.131998]},"properties":{"Mã số":241,"Trường THCS\t\t":"Trường THCS Tân An Thạnh","Địa chỉ trường\t\t":"Ấp An Thới, xã Tân An Thạnh, huyện Bình Tân","Cấp học\t\t\t":"THCS","Loại hình\t\t":"Công lập","Số điện thoại trường ":"02703756822","Số lớp\t":"15","Số học sinh\t":"560","Đạt CQG (MĐ)\t":"Mức độ 1","Dự kiến sáp nhập":null,"Ghi chú\t\t\t":null,"layer_id":319,"fid":241,"label":"Trường THCS Tân An Thạnh","Xã/Phường":"Xã Nguyễn Văn Thảnh","Quận/Huyện":"Huyện Bình Tân"}},{"type":"Feature","geometry":{"type":"Point","coordinates":[105.95548,10.23565]},"properties":{"Mã số":169,"Trường THCS\t\t":"Trường THCS Lương Thế Vinh","Địa chỉ trường\t\t":"52/1 Đinh Tiên Hoàng, Phường 8, thành phố Vĩnh Long","Cấp học\t\t\t":"THCS","Loại hình\t\t":"Công lập","Số điện thoại trường ":"02703824365","Số lớp\t":"16","Số học sinh\t":"650","Đạt CQG (MĐ)\t":"Mức độ 1","Dự kiến sáp nhập":null,"Ghi chú\t\t\t":null,"layer_id":319,"fid":169,"label":"Trường THCS Lương Thế Vinh","Xã/Phường":"Phường 8","Quận/Huyện":"Vĩnh Long"}},{"type":"Feature","geometry":{"type":"Point","coordinates":[105.98367,10.24246]},"properties":{"Mã số":167,"Trường THCS\t\t":"Trường THCS Trần Phú","Địa chỉ trường\t\t":"26/12A Khóm 3 đường Trần Phú, Phường 4, thành phố Vĩnh Long","Cấp học\t\t\t":"THCS","Loại hình\t\t":"Công lập","Số điện thoại trường ":"02703822384","Số lớp\t":"16","Số học sinh\t":"650","Đạt CQG (MĐ)\t":"Mức độ 1","Dự kiến sáp nhập":null,"Ghi chú\t\t\t":null,"layer_id":319,"fid":167,"label":"Trường THCS Trần Phú","Xã/Phường":"Phường 4","Quận/Huyện":"Vĩnh Long"}},{"type":"Feature","geometry":{"type":"Point","coordinates":[106.19654,10.06645]},"properties":{"Mã số":194,"Trường THCS\t\t":"Trường THCS Tân Long Hội","Địa chỉ trường\t\t":"Ấp Thanh Phong, xã Tân Long Hội, huyện Mang Thít","Cấp học\t\t\t":"THCS","Loại hình\t\t":"Công lập","Số điện thoại trường ":"02703941067","Số lớp\t":"11","Số học sinh\t":"345","Đạt CQG (MĐ)\t":" Mức độ 1","Dự kiến sáp nhập":null,"Ghi chú\t\t\t":null,"layer_id":319,"fid":194,"label":"Trường THCS Tân Long Hội","Xã/Phường":"Xã Tân An Hội","Quận/Huyện":"Huyện Mang Thít"}},{"type":"Feature","geometry":{"type":"Point","coordinates":[106.094208556,10.141574217]},"properties":{"Mã số":191,"Trường THCS\t\t":"Trường THCS Nhơn Phú","Địa chỉ trường\t\t":"Ấp Phú Thọ, xã Nhơn Phú, huyện Mang Thít","Cấp học\t\t\t":"THCS","Loại hình\t\t":"Công lập","Số điện thoại trường ":"02703849011","Số lớp\t":"16","Số học sinh\t":"539","Đạt CQG (MĐ)\t":null,"Dự kiến sáp nhập":null,"Ghi chú\t\t\t":null,"layer_id":319,"fid":191,"label":"Trường THCS Nhơn Phú","Xã/Phường":"Xã Tân An Hội","Quận/Huyện":"Huyện Mang Thít"}},{"type":"Feature","geometry":{"type":"Point","coordinates":[106.0259848,10.169804]},"properties":{"Mã số":188,"Trường THCS\t\t":"Trường THCS Hòa Tịnh","Địa chỉ trường\t\t":"Ấp Bình Tịnh, xã Hòa Tịnh, huyện Mang Thít","Cấp học\t\t\t":"THCS","Loại hình\t\t":"Công lập","Số điện thoại trường ":"02703940346","Số lớp\t":"11","Số học sinh\t":"370","Đạt CQG (MĐ)\t":"Mức độ 1","Dự kiến sáp nhập":null,"Ghi chú\t\t\t":null,"layer_id":319,"fid":188,"label":"Trường THCS Hòa Tịnh","Xã/Phường":"Xã Bình Phước","Quận/Huyện":"Huyện Mang Thít"}},{"type":"Feature","geometry":{"type":"Point","coordinates":[106.01709,10.20326]},"properties":{"Mã số":187,"Trường THCS\t\t":"Trường THCS Chánh An","Địa chỉ trường\t\t":"Ấp Mỹ Chánh, xã Chánh An, huyện Mang Thít","Cấp học\t\t\t":"THCS","Loại hình\t\t":"Công lập","Số điện thoại trường ":"02703933471","Số lớp\t":"11","Số học sinh\t":"370","Đạt CQG (MĐ)\t":" Mức độ 1","Dự kiến sáp nhập":null,"Ghi chú\t\t\t":null,"layer_id":319,"fid":187,"label":"Trường THCS Chánh An","Xã/Phường":"Xã Hòa Tịnh","Quận/Huyện":"Huyện Mang Thít"}},{"type":"Feature","geometry":{"type":"Point","coordinates":[106.047963302,10.240815808]},"properties":{"Mã số":192,"Trường THCS\t\t":"Trường THCS Tân An Hội","Địa chỉ trường\t\t":"Ấp Tân An, xã Tân An Hội, huyện Mang Thít","Cấp học\t\t\t":"THCS","Loại hình\t\t":"Công lập","Số điện thoại trường ":"02706293099","Số lớp\t":"12","Số học sinh\t":"450","Đạt CQG (MĐ)\t":"Mức độ 1","Dự kiến sáp nhập":null,"Ghi chú\t\t\t":null,"layer_id":319,"fid":192,"label":"Trường THCS Tân An Hội","Xã/Phường":"Xã Mỹ An","Quận/Huyện":"Huyện Mang Thít"}},{"type":"Feature","geometry":{"type":"Point","coordinates":[106.041237589,10.166113674]},"properties":{"Mã số":193,"Trường THCS\t\t":"Trường THCS Tân Long","Địa chỉ trường\t\t":"Ấp Thân Bình, xã Tân Long, huyện Mang Thít","Cấp học\t\t\t":"THCS","Loại hình\t\t":"Công lập","Số điện thoại trường ":"02703933104","Số lớp\t":"8","Số học sinh\t":"300","Đạt CQG (MĐ)\t":"Mức độ 1","Dự kiến sáp nhập":null,"Ghi chú\t\t\t":null,"layer_id":319,"fid":193,"label":"Trường THCS Tân Long","Xã/Phường":"Xã Tân Long","Quận/Huyện":"Huyện Mang Thít"}},{"type":"Feature","geometry":{"type":"Point","coordinates":[105.992046058,10.287912798]},"properties":{"Mã số":176,"Trường THCS\t\t":"Trường THCS Hoà Phú","Địa chỉ trường\t\t":"Ấp Lộc Hưng, xã Hoà Phú, huyện Long Hồ","Cấp học\t\t\t":"THCS","Loại hình\t\t":"Công lập","Số điện thoại trường ":"02703959001","Số lớp\t":"10","Số học sinh\t":"366","Đạt CQG (MĐ)\t":"Mức độ 1","Dự kiến sáp nhập":null,"Ghi chú\t\t\t":null,"layer_id":319,"fid":176,"label":"Trường THCS Hoà Phú","Xã/Phường":"Xã Hòa Ninh","Quận/Huyện":"Huyện Long Hồ"}},{"type":"Feature","geometry":{"type":"Point","coordinates":[106.0906,10.21201]},"properties":{"Mã số":190,"Trường THCS\t\t":"Trường THCS Mỹ An","Địa chỉ trường\t\t":"ấp Hòa Long, xã Mỹ An, huyện Mang Thít","Cấp học\t\t\t":"THCS","Loại hình\t\t":"Công lập","Số điện thoại trường ":"02703849431","Số lớp\t":"14","Số học sinh\t":"540","Đạt CQG (MĐ)\t":"Mức độ 1","Dự kiến sáp nhập":null,"Ghi chú\t\t\t":null,"layer_id":319,"fid":190,"label":"Trường THCS Mỹ An","Xã/Phường":"Xã Nhơn Phú","Quận/Huyện":"Huyện Mang Thít"}},{"type":"Feature","geometry":{"type":"Point","coordinates":[105.9506987,10.1595116]},"properties":{"Mã số":175,"Trường THCS\t\t":"Trường THCS Hoà Ninh","Địa chỉ trường\t\t":"Ấp Hòa Quí, xã Hòa Ninh, huyện Long Hồ","Cấp học\t\t\t":"THCS ","Loại hình\t\t":"Công lập","Số điện thoại trường ":"02703859972","Số lớp\t":"14","Số học sinh\t":"630","Đạt CQG (MĐ)\t":"Mức độ 2","Dự kiến sáp nhập":null,"Ghi chú\t\t\t":null,"layer_id":319,"fid":175,"label":"Trường THCS Hoà Ninh","Xã/Phường":"Xã Hòa Phú","Quận/Huyện":"Huyện Long Hồ"}},{"type":"Feature","geometry":{"type":"Point","coordinates":[106.1203,10.08081]},"properties":{"Mã số":203,"Trường THCS\t\t":"Trường THCS Hiếu Thành","Địa chỉ trường\t\t":"Ấp Hiếu Xuân Tây, xã Hiếu Thành, huyện Vũng Liêm","Cấp học\t\t\t":"THCS","Loại hình\t\t":"Công lập","Số điện thoại trường ":"02703990522","Số lớp\t":"10","Số học sinh\t":"336","Đạt CQG (MĐ)\t":"Mức độ 2","Dự kiến sáp nhập":null,"Ghi chú\t\t\t":null,"layer_id":319,"fid":203,"label":"Trường THCS Hiếu Thành","Xã/Phường":"Xã Hiếu Phụng","Quận/Huyện":"Huyện Vũng Liêm"}},{"type":"Feature","geometry":{"type":"Point","coordinates":[106.003626696,10.047019865]},"properties":{"Mã số":225,"Trường THCS\t\t":"Trường THCS Nhơn Bình","Địa chỉ trường\t\t":"ấp Tường Ngãi, xã Nhơn Bình, huyện Trà Ôn ","Cấp học\t\t\t":"THCS","Loại hình\t\t":"Công lập ","Số điện thoại trường ":"02703721373","Số lớp\t":"20","Số học sinh\t":"785","Đạt CQG (MĐ)\t":"Mức độ 1","Dự kiến sáp nhập":null,"Ghi chú\t\t\t":null,"layer_id":319,"fid":225,"label":"Trường THCS Nhơn Bình","Xã/Phường":"Xã Nhơn Bình","Quận/Huyện":"Huyện Trà Ôn"}},{"type":"Feature","geometry":{"type":"Point","coordinates":[106.080392449,9.961090308]},"properties":{"Mã số":224,"Trường THCS\t\t":"Trường THCS Xuân Hiệp","Địa chỉ trường\t\t":"ấp Hồi Thạnh, xã Xuân Hiệp, huyện Trà Ôn","Cấp học\t\t\t":"THCS","Loại hình\t\t":"Công lập","Số điện thoại trường ":"02703874197","Số lớp\t":"15","Số học sinh\t":"505","Đạt CQG (MĐ)\t":" Mức độ 1","Dự kiến sáp nhập":null,"Ghi chú\t\t\t":null,"layer_id":319,"fid":224,"label":"Trường THCS Xuân Hiệp","Xã/Phường":"Xã Hựu Thành","Quận/Huyện":"Huyện Trà Ôn"}},{"type":"Feature","geometry":{"type":"Point","coordinates":[106.017644895,9.990247864]},"properties":{"Mã số":223,"Trường THCS\t\t":"Trường THCS Thới Hòa","Địa chỉ trường\t\t":"ấp Ninh thuận, xã Thới Hòa, huyện Trà Ôn","Cấp học\t\t\t":"THCS","Loại hình\t\t":"Công lập","Số điện thoại trường ":"02703889016","Số lớp\t":"15","Số học sinh\t":"530","Đạt CQG (MĐ)\t":"Mức độ 1","Dự kiến sáp nhập":null,"Ghi chú\t\t\t":null,"layer_id":319,"fid":223,"label":"Trường THCS Thới Hòa","Xã/Phường":"Xã Hựu Thành","Quận/Huyện":"Huyện Trà Ôn"}},{"type":"Feature","geometry":{"type":"Point","coordinates":[105.908467669,9.955220073]},"properties":{"Mã số":227,"Trường THCS\t\t":"Trường THCS Tân Mỹ","Địa chỉ trường\t\t":"Ấp Sóc Ruộng, xã Tân Mỹ, huyện Trà Ôn ","Cấp học\t\t\t":"THCS","Loại hình\t\t":"Công lập","Số điện thoại trường ":"02703770380","Số lớp\t":"17","Số học sinh\t":"524","Đạt CQG (MĐ)\t":"Mức độ 1","Dự kiến sáp nhập":null,"Ghi chú\t\t\t":null,"layer_id":319,"fid":227,"label":"Trường THCS Tân Mỹ","Xã/Phường":"Xã Lục Sĩ Thành","Quận/Huyện":"Huyện Trà Ôn"}},{"type":"Feature","geometry":{"type":"Point","coordinates":[105.901536494,10.118563077]},"properties":{"Mã số":214,"Trường THCS\t\t":"Trường THCS Phú Thịnh","Địa chỉ trường\t\t":"ấp Phú An, xã Phú Thịnh, huyện Tam Bình","Cấp học\t\t\t":"THCS","Loại hình\t\t":"Công lập ","Số điện thoại trường ":"02703864213","Số lớp\t":"12","Số học sinh\t":"475","Đạt CQG (MĐ)\t":"Mức độ 1","Dự kiến sáp nhập":null,"Ghi chú\t\t\t":null,"layer_id":319,"fid":214,"label":"Trường THCS Phú Thịnh","Xã/Phường":"Xã Phú Thịnh","Quận/Huyện":"Huyện Tam Bình"}},{"type":"Feature","geometry":{"type":"Point","coordinates":[105.755760152,10.10306125]},"properties":{"Mã số":239,"Trường THCS\t\t":"Trường THCS Tân Bình","Địa chỉ trường\t\t":"Ấp Tân Qui, xã Tân Bình, Huyện Bình Tân","Cấp học\t\t\t":"THCS","Loại hình\t\t":"Công lập","Số điện thoại trường ":"02703758559","Số lớp\t":"27","Số học sinh\t":"1024","Đạt CQG (MĐ)\t":"Mức độ 2","Dự kiến sáp nhập":null,"Ghi chú\t\t\t":null,"layer_id":319,"fid":239,"label":"Trường THCS Tân Bình","Xã/Phường":"Xã Thành Đông","Quận/Huyện":"Huyện Bình Tân"}},{"type":"Feature","geometry":{"type":"Point","coordinates":[105.94276,10.22561]},"properties":{"Mã số":179,"Trường THCS\t\t":"Trường THCS Lộc Hoà","Địa chỉ trường\t\t":"Ấp Phước Long, xã Lộc Hòa, huyện Long Hồ","Cấp học\t\t\t":"THCS","Loại hình\t\t":"Công lập","Số điện thoại trường ":"02703811842","Số lớp\t":"12","Số học sinh\t":"480","Đạt CQG (MĐ)\t":"Mức độ 1","Dự kiến sáp nhập":null,"Ghi chú\t\t\t":null,"layer_id":319,"fid":179,"label":"Trường THCS Lộc Hoà","Xã/Phường":"Phường Tân Hạnh","Quận/Huyện":"Huyện Long Hồ"}},{"type":"Feature","geometry":{"type":"Point","coordinates":[105.97797,10.22614]},"properties":{"Mã số":178,"Trường THCS\t\t":"Trường THCS Long Phước","Địa chỉ trường\t\t":"Ấp Phước Ngươn B, xã Long Phước, huyện Long Hồ","Cấp học\t\t\t":"THCS","Loại hình\t\t":"Công lập","Số điện thoại trường ":"02703851118\n\n","Số lớp\t":"20","Số học sinh\t":"800","Đạt CQG (MĐ)\t":"Mức độ 1","Dự kiến sáp nhập":null,"Ghi chú\t\t\t":null,"layer_id":319,"fid":178,"label":"Trường THCS Long Phước","Xã/Phường":"Xã Long Phước","Quận/Huyện":"Huyện Long Hồ"}},{"type":"Feature","geometry":{"type":"Point","coordinates":[106.123949,10.185053]},"properties":{"Mã số":183,"Trường THCS\t\t":"Trường THCS Thạnh Quới","Địa chỉ trường\t\t":"Ấp Thạnh Phú, xã Thạnh Quới, huyện Long Hồ","Cấp học\t\t\t":"THCS","Loại hình\t\t":"Công lập","Số điện thoại trường ":"0984513696","Số lớp\t":"12","Số học sinh\t":"469","Đạt CQG (MĐ)\t":"Mức độ 1","Dự kiến sáp nhập":null,"Ghi chú\t\t\t":null,"layer_id":319,"fid":183,"label":"Trường THCS Thạnh Quới","Xã/Phường":"Xã Thạnh Quới","Quận/Huyện":"Huyện Long Hồ"}},{"type":"Feature","geometry":{"type":"Point","coordinates":[105.833844,10.04198]},"properties":{"Mã số":234,"Trường THCS\t\t":"Trường THCS  Thuận An","Địa chỉ trường\t\t":"Ấp Thuận Thành, xã Thuận An, thị xã Bình Minh","Cấp học\t\t\t":"THCS","Loại hình\t\t":"Công lập","Số điện thoại trường ":"02703767255","Số lớp\t":"20","Số học sinh\t":"790","Đạt CQG (MĐ)\t":"Mức độ 2","Dự kiến sáp nhập":null,"Ghi chú\t\t\t":null,"layer_id":319,"fid":234,"label":"Trường THCS  Thuận An","Xã/Phường":"Phường BÌnh Minh","Quận/Huyện":"Thị xã Bình Minh"}},{"type":"Feature","geometry":{"type":"Point","coordinates":[105.984078775,10.181587167]},"properties":{"Mã số":180,"Trường THCS\t\t":"Trường THCS Phú Đức","Địa chỉ trường\t\t":"ấp Phú Thạnh, xã Phú Đức, huyện Long Hồ","Cấp học\t\t\t":"THCS ","Loại hình\t\t":"Công lập ","Số điện thoại trường ":"0702219099","Số lớp\t":"13","Số học sinh\t":"513","Đạt CQG (MĐ)\t":"Mức độ 1","Dự kiến sáp nhập":null,"Ghi chú\t\t\t":null,"layer_id":319,"fid":180,"label":"Trường THCS Phú Đức","Xã/Phường":"Xã Phú Đức","Quận/Huyện":"Huyện Long Hồ"}},{"type":"Feature","geometry":{"type":"Point","coordinates":[105.9400862,10.1952802]},"properties":{"Mã số":181,"Trường THCS\t\t":"Trường THCS Tân Hạnh","Địa chỉ trường\t\t":"ấp Tân Thới, xã Tân Hạnh, huyện Long Hồ ","Cấp học\t\t\t":"THCS ","Loại hình\t\t":"Công lập ","Số điện thoại trường ":"02702210252","Số lớp\t":"20","Số học sinh\t":"800","Đạt CQG (MĐ)\t":"Mức độ 1","Dự kiến sáp nhập":null,"Ghi chú\t\t\t":null,"layer_id":319,"fid":181,"label":"Trường THCS Tân Hạnh","Xã/Phường":"Xã Lộc Hòa","Quận/Huyện":"Huyện Long Hồ"}},{"type":"Feature","geometry":{"type":"Point","coordinates":[105.929995685,10.267283103]},"properties":{"Mã số":168,"Trường THCS\t\t":"Trường THCS Cao Thắng","Địa chỉ trường\t\t":"H79 đường 14 tháng 9, Phường 5, thành phố Vĩnh Long","Cấp học\t\t\t":"THCS","Loại hình\t\t":"Công lập","Số điện thoại trường ":"02703822791","Số lớp\t":"21","Số học sinh\t":"836","Đạt CQG (MĐ)\t":"Mức độ 1","Dự kiến sáp nhập":null,"Ghi chú\t\t\t":null,"layer_id":319,"fid":168,"label":"Trường THCS Cao Thắng","Xã/Phường":"Phường Tân Ngãi","Quận/Huyện":"Vĩnh Long"}},{"type":"Feature","geometry":{"type":"Point","coordinates":[105.97095,10.25264]},"properties":{"Mã số":165,"Trường THCS\t\t":"Trường THCS Nguyễn Trường Tộ","Địa chỉ trường\t\t":"Khóm 4, Phường 2, thành phố Vĩnh Long","Cấp học\t\t\t":"THCS","Loại hình\t\t":"Công lập","Số điện thoại trường ":"02703822995","Số lớp\t":"32","Số học sinh\t":"1440","Đạt CQG (MĐ)\t":"Mức độ 1","Dự kiến sáp nhập":null,"Ghi chú\t\t\t":null,"layer_id":319,"fid":165,"label":"Trường THCS Nguyễn Trường Tộ","Xã/Phường":"Phường 1","Quận/Huyện":"Vĩnh Long"}},{"type":"Feature","geometry":{"type":"Point","coordinates":[105.8103033,10.0649944]},"properties":{"Mã số":231,"Trường THCS\t\t":"Trường THCS  Lý Thái Tổ","Địa chỉ trường\t\t":"Khóm 2, Phường Cái Vồn, thị xã Bình Minh","Cấp học\t\t\t":"THCS","Loại hình\t\t":"Công lập","Số điện thoại trường ":"02703890433","Số lớp\t":"29","Số học sinh\t":"1015","Đạt CQG (MĐ)\t":"Mức độ 1","Dự kiến sáp nhập":null,"Ghi chú\t\t\t":null,"layer_id":319,"fid":231,"label":"Trường THCS  Lý Thái Tổ","Xã/Phường":"Phường Thành Phước","Quận/Huyện":"Thị xã Bình Minh"}},{"type":"Feature","geometry":{"type":"Point","coordinates":[105.8397501,10.0230029]},"properties":{"Mã số":236,"Trường THCS\t\t":"Trường THCS  Đông Thạnh","Địa chỉ trường\t\t":"Ấp Đông Thạnh A, xã Đông Thạnh, thị xã Bình Minh","Cấp học\t\t\t":"THCS","Loại hình\t\t":"Công lập","Số điện thoại trường ":"02703892073","Số lớp\t":"15","Số học sinh\t":"542","Đạt CQG (MĐ)\t":null,"Dự kiến sáp nhập":null,"Ghi chú\t\t\t":null,"layer_id":319,"fid":236,"label":"Trường THCS  Đông Thạnh","Xã/Phường":"Xã Mỹ Hòa","Quận/Huyện":"Thị xã Bình Minh"}},{"type":"Feature","geometry":{"type":"Point","coordinates":[105.994776249,10.053577831]},"properties":{"Mã số":209,"Trường THCS\t\t":"Trường THCS TT Tam Bình","Địa chỉ trường\t\t":"Khóm 2, Thị trấn Tam Bình, huyện Tam Bình ","Cấp học\t\t\t":"THCS","Loại hình\t\t":"Công lập","Số điện thoại trường ":"02703860226","Số lớp\t":"23","Số học sinh\t":"859","Đạt CQG (MĐ)\t":"Mức độ 1","Dự kiến sáp nhập":null,"Ghi chú\t\t\t":null,"layer_id":319,"fid":209,"label":"Trường THCS TT Tam Bình","Xã/Phường":"Xã Tam Bình","Quận/Huyện":"Huyện Tam Bình"}},{"type":"Feature","geometry":{"type":"Point","coordinates":[106.182582,10.1039952]},"properties":{"Mã số":198,"Trường THCS\t\t":"Trường THCS Nguyễn Chí Trai","Địa chỉ trường\t\t":"Ấp Phú Tiên, xã Trung Nghĩa, huyện Vũng Liêm","Cấp học\t\t\t":"THCS","Loại hình\t\t":"Công lập","Số điện thoại trường ":"02703870418","Số lớp\t":"13","Số học sinh\t":"445","Đạt CQG (MĐ)\t":"Mức độ 1","Dự kiến sáp nhập":null,"Ghi chú\t\t\t":null,"layer_id":319,"fid":198,"label":"Trường THCS Nguyễn Chí Trai","Xã/Phường":"Xã Trung Thành Tây","Quận/Huyện":"Huyện Vũng Liêm"}},{"type":"Feature","geometry":{"type":"Point","coordinates":[105.9249783,9.9644276]},"properties":{"Mã số":219,"Trường THCS\t\t":"Trường THCS Thiện Mỹ","Địa chỉ trường\t\t":"Ấp Mỹ Trung, xã Thiện Mỹ, huyện Trà Ôn","Cấp học\t\t\t":"THCS","Loại hình\t\t":"Công lập","Số điện thoại trường ":"02703776679","Số lớp\t":"30","Số học sinh\t":"1200","Đạt CQG (MĐ)\t":"Mức độ 1","Dự kiến sáp nhập":null,"Ghi chú\t\t\t":null,"layer_id":319,"fid":219,"label":"Trường THCS Thiện Mỹ","Xã/Phường":"Xã Trà Ôn","Quận/Huyện":"Huyện Trà Ôn"}},{"type":"Feature","geometry":{"type":"Point","coordinates":[105.98256,10.24971]},"properties":{"Mã số":170,"Trường THCS\t\t":"Trường THCS Nguyễn Khuyến","Địa chỉ trường\t\t":"126 Khóm Tân Thuận An, phường Tân Ngãi, thành phố Vĩnh Long ","Cấp học\t\t\t":"THCS","Loại hình\t\t":"Công lập","Số điện thoại trường ":"02703822050","Số lớp\t":"27","Số học sinh\t":"1043","Đạt CQG (MĐ)\t":"Mức độ 1","Dự kiến sáp nhập":null,"Ghi chú\t\t\t":null,"layer_id":319,"fid":170,"label":"Trường THCS Nguyễn Khuyến","Xã/Phường":"Phường 5","Quận/Huyện":"Vĩnh Long"}},{"type":"Feature","geometry":{"type":"Point","coordinates":[106.11764,10.16069]},"properties":{"Mã số":200,"Trường THCS\t\t":"Trường THCS Nguyễn Thị Thu","Địa chỉ trường\t\t":"Ấp Vàm An, xã Quới An, huyện Vũng Liêm","Cấp học\t\t\t":"THCS","Loại hình\t\t":"Công lập","Số điện thoại trường ":"02703970462","Số lớp\t":"11","Số học sinh\t":"390","Đạt CQG (MĐ)\t":"Mức độ 2","Dự kiến sáp nhập":null,"Ghi chú\t\t\t":null,"layer_id":319,"fid":200,"label":"Trường THCS Nguyễn Thị Thu","Xã/Phường":"Xã Tân Quới Trung","Quận/Huyện":"Huyện Vũng Liêm"}},{"type":"Feature","geometry":{"type":"Point","coordinates":[106.206350875,10.141923989]},"properties":{"Mã số":206,"Trường THCS\t\t":"Trường THCS Trung Hiếu","Địa chỉ trường\t\t":"ấp Trung điền, xã Trung hiếu ,huyện Vũng Liêm ","Cấp học\t\t\t":"THCS","Loại hình\t\t":"Công lập","Số điện thoại trường ":"02703870360","Số lớp\t":"17","Số học sinh\t":"526","Đạt CQG (MĐ)\t":"Mức độ 1","Dự kiến sáp nhập":null,"Ghi chú\t\t\t":null,"layer_id":319,"fid":206,"label":"Trường THCS Trung Hiếu","Xã/Phường":"Xã Quới Thiện","Quận/Huyện":"Huyện Vũng Liêm"}},{"type":"Feature","geometry":{"type":"Point","coordinates":[105.78022,10.08309]},"properties":{"Mã số":238,"Trường THCS\t\t":"Trường THCS Thành Đông","Địa chỉ trường\t\t":"Khóm Thành Quới, thị trấn Tân Quới, huyện Bình Tân","Cấp học\t\t\t":"THCS","Loại hình\t\t":"Công lập","Số điện thoại trường ":"02703760143","Số lớp\t":"14","Số học sinh\t":"524","Đạt CQG (MĐ)\t":"Mức độ 2","Dự kiến sáp nhập":null,"Ghi chú\t\t\t":null,"layer_id":319,"fid":238,"label":"Trường THCS Thành Đông","Xã/Phường":"Xã Thành Lợi","Quận/Huyện":"Huyện Bình Tân"}},{"type":"Feature","geometry":{"type":"Point","coordinates":[106.18908,10.08879]},"properties":{"Mã số":195,"Trường THCS\t\t":"Trường THCS TT Cái Nhum","Địa chỉ trường\t\t":"Khóm II, TT Cái Nhum, huyện Mang Thít.","Cấp học\t\t\t":"THCS","Loại hình\t\t":"Công lập","Số điện thoại trường ":"02703930402","Số lớp\t":"30","Số học sinh\t":"1165","Đạt CQG (MĐ)\t":"Mức độ 1","Dự kiến sáp nhập":null,"Ghi chú\t\t\t":null,"layer_id":319,"fid":195,"label":"Trường THCS TT Cái Nhum","Xã/Phường":"Xã Cái Nhum","Quận/Huyện":"Huyện Mang Thít"}},{"type":"Feature","geometry":{"type":"Point","coordinates":[106.0057383,10.2128789]},"properties":{"Mã số":189,"Trường THCS\t\t":"Trường THCS Long Mỹ","Địa chỉ trường\t\t":"Ấp Long Khánh, xã Long Mỹ, huyện Mang Thít","Cấp học\t\t\t":"THCS","Loại hình\t\t":"Công lập","Số điện thoại trường ":"02703940545","Số lớp\t":"10","Số học sinh\t":"342","Đạt CQG (MĐ)\t":" Mức độ 1","Dự kiến sáp nhập":null,"Ghi chú\t\t\t":null,"layer_id":319,"fid":189,"label":"Trường THCS Long Mỹ","Xã/Phường":"Xã Long Mỹ","Quận/Huyện":"Huyện Mang Thít"}},{"type":"Feature","geometry":{"type":"Point","coordinates":[106.16168,10.1673]},"properties":{"Mã số":186,"Trường THCS\t\t":"Trường THCS Bình Phước","Địa chỉ trường\t\t":"ấp Phước Lộc Thọ, xã Bình Phước, huyện Mang Thít","Cấp học\t\t\t":"THCS","Loại hình\t\t":"Công lập","Số điện thoại trường ":"02703850771","Số lớp\t":"12","Số học sinh\t":"420","Đạt CQG (MĐ)\t":"Mức độ 1","Dự kiến sáp nhập":null,"Ghi chú\t\t\t":null,"layer_id":319,"fid":186,"label":"Trường THCS Bình Phước","Xã/Phường":"Xã Chánh An","Quận/Huyện":"Huyện Mang Thít"}},{"type":"Feature","geometry":{"type":"Point","coordinates":[106.002044346,10.202739522]},"properties":{"Mã số":184,"Trường THCS\t\t":"Trường THCS Thị trấn Long Hồ","Địa chỉ trường\t\t":"Khóm 6, thị trấn Long Hồ, huyện Long Hồ","Cấp học\t\t\t":"THCS","Loại hình\t\t":"Công lập","Số điện thoại trường ":"02706289489","Số lớp\t":"28","Số học sinh\t":"1130","Đạt CQG (MĐ)\t":" Mức độ 1","Dự kiến sáp nhập":null,"Ghi chú\t\t\t":null,"layer_id":319,"fid":184,"label":"Trường THCS Thị trấn Long Hồ","Xã/Phường":"Xã Long Hồ","Quận/Huyện":"Huyện Long Hồ"}},{"type":"Feature","geometry":{"type":"Point","coordinates":[105.908002,10.267988]},"properties":{"Mã số":172,"Trường THCS\t\t":"Trường THCS An Bình","Địa chỉ trường\t\t":"ấp An Thuận, xã An Bình, huyện Long Hồ","Cấp học\t\t\t":"THCS","Loại hình\t\t":"Công lập","Số điện thoại trường ":"02703858926","Số lớp\t":"13","Số học sinh\t":"510","Đạt CQG (MĐ)\t":"Mức độ 1","Dự kiến sáp nhập":null,"Ghi chú\t\t\t":null,"layer_id":319,"fid":172,"label":"Trường THCS An Bình","Xã/Phường":"Xã An Bình","Quận/Huyện":"Huyện Long Hồ"}},{"type":"Feature","geometry":{"type":"Point","coordinates":[105.964201,10.270999]},"properties":{"Mã số":173,"Trường THCS\t\t":"Trường THCS Bình Hoà Phước","Địa chỉ trường\t\t":"ấp Bình Hoà 1, xã Bình Hoà Phước, huyện Long Hồ","Cấp học\t\t\t":"THCS","Loại hình\t\t":"Công lập","Số điện thoại trường ":"02703859792","Số lớp\t":"14","Số học sinh\t":"560","Đạt CQG (MĐ)\t":"Mức độ 2","Dự kiến sáp nhập":null,"Ghi chú\t\t\t":null,"layer_id":319,"fid":173,"label":"Trường THCS Bình Hoà Phước","Xã/Phường":"Xã An Bình","Quận/Huyện":"Huyện Long Hồ"}},{"type":"Feature","geometry":{"type":"Point","coordinates":[105.826337,10.087013]},"properties":{"Mã số":235,"Trường THCS\t\t":"Trường THCS  Mỹ Hòa","Địa chỉ trường\t\t":"Ấp Mỹ Lợi, xã Mỹ Hoà, thị xã Bình Minh","Cấp học\t\t\t":"THCS","Loại hình\t\t":"Công lập","Số điện thoại trường ":"02703891158","Số lớp\t":"12","Số học sinh\t":"430","Đạt CQG (MĐ)\t":"Mức độ 3","Dự kiến sáp nhập":null,"Ghi chú\t\t\t":null,"layer_id":319,"fid":235,"label":"Trường THCS  Mỹ Hòa","Xã/Phường":null,"Quận/Huyện":"Thị xã Bình Minh"}},{"type":"Feature","geometry":{"type":"Point","coordinates":[105.879406,9.975858]},"properties":{"Mã số":232,"Trường THCS\t\t":"Trường THCS  Thành Phước","Địa chỉ trường\t\t":"Khóm 2, Phường Thành Phước, thị xã Bình Minh","Cấp học\t\t\t":"THCS","Loại hình\t\t":"Công lập","Số điện thoại trường ":"02706266135","Số lớp\t":"27","Số học sinh\t":"1200","Đạt CQG (MĐ)\t":"Mức độ 2","Dự kiến sáp nhập":null,"Ghi chú\t\t\t":null,"layer_id":319,"fid":232,"label":"Trường THCS  Thành Phước","Xã/Phường":null,"Quận/Huyện":"Thị xã Bình Minh"}},{"type":"Feature","geometry":{"type":"Point","coordinates":[105.798622,10.068172]},"properties":{"Mã số":230,"Trường THCS\t\t":"Trường THCS Tích Thiện","Địa chỉ trường\t\t":"Ấp Tích Lộc, Xã Tích Thiện, Huyện Trà Ôn","Cấp học\t\t\t":"THCS","Loại hình\t\t":"Công lập","Số điện thoại trường ":"02703884230","Số lớp\t":"330","Số học sinh\t":"11170","Đạt CQG (MĐ)\t":" ","Dự kiến sáp nhập":null,"Ghi chú\t\t\t":null,"layer_id":319,"fid":230,"label":"Trường THCS Tích Thiện","Xã/Phường":null,"Quận/Huyện":"Huyện Trà Ôn"}},{"type":"Feature","geometry":{"type":"Point","coordinates":[106.05297,10.081921]},"properties":{"Mã số":222,"Trường THCS\t\t":"Trường THCS Hựu Thành B","Địa chỉ trường\t\t":"Ấp Vĩnh Hòa, xã Hựu Thành, huyện Trà Ôn","Cấp học\t\t\t":"THCS","Loại hình\t\t":"Công lập","Số điện thoại trường ":"02703884222","Số lớp\t":"14","Số học sinh\t":"490","Đạt CQG (MĐ)\t":"Mức độ 1","Dự kiến sáp nhập":null,"Ghi chú\t\t\t":null,"layer_id":319,"fid":222,"label":"Trường THCS Hựu Thành B","Xã/Phường":null,"Quận/Huyện":"Huyện Trà Ôn"}},{"type":"Feature","geometry":{"type":"Point","coordinates":[106.10538,10.174638]},"properties":{"Mã số":196,"Trường THCS\t\t":"Trường THCS Thị Trấn Vũng Liêm","Địa chỉ trường\t\t":"46 Nam kỳ khởi nghĩa, Khóm 2, TT Vũng Liêm, huyện Vũng Liêm","Cấp học\t\t\t":"THCS","Loại hình\t\t":"Công lập","Số điện thoại trường ":"02703870254","Số lớp\t":"31","Số học sinh\t":"1195","Đạt CQG (MĐ)\t":null,"Dự kiến sáp nhập":null,"Ghi chú\t\t\t":null,"layer_id":319,"fid":196,"label":"Trường THCS Thị Trấn Vũng Liêm","Xã/Phường":null,"Quận/Huyện":"Huyện Vũng Liêm"}},{"type":"Feature","geometry":{"type":"Point","coordinates":[106.07439,10.12114]},"properties":{"Mã số":197,"Trường THCS\t\t":"Trường THCS Trung Thành","Địa chỉ trường\t\t":"Ấp An Trung, xã Trung Thành, huyện Vũng Liêm","Cấp học\t\t\t":"THCS","Loại hình\t\t":"Công lập","Số điện thoại trường ":"0974218009","Số lớp\t":"16","Số học sinh\t":"550","Đạt CQG (MĐ)\t":" Mức độ 1","Dự kiến sáp nhập":null,"Ghi chú\t\t\t":null,"layer_id":319,"fid":197,"label":"Trường THCS Trung Thành","Xã/Phường":null,"Quận/Huyện":null}},{"type":"Feature","geometry":{"type":"Point","coordinates":[105.8973751,10.1685736]},"properties":{"Mã số":185,"Trường THCS\t\t":"Trường THCS An Phước","Địa chỉ trường\t\t":"Ấp Phú An, xã An Phước,  huyện Mang Thít ","Cấp học\t\t\t":"THCS","Loại hình\t\t":"Công lập","Số điện thoại trường ":"02703840622","Số lớp\t":"15","Số học sinh\t":"670","Đạt CQG (MĐ)\t":"Mức độ 2","Dự kiến sáp nhập":null,"Ghi chú\t\t\t":null,"layer_id":319,"fid":185,"label":"Trường THCS An Phước","Xã/Phường":null,"Quận/Huyện":"Huyện Mang Thít"}}]}
