{"type":"FeatureCollection","name":"QH Trường THCS & THPT","metadata":{"source":"https://hatang.vinhlong.gov.vn/","downloaded_at":"2026-07-20T01:16:53+00:00","layer_id":320,"layer_name":"QH Trường THCS & THPT","catalog_endpoints":["/map/publicLayers2?inputs=sogddt_quyhoach"],"requested_bbox":[104.0,8.0,108.0,12.0],"tile_size":0.0,"tile_count":1,"tile_errors":[],"feature_count":10,"coordinate_order":"x,y (thường là longitude,latitude theo cấu hình EPSG:4326 của WebGIS)"},"features":[{"type":"Feature","geometry":{"type":"Point","coordinates":[105.91199,10.08662]},"properties":{"Mã số":1,"Trường THCS-THPT\t":"Trường THCS và THPT Long Phú","Địa chỉ trường\t\t":"ấp Phú Sơn A,  xã Long Phú, huyện Tam Bình","Cấp học\t\t\t":"THCS & THPT","Loại hình\t\t":"Công lập","Số điện thoại trường    ":"02703864312","Số lớp\t\t\t":"45","Số học sinh\t\t":"1870","Đạt CQG (MĐ)\t":null,"Dự kiến sáp nhập\t":null,"Ghi chú\t\t\t":null,"layer_id":320,"fid":1,"label":"Trường THCS và THPT Long Phú","Xã/Phường":"Xã Long Phú","Quận/Huyện":"Huyện Tam Bình"}},{"type":"Feature","geometry":{"type":"Point","coordinates":[106.08279,10.10312]},"properties":{"Mã số":3,"Trường THCS-THPT\t":"Trường THCS và THPT Phan Văn Đáng","Địa chỉ trường\t\t":"Ấp 8, xã Tân An Luông, huyện Vũng Liêm","Cấp học\t\t\t":"THCS & THPT","Loại hình\t\t":"Công lập","Số điện thoại trường    ":"02703874135","Số lớp\t\t\t":"35","Số học sinh\t\t":"1300","Đạt CQG (MĐ)\t":null,"Dự kiến sáp nhập\t":null,"Ghi chú\t\t\t":null,"layer_id":320,"fid":3,"label":"Trường THCS và THPT Phan Văn Đáng","Xã/Phường":"Xã Tân An Luông","Quận/Huyện":"Huyện Vũng Liêm"}},{"type":"Feature","geometry":{"type":"Point","coordinates":[106.0963,10.23347]},"properties":{"Mã số":2,"Trường THCS-THPT\t":"Trường THCS và THPT Mỹ Phước","Địa chỉ trường\t\t":"ấp Cái Kè, xã Mỹ Phước, huyện Mang Thít","Cấp học\t\t\t":"THCS & THPT","Loại hình\t\t":"Công lập","Số điện thoại trường    ":"02703840700","Số lớp\t\t\t":"28","Số học sinh\t\t":"1064","Đạt CQG (MĐ)\t":"Mức độ 1","Dự kiến sáp nhập\t":null,"Ghi chú\t\t\t":null,"layer_id":320,"fid":2,"label":"Trường THCS và THPT Mỹ Phước","Xã/Phường":"Xã Mỹ Phước","Quận/Huyện":"Huyện Mang Thít"}},{"type":"Feature","geometry":{"type":"Point","coordinates":[105.91854,10.16125]},"properties":{"Mã số":4,"Trường THCS-THPT\t":"Trường THCS và THPT Phú Quới","Địa chỉ trường\t\t":"5W69+J3, xã Phú Quới, huyện Long Hồ","Cấp học\t\t\t":"THCS & THPT","Loại hình\t\t":"Công lập","Số điện thoại trường    ":"02703811118 - 02702463466","Số lớp\t\t\t":"52","Số học sinh\t\t":"2104","Đạt CQG (MĐ)\t":null,"Dự kiến sáp nhập\t":null,"Ghi chú\t\t\t":null,"layer_id":320,"fid":4,"label":"Trường THCS và THPT Phú Quới","Xã/Phường":"Xã Phú Quới","Quận/Huyện":"Huyện Long Hồ"}},{"type":"Feature","geometry":{"type":"Point","coordinates":[105.8309079,10.106372]},"properties":{"Mã số":8,"Trường THCS-THPT\t":"Trường THCS và THPT Mỹ Thuận","Địa chỉ trường\t\t":"ấp Mỹ Thạnh A, xã Mỹ Thuận, huyện Bình Tân","Cấp học\t\t\t":"THCS & THPT","Loại hình\t\t":"Công lập","Số điện thoại trường    ":"02703891157","Số lớp\t\t\t":"33","Số học sinh\t\t":"1320","Đạt CQG (MĐ)\t":"Mức độ 2","Dự kiến sáp nhập\t":null,"Ghi chú\t\t\t":null,"layer_id":320,"fid":8,"label":"Trường THCS và THPT Mỹ Thuận","Xã/Phường":"Xã Mỹ Thuận","Quận/Huyện":"Huyện Bình Tân"}},{"type":"Feature","geometry":{"type":"Point","coordinates":[106.25167,10.08527]},"properties":{"Mã số":6,"Trường THCS-THPT\t":"Trường THCS và THPT Thanh Bình","Địa chỉ trường\t\t":"ấp Thanh Lương, xã Thanh Bình, huyện Vũng Liêm","Cấp học\t\t\t":"THCS & THPT","Loại hình\t\t":"Công lập","Số điện thoại trường    ":"02703980717","Số lớp\t\t\t":"35","Số học sinh\t\t":"1300","Đạt CQG (MĐ)\t":null,"Dự kiến sáp nhập\t":null,"Ghi chú\t\t\t":null,"layer_id":320,"fid":6,"label":"Trường THCS và THPT Thanh Bình","Xã/Phường":"Xã Thanh Bình","Quận/Huyện":"Huyện Vũng Liêm"}},{"type":"Feature","geometry":{"type":"Point","coordinates":[106.111082547,10.033607029]},"properties":{"Mã số":5,"Trường THCS-THPT\t":"Trường THCS và THPT Hiếu Nhơn","Địa chỉ trường\t\t":"ấp Hiếu Minh B, xã Hiếu Nhơn, huyện Vũng Liêm","Cấp học\t\t\t":"THCS & THPT","Loại hình\t\t":"Công lập","Số điện thoại trường    ":"02703.987344","Số lớp\t\t\t":"45","Số học sinh\t\t":"1755","Đạt CQG (MĐ)\t":null,"Dự kiến sáp nhập\t":null,"Ghi chú\t\t\t":null,"layer_id":320,"fid":5,"label":"Trường THCS và THPT Hiếu Nhơn","Xã/Phường":"Xã Hiếu Nhơn","Quận/Huyện":"Huyện Vũng Liêm"}},{"type":"Feature","geometry":{"type":"Point","coordinates":[106.13358,10.05186]},"properties":{"Mã số":7,"Trường THCS-THPT\t":"Trường THCS và THPT Hoà Bình","Địa chỉ trường\t\t":"ấp Tân Thuận, xã Hòa Bình, huyện Trà Ôn","Cấp học\t\t\t":"THCS & THPT","Loại hình\t\t":"Công lập","Số điện thoại trường    ":"02703722242","Số lớp\t\t\t":"55","Số học sinh\t\t":"2090","Đạt CQG (MĐ)\t":null,"Dự kiến sáp nhập\t":null,"Ghi chú\t\t\t":null,"layer_id":320,"fid":7,"label":"Trường THCS và THPT Hoà Bình","Xã/Phường":"Xã Trung An","Quận/Huyện":"Huyện Vũng Liêm"}},{"type":"Feature","geometry":{"type":"Point","coordinates":[105.8549637,10.0119007]},"properties":{"Mã số":9,"Trường THCS-THPT\t":"Trường THCS và THPT Đông Thành","Địa chỉ trường\t\t":"ấp Đông Hưng 3, xã Đông Thành, thị xã Bình Minh","Cấp học\t\t\t":"THCS & THPT","Loại hình\t\t":"Công lập","Số điện thoại trường    ":"02702463439","Số lớp\t\t\t":"33","Số học sinh\t\t":"1209","Đạt CQG (MĐ)\t":null,"Dự kiến sáp nhập\t":null,"Ghi chú\t\t\t":null,"layer_id":320,"fid":9,"label":"Trường THCS và THPT Đông Thành","Xã/Phường":"Phường Đông Thành","Quận/Huyện":"Thị xã Bình Minh"}},{"type":"Feature","geometry":{"type":"Point","coordinates":[105.948037903,10.25884722]},"properties":{"Mã số":10,"Trường THCS-THPT\t":"Trường THCS và THPT Trưng Vương","Địa chỉ trường\t\t":"164A, đường Phạm Hùng, Phường 9, thành phố Vĩnh Long","Cấp học\t\t\t":"THCS & THPT","Loại hình\t\t":"Công lập","Số điện thoại trường    ":"02703. 824279","Số lớp\t\t\t":"32","Số học sinh\t\t":"1280","Đạt CQG (MĐ)\t":null,"Dự kiến sáp nhập\t":null,"Ghi chú\t\t\t":null,"layer_id":320,"fid":10,"label":"Trường THCS và THPT Trưng Vương","Xã/Phường":"Phường 9","Quận/Huyện":"Vĩnh Long"}}]}
