{"type":"FeatureCollection","name":"QH Trường THPT","metadata":{"source":"https://hatang.vinhlong.gov.vn/","downloaded_at":"2026-07-20T01:16:59+00:00","layer_id":321,"layer_name":"QH Trường THPT","catalog_endpoints":["/map/publicLayers2?inputs=sogddt_quyhoach"],"requested_bbox":[104.0,8.0,108.0,12.0],"tile_size":0.0,"tile_count":1,"tile_errors":[],"feature_count":25,"coordinate_order":"x,y (thường là longitude,latitude theo cấu hình EPSG:4326 của WebGIS)"},"features":[{"type":"Feature","geometry":{"type":"Point","coordinates":[105.962555095,10.248722201]},"properties":{"Mã số":25,"Trường THPT\t\t":"Trường Năng khiếu nội trú và Thể dục thể thao","Địa chỉ trường\t\t":"Số 79, Nguyễn Huệ, Phường 2, thành phố Vĩnh Long ","Cấp học\t\t\t":"THCS-THPT","Loại hình\t\t":"Công lập ","Số điện thoại trường    ":"02703822755","Số lớp\t\t\t":"7","Số học sinh\t\t":"231","Đạt CQG (MĐ)\t\t":null,"Dự kiến sáp nhập":null,"Ghi chú\t\t\t":null,"layer_id":321,"fid":25,"label":"Trường Năng khiếu nội trú và Thể dục thể thao","Xã/Phường":"Phường 2","Quận/Huyện":"Vĩnh Long"}},{"type":"Feature","geometry":{"type":"Point","coordinates":[106.006436724,9.95244026]},"properties":{"Mã số":6,"Trường THPT\t\t":"Trường THPT Vĩnh Xuân","Địa chỉ trường\t\t":"ấp Vĩnh Trinh, xã Vĩnh Xuân, huyện Trà Ôn ","Cấp học\t\t\t":"THPT","Loại hình\t\t":"công lập","Số điện thoại trường    ":"02703884869","Số lớp\t\t\t":"33","Số học sinh\t\t":"1169","Đạt CQG (MĐ)\t\t":"Mức độ 1","Dự kiến sáp nhập":null,"Ghi chú\t\t\t":null,"layer_id":321,"fid":6,"label":"Trường THPT Vĩnh Xuân","Xã/Phường":"Xã Vĩnh Xuân","Quận/Huyện":"Huyện Trà Ôn"}},{"type":"Feature","geometry":{"type":"Point","coordinates":[105.98926,10.048]},"properties":{"Mã số":11,"Trường THPT\t\t":"Trường THPT Trần Đại Nghĩa","Địa chỉ trường\t\t":"Tỉnh lộ 904, xã Tường Lộc, huyện Tam Bình","Cấp học\t\t\t":"THPT","Loại hình\t\t":"Công lập","Số điện thoại trường    ":"02703713199","Số lớp\t\t\t":null,"Số học sinh\t\t":null,"Đạt CQG (MĐ)\t\t":null,"Dự kiến sáp nhập":null,"Ghi chú\t\t\t":null,"layer_id":321,"fid":11,"label":"Trường THPT Trần Đại Nghĩa","Xã/Phường":"Xã Tường Lộc","Quận/Huyện":"Huyện Tam Bình"}},{"type":"Feature","geometry":{"type":"Point","coordinates":[105.9981016,10.0538014]},"properties":{"Mã số":23,"Trường THPT\t\t":"Trường THPT Tam Bình","Địa chỉ trường\t\t":"132, Võ Tấn Đức, Khóm 2, thị trấn Tam Bình, huyện Tam Bình  ","Cấp học\t\t\t":"THPT","Loại hình\t\t":"Công lâoj","Số điện thoại trường    ":"02703860367","Số lớp\t\t\t":"16","Số học sinh\t\t":"640","Đạt CQG (MĐ)\t\t":"Mức độ 1","Dự kiến sáp nhập":null,"Ghi chú\t\t\t":null,"layer_id":321,"fid":23,"label":"Trường THPT Tam Bình","Xã/Phường":"Xã Tường Lộc","Quận/Huyện":"Huyện Tam Bình"}},{"type":"Feature","geometry":{"type":"Point","coordinates":[105.9667,10.11771]},"properties":{"Mã số":17,"Trường THPT\t\t":"Trường THPT Phan Văn Hòa","Địa chỉ trường\t\t":"ĐT909, xã Hậu Lộc, huyện Tam Bình","Cấp học\t\t\t":"THPT","Loại hình\t\t":"Công lập ","Số điện thoại trường    ":"02703718119","Số lớp\t\t\t":null,"Số học sinh\t\t":null,"Đạt CQG (MĐ)\t\t":null,"Dự kiến sáp nhập":null,"Ghi chú\t\t\t":null,"layer_id":321,"fid":17,"label":"Trường THPT Phan Văn Hòa","Xã/Phường":"Xã Hậu Lộc","Quận/Huyện":"Huyện Tam Bình"}},{"type":"Feature","geometry":{"type":"Point","coordinates":[105.932104,9.961356]},"properties":{"Mã số":19,"Trường THPT\t\t":"Trường THPT Lê Thanh Mừng","Địa chỉ trường\t\t":"ấp Giồng Thanh Bạch, xã Thiện Mỹ, huyện Trà Ôm ","Cấp học\t\t\t":"THPT","Loại hình\t\t":"Công lập ","Số điện thoại trường    ":"02703770235","Số lớp\t\t\t":"19","Số học sinh\t\t":"760","Đạt CQG (MĐ)\t\t":null,"Dự kiến sáp nhập":null,"Ghi chú\t\t\t":null,"layer_id":321,"fid":19,"label":"Trường THPT Lê Thanh Mừng","Xã/Phường":"Xã Thiện Mỹ","Quận/Huyện":"Huyện Trà Ôn"}},{"type":"Feature","geometry":{"type":"Point","coordinates":[105.743948114,10.108312159]},"properties":{"Mã số":15,"Trường THPT\t\t":"Trường THPT Tân Quới","Địa chỉ trường\t\t":"Tổ 16, khóm Tân Thuận, thị trấn Tân Quới, huyện Bình Tân   ","Cấp học\t\t\t":"THPT","Loại hình\t\t":"Công lập","Số điện thoại trường    ":"02703760015","Số lớp\t\t\t":"28","Số học sinh\t\t":"1050","Đạt CQG (MĐ)\t\t":"Mức độ 1","Dự kiến sáp nhập":null,"Ghi chú\t\t\t":null,"layer_id":321,"fid":15,"label":"Trường THPT Tân Quới","Xã/Phường":"Xã Tân Quới","Quận/Huyện":"Huyện Bình Tân"}},{"type":"Feature","geometry":{"type":"Point","coordinates":[105.71949,10.13925]},"properties":{"Mã số":8,"Trường THPT\t\t":"Trường THPT Tân Lược","Địa chỉ trường\t\t":"Tổ 13, ấp Tân Lộc, xã Tân Lược, huyện Bình Tân  ","Cấp học\t\t\t":"THPT","Loại hình\t\t":"Công lập","Số điện thoại trường    ":"02703754020","Số lớp\t\t\t":"28","Số học sinh\t\t":"1120","Đạt CQG (MĐ)\t\t":"Mức độ 1","Dự kiến sáp nhập":null,"Ghi chú\t\t\t":null,"layer_id":321,"fid":8,"label":"Trường THPT Tân Lược","Xã/Phường":"Xã Tân Lược","Quận/Huyện":"Huyện Bình Tân"}},{"type":"Feature","geometry":{"type":"Point","coordinates":[105.95445,10.23007]},"properties":{"Mã số":7,"Trường THPT\t\t":"Trường THPT Nguyễn Thông","Địa chỉ trường\t\t":"Số 12, đường Đinh Tiên Hoàng, Phường 8, thành phố Vĩnh Long     ","Cấp học\t\t\t":"THPT","Loại hình\t\t":"Công lập","Số điện thoại trường    ":"02703823409","Số lớp\t\t\t":"34","Số học sinh\t\t":"1360","Đạt CQG (MĐ)\t\t":"Mức độ 1","Dự kiến sáp nhập":null,"Ghi chú\t\t\t":null,"layer_id":321,"fid":7,"label":"Trường THPT Nguyễn Thông","Xã/Phường":"Phường 8","Quận/Huyện":"Vĩnh Long"}},{"type":"Feature","geometry":{"type":"Point","coordinates":[105.980938059,10.241232873]},"properties":{"Mã số":1,"Trường THPT\t\t":"Trường THPT chuyên Nguyễn Bỉnh Khiêm","Địa chỉ trường\t\t":"Số 157, Phạm Thái Bường Phường 4, thành phố Vĩnh Long ","Cấp học\t\t\t":"THPT","Loại hình\t\t":"Công lập","Số điện thoại trường    ":"02703822734","Số lớp\t\t\t":"30","Số học sinh\t\t":"1050","Đạt CQG (MĐ)\t\t":"Mức độ 2","Dự kiến sáp nhập":null,"Ghi chú\t\t\t":null,"layer_id":321,"fid":1,"label":"Trường THPT chuyên Nguyễn Bỉnh Khiêm","Xã/Phường":"Phường 4","Quận/Huyện":"Vĩnh Long"}},{"type":"Feature","geometry":{"type":"Point","coordinates":[105.979888,10.24251785]},"properties":{"Mã số":9,"Trường THPT\t\t":"Trường THPT Vĩnh Long","Địa chỉ trường\t\t":"33/1, đường Phạm Thái Bường, Phường 4, thành phố Vĩnh Long   ","Cấp học\t\t\t":"THPT","Loại hình\t\t":"Công lập","Số điện thoại trường    ":"02703822523","Số lớp\t\t\t":"45","Số học sinh\t\t":"1900","Đạt CQG (MĐ)\t\t":null,"Dự kiến sáp nhập":null,"Ghi chú\t\t\t":null,"layer_id":321,"fid":9,"label":"Trường THPT Vĩnh Long","Xã/Phường":"Phường 4","Quận/Huyện":"Vĩnh Long"}},{"type":"Feature","geometry":{"type":"Point","coordinates":[106.18085,10.09662]},"properties":{"Mã số":10,"Trường THPT\t\t":"Trường THPT Võ Văn Kiệt","Địa chỉ trường\t\t":"35WJ+H2M, Đường ĐT 907, thị trấn Vũng Liêm, huyện Vũng Liêm","Cấp học\t\t\t":"THPT","Loại hình\t\t":"Công lập","Số điện thoại trường    ":"02703971134","Số lớp\t\t\t":"36","Số học sinh\t\t":"1363","Đạt CQG (MĐ)\t\t":"Mức độ 1","Dự kiến sáp nhập":null,"Ghi chú\t\t\t":null,"layer_id":321,"fid":10,"label":"Trường THPT Võ Văn Kiệt","Xã/Phường":"Thị trấn Vũng Liêm","Quận/Huyện":"Huyện Vũng Liêm"}},{"type":"Feature","geometry":{"type":"Point","coordinates":[106.19191,10.09155]},"properties":{"Mã số":13,"Trường THPT\t\t":"Trường THPT Nguyễn Hiếu Tự","Địa chỉ trường\t\t":"ấp Phong Thới, thị trấn Vũng Liêm, huyện Vũng Liêm    ","Cấp học\t\t\t":"THPT","Loại hình\t\t":"Công lập","Số điện thoại trường    ":"02703870067","Số lớp\t\t\t":"27","Số học sinh\t\t":"987","Đạt CQG (MĐ)\t\t":null,"Dự kiến sáp nhập":null,"Ghi chú\t\t\t":null,"layer_id":321,"fid":13,"label":"Trường THPT Nguyễn Hiếu Tự","Xã/Phường":"Thị trấn Vũng Liêm","Quận/Huyện":"Huyện Vũng Liêm"}},{"type":"Feature","geometry":{"type":"Point","coordinates":[106.120238,10.083074]},"properties":{"Mã số":12,"Trường THPT\t\t":"Trường THPT Hiếu Phụng","Địa chỉ trường\t\t":"ấp Tân Quang, xã Hiếu Phụng, huyện Vũng Liêm ","Cấp học\t\t\t":"THPT","Loại hình\t\t":"Công lập","Số điện thoại trường    ":"02703874360","Số lớp\t\t\t":"18","Số học sinh\t\t":"720","Đạt CQG (MĐ)\t\t":null,"Dự kiến sáp nhập":null,"Ghi chú\t\t\t":null,"layer_id":321,"fid":12,"label":"Trường THPT Hiếu Phụng","Xã/Phường":"Xã Hiếu Phụng","Quận/Huyện":"Huyện Vũng Liêm"}},{"type":"Feature","geometry":{"type":"Point","coordinates":[106.08298,9.95899]},"properties":{"Mã số":20,"Trường THPT\t\t":"Trường THPT Hựu Thành","Địa chỉ trường\t\t":"ấp Khu Phố, xã Hựu Thành, huyện Trà Ôn","Cấp học\t\t\t":"THPT","Loại hình\t\t":"Công lập","Số điện thoại trường    ":"02703889127","Số lớp\t\t\t":null,"Số học sinh\t\t":null,"Đạt CQG (MĐ)\t\t":null,"Dự kiến sáp nhập":null,"Ghi chú\t\t\t":null,"layer_id":321,"fid":20,"label":"Trường THPT Hựu Thành","Xã/Phường":"Xã Hựu Thành","Quận/Huyện":"Huyện Trà Ôn"}},{"type":"Feature","geometry":{"type":"Point","coordinates":[105.902223721,10.107491052]},"properties":{"Mã số":21,"Trường THPT\t\t":"Trường THPT Song Phú","Địa chỉ trường\t\t":"ấp Phú Trường Yên, xã Song Phú, huyện Tam Bình ","Cấp học\t\t\t":"THPT","Loại hình\t\t":"Công lập","Số điện thoại trường    ":"02703724779","Số lớp\t\t\t":"21","Số học sinh\t\t":"930","Đạt CQG (MĐ)\t\t":"Mức độ 1","Dự kiến sáp nhập":null,"Ghi chú\t\t\t":null,"layer_id":321,"fid":21,"label":"Trường THPT Song Phú","Xã/Phường":"Xã Song Phú","Quận/Huyện":"Huyện Tam Bình"}},{"type":"Feature","geometry":{"type":"Point","coordinates":[105.974743938,10.255544432]},"properties":{"Mã số":2,"Trường THPT\t\t":"Trường THPT Lưu Văn Liệt","Địa chỉ trường\t\t":"Số 105, Đường 30/4, Phường 1, thành phố Vĩnh Long  ","Cấp học\t\t\t":"THPT","Loại hình\t\t":"Công lập","Số điện thoại trường    ":"02703823299","Số lớp\t\t\t":"41","Số học sinh\t\t":"1542","Đạt CQG (MĐ)\t\t":null,"Dự kiến sáp nhập":null,"Ghi chú\t\t\t":null,"layer_id":321,"fid":2,"label":"Trường THPT Lưu Văn Liệt","Xã/Phường":"Phường 1","Quận/Huyện":"Vĩnh Long"}},{"type":"Feature","geometry":{"type":"Point","coordinates":[105.80834,10.06893]},"properties":{"Mã số":4,"Trường THPT\t\t":"Trường THPT Bình Minh","Địa chỉ trường\t\t":"Tổ 1, Khóm 5, phường Thành Phước, thị xã Bình Minh ","Cấp học\t\t\t":"THPT","Loại hình\t\t":"Công lập","Số điện thoại trường    ":"02703890328","Số lớp\t\t\t":"32","Số học sinh\t\t":"1280","Đạt CQG (MĐ)\t\t":"Mức độ 2","Dự kiến sáp nhập":null,"Ghi chú\t\t\t":null,"layer_id":321,"fid":4,"label":"Trường THPT Bình Minh","Xã/Phường":"Phường Thành Phước","Quận/Huyện":"Thị xã Bình Minh"}},{"type":"Feature","geometry":{"type":"Point","coordinates":[105.811774404,10.066685572]},"properties":{"Mã số":18,"Trường THPT\t\t":"Trường THPT Hoàng Thái Hiếu","Địa chỉ trường\t\t":"Tổ 1, Khóm 2, phường Cái Vồn, thị xã Bình Minh  ","Cấp học\t\t\t":"THPT","Loại hình\t\t":"Công lập ","Số điện thoại trường    ":"02703891755","Số lớp\t\t\t":"25","Số học sinh\t\t":"950","Đạt CQG (MĐ)\t\t":"Mức độ 1","Dự kiến sáp nhập":null,"Ghi chú\t\t\t":null,"layer_id":321,"fid":18,"label":"Trường THPT Hoàng Thái Hiếu","Xã/Phường":"Phường Thành Phước","Quận/Huyện":"Thị xã Bình Minh"}},{"type":"Feature","geometry":{"type":"Point","coordinates":[105.99159,10.05405]},"properties":{"Mã số":24,"Trường THPT\t\t":"Trường Phổ thông Dân tộc Nội trú","Địa chỉ trường\t\t":"ấp Mỹ Phú 1, xã Tường Lộc, Tam Bình ,   ","Cấp học\t\t\t":"THPT ","Loại hình\t\t":"Công lập","Số điện thoại trường    ":"027037136670","Số lớp\t\t\t":"6","Số học sinh\t\t":"210","Đạt CQG (MĐ)\t\t":"2019","Dự kiến sáp nhập":null,"Ghi chú\t\t\t":null,"layer_id":321,"fid":24,"label":"Trường Phổ thông Dân tộc Nội trú","Xã/Phường":"Xã Tam Bình","Quận/Huyện":"Huyện Tam Bình"}},{"type":"Feature","geometry":{"type":"Point","coordinates":[105.92454,9.96162]},"properties":{"Mã số":5,"Trường THPT\t\t":"Trường THPT Trà Ôn","Địa chỉ trường\t\t":"Khu 3, thị trấn Trà Ôn, huyện Trà Ôn ","Cấp học\t\t\t":"THPT","Loại hình\t\t":"Công lập","Số điện thoại trường    ":"02703770830","Số lớp\t\t\t":"33","Số học sinh\t\t":"1320","Đạt CQG (MĐ)\t\t":"Mức độ 1","Dự kiến sáp nhập":null,"Ghi chú\t\t\t":null,"layer_id":321,"fid":5,"label":"Trường THPT Trà Ôn","Xã/Phường":"Xã Trà Ôn","Quận/Huyện":"Huyện Trà Ôn"}},{"type":"Feature","geometry":{"type":"Point","coordinates":[106.114118966,10.17751827]},"properties":{"Mã số":3,"Trường THPT\t\t":"Trường THPT Mang Thít","Địa chỉ trường\t\t":"Đường Nguyễn Trãi, Khóm 1, thị trấn Cái Nhum, huyện Mang Thít ","Cấp học\t\t\t":"THPT","Loại hình\t\t":"Công lập","Số điện thoại trường    ":"02703840257","Số lớp\t\t\t":"30","Số học sinh\t\t":"1200","Đạt CQG (MĐ)\t\t":"Mức độ 1","Dự kiến sáp nhập":null,"Ghi chú\t\t\t":null,"layer_id":321,"fid":3,"label":"Trường THPT Mang Thít","Xã/Phường":"Xã Cái Nhum","Quận/Huyện":"Huyện Mang Thít"}},{"type":"Feature","geometry":{"type":"Point","coordinates":[106.112750262,10.177566934]},"properties":{"Mã số":22,"Trường THPT\t\t":"Trường THPT Nguyễn Văn Thiệt","Địa chỉ trường\t\t":"111, Đường 3/2, Khóm 4, thị trấn Cái Nhum, huyện Mang Thít ","Cấp học\t\t\t":"THPT","Loại hình\t\t":"Công lập","Số điện thoại trường    ":"02703840677","Số lớp\t\t\t":"19","Số học sinh\t\t":"760","Đạt CQG (MĐ)\t\t":"Mức độ 1","Dự kiến sáp nhập":null,"Ghi chú\t\t\t":null,"layer_id":321,"fid":22,"label":"Trường THPT Nguyễn Văn Thiệt","Xã/Phường":"Xã Cái Nhum","Quận/Huyện":"Huyện Mang Thít"}},{"type":"Feature","geometry":{"type":"Point","coordinates":[106.00367,10.20351]},"properties":{"Mã số":14,"Trường THPT\t\t":"Trường THPT Phạm Hùng","Địa chỉ trường\t\t":"6233+98J, QL53, thị trấn Long Hồ, huyện Long Hồ","Cấp học\t\t\t":"THPT","Loại hình\t\t":"Công lập","Số điện thoại trường    ":"02706283456","Số lớp\t\t\t":null,"Số học sinh\t\t":null,"Đạt CQG (MĐ)\t\t":"Mức độ 1","Dự kiến sáp nhập":null,"Ghi chú\t\t\t":null,"layer_id":321,"fid":14,"label":"Trường THPT Phạm Hùng","Xã/Phường":"Xã Long Hồ","Quận/Huyện":"Huyện Long Hồ"}},{"type":"Feature","geometry":{"type":"Point","coordinates":[105.997665719,10.281046457]},"properties":{"Mã số":16,"Trường THPT\t\t":"Trường THPT Hoà Ninh","Địa chỉ trường\t\t":"ấp Bình Thuận 2, xã Hòa Ninh, huyện Long Hồ ","Cấp học\t\t\t":"THPT","Loại hình\t\t":"Công lập","Số điện thoại trường    ":"02703954554","Số lớp\t\t\t":"18","Số học sinh\t\t":"720","Đạt CQG (MĐ)\t\t":null,"Dự kiến sáp nhập":null,"Ghi chú\t\t\t":null,"layer_id":321,"fid":16,"label":"Trường THPT Hoà Ninh","Xã/Phường":null,"Quận/Huyện":null}}]}
