{"type":"FeatureCollection","name":"QH Trung tâm GDNN - GDTX","metadata":{"source":"https://hatang.vinhlong.gov.vn/","downloaded_at":"2026-07-20T01:17:06+00:00","layer_id":322,"layer_name":"QH Trung tâm GDNN - GDTX","catalog_endpoints":["/map/publicLayers2?inputs=sogddt_quyhoach"],"requested_bbox":[104.0,8.0,108.0,12.0],"tile_size":0.0,"tile_count":1,"tile_errors":[],"feature_count":8,"coordinate_order":"x,y (thường là longitude,latitude theo cấu hình EPSG:4326 của WebGIS)"},"features":[{"type":"Feature","geometry":{"type":"Point","coordinates":[105.83049,10.03568]},"properties":{"Mã số":1,"Trung tâm GDNN-GDTX\t":"Trung tâm GDNN-GDTX TX Bình Minh","Địa chỉ trường\t\t":"Khóm 1, Phường Cái Vồn, Thị xã Bình Minh,   ","Cấp học\t\t\t":"THPT & dạy nghề","Loại hình\t\t":"Công lập ","Số điện thoại trường   ":"02703890055","Số lớp\t\t\t":"12","Số học sinh\t\t":"360","Đạt CQG (MĐ)\t\t":null,"Dự kiến sáp nhập":null,"Ghi chú\t\t\t":null,"layer_id":322,"fid":1,"label":"Trung tâm GDNN-GDTX TX Bình Minh","Xã/Phường":"Xã Mỹ Hòa","Quận/Huyện":"Thị xã Bình Minh"}},{"type":"Feature","geometry":{"type":"Point","coordinates":[106.11256,10.17728]},"properties":{"Mã số":2,"Trung tâm GDNN-GDTX\t":"Trung tâm GDNN-GDTX Mang Thít","Địa chỉ trường\t\t":"Số 109, Đường 3/2, Khóm 4, thị trấn Cái Nhum, huyện Mang Thít","Cấp học\t\t\t":"THPT & dạy nghề","Loại hình\t\t":"Công lập","Số điện thoại trường   ":"02703 841 315","Số lớp\t\t\t":"11","Số học sinh\t\t":null,"Đạt CQG (MĐ)\t\t":null,"Dự kiến sáp nhập":null,"Ghi chú\t\t\t":null,"layer_id":322,"fid":2,"label":"Trung tâm GDNN-GDTX Mang Thít","Xã/Phường":"Xã Cái Nhum","Quận/Huyện":"Huyện Mang Thít"}},{"type":"Feature","geometry":{"type":"Point","coordinates":[105.76032,10.106822]},"properties":{"Mã số":6,"Trung tâm GDNN-GDTX\t":"Trung tâm GDNN-GDTX Bình Tân","Địa chỉ trường\t\t":"đường Nguyễn Văn Thảnh, khóm Thành Quới, thị trấn Tân Quới, huyện Bình Tân  ","Cấp học\t\t\t":"THPT","Loại hình\t\t":"Công lập","Số điện thoại trường   ":"02703759599","Số lớp\t\t\t":"11","Số học sinh\t\t":"316","Đạt CQG (MĐ)\t\t":null,"Dự kiến sáp nhập":null,"Ghi chú\t\t\t":null,"layer_id":322,"fid":6,"label":"Trung tâm GDNN-GDTX Bình Tân","Xã/Phường":"Xã Thành Đông","Quận/Huyện":"Huyện Bình Tân"}},{"type":"Feature","geometry":{"type":"Point","coordinates":[105.93948,9.96579]},"properties":{"Mã số":4,"Trung tâm GDNN-GDTX\t":"Trung tâm GDNN-GDTX Trà Ôn","Địa chỉ trường\t\t":"ấp Giồng Thanh Bạch, xã Thiện Mỹ, huyện Trà Ôn","Cấp học\t\t\t":"THPT & dạy nghề","Loại hình\t\t":"Công lập","Số điện thoại trường   ":"02703771722","Số lớp\t\t\t":"8","Số học sinh\t\t":"269","Đạt CQG (MĐ)\t\t":null,"Dự kiến sáp nhập":null,"Ghi chú\t\t\t":null,"layer_id":322,"fid":4,"label":"Trung tâm GDNN-GDTX Trà Ôn","Xã/Phường":"Xã Thiện Mỹ","Quận/Huyện":"Huyện Trà Ôn"}},{"type":"Feature","geometry":{"type":"Point","coordinates":[106.02295,10.20395]},"properties":{"Mã số":3,"Trung tâm GDNN-GDTX\t":"Trung tâm GDNN-GDTX Long Hồ","Địa chỉ trường\t\t":"Khóm 6, thị trấn Long Hồ, huyện Long Hồ,  ","Cấp học\t\t\t":"THPT & dạy nghề","Loại hình\t\t":"Công lập","Số điện thoại trường   ":"02703850929","Số lớp\t\t\t":"46","Số học sinh\t\t":"1551","Đạt CQG (MĐ)\t\t":null,"Dự kiến sáp nhập":null,"Ghi chú\t\t\t":null,"layer_id":322,"fid":3,"label":"Trung tâm GDNN-GDTX Long Hồ","Xã/Phường":"Xã Hòa Tịnh","Quận/Huyện":"Huyện Mang Thít"}},{"type":"Feature","geometry":{"type":"Point","coordinates":[105.99094,10.0601]},"properties":{"Mã số":7,"Trung tâm GDNN-GDTX\t":"Trung tâm GDNN-GDTX Tam Bình","Địa chỉ trường\t\t":"ĐT 904, xã Mỹ Thạnh Trung, huyện Tam Bình  ","Cấp học\t\t\t":"THPT & dạy nghề","Loại hình\t\t":"Công lập","Số điện thoại trường   ":"02703860810","Số lớp\t\t\t":null,"Số học sinh\t\t":null,"Đạt CQG (MĐ)\t\t":null,"Dự kiến sáp nhập":null,"Ghi chú\t\t\t":null,"layer_id":322,"fid":7,"label":"Trung tâm GDNN-GDTX Tam Bình","Xã/Phường":"Xã Mỹ Thạnh Trung","Quận/Huyện":"Huyện Tam Bình"}},{"type":"Feature","geometry":{"type":"Point","coordinates":[105.98017,10.24805]},"properties":{"Mã số":5,"Trung tâm GDNN-GDTX\t":"Trung tâm GDNN-GDTX TP Vĩnh Long","Địa chỉ trường\t\t":"Số 118C và 118D, Khóm 2, đường Trần Phú, Phường 4, thành phố Vĩnh Long ","Cấp học\t\t\t":"THPT & dạy nghề","Loại hình\t\t":"Công lập","Số điện thoại trường   ":"02703822462","Số lớp\t\t\t":"17","Số học sinh\t\t":"540","Đạt CQG (MĐ)\t\t":null,"Dự kiến sáp nhập":null,"Ghi chú\t\t\t":null,"layer_id":322,"fid":5,"label":"Trung tâm GDNN-GDTX TP Vĩnh Long","Xã/Phường":"Phường 4","Quận/Huyện":"Vĩnh Long"}},{"type":"Feature","geometry":{"type":"Point","coordinates":[106.18753,10.06195]},"properties":{"Mã số":8,"Trung tâm GDNN-GDTX\t":"Trung tâm GDNN-GDTX Vũng Liêm","Địa chỉ trường\t\t":"ấp An Trung, xã Trung Thành, huyện Vũng Liêm","Cấp học\t\t\t":"THPT & dạy nghề","Loại hình\t\t":"Công lập","Số điện thoại trường   ":"02703871511","Số lớp\t\t\t":"8","Số học sinh\t\t":"208","Đạt CQG (MĐ)\t\t":null,"Dự kiến sáp nhập":null,"Ghi chú\t\t\t":null,"layer_id":322,"fid":8,"label":"Trung tâm GDNN-GDTX Vũng Liêm","Xã/Phường":"Xã Trung Thành","Quận/Huyện":"Huyện Vũng Liêm"}}]}
