{"type":"FeatureCollection","name":"Nhà thuốc","metadata":{"source":"https://hatang.vinhlong.gov.vn/","downloaded_at":"2026-07-20T01:17:12+00:00","layer_id":327,"layer_name":"Nhà thuốc","catalog_endpoints":["/map/publicLayers2?inputs=so_y_te"],"requested_bbox":[104.0,8.0,108.0,12.0],"tile_size":0.0,"tile_count":1,"tile_errors":[],"feature_count":129,"coordinate_order":"x,y (thường là longitude,latitude theo cấu hình EPSG:4326 của WebGIS)"},"features":[{"type":"Feature","id":2,"geometry":{"type":"Point","coordinates":[105.975294601,10.256643027]},"properties":{"Tên đơn vị":"Nhà Thuốc Khải Hoàn","Địa chỉ":"79 Một Tháng Năm","Số điện thoại":"0919002828","Số ký hiệu":"0919002828","Phân loại":"2","Trạng thái đạt chuẩn GPP":"1","layer_id":327,"fid":2,"label":"Nhà Thuốc Khải Hoàn"}},{"type":"Feature","id":3,"geometry":{"type":"Point","coordinates":[105.978813654,10.247183141]},"properties":{"Tên đơn vị":"Nhà thuốc An Khang","Địa chỉ":"62 Trần Đại Nghĩa","Số điện thoại":"19001572","Số ký hiệu":"19001572","Phân loại":"1","Trạng thái đạt chuẩn GPP":"1","layer_id":327,"fid":3,"label":"Nhà thuốc An Khang"}},{"type":"Feature","id":4,"geometry":{"type":"Point","coordinates":[105.973963058,10.254528454]},"properties":{"Tên đơn vị":"Nhà Thuốc Trâm Anh","Địa chỉ":"81 Trưng Nữ Vương","Số điện thoại":"02702481787","Số ký hiệu":"02702481787","Phân loại":"1","Trạng thái đạt chuẩn GPP":"1","layer_id":327,"fid":4,"label":"Nhà Thuốc Trâm Anh"}},{"type":"Feature","id":5,"geometry":{"type":"Point","coordinates":[105.966075298,10.255894646]},"properties":{"Tên đơn vị":"Nhà Thuốc FPT Long Châu","Địa chỉ":"62 Lưu Văn Liệt","Số điện thoại":"18006928","Số ký hiệu":"18006928","Phân loại":"1","Trạng thái đạt chuẩn GPP":"1","layer_id":327,"fid":5,"label":"Nhà Thuốc FPT Long Châu"}},{"type":"Feature","id":6,"geometry":{"type":"Point","coordinates":[105.965913109,10.254599769]},"properties":{"Tên đơn vị":"Nhà Thuốc Khải Hoàn 2","Địa chỉ":"5 Lưu Văn Liệt","Số điện thoại":"0983079089","Số ký hiệu":"0983079089","Phân loại":"1","Trạng thái đạt chuẩn GPP":"1","layer_id":327,"fid":6,"label":"Nhà Thuốc Khải Hoàn 2"}},{"type":"Feature","id":7,"geometry":{"type":"Point","coordinates":[105.965891578,10.254905762]},"properties":{"Tên đơn vị":"Nhà thuốc Pharmacity","Địa chỉ":"9 Lưu Văn Liệt, Khóm 1","Số điện thoại":"18006821","Số ký hiệu":"18006821","Phân loại":"1","Trạng thái đạt chuẩn GPP":"1","layer_id":327,"fid":7,"label":"Nhà thuốc Pharmacity"}},{"type":"Feature","id":8,"geometry":{"type":"Point","coordinates":[105.974603388,10.252413871]},"properties":{"Tên đơn vị":"Nhà Thuốc FPT Long Châu","Địa chỉ":"69/2 Trưng Nữ Vương","Số điện thoại":"18006928","Số ký hiệu":"18006928","Phân loại":"1","Trạng thái đạt chuẩn GPP":"1","layer_id":327,"fid":8,"label":"Nhà Thuốc FPT Long Châu"}},{"type":"Feature","id":9,"geometry":{"type":"Point","coordinates":[105.974860875,10.252371317]},"properties":{"Tên đơn vị":"Nhà Thuốc Trung Sơn","Địa chỉ":"Số 65 Trưng Nữ Vương","Số điện thoại":"02703837669","Số ký hiệu":"02703837669","Phân loại":"1","Trạng thái đạt chuẩn GPP":"1","layer_id":327,"fid":9,"label":"Nhà Thuốc Trung Sơn"}},{"type":"Feature","id":10,"geometry":{"type":"Point","coordinates":[105.972800933,10.252328762]},"properties":{"Tên đơn vị":"Nhà thuốc An Khang","Địa chỉ":"110B Trưng Nữ Vương","Số điện thoại":"19001572","Số ký hiệu":"19001572","Phân loại":"1","Trạng thái đạt chuẩn GPP":"1","layer_id":327,"fid":10,"label":"Nhà thuốc An Khang"}},{"type":"Feature","id":11,"geometry":{"type":"Point","coordinates":[105.980525689,10.24666955]},"properties":{"Tên đơn vị":"Nhà Thuốc FPT Long Châu","Địa chỉ":"37 Nguyễn Văn Thiệt","Số điện thoại":"18006928","Số ký hiệu":"18006928","Phân loại":"1","Trạng thái đạt chuẩn GPP":"1","layer_id":327,"fid":11,"label":"Nhà Thuốc FPT Long Châu"}},{"type":"Feature","id":12,"geometry":{"type":"Point","coordinates":[105.981440133,10.247549471]},"properties":{"Tên đơn vị":"Nhà Thuốc Hồng Huệ 2","Địa chỉ":"132 Trần Phú","Số điện thoại":"02706250104","Số ký hiệu":"02706250104","Phân loại":"1","Trạng thái đạt chuẩn GPP":"1","layer_id":327,"fid":12,"label":"Nhà Thuốc Hồng Huệ 2"}},{"type":"Feature","id":13,"geometry":{"type":"Point","coordinates":[105.980469404,10.248946428]},"properties":{"Tên đơn vị":"nhà thuốc tây Phương Dung","Địa chỉ":"100 A Trần Phú","Số điện thoại":"02703824026","Số ký hiệu":"02703824026","Phân loại":"1","Trạng thái đạt chuẩn GPP":"1","layer_id":327,"fid":13,"label":"nhà thuốc tây Phương Dung"}},{"type":"Feature","id":14,"geometry":{"type":"Point","coordinates":[105.984214968,10.245275941]},"properties":{"Tên đơn vị":"Nhà Thuốc Tây Nguyên Thịnh","Địa chỉ":"7 Trần Phú","Số điện thoại":"02703825619","Số ký hiệu":"02703825619","Phân loại":"1","Trạng thái đạt chuẩn GPP":"1","layer_id":327,"fid":14,"label":"Nhà Thuốc Tây Nguyên Thịnh"}},{"type":"Feature","id":15,"geometry":{"type":"Point","coordinates":[105.987222988,10.240615385]},"properties":{"Tên đơn vị":"Nhà Thuốc 368","Địa chỉ":"Trần Phú, Phường 4, Vĩnh Long, Việt Nam","Số điện thoại":"02703502944","Số ký hiệu":"02703502944","Phân loại":"1","Trạng thái đạt chuẩn GPP":"1","layer_id":327,"fid":15,"label":"Nhà Thuốc 368"}},{"type":"Feature","id":16,"geometry":{"type":"Point","coordinates":[105.98864351,10.233092412]},"properties":{"Tên đơn vị":"Nhà Thuốc Tây Nam Minh Đạt","Địa chỉ":"64/2c Trần Phú","Số điện thoại":"02703830252","Số ký hiệu":"02703830252","Phân loại":"1","Trạng thái đạt chuẩn GPP":"1","layer_id":327,"fid":16,"label":"Nhà Thuốc Tây Nam Minh Đạt"}},{"type":"Feature","id":17,"geometry":{"type":"Point","coordinates":[105.987799366,10.232760212]},"properties":{"Tên đơn vị":"Nhà Thuốc Ngọc Lan","Địa chỉ":"64 Trần Phú","Số điện thoại":"02703822725","Số ký hiệu":"02703822725","Phân loại":"1","Trạng thái đạt chuẩn GPP":"1","layer_id":327,"fid":17,"label":"Nhà Thuốc Ngọc Lan"}},{"type":"Feature","id":18,"geometry":{"type":"Point","coordinates":[105.994322194,10.233730904]},"properties":{"Tên đơn vị":"Nhà Thuốc Trung Sơn","Địa chỉ":"Số 64/4G Trần Phú","Số điện thoại":"02703828868","Số ký hiệu":"02703828868","Phân loại":"1","Trạng thái đạt chuẩn GPP":"1","layer_id":327,"fid":18,"label":"Nhà Thuốc Trung Sơn"}},{"type":"Feature","id":46,"geometry":{"type":"Point","coordinates":[106.117894873,10.084181845]},"properties":{"Tên đơn vị":"Nhà Thuốc FPT Long Châu","Địa chỉ":"QL53","Số điện thoại":"18006928","Số ký hiệu":"18006928","Phân loại":"1","Trạng thái đạt chuẩn GPP":"1","layer_id":327,"fid":46,"label":"Nhà Thuốc FPT Long Châu"}},{"type":"Feature","id":19,"geometry":{"type":"Point","coordinates":[106.015718359,10.242034814]},"properties":{"Tên đơn vị":"Nhà Thuốc Minh Hoàng","Địa chỉ":"65 Trần Phú","Số điện thoại":"02703832286","Số ký hiệu":"02703832286","Phân loại":"1","Trạng thái đạt chuẩn GPP":"1","layer_id":327,"fid":19,"label":"Nhà Thuốc Minh Hoàng"}},{"type":"Feature","id":20,"geometry":{"type":"Point","coordinates":[105.990065104,10.23474862]},"properties":{"Tên đơn vị":"Nhà Thuốc Tây Thanh Tân","Địa chỉ":"19 Trần Phú","Số điện thoại":"0703836989","Số ký hiệu":"0703836989","Phân loại":"1","Trạng thái đạt chuẩn GPP":"1","layer_id":327,"fid":20,"label":"Nhà Thuốc Tây Thanh Tân"}},{"type":"Feature","id":21,"geometry":{"type":"Point","coordinates":[105.990445847,10.236220051]},"properties":{"Tên đơn vị":"Nhà Thuốc Tuấn Quang","Địa chỉ":"61 Trần Phú","Số điện thoại":"02703827520","Số ký hiệu":"02703827520","Phân loại":"1","Trạng thái đạt chuẩn GPP":"1","layer_id":327,"fid":21,"label":"Nhà Thuốc Tuấn Quang"}},{"type":"Feature","id":22,"geometry":{"type":"Point","coordinates":[105.986911173,10.246262733]},"properties":{"Tên đơn vị":"Nhà Thuốc Hoàng Hải","Địa chỉ":"155 Trần Đại Nghĩa","Số điện thoại":"0914449140","Số ký hiệu":"0914449140","Phân loại":"1","Trạng thái đạt chuẩn GPP":"1","layer_id":327,"fid":22,"label":"Nhà Thuốc Hoàng Hải"}},{"type":"Feature","id":23,"geometry":{"type":"Point","coordinates":[105.995665567,10.233741413]},"properties":{"Tên đơn vị":"Nhà thuốc An Khang","Địa chỉ":"64/7H Đ. Phó Cơ Điều","Số điện thoại":"19001572","Số ký hiệu":"19001572","Phân loại":"1","Trạng thái đạt chuẩn GPP":"1","layer_id":327,"fid":23,"label":"Nhà thuốc An Khang"}},{"type":"Feature","id":24,"geometry":{"type":"Point","coordinates":[106.000643663,10.23474982]},"properties":{"Tên đơn vị":"Nhà thuốc Pharmacity","Địa chỉ":"64/6F, Trần Phú","Số điện thoại":"18006821","Số ký hiệu":"18006821","Phân loại":"1","Trạng thái đạt chuẩn GPP":"1","layer_id":327,"fid":24,"label":"Nhà thuốc Pharmacity"}},{"type":"Feature","id":25,"geometry":{"type":"Point","coordinates":[105.988889625,10.229960072]},"properties":{"Tên đơn vị":"Nhà Thuốc Tây Cẩm Tiên","Địa chỉ":"34 Trần Phú","Số điện thoại":"02703825957","Số ký hiệu":"02703825957","Phân loại":"1","Trạng thái đạt chuẩn GPP":"1","layer_id":327,"fid":25,"label":"Nhà Thuốc Tây Cẩm Tiên"}},{"type":"Feature","id":26,"geometry":{"type":"Point","coordinates":[105.977985599,10.234484338]},"properties":{"Tên đơn vị":"Quầy thuốc Bình Nhu","Địa chỉ":"24 Đ. Phó Cơ Điều","Số điện thoại":"0382455028","Số ký hiệu":"0382455028","Phân loại":"1","Trạng thái đạt chuẩn GPP":"1","layer_id":327,"fid":26,"label":"Quầy thuốc Bình Nhu"}},{"type":"Feature","id":27,"geometry":{"type":"Point","coordinates":[105.97637397,10.233622511]},"properties":{"Tên đơn vị":"Nhà thuốc tây Hằng 2","Địa chỉ":"67/4D Đ. Phó Cơ Điều","Số điện thoại":"02702210567","Số ký hiệu":"02702210567","Phân loại":"1","Trạng thái đạt chuẩn GPP":"1","layer_id":327,"fid":27,"label":"Nhà thuốc tây Hằng 2"}},{"type":"Feature","id":28,"geometry":{"type":"Point","coordinates":[105.971538688,10.241007162]},"properties":{"Tên đơn vị":"Nhà Thuốc Tây Duy Khánh","Địa chỉ":"57/6A Mậu Thân","Số điện thoại":"0901002280","Số ký hiệu":"0901002280","Phân loại":"1","Trạng thái đạt chuẩn GPP":"1","layer_id":327,"fid":28,"label":"Nhà Thuốc Tây Duy Khánh"}},{"type":"Feature","id":29,"geometry":{"type":"Point","coordinates":[105.971383988,10.242082342]},"properties":{"Tên đơn vị":"Nhà Thuốc Nhi - Nhi Pharmacy","Địa chỉ":"52/2 Mậu Thân","Số điện thoại":"0902457588","Số ký hiệu":"0902457588","Phân loại":"1","Trạng thái đạt chuẩn GPP":"1","layer_id":327,"fid":29,"label":"Nhà Thuốc Nhi - Nhi Pharmacy"}},{"type":"Feature","id":30,"geometry":{"type":"Point","coordinates":[106.002738855,10.250033299]},"properties":{"Tên đơn vị":"Nhà Thuốc Thuý Nga","Địa chỉ":"158a Nguyễn Văn Thiệt","Số điện thoại":"0786486676","Số ký hiệu":"0786486676","Phân loại":"1","Trạng thái đạt chuẩn GPP":"1","layer_id":327,"fid":30,"label":"Nhà Thuốc Thuý Nga"}},{"type":"Feature","id":31,"geometry":{"type":"Point","coordinates":[105.959778794,10.238961459]},"properties":{"Tên đơn vị":"Nhà Thuốc Tây Minh Tâm","Địa chỉ":"Đường Cao Thắng","Số điện thoại":"02703832827","Số ký hiệu":"02703832827","Phân loại":"1","Trạng thái đạt chuẩn GPP":"1","layer_id":327,"fid":31,"label":"Nhà Thuốc Tây Minh Tâm"}},{"type":"Feature","id":32,"geometry":{"type":"Point","coordinates":[105.957399637,10.237175477]},"properties":{"Tên đơn vị":"Nhà Thuốc Tây Thanh Hiền 2","Địa chỉ":"11 Đinh Tiên Hoàng","Số điện thoại":"02703877541","Số ký hiệu":"02703877541","Phân loại":"1","Trạng thái đạt chuẩn GPP":"1","layer_id":327,"fid":32,"label":"Nhà Thuốc Tây Thanh Hiền 2"}},{"type":"Feature","id":33,"geometry":{"type":"Point","coordinates":[105.96133338,10.255074874]},"properties":{"Tên đơn vị":"Nhà Thuốc Thanh Vân","Địa chỉ":"1 Đ. Phạm Hùng, Khóm 2","Số điện thoại":"02703822127","Số ký hiệu":"02703822127","Phân loại":"1","Trạng thái đạt chuẩn GPP":"1","layer_id":327,"fid":33,"label":"Nhà Thuốc Thanh Vân"}},{"type":"Feature","id":34,"geometry":{"type":"Point","coordinates":[105.952262479,10.261367376]},"properties":{"Tên đơn vị":"Nhà Thuốc Minh Anh","Địa chỉ":"150 Phạm Hùng, K5","Số điện thoại":"0977735933","Số ký hiệu":"0977735933","Phân loại":"1","Trạng thái đạt chuẩn GPP":"1","layer_id":327,"fid":34,"label":"Nhà Thuốc Minh Anh"}},{"type":"Feature","id":35,"geometry":{"type":"Point","coordinates":[105.947944569,10.259590149]},"properties":{"Tên đơn vị":"Hiệp Thành Pharmacy","Địa chỉ":"Đ.Phạm Hùng","Số điện thoại":"0907727357","Số ký hiệu":"0907727357","Phân loại":"1","Trạng thái đạt chuẩn GPP":"1","layer_id":327,"fid":35,"label":"Hiệp Thành Pharmacy"}},{"type":"Feature","id":36,"geometry":{"type":"Point","coordinates":[105.943140514,10.26027362]},"properties":{"Tên đơn vị":"Nhà thuốc KHẢI HOÀN 9","Địa chỉ":"33 Đ. Phạm Hùng","Số điện thoại":"0919002848","Số ký hiệu":"0919002848","Phân loại":"1","Trạng thái đạt chuẩn GPP":"1","layer_id":327,"fid":36,"label":"Nhà thuốc KHẢI HOÀN 9"}},{"type":"Feature","id":122,"geometry":{"type":"Point","coordinates":[105.994414608,10.215957106]},"properties":{"Tên đơn vị":"Nhà Thuốc Hồng Khanh","Địa chỉ":"QL53","Số điện thoại":"","Số ký hiệu":"","Phân loại":"1","Trạng thái đạt chuẩn GPP":"1","layer_id":327,"fid":122,"label":"Nhà Thuốc Hồng Khanh"}},{"type":"Feature","id":37,"geometry":{"type":"Point","coordinates":[105.934359397,10.263669448]},"properties":{"Tên đơn vị":"Nhà Thuốc FPT Long Châu","Địa chỉ":"157 QL1A","Số điện thoại":"18006928","Số ký hiệu":"18006928","Phân loại":"1","Trạng thái đạt chuẩn GPP":"1","layer_id":327,"fid":37,"label":"Nhà Thuốc FPT Long Châu"}},{"type":"Feature","id":38,"geometry":{"type":"Point","coordinates":[105.974688983,10.256189756]},"properties":{"Tên đơn vị":"Nhà Thuốc FPT Long Châu","Địa chỉ":"77 Đường 1/5","Số điện thoại":"18006928","Số ký hiệu":"18006928","Phân loại":"1","Trạng thái đạt chuẩn GPP":"1","layer_id":327,"fid":38,"label":"Nhà Thuốc FPT Long Châu"}},{"type":"Feature","id":39,"geometry":{"type":"Point","coordinates":[105.757710055,10.103558265]},"properties":{"Tên đơn vị":"Nhà Thuốc FPT Long Châu","Địa chỉ":"1237 QL54","Số điện thoại":"18006928","Số ký hiệu":"18006928","Phân loại":"1","Trạng thái đạt chuẩn GPP":"1","layer_id":327,"fid":39,"label":"Nhà Thuốc FPT Long Châu"}},{"type":"Feature","id":40,"geometry":{"type":"Point","coordinates":[105.970759696,10.2406896]},"properties":{"Tên đơn vị":"Nhà Thuốc FPT Long Châu","Địa chỉ":"54/5 Mậu Thân","Số điện thoại":"18006928","Số ký hiệu":"18006928","Phân loại":"1","Trạng thái đạt chuẩn GPP":"1","layer_id":327,"fid":40,"label":"Nhà Thuốc FPT Long Châu"}},{"type":"Feature","id":41,"geometry":{"type":"Point","coordinates":[105.999883101,10.257903534]},"properties":{"Tên đơn vị":"Nhà Thuốc FPT Long Châu","Địa chỉ":"174 ĐT902","Số điện thoại":"18006928","Số ký hiệu":"18006928","Phân loại":"1","Trạng thái đạt chuẩn GPP":"1","layer_id":327,"fid":41,"label":"Nhà Thuốc FPT Long Châu"}},{"type":"Feature","id":42,"geometry":{"type":"Point","coordinates":[106.012822483,10.191805271]},"properties":{"Tên đơn vị":"Nhà Thuốc FPT Long Châu","Địa chỉ":"416 - 416A QL53","Số điện thoại":"18006928","Số ký hiệu":"18006928","Phân loại":"1","Trạng thái đạt chuẩn GPP":"1","layer_id":327,"fid":42,"label":"Nhà Thuốc FPT Long Châu"}},{"type":"Feature","id":43,"geometry":{"type":"Point","coordinates":[106.10907279,10.174441889]},"properties":{"Tên đơn vị":"Nhà Thuốc FPT Long Châu","Địa chỉ":"2 Phạm Hùng","Số điện thoại":"18006928","Số ký hiệu":"18006928","Phân loại":"1","Trạng thái đạt chuẩn GPP":"1","layer_id":327,"fid":43,"label":"Nhà Thuốc FPT Long Châu"}},{"type":"Feature","id":44,"geometry":{"type":"Point","coordinates":[105.966394846,10.1126973]},"properties":{"Tên đơn vị":"Nhà Thuốc FPT Long Châu","Địa chỉ":"196 Ấp Mỹ Phú","Số điện thoại":"18006928","Số ký hiệu":"18006928","Phân loại":"1","Trạng thái đạt chuẩn GPP":"1","layer_id":327,"fid":44,"label":"Nhà Thuốc FPT Long Châu"}},{"type":"Feature","id":45,"geometry":{"type":"Point","coordinates":[105.901558315,10.115165864]},"properties":{"Tên đơn vị":"Nhà Thuốc FPT Long Châu","Địa chỉ":"28 Đường Số 1","Số điện thoại":"18006928","Số ký hiệu":"18006928","Phân loại":"1","Trạng thái đạt chuẩn GPP":"1","layer_id":327,"fid":45,"label":"Nhà Thuốc FPT Long Châu"}},{"type":"Feature","id":47,"geometry":{"type":"Point","coordinates":[105.821181048,10.06787712]},"properties":{"Tên đơn vị":"Nhà Thuốc FPT Long Châu","Địa chỉ":"991 Đường Ngô Quyền","Số điện thoại":"18006928","Số ký hiệu":"18006928","Phân loại":"1","Trạng thái đạt chuẩn GPP":"1","layer_id":327,"fid":47,"label":"Nhà Thuốc FPT Long Châu"}},{"type":"Feature","id":48,"geometry":{"type":"Point","coordinates":[106.000082865,10.049037843]},"properties":{"Tên đơn vị":"Nhà Thuốc FPT Long Châu","Địa chỉ":"Phan Văn Đáng","Số điện thoại":"18006928","Số ký hiệu":"18006928","Phân loại":"1","Trạng thái đạt chuẩn GPP":"1","layer_id":327,"fid":48,"label":"Nhà Thuốc FPT Long Châu"}},{"type":"Feature","id":49,"geometry":{"type":"Point","coordinates":[105.835540786,10.046348747]},"properties":{"Tên đơn vị":"Nhà Thuốc FPT Long Châu","Địa chỉ":"408 Nguyễn Thị Minh Khai","Số điện thoại":"18006928","Số ký hiệu":"18006928","Phân loại":"1","Trạng thái đạt chuẩn GPP":"1","layer_id":327,"fid":49,"label":"Nhà Thuốc FPT Long Châu"}},{"type":"Feature","id":50,"geometry":{"type":"Point","coordinates":[105.823792377,10.070724409]},"properties":{"Tên đơn vị":"Nhà Thuốc FPT Long Châu","Địa chỉ":"38 Nguyễn Văn Thảnh","Số điện thoại":"18006928","Số ký hiệu":"18006928","Phân loại":"1","Trạng thái đạt chuẩn GPP":"1","layer_id":327,"fid":50,"label":"Nhà Thuốc FPT Long Châu"}},{"type":"Feature","id":51,"geometry":{"type":"Point","coordinates":[106.008435552,9.950899014]},"properties":{"Tên đơn vị":"Nhà Thuốc FPT Long Châu","Địa chỉ":"272 QL54","Số điện thoại":"18006928","Số ký hiệu":"18006928","Phân loại":"1","Trạng thái đạt chuẩn GPP":"1","layer_id":327,"fid":51,"label":"Nhà Thuốc FPT Long Châu"}},{"type":"Feature","id":52,"geometry":{"type":"Point","coordinates":[106.083098824,9.960149478]},"properties":{"Tên đơn vị":"Nhà Thuốc FPT Long Châu","Địa chỉ":"03 Đường ĐT 911, X","Số điện thoại":"18006928","Số ký hiệu":"18006928","Phân loại":"1","Trạng thái đạt chuẩn GPP":"1","layer_id":327,"fid":52,"label":"Nhà Thuốc FPT Long Châu"}},{"type":"Feature","id":53,"geometry":{"type":"Point","coordinates":[106.185673999,10.095855801]},"properties":{"Tên đơn vị":"Nhà Thuốc FPT Long Châu","Địa chỉ":"164 Nam Kỳ Khởi Nghĩa","Số điện thoại":"18006928","Số ký hiệu":"18006928","Phân loại":"1","Trạng thái đạt chuẩn GPP":"1","layer_id":327,"fid":53,"label":"Nhà Thuốc FPT Long Châu"}},{"type":"Feature","id":54,"geometry":{"type":"Point","coordinates":[106.012235756,10.192291005]},"properties":{"Tên đơn vị":"Nhà thuốc An Khang","Địa chỉ":"Khóm 1","Số điện thoại":"19001572","Số ký hiệu":"19001572","Phân loại":"1","Trạng thái đạt chuẩn GPP":"1","layer_id":327,"fid":54,"label":"Nhà thuốc An Khang"}},{"type":"Feature","id":55,"geometry":{"type":"Point","coordinates":[106.108914464,10.174413088]},"properties":{"Tên đơn vị":"Nhà thuốc An Khang","Địa chỉ":"Khóm 1","Số điện thoại":"19001572","Số ký hiệu":"19001572","Phân loại":"1","Trạng thái đạt chuẩn GPP":"1","layer_id":327,"fid":55,"label":"Nhà thuốc An Khang"}},{"type":"Feature","id":56,"geometry":{"type":"Point","coordinates":[106.186946434,10.095652687]},"properties":{"Tên đơn vị":"Nhà thuốc An Khang","Địa chỉ":"158A Nam Kỳ Khởi Nghĩa, Khóm 2","Số điện thoại":"19001572","Số ký hiệu":"19001572","Phân loại":"1","Trạng thái đạt chuẩn GPP":"1","layer_id":327,"fid":56,"label":"Nhà thuốc An Khang"}},{"type":"Feature","id":57,"geometry":{"type":"Point","coordinates":[105.956887942,10.237723692]},"properties":{"Tên đơn vị":"Nhà thuốc Pharmacity","Địa chỉ":"34A Đinh Tiên Hoàng","Số điện thoại":"18006821","Số ký hiệu":"18006821","Phân loại":"1","Trạng thái đạt chuẩn GPP":"1","layer_id":327,"fid":57,"label":"Nhà thuốc Pharmacity"}},{"type":"Feature","id":58,"geometry":{"type":"Point","coordinates":[105.933489142,10.264121961]},"properties":{"Tên đơn vị":"Nhà thuốc Pharmacity","Địa chỉ":"139 Tân Quới Đông","Số điện thoại":"18006821","Số ký hiệu":"18006821","Phân loại":"1","Trạng thái đạt chuẩn GPP":"1","layer_id":327,"fid":58,"label":"Nhà thuốc Pharmacity"}},{"type":"Feature","id":59,"geometry":{"type":"Point","coordinates":[105.973584311,10.253450611]},"properties":{"Tên đơn vị":"Nhà thuốc Pharmacity","Địa chỉ":"24 Đường Hưng Đạo Vương","Số điện thoại":"18006821","Số ký hiệu":"18006821","Phân loại":"1","Trạng thái đạt chuẩn GPP":"1","layer_id":327,"fid":59,"label":"Nhà thuốc Pharmacity"}},{"type":"Feature","id":60,"geometry":{"type":"Point","coordinates":[105.963432225,10.236286648]},"properties":{"Tên đơn vị":"Nhà thuốc Pharmacity","Địa chỉ":"79/9A, Đ. Phó Cơ Điều","Số điện thoại":"18006821","Số ký hiệu":"18006821","Phân loại":"1","Trạng thái đạt chuẩn GPP":"1","layer_id":327,"fid":60,"label":"Nhà thuốc Pharmacity"}},{"type":"Feature","id":61,"geometry":{"type":"Point","coordinates":[105.97307442,10.257233351]},"properties":{"Tên đơn vị":"Nhà Thuốc Tây Nhơn Hòa","Địa chỉ":"10 Chi Lăng","Số điện thoại":"02703822968","Số ký hiệu":"02703822968","Phân loại":"1","Trạng thái đạt chuẩn GPP":"1","layer_id":327,"fid":61,"label":"Nhà Thuốc Tây Nhơn Hòa"}},{"type":"Feature","id":62,"geometry":{"type":"Point","coordinates":[105.975192649,10.243786715]},"properties":{"Tên đơn vị":"Nhà Thuốc Thầy Thùng","Địa chỉ":"400 đường Nguyễn Văn Thiệt","Số điện thoại":"0918866699","Số ký hiệu":"0918866699","Phân loại":"1","Trạng thái đạt chuẩn GPP":"1","layer_id":327,"fid":62,"label":"Nhà Thuốc Thầy Thùng"}},{"type":"Feature","id":63,"geometry":{"type":"Point","coordinates":[105.970593066,10.24564511]},"properties":{"Tên đơn vị":"Nhà thuốc Minh Nghĩa","Địa chỉ":"11/8 Mậu Thân","Số điện thoại":"","Số ký hiệu":"","Phân loại":"2","Trạng thái đạt chuẩn GPP":"1","layer_id":327,"fid":63,"label":"Nhà thuốc Minh Nghĩa"}},{"type":"Feature","id":64,"geometry":{"type":"Point","coordinates":[105.936859154,10.247837571]},"properties":{"Tên đơn vị":"Quầy Thuốc Tây Quang Hà","Địa chỉ":"6WXP+3F8, Tân Quới Hưng","Số điện thoại":"","Số ký hiệu":"","Phân loại":"2","Trạng thái đạt chuẩn GPP":"1","layer_id":327,"fid":64,"label":"Quầy Thuốc Tây Quang Hà"}},{"type":"Feature","id":65,"geometry":{"type":"Point","coordinates":[105.919820618,10.250397426]},"properties":{"Tên đơn vị":"Nhà thuốc Văn","Địa chỉ":"77 Vĩnh Phú","Số điện thoại":"0901050738","Số ký hiệu":"0901050738","Phân loại":"1","Trạng thái đạt chuẩn GPP":"1","layer_id":327,"fid":65,"label":"Nhà thuốc Văn"}},{"type":"Feature","id":66,"geometry":{"type":"Point","coordinates":[105.979023031,10.231724321]},"properties":{"Tên đơn vị":"Đại Lý Thuốc Tây Phan Tâm","Địa chỉ":"Đ.Đoàn Giỏi","Số điện thoại":"","Số ký hiệu":"","Phân loại":"1","Trạng thái đạt chuẩn GPP":"1","layer_id":327,"fid":66,"label":"Đại Lý Thuốc Tây Phan Tâm"}},{"type":"Feature","id":67,"geometry":{"type":"Point","coordinates":[105.974966531,10.257075936]},"properties":{"Tên đơn vị":"Nhà Thuốc Trung Sơn","Địa chỉ":"2A, 3 Tháng 2","Số điện thoại":"02703837668","Số ký hiệu":"02703837668","Phân loại":"1","Trạng thái đạt chuẩn GPP":"1","layer_id":327,"fid":67,"label":"Nhà Thuốc Trung Sơn"}},{"type":"Feature","id":68,"geometry":{"type":"Point","coordinates":[105.952349498,10.231775554]},"properties":{"Tên đơn vị":"Nhà thuốc tây Yên Định","Địa chỉ":"Đ. Đinh Tiên Hoàng, khóm 5","Số điện thoại":"0794360655","Số ký hiệu":"0794360655","Phân loại":"1","Trạng thái đạt chuẩn GPP":"1","layer_id":327,"fid":68,"label":"Nhà thuốc tây Yên Định"}},{"type":"Feature","id":69,"geometry":{"type":"Point","coordinates":[105.931865985,10.165638421]},"properties":{"Tên đơn vị":"Nhà Thuốc Trung Sơn","Địa chỉ":"5 QL1A","Số điện thoại":"02703837668","Số ký hiệu":"02703837668","Phân loại":"1","Trạng thái đạt chuẩn GPP":"1","layer_id":327,"fid":69,"label":"Nhà Thuốc Trung Sơn"}},{"type":"Feature","id":70,"geometry":{"type":"Point","coordinates":[105.975317362,10.243100346]},"properties":{"Tên đơn vị":"Nhà thuốc Thiên Tân","Địa chỉ":"5 Đinh Tiên Hoàng","Số điện thoại":"","Số ký hiệu":"","Phân loại":"1","Trạng thái đạt chuẩn GPP":"1","layer_id":327,"fid":70,"label":"Nhà thuốc Thiên Tân"}},{"type":"Feature","id":71,"geometry":{"type":"Point","coordinates":[105.912038672,10.117818684]},"properties":{"Tên đơn vị":"Nhà Thuốc Trung Sơn","Địa chỉ":"H, Thửa 820, Khu Đô Thị Song Phú","Số điện thoại":"1800558898","Số ký hiệu":"1800558898","Phân loại":"1","Trạng thái đạt chuẩn GPP":"1","layer_id":327,"fid":71,"label":"Nhà Thuốc Trung Sơn"}},{"type":"Feature","id":72,"geometry":{"type":"Point","coordinates":[106.007622888,9.951785298]},"properties":{"Tên đơn vị":"Nhà Thuốc Trung Sơn","Địa chỉ":"Số 268-269, QL54, ấp Vĩnh Trinh","Số điện thoại":"0866124068","Số ký hiệu":"0866124068","Phân loại":"1","Trạng thái đạt chuẩn GPP":"1","layer_id":327,"fid":72,"label":"Nhà Thuốc Trung Sơn"}},{"type":"Feature","id":73,"geometry":{"type":"Point","coordinates":[105.967806706,10.11314017]},"properties":{"Tên đơn vị":"Nhà Thuốc Trung Sơn","Địa chỉ":"Số 319 Tổ NDTQ 21, Ấp Mỹ Phú","Số điện thoại":"0886766060","Số ký hiệu":"0886766060","Phân loại":"1","Trạng thái đạt chuẩn GPP":"1","layer_id":327,"fid":73,"label":"Nhà Thuốc Trung Sơn"}},{"type":"Feature","id":74,"geometry":{"type":"Point","coordinates":[105.969463377,10.216656482]},"properties":{"Tên đơn vị":"Thuốc tây Hoàng Nguyên","Địa chỉ":"Đường Phước Hậu","Số điện thoại":"","Số ký hiệu":"","Phân loại":"2","Trạng thái đạt chuẩn GPP":"1","layer_id":327,"fid":74,"label":"Thuốc tây Hoàng Nguyên"}},{"type":"Feature","id":75,"geometry":{"type":"Point","coordinates":[105.953087593,10.231935605]},"properties":{"Tên đơn vị":"Nhà Thuốc Tây Hoàn Mỹ","Địa chỉ":"Đ. Nguyễn Văn Lâu","Số điện thoại":"","Số ký hiệu":"","Phân loại":"1","Trạng thái đạt chuẩn GPP":"1","layer_id":327,"fid":75,"label":"Nhà Thuốc Tây Hoàn Mỹ"}},{"type":"Feature","id":76,"geometry":{"type":"Point","coordinates":[105.958687741,10.230023903]},"properties":{"Tên đơn vị":"Nhà Thuốc Bình Nhu","Địa chỉ":"110 Đinh Tiên Hoàng","Số điện thoại":"0908132159","Số ký hiệu":"0908132159","Phân loại":"1","Trạng thái đạt chuẩn GPP":"1","layer_id":327,"fid":76,"label":"Nhà Thuốc Bình Nhu"}},{"type":"Feature","id":77,"geometry":{"type":"Point","coordinates":[105.956235,10.231092438]},"properties":{"Tên đơn vị":"Nhà Thuốc Tây Kim Huê","Địa chỉ":"118A Đinh Tiên Hoàng","Số điện thoại":"0909898734","Số ký hiệu":"0909898734","Phân loại":"1","Trạng thái đạt chuẩn GPP":"1","layer_id":327,"fid":77,"label":"Nhà Thuốc Tây Kim Huê"}},{"type":"Feature","id":78,"geometry":{"type":"Point","coordinates":[105.955897702,10.229200348]},"properties":{"Tên đơn vị":"Thuốc Tây Thảo Tiên","Địa chỉ":"Phường 8","Số điện thoại":"","Số ký hiệu":"","Phân loại":"2","Trạng thái đạt chuẩn GPP":"1","layer_id":327,"fid":78,"label":"Thuốc Tây Thảo Tiên"}},{"type":"Feature","id":79,"geometry":{"type":"Point","coordinates":[105.958910039,10.237055195]},"properties":{"Tên đơn vị":"Nhà thuốc phước thọ","Địa chỉ":"Số 8 Phạm Hồng Thái","Số điện thoại":"0326693978","Số ký hiệu":"0326693978","Phân loại":"1","Trạng thái đạt chuẩn GPP":"1","layer_id":327,"fid":79,"label":"Nhà thuốc phước thọ"}},{"type":"Feature","id":80,"geometry":{"type":"Point","coordinates":[105.953917383,10.224221542]},"properties":{"Tên đơn vị":"Nhà Thuốc Ngoài Giờ Vân Anh","Địa chỉ":"Đinh Tiên Hoàng","Số điện thoại":"02703827240","Số ký hiệu":"02703827240","Phân loại":"1","Trạng thái đạt chuẩn GPP":"1","layer_id":327,"fid":80,"label":"Nhà Thuốc Ngoài Giờ Vân Anh"}},{"type":"Feature","id":81,"geometry":{"type":"Point","coordinates":[105.96013453,10.237442773]},"properties":{"Tên đơn vị":"Nhà Thuốc Thanh Hiền","Địa chỉ":"5, Đường Phạm Hồng Thái","Số điện thoại":"02703823720","Số ký hiệu":"02703823720","Phân loại":"1","Trạng thái đạt chuẩn GPP":"1","layer_id":327,"fid":81,"label":"Nhà Thuốc Thanh Hiền"}},{"type":"Feature","id":82,"geometry":{"type":"Point","coordinates":[105.948834645,10.232693895]},"properties":{"Tên đơn vị":"Hiệu thuốc Anh Huy","Địa chỉ":"F31 Đinh Tiên Hoàng","Số điện thoại":"0919362088","Số ký hiệu":"0919362088","Phân loại":"1","Trạng thái đạt chuẩn GPP":"1","layer_id":327,"fid":82,"label":"Hiệu thuốc Anh Huy"}},{"type":"Feature","id":83,"geometry":{"type":"Point","coordinates":[105.964772727,10.235445586]},"properties":{"Tên đơn vị":"Nhà thuốc tây HẰNG","Địa chỉ":"78/16 Đ. Phó Cơ Điều","Số điện thoại":"0328186884","Số ký hiệu":"0328186884","Phân loại":"1","Trạng thái đạt chuẩn GPP":"1","layer_id":327,"fid":83,"label":"Nhà thuốc tây HẰNG"}},{"type":"Feature","id":84,"geometry":{"type":"Point","coordinates":[105.965459557,10.234814048]},"properties":{"Tên đơn vị":"Nhà Thuốc Loan Phượng","Địa chỉ":"77/3E, Khóm 4, Đ. Phó Cơ Điều","Số điện thoại":"0399954164","Số ký hiệu":"0399954164","Phân loại":"1","Trạng thái đạt chuẩn GPP":"1","layer_id":327,"fid":84,"label":"Nhà Thuốc Loan Phượng"}},{"type":"Feature","id":85,"geometry":{"type":"Point","coordinates":[105.959969619,10.239041275]},"properties":{"Tên đơn vị":"Nhà Thuốc Thế Hải","Địa chỉ":"9 Đ. Phó Cơ Điều","Số điện thoại":"02703828315","Số ký hiệu":"02703828315","Phân loại":"1","Trạng thái đạt chuẩn GPP":"1","layer_id":327,"fid":85,"label":"Nhà Thuốc Thế Hải"}},{"type":"Feature","id":86,"geometry":{"type":"Point","coordinates":[105.940119725,10.226208804]},"properties":{"Tên đơn vị":"Tiệm thuốc tây","Địa chỉ":"Chợ Tân Thới","Số điện thoại":"","Số ký hiệu":"","Phân loại":"2","Trạng thái đạt chuẩn GPP":"1","layer_id":327,"fid":86,"label":"Tiệm thuốc tây"}},{"type":"Feature","id":87,"geometry":{"type":"Point","coordinates":[105.943726031,10.24197159]},"properties":{"Tên đơn vị":"Nhà thuốc Vĩnh Phúc","Địa chỉ":"7 Nguyễn Văn Lâu, Ấp Tân An","Số điện thoại":"02703878009","Số ký hiệu":"02703878009","Phân loại":"1","Trạng thái đạt chuẩn GPP":"1","layer_id":327,"fid":87,"label":"Nhà thuốc Vĩnh Phúc"}},{"type":"Feature","id":88,"geometry":{"type":"Point","coordinates":[105.968900898,10.235716864]},"properties":{"Tên đơn vị":"Nhà thuốc tây Minh Khang","Địa chỉ":"71/17 Đ. Phó Cơ Điều","Số điện thoại":"","Số ký hiệu":"","Phân loại":"1","Trạng thái đạt chuẩn GPP":"1","layer_id":327,"fid":88,"label":"Nhà thuốc tây Minh Khang"}},{"type":"Feature","id":89,"geometry":{"type":"Point","coordinates":[105.942320885,10.26079238]},"properties":{"Tên đơn vị":"Nhà Thuốc Tây Hạnh Phúc","Địa chỉ":"3/8 Phạm Hùng","Số điện thoại":"02703888335","Số ký hiệu":"02703888335","Phân loại":"1","Trạng thái đạt chuẩn GPP":"1","layer_id":327,"fid":89,"label":"Nhà Thuốc Tây Hạnh Phúc"}},{"type":"Feature","id":90,"geometry":{"type":"Point","coordinates":[105.95140598,10.212500973]},"properties":{"Tên đơn vị":"Quầy Thuốc Tây Đạt Chất Chuẩn Gpp Lâm Hồng","Địa chỉ":"Cầu Cống","Số điện thoại":"","Số ký hiệu":"","Phân loại":"2","Trạng thái đạt chuẩn GPP":"1","layer_id":327,"fid":90,"label":"Quầy Thuốc Tây Đạt Chất Chuẩn Gpp Lâm Hồng"}},{"type":"Feature","id":91,"geometry":{"type":"Point","coordinates":[106.008378877,10.251928108]},"properties":{"Tên đơn vị":"Nhà Thuốc Hồng Minh","Địa chỉ":"51 Mậu Thân","Số điện thoại":"0839977444","Số ký hiệu":"0839977444","Phân loại":"1","Trạng thái đạt chuẩn GPP":"1","layer_id":327,"fid":91,"label":"Nhà Thuốc Hồng Minh"}},{"type":"Feature","id":92,"geometry":{"type":"Point","coordinates":[105.963979672,10.224505101]},"properties":{"Tên đơn vị":"Quầy Thuốc Nhơn Đức","Địa chỉ":"Đường Phước Hậu","Số điện thoại":"","Số ký hiệu":"","Phân loại":"2","Trạng thái đạt chuẩn GPP":"1","layer_id":327,"fid":92,"label":"Quầy Thuốc Nhơn Đức"}},{"type":"Feature","id":93,"geometry":{"type":"Point","coordinates":[105.969031884,10.234098271]},"properties":{"Tên đơn vị":"Nhà Thuốc Tây Thu Hảo","Địa chỉ":"Đ. Phó Cơ Điều","Số điện thoại":"","Số ký hiệu":"","Phân loại":"1","Trạng thái đạt chuẩn GPP":"1","layer_id":327,"fid":93,"label":"Nhà Thuốc Tây Thu Hảo"}},{"type":"Feature","id":94,"geometry":{"type":"Point","coordinates":[105.967062961,10.228228628]},"properties":{"Tên đơn vị":"Quầy Thuốc Sức Khỏe","Địa chỉ":"Đ. Phước Hậu","Số điện thoại":"","Số ký hiệu":"","Phân loại":"2","Trạng thái đạt chuẩn GPP":"1","layer_id":327,"fid":94,"label":"Quầy Thuốc Sức Khỏe"}},{"type":"Feature","id":95,"geometry":{"type":"Point","coordinates":[105.935712298,10.258221065]},"properties":{"Tên đơn vị":"Thuốc Tây Thiện Long","Địa chỉ":"Số 505 Tân Quới Đông","Số điện thoại":"0337453415","Số ký hiệu":"0337453415","Phân loại":"2","Trạng thái đạt chuẩn GPP":"1","layer_id":327,"fid":95,"label":"Thuốc Tây Thiện Long"}},{"type":"Feature","id":96,"geometry":{"type":"Point","coordinates":[105.977325827,10.253718682]},"properties":{"Tên đơn vị":"Nhà Thuốc Chưởng Phước Đường","Địa chỉ":"73 Ba Mươi Tháng Tư","Số điện thoại":"02703822279","Số ký hiệu":"02703822279","Phân loại":"1","Trạng thái đạt chuẩn GPP":"1","layer_id":327,"fid":96,"label":"Nhà Thuốc Chưởng Phước Đường"}},{"type":"Feature","id":97,"geometry":{"type":"Point","coordinates":[105.97098545,10.25377304]},"properties":{"Tên đơn vị":"Nhà thuốc Chú Thòn ( Vạn Xuân Đường)","Địa chỉ":"70 Đ. 3 Tháng 2","Số điện thoại":"","Số ký hiệu":"","Phân loại":"1","Trạng thái đạt chuẩn GPP":"1","layer_id":327,"fid":97,"label":"Nhà thuốc Chú Thòn ( Vạn Xuân Đường)"}},{"type":"Feature","id":98,"geometry":{"type":"Point","coordinates":[105.933407162,10.264747446]},"properties":{"Tên đơn vị":"Nhà Thuốc Tây Xuân Oanh","Địa chỉ":"Phạm Hùng","Số điện thoại":"0364553717","Số ký hiệu":"0364553717","Phân loại":"1","Trạng thái đạt chuẩn GPP":"1","layer_id":327,"fid":98,"label":"Nhà Thuốc Tây Xuân Oanh"}},{"type":"Feature","id":99,"geometry":{"type":"Point","coordinates":[105.977651322,10.252735828]},"properties":{"Tên đơn vị":"Nhà Thuốc 2C","Địa chỉ":"17 Đ. 2 Tháng 9","Số điện thoại":"","Số ký hiệu":"","Phân loại":"1","Trạng thái đạt chuẩn GPP":"1","layer_id":327,"fid":99,"label":"Nhà Thuốc 2C"}},{"type":"Feature","id":100,"geometry":{"type":"Point","coordinates":[105.992550032,10.236374525]},"properties":{"Tên đơn vị":"Nhà Thuốc Nam Triều","Địa chỉ":"37C Ấp Hưng Quới, Thanh Đức","Số điện thoại":"0703863747","Số ký hiệu":"0703863747","Phân loại":"1","Trạng thái đạt chuẩn GPP":"1","layer_id":327,"fid":100,"label":"Nhà Thuốc Nam Triều"}},{"type":"Feature","id":101,"geometry":{"type":"Point","coordinates":[105.988780241,10.224831493]},"properties":{"Tên đơn vị":"Quầy Thuốc Tây Lộc Thọ","Địa chỉ":"ấp Long Thuận A/152A/9 ĐH 25B","Số điện thoại":"0706384060","Số ký hiệu":"0706384060","Phân loại":"2","Trạng thái đạt chuẩn GPP":"1","layer_id":327,"fid":101,"label":"Quầy Thuốc Tây Lộc Thọ"}},{"type":"Feature","id":102,"geometry":{"type":"Point","coordinates":[105.983585523,10.248705858]},"properties":{"Tên đơn vị":"Nhà Thuốc KHOA NGUYÊN","Địa chỉ":"159A Đường 8 Tháng 3, Khóm 4","Số điện thoại":"0908474459","Số ký hiệu":"0908474459","Phân loại":"1","Trạng thái đạt chuẩn GPP":"1","layer_id":327,"fid":102,"label":"Nhà Thuốc KHOA NGUYÊN"}},{"type":"Feature","id":103,"geometry":{"type":"Point","coordinates":[105.989275823,10.233271119]},"properties":{"Tên đơn vị":"Nhà Thuốc Tây Ngọc Tuyết","Địa chỉ":"64 Trần Phú","Số điện thoại":"02703823760","Số ký hiệu":"02703823760","Phân loại":"1","Trạng thái đạt chuẩn GPP":"1","layer_id":327,"fid":103,"label":"Nhà Thuốc Tây Ngọc Tuyết"}},{"type":"Feature","id":104,"geometry":{"type":"Point","coordinates":[105.989924989,10.259993864]},"properties":{"Tên đơn vị":"Nhà Thuốc Tây Huy Hoàng","Địa chỉ":"254 Mười Bốn Tháng Chín","Số điện thoại":"","Số ký hiệu":"","Phân loại":"1","Trạng thái đạt chuẩn GPP":"1","layer_id":327,"fid":104,"label":"Nhà Thuốc Tây Huy Hoàng"}},{"type":"Feature","id":105,"geometry":{"type":"Point","coordinates":[106.004263124,10.214988607]},"properties":{"Tên đơn vị":"Nhà thuốc tây Kim Chi","Địa chỉ":"Đ. Thanh Đức","Số điện thoại":"0338587802","Số ký hiệu":"0338587802","Phân loại":"1","Trạng thái đạt chuẩn GPP":"1","layer_id":327,"fid":105,"label":"Nhà thuốc tây Kim Chi"}},{"type":"Feature","id":106,"geometry":{"type":"Point","coordinates":[105.979988652,10.254494626]},"properties":{"Tên đơn vị":"Nhà thuốc Hồng Huệ","Địa chỉ":"38 đường Mười Bốn Tháng Chín","Số điện thoại":"0918225014","Số ký hiệu":"0918225014","Phân loại":"1","Trạng thái đạt chuẩn GPP":"1","layer_id":327,"fid":106,"label":"Nhà thuốc Hồng Huệ"}},{"type":"Feature","id":107,"geometry":{"type":"Point","coordinates":[105.976011483,10.248838785]},"properties":{"Tên đơn vị":"Nhà Thuốc Thy","Địa chỉ":"25 Phạm Thái Bường","Số điện thoại":"","Số ký hiệu":"","Phân loại":"1","Trạng thái đạt chuẩn GPP":"1","layer_id":327,"fid":107,"label":"Nhà Thuốc Thy"}},{"type":"Feature","id":108,"geometry":{"type":"Point","coordinates":[105.99022882,10.260850548]},"properties":{"Tên đơn vị":"Nhà Thuốc Trân Châu","Địa chỉ":"183A Mười Bốn Tháng Chín","Số điện thoại":"02703895869","Số ký hiệu":"02703895869","Phân loại":"1","Trạng thái đạt chuẩn GPP":"1","layer_id":327,"fid":108,"label":"Nhà Thuốc Trân Châu"}},{"type":"Feature","id":109,"geometry":{"type":"Point","coordinates":[105.989484466,10.237564283]},"properties":{"Tên đơn vị":"Nhà Thuốc Tân Thành Phát","Địa chỉ":"48 Trần Phú","Số điện thoại":"0938722763","Số ký hiệu":"0938722763","Phân loại":"1","Trạng thái đạt chuẩn GPP":"1","layer_id":327,"fid":109,"label":"Nhà Thuốc Tân Thành Phát"}},{"type":"Feature","id":110,"geometry":{"type":"Point","coordinates":[105.98971426,10.258526249]},"properties":{"Tên đơn vị":"Nhà Thuốc Tế Dân","Địa chỉ":"89 Đ. 3 Tháng 2","Số điện thoại":"","Số ký hiệu":"","Phân loại":"1","Trạng thái đạt chuẩn GPP":"1","layer_id":327,"fid":110,"label":"Nhà Thuốc Tế Dân"}},{"type":"Feature","id":111,"geometry":{"type":"Point","coordinates":[105.975721361,10.251155112]},"properties":{"Tên đơn vị":"Nhà Thuốc Thanh Tâm","Địa chỉ":"71 Đ. 2 Tháng 9","Số điện thoại":"","Số ký hiệu":"","Phân loại":"1","Trạng thái đạt chuẩn GPP":"1","layer_id":327,"fid":111,"label":"Nhà Thuốc Thanh Tâm"}},{"type":"Feature","id":112,"geometry":{"type":"Point","coordinates":[105.981289534,10.252691607]},"properties":{"Tên đơn vị":"Nhà Thuốc Tây Huỳnh Lê","Địa chỉ":"Hẻm 33","Số điện thoại":"","Số ký hiệu":"","Phân loại":"1","Trạng thái đạt chuẩn GPP":"1","layer_id":327,"fid":112,"label":"Nhà Thuốc Tây Huỳnh Lê"}},{"type":"Feature","id":113,"geometry":{"type":"Point","coordinates":[105.979767912,10.243156615]},"properties":{"Tên đơn vị":"Nhà thuốc tây Quế Chi","Địa chỉ":"33 Phạm Thái Bường","Số điện thoại":"","Số ký hiệu":"","Phân loại":"1","Trạng thái đạt chuẩn GPP":"1","layer_id":327,"fid":113,"label":"Nhà thuốc tây Quế Chi"}},{"type":"Feature","id":114,"geometry":{"type":"Point","coordinates":[105.977928029,10.255492909]},"properties":{"Tên đơn vị":"Nhà Thuốc Gpp Vân Anh","Địa chỉ":"67 Nguyễn Chí Thanh","Số điện thoại":"","Số ký hiệu":"","Phân loại":"1","Trạng thái đạt chuẩn GPP":"1","layer_id":327,"fid":114,"label":"Nhà Thuốc Gpp Vân Anh"}},{"type":"Feature","id":115,"geometry":{"type":"Point","coordinates":[105.974983458,10.25317714]},"properties":{"Tên đơn vị":"Nhà Thuốc Minh Phụng","Địa chỉ":"49 Đường Nguyễn Thị Minh Khai","Số điện thoại":"02702221779","Số ký hiệu":"02702221779","Phân loại":"1","Trạng thái đạt chuẩn GPP":"1","layer_id":327,"fid":115,"label":"Nhà Thuốc Minh Phụng"}},{"type":"Feature","id":116,"geometry":{"type":"Point","coordinates":[105.973966087,10.257166995]},"properties":{"Tên đơn vị":"Nhà thuốc Thái Hòa","Địa chỉ":"41 Một Tháng Năm","Số điện thoại":"0337596917","Số ký hiệu":"0337596917","Phân loại":"1","Trạng thái đạt chuẩn GPP":"1","layer_id":327,"fid":116,"label":"Nhà thuốc Thái Hòa"}},{"type":"Feature","id":117,"geometry":{"type":"Point","coordinates":[105.963157634,10.253955251]},"properties":{"Tên đơn vị":"Nhà Thuốc Tây Hồng Thắng","Địa chỉ":"7 Nguyễn Huệ","Số điện thoại":"","Số ký hiệu":"","Phân loại":"1","Trạng thái đạt chuẩn GPP":"1","layer_id":327,"fid":117,"label":"Nhà Thuốc Tây Hồng Thắng"}},{"type":"Feature","id":118,"geometry":{"type":"Point","coordinates":[105.97471787,10.249288639]},"properties":{"Tên đơn vị":"Nhà Thuốc Phước Lợi","Địa chỉ":"30 Phạm Thái Bường","Số điện thoại":"02703822110","Số ký hiệu":"02703822110","Phân loại":"1","Trạng thái đạt chuẩn GPP":"1","layer_id":327,"fid":118,"label":"Nhà Thuốc Phước Lợi"}},{"type":"Feature","id":119,"geometry":{"type":"Point","coordinates":[105.978496438,10.245962886]},"properties":{"Tên đơn vị":"Nhà thuốc dược phẩm xanh","Địa chỉ":"74 Nguyễn Văn Thiệt","Số điện thoại":"","Số ký hiệu":"","Phân loại":"1","Trạng thái đạt chuẩn GPP":"1","layer_id":327,"fid":119,"label":"Nhà thuốc dược phẩm xanh"}},{"type":"Feature","id":120,"geometry":{"type":"Point","coordinates":[105.970937085,10.254323084]},"properties":{"Tên đơn vị":"Nhà Thuốc Tây Mai Khanh","Địa chỉ":"39 Đ. 3 Tháng 2","Số điện thoại":"02703834949","Số ký hiệu":"02703834949","Phân loại":"1","Trạng thái đạt chuẩn GPP":"1","layer_id":327,"fid":120,"label":"Nhà Thuốc Tây Mai Khanh"}},{"type":"Feature","id":121,"geometry":{"type":"Point","coordinates":[105.942604646,10.198443973]},"properties":{"Tên đơn vị":"Quầy Thuốc Minh Thành","Địa chỉ":"34 QL1A","Số điện thoại":"02703826789","Số ký hiệu":"02703826789","Phân loại":"2","Trạng thái đạt chuẩn GPP":"1","layer_id":327,"fid":121,"label":"Quầy Thuốc Minh Thành"}},{"type":"Feature","id":123,"geometry":{"type":"Point","coordinates":[105.997893908,10.246915602]},"properties":{"Tên đơn vị":"Quầy thuốc Phương Tùng","Địa chỉ":"102 Đường Số 1","Số điện thoại":"0982909343","Số ký hiệu":"0982909343","Phân loại":"2","Trạng thái đạt chuẩn GPP":"1","layer_id":327,"fid":123,"label":"Quầy thuốc Phương Tùng"}},{"type":"Feature","id":124,"geometry":{"type":"Point","coordinates":[105.994340666,10.216367606]},"properties":{"Tên đơn vị":"Nhà thuốc Circa Phương","Địa chỉ":"QL53, Long Phước","Số điện thoại":"","Số ký hiệu":"","Phân loại":"1","Trạng thái đạt chuẩn GPP":"1","layer_id":327,"fid":124,"label":"Nhà thuốc Circa Phương"}},{"type":"Feature","id":125,"geometry":{"type":"Point","coordinates":[105.985191473,10.255270508]},"properties":{"Tên đơn vị":"Nhà Thuốc Tây Vinh Lộc","Địa chỉ":"28 Mười Bốn Tháng Chín","Số điện thoại":"","Số ký hiệu":"","Phân loại":"1","Trạng thái đạt chuẩn GPP":"1","layer_id":327,"fid":125,"label":"Nhà Thuốc Tây Vinh Lộc"}},{"type":"Feature","id":126,"geometry":{"type":"Point","coordinates":[105.918710569,10.246974017]},"properties":{"Tên đơn vị":"Nhà Thuốc Tây","Địa chỉ":"ĐH15","Số điện thoại":"","Số ký hiệu":"","Phân loại":"1","Trạng thái đạt chuẩn GPP":"1","layer_id":327,"fid":126,"label":"Nhà Thuốc Tây"}},{"type":"Feature","id":127,"geometry":{"type":"Point","coordinates":[105.998723737,10.225136526]},"properties":{"Tên đơn vị":"Quầy Thuốc Minh Lộc","Địa chỉ":"Đ. Thanh Đức","Số điện thoại":"","Số ký hiệu":"","Phân loại":"2","Trạng thái đạt chuẩn GPP":"1","layer_id":327,"fid":127,"label":"Quầy Thuốc Minh Lộc"}},{"type":"Feature","id":128,"geometry":{"type":"Point","coordinates":[106.000750077,10.204458432]},"properties":{"Tên đơn vị":"Nhà Thuốc An Phương","Địa chỉ":"QL53","Số điện thoại":"0978862171","Số ký hiệu":"0978862171","Phân loại":"1","Trạng thái đạt chuẩn GPP":"1","layer_id":327,"fid":128,"label":"Nhà Thuốc An Phương"}},{"type":"Feature","id":129,"geometry":{"type":"Point","coordinates":[105.944649218,10.206060235]},"properties":{"Tên đơn vị":"Nhà Thuốc Tây Phú Cường","Địa chỉ":"QL1A","Số điện thoại":"02703949710","Số ký hiệu":"02703949710","Phân loại":"1","Trạng thái đạt chuẩn GPP":"1","layer_id":327,"fid":129,"label":"Nhà Thuốc Tây Phú Cường"}},{"type":"Feature","id":130,"geometry":{"type":"Point","coordinates":[105.970761204,10.254190639]},"properties":{"Tên đơn vị":"Nhà Thuốc Trường Phát","Địa chỉ":"44 Đ. 3 Tháng 2","Số điện thoại":"02703831064","Số ký hiệu":"02703831064","Phân loại":"1","Trạng thái đạt chuẩn GPP":"1","layer_id":327,"fid":130,"label":"Nhà Thuốc Trường Phát"}}]}
