{"type":"FeatureCollection","name":"Tổ chức đấu giá tài sản","metadata":{"source":"https://hatang.vinhlong.gov.vn/","downloaded_at":"2026-07-20T01:17:16+00:00","layer_id":335,"layer_name":"Tổ chức đấu giá tài sản","catalog_endpoints":["/map/publicLayers2?inputs=sotuphap"],"requested_bbox":[104.0,8.0,108.0,12.0],"tile_size":0.0,"tile_count":1,"tile_errors":[],"feature_count":6,"coordinate_order":"x,y (thường là longitude,latitude theo cấu hình EPSG:4326 của WebGIS)"},"features":[{"type":"Feature","geometry":{"type":"Point","coordinates":[105.974742545,10.250943851]},"properties":{"Tên tổ chức":"Trung tâm dịch vụ đấu giá tài sản tỉnh Vĩnh Long","Địa chỉ tổ chức":"Số 46A đường 2 tháng 9, phường Long Châu, tỉnh Vĩnh Long","Số điện thoại":"02703826232","Giám đốc/ Chủ doanh nghiệp":"Nguyễn Thị Như Ngọc","Giấy đăng ký hoạt động":"133/QĐ-STP ","Ngày cấp giấy đăng ký":"2/7/25 12:00:00 AM","layer_id":335,"fid":1,"label":"Trung tâm dịch vụ đấu giá tài sản tỉnh Vĩnh Long"}},{"type":"Feature","geometry":{"type":"Point","coordinates":[105.971388471,10.248276613]},"properties":{"Tên tổ chức":"Công ty đấu giá hợp danh Thành Công","Địa chỉ tổ chức":"Số 33/6, đường Mậu Thân, phường Phước Hậu, tỉnh Vĩnh Long","Số điện thoại":"0988816668","Giám đốc/ Chủ doanh nghiệp":"Nguyễn Hòa Thuận","Giấy đăng ký hoạt động":"01/TP-ĐKHĐ","Ngày cấp giấy đăng ký":"2/7/25 12:00:00 AM","layer_id":335,"fid":2,"label":"Công ty đấu giá hợp danh Thành Công"}},{"type":"Feature","geometry":{"type":"Point","coordinates":[106.339242612,9.926154482]},"properties":{"Tên tổ chức":"Công ty đấu giá hợp danh Bảo Tín Trà Vinh","Địa chỉ tổ chức":"Số 561, Phan Đình Phùng, khóm 3, Phường Trà Vinh, tỉnh Vĩnh Long","Số điện thoại":"0978910555","Giám đốc/ Chủ doanh nghiệp":"Huỳnh Quốc Chiến","Giấy đăng ký hoạt động":"05/TP-ĐKHĐ","Ngày cấp giấy đăng ký":"2/7/25 12:00:00 AM","layer_id":335,"fid":3,"label":"Công ty đấu giá hợp danh Bảo Tín Trà Vinh"}},{"type":"Feature","geometry":{"type":"Point","coordinates":[106.375547204,10.257013886]},"properties":{"Tên tổ chức":"Doanh nghiệp đấu giá tư nhân Dương Nhanh","Địa chỉ tổ chức":"Số 155A12, đường Nguyễn Thị Định, phường Phú Tân, tỉnh Vĩnh Long","Số điện thoại":"0822435378","Giám đốc/ Chủ doanh nghiệp":"Dương Thị Nhanh","Giấy đăng ký hoạt động":"01/TP-ĐKHĐ","Ngày cấp giấy đăng ký":"2/7/25 12:00:00 AM","layer_id":335,"fid":4,"label":"Doanh nghiệp đấu giá tư nhân Dương Nhanh"}},{"type":"Feature","geometry":{"type":"Point","coordinates":[106.339687318,9.932090326]},"properties":{"Tên tổ chức":"Doanh nghiệp đấu giá tư nhân Vạn Phát Hưng","Địa chỉ tổ chức":"Số 655, đường Phan Đình Phùng, phường Nguyệt Hóa, tỉnh Vĩnh Long ","Số điện thoại":"02946273636","Giám đốc/ Chủ doanh nghiệp":"Lâm Khắc Sinh","Giấy đăng ký hoạt động":"01/TP-ĐKHĐ","Ngày cấp giấy đăng ký":"2/7/25 12:00:00 AM","layer_id":335,"fid":5,"label":"Doanh nghiệp đấu giá tư nhân Vạn Phát Hưng"}},{"type":"Feature","geometry":{"type":"Point","coordinates":[106.340997429,9.935126114]},"properties":{"Tên tổ chức":"Công ty đấu giá hợp danh Trà Vinh","Địa chỉ tổ chức":"Số 96, đường Phạm Hồng Thái, phường Trà Vinh, tỉnh Vĩnh Long","Số điện thoại":"02943865399","Giám đốc/ Chủ doanh nghiệp":"Trần Thị Phương Hạnh","Giấy đăng ký hoạt động":"06/TP-ĐKHĐ","Ngày cấp giấy đăng ký":"2/7/25 12:00:00 AM","layer_id":335,"fid":6,"label":"Công ty đấu giá hợp danh Trà Vinh"}}]}
