{"type":"FeatureCollection","name":"Tổ chức hành nghề công chứng","metadata":{"source":"https://hatang.vinhlong.gov.vn/","downloaded_at":"2026-07-20T01:17:21+00:00","layer_id":336,"layer_name":"Tổ chức hành nghề công chứng","catalog_endpoints":["/map/publicLayers2?inputs=sotuphap"],"requested_bbox":[104.0,8.0,108.0,12.0],"tile_size":0.0,"tile_count":1,"tile_errors":[],"feature_count":32,"coordinate_order":"x,y (thường là longitude,latitude theo cấu hình EPSG:4326 của WebGIS)"},"features":[{"type":"Feature","geometry":{"type":"Point","coordinates":[105.806914613,10.06690847]},"properties":{"Tên tổ chức công chứng":"Phòng Công chứng số 2","Địa chỉ":"Đường Nguyễn Văn Thảnh, Khóm 2, phường Cái Vồn","Số điện thoại":"02703740227","Người đại diện công chứng viên":"Phạm Văn Minh Tú","Chức vụ người đại diện công chứng viên":"Phó Trưởng phòng","layer_id":336,"fid":1,"label":"Phòng Công chứng số 2"}},{"type":"Feature","geometry":{"type":"Point","coordinates":[105.966933082,10.25347835]},"properties":{"Tên tổ chức công chứng":"Văn phòng công chứng Tạ Thị Thật","Địa chỉ":"Số 70, đường Lê Thái Tổ, phường Long Châu","Số điện thoại":"02703823591","Người đại diện công chứng viên":"Tạ Thị Thật","Chức vụ người đại diện công chứng viên":"Trưởng Văn phòng","layer_id":336,"fid":2,"label":"Văn phòng công chứng Tạ Thị Thật"}},{"type":"Feature","geometry":{"type":"Point","coordinates":[105.820005538,10.07119653]},"properties":{"Tên tổ chức công chứng":"Văn phòng công chứng Phan Ngọc Kiều","Địa chỉ":"Số 86, đường Ngô Quyền, phường Bình Minh","Số điện thoại":"0908256267","Người đại diện công chứng viên":"Phan Ngọc Kiều","Chức vụ người đại diện công chứng viên":"Trưởng Văn phòng","layer_id":336,"fid":3,"label":"Văn phòng công chứng Phan Ngọc Kiều"}},{"type":"Feature","geometry":{"type":"Point","coordinates":[105.97306968,10.25191858]},"properties":{"Tên tổ chức công chứng":"Văn phòng công chứng Khả Quan","Địa chỉ":"Số 83, đường Nguyễn Thị Minh Khai, phường Long Châu","Số điện thoại":"0918428033","Người đại diện công chứng viên":"Nguyễn Ngọc Thơm","Chức vụ người đại diện công chứng viên":"Trưởng Văn phòng","layer_id":336,"fid":4,"label":"Văn phòng công chứng Khả Quan"}},{"type":"Feature","geometry":{"type":"Point","coordinates":[105.966008038,10.23973245]},"properties":{"Tên tổ chức công chứng":"Văn phòng công chứng Lê Phúc Vĩnh","Địa chỉ":"Số 60A/72, Khóm 3, phường Phước Hậu","Số điện thoại":"02703916868","Người đại diện công chứng viên":"Ngô Hoàng Dã Tường Uyên","Chức vụ người đại diện công chứng viên":"Trưởng Văn phòng","layer_id":336,"fid":5,"label":"Văn phòng công chứng Lê Phúc Vĩnh"}},{"type":"Feature","geometry":{"type":"Point","coordinates":[0.0,0.0]},"properties":{"Tên tổ chức công chứng":"Văn phòng công chứng Vĩnh Long","Địa chỉ":"Số 359/25, đường Phó Cơ Điều, phường Phước Hậu","Số điện thoại":"0907557720","Người đại diện công chứng viên":"Lê Văn Chiến","Chức vụ người đại diện công chứng viên":"Trưởng Văn phòng","layer_id":336,"fid":6,"label":"Văn phòng công chứng Vĩnh Long"}},{"type":"Feature","geometry":{"type":"Point","coordinates":[105.923723525,9.965710097]},"properties":{"Tên tổ chức công chứng":"Văn phòng công chứng Trà Ôn","Địa chỉ":"Số 70, đường Trưng Nhị, xã Trà Ôn, tỉnh Vĩnh Long","Số điện thoại":"0917528082/0939545255","Người đại diện công chứng viên":"Nguyễn Thị Ánh Nguyệt","Chức vụ người đại diện công chứng viên":"Trưởng Văn phòng","layer_id":336,"fid":7,"label":"Văn phòng công chứng Trà Ôn"}},{"type":"Feature","geometry":{"type":"Point","coordinates":[106.358061261,10.30098167]},"properties":{"Tên tổ chức công chứng":"Văn phòng công chứng Kim Cương","Địa chỉ":"Số 89A, đường Trần Văn Ơn, xã Phú Túc","Số điện thoại":"0918267757","Người đại diện công chứng viên":"Đặng Thị Kim Cương","Chức vụ người đại diện công chứng viên":"Trưởng Văn phòng","layer_id":336,"fid":12,"label":"Văn phòng công chứng Kim Cương"}},{"type":"Feature","geometry":{"type":"Point","coordinates":[105.97344588,10.24988017]},"properties":{"Tên tổ chức công chứng":"Văn phòng công chứng Nguyễn Thị Ngọc Dung","Địa chỉ":"Số 117, đường 2/9, phường Long Châu, tỉnh Vĩnh Long","Số điện thoại":"0902356520/0944242111","Người đại diện công chứng viên":"Nguyễn Thị Ngọc Dung","Chức vụ người đại diện công chứng viên":"Trưởng Văn phòng","layer_id":336,"fid":8,"label":"Văn phòng công chứng Nguyễn Thị Ngọc Dung"}},{"type":"Feature","geometry":{"type":"Point","coordinates":[106.380039467,10.23629784]},"properties":{"Tên tổ chức công chứng":"Văn phòng công chứng Nguyễn Văn Tứ","Địa chỉ":"Số 71, đường Nguyễn Đình Chiểu, phường An Hội, tỉnh Vĩnh Long","Số điện thoại":"02753810618/02753810678","Người đại diện công chứng viên":"Nguyễn Văn Tứ","Chức vụ người đại diện công chứng viên":"Trưởng Văn phòng","layer_id":336,"fid":9,"label":"Văn phòng công chứng Nguyễn Văn Tứ"}},{"type":"Feature","geometry":{"type":"Point","coordinates":[106.351882984,10.2630814]},"properties":{"Tên tổ chức công chứng":"Văn phòng công chứng Nguyễn Nữ Hoàng Oanh","Địa chỉ":"Lô A1-03, QL 57C, phường Sơn Đông","Số điện thoại":"0886353588","Người đại diện công chứng viên":"Nguyễn Nữ Hoàng Oanh","Chức vụ người đại diện công chứng viên":"Trưởng Văn phòng","layer_id":336,"fid":10,"label":"Văn phòng công chứng Nguyễn Nữ Hoàng Oanh"}},{"type":"Feature","geometry":{"type":"Point","coordinates":[106.374762703,10.23820966]},"properties":{"Tên tổ chức công chứng":"Văn phòng công chứng Bùi Trọng Tâm","Địa chỉ":"Số 19, đường Tán Kế, phường An Hội","Số điện thoại":"0919692017","Người đại diện công chứng viên":"Bùi Trọng Tâm","Chức vụ người đại diện công chứng viên":"Trưởng Văn phòng","layer_id":336,"fid":11,"label":"Văn phòng công chứng Bùi Trọng Tâm"}},{"type":"Feature","geometry":{"type":"Point","coordinates":[106.358913473,10.23578235]},"properties":{"Tên tổ chức công chứng":"Văn phòng công chứng Tín Hữu","Địa chỉ":"Số 46, đường số 3, phường An Hội","Số điện thoại":"0917491319","Người đại diện công chứng viên":"Nguyễn Thị Kim Phượng","Chức vụ người đại diện công chứng viên":"Trưởng Văn phòng","layer_id":336,"fid":13,"label":"Văn phòng công chứng Tín Hữu"}},{"type":"Feature","geometry":{"type":"Point","coordinates":[106.373211438,10.24991859]},"properties":{"Tên tổ chức công chứng":"Văn phòng công chứng Nguyễn Văn Tố","Địa chỉ":"Số 82B, Đại lộ Đồng Khởi, phường Phú Khương","Số điện thoại":"02756583979","Người đại diện công chứng viên":"Nguyễn Văn Tố","Chức vụ người đại diện công chứng viên":"Trưởng Văn phòng","layer_id":336,"fid":14,"label":"Văn phòng công chứng Nguyễn Văn Tố"}},{"type":"Feature","geometry":{"type":"Point","coordinates":[106.329428196,10.12863975]},"properties":{"Tên tổ chức công chứng":"Văn phòng công chứng Nguyễn Ngọc Thắm","Địa chỉ":"Số 154A, đường Công Lý, xã Mỏ Cày","Số điện thoại":"0931011099","Người đại diện công chứng viên":"Nguyễn Ngọc Thắm","Chức vụ người đại diện công chứng viên":"Trưởng Văn phòng","layer_id":336,"fid":15,"label":"Văn phòng công chứng Nguyễn Ngọc Thắm"}},{"type":"Feature","geometry":{"type":"Point","coordinates":[0.0,0.0]},"properties":{"Tên tổ chức công chứng":"Văn phòng công chứng Trương Thị Thanh Thúy","Địa chỉ":"Số 40, QL 57B, ấp Bình Thới 3, xã Bình Đại","Số điện thoại":"0979449071","Người đại diện công chứng viên":"Trương Thị Thanh Thúy","Chức vụ người đại diện công chứng viên":"Trưởng Văn phòng","layer_id":336,"fid":16,"label":"Văn phòng công chứng Trương Thị Thanh Thúy"}},{"type":"Feature","geometry":{"type":"Point","coordinates":[0.0,0.0]},"properties":{"Tên tổ chức công chứng":"Văn phòng công chứng Lê Hùng Dũng","Địa chỉ":"Số 49, QL 57C, xã Phú Túc","Số điện thoại":"0908869750","Người đại diện công chứng viên":"Lê Hùng Dũng","Chức vụ người đại diện công chứng viên":"Trưởng Văn phòng","layer_id":336,"fid":17,"label":"Văn phòng công chứng Lê Hùng Dũng"}},{"type":"Feature","geometry":{"type":"Point","coordinates":[106.514055752,9.948213273]},"properties":{"Tên tổ chức công chứng":"Văn phòng công chứng Thạnh Phú","Địa chỉ":"Số 36/4, đường Trần Thị Tiết, xã Thạnh Phú","Số điện thoại":"02753870771","Người đại diện công chứng viên":"Nguyễn Văn Mộng","Chức vụ người đại diện công chứng viên":"Trưởng Văn phòng","layer_id":336,"fid":18,"label":"Văn phòng công chứng Thạnh Phú"}},{"type":"Feature","geometry":{"type":"Point","coordinates":[106.586568225,10.04586275]},"properties":{"Tên tổ chức công chứng":"Văn phòng công chứng Ba Tri","Địa chỉ":"Số 27/A1, đường Trần Hưng Đạo, xã Ba Tri","Số điện thoại":"0918813969","Người đại diện công chứng viên":"Phan Văn Trung","Chức vụ người đại diện công chứng viên":"Trưởng Văn phòng","layer_id":336,"fid":19,"label":"Văn phòng công chứng Ba Tri"}},{"type":"Feature","geometry":{"type":"Point","coordinates":[106.271007023,10.1950332]},"properties":{"Tên tổ chức công chứng":"Văn phòng công chứng Phan Đức Toàn","Địa chỉ":"Số 50A, xã Phước Mỹ Trung","Số điện thoại":"0912223045","Người đại diện công chứng viên":"Phan Đức Toàn","Chức vụ người đại diện công chứng viên":"Trưởng Văn phòng","layer_id":336,"fid":20,"label":"Văn phòng công chứng Phan Đức Toàn"}},{"type":"Feature","geometry":{"type":"Point","coordinates":[106.419631901,10.21670866]},"properties":{"Tên tổ chức công chứng":"Văn phòng công chứng Nguyễn Văn Mới","Địa chỉ":"Số 01, đường 885, xã Lương Phú","Số điện thoại":"0918262633","Người đại diện công chứng viên":"Nguyễn Văn Mới","Chức vụ người đại diện công chứng viên":"Trưởng Văn phòng","layer_id":336,"fid":21,"label":"Văn phòng công chứng Nguyễn Văn Mới"}},{"type":"Feature","geometry":{"type":"Point","coordinates":[106.373059238,10.25117581]},"properties":{"Tên tổ chức công chứng":"Văn phòng công chứng Huỳnh Đoàn Ngọc Hân","Địa chỉ":"Số 530B1, khu phố 3, phường Phú Khương","Số điện thoại":"0978871212","Người đại diện công chứng viên":"Huỳnh Đoàn Ngọc Hân","Chức vụ người đại diện công chứng viên":"Trưởng Văn phòng","layer_id":336,"fid":22,"label":"Văn phòng công chứng Huỳnh Đoàn Ngọc Hân"}},{"type":"Feature","geometry":{"type":"Point","coordinates":[0.0,0.0]},"properties":{"Tên tổ chức công chứng":"Văn phòng công chứng Đồng Khởi","Địa chỉ":"Số 74A4, Đại lộ Đồng Khởi, phường Phú Tân","Số điện thoại":"02753575636","Người đại diện công chứng viên":"Võ Văn Thanh","Chức vụ người đại diện công chứng viên":"Trưởng Văn phòng","layer_id":336,"fid":23,"label":"Văn phòng công chứng Đồng Khởi"}},{"type":"Feature","geometry":{"type":"Point","coordinates":[106.341331825,9.936109284]},"properties":{"Tên tổ chức công chứng":"Văn phòng công chứng Phú Vinh","Địa chỉ":"Số 149, đường Lê Lợi, phường Trà Vinh","Số điện thoại":"02943763979","Người đại diện công chứng viên":"Lê Thị Ngọc Huệ","Chức vụ người đại diện công chứng viên":"Trưởng Văn phòng","layer_id":336,"fid":24,"label":"Văn phòng công chứng Phú Vinh"}},{"type":"Feature","geometry":{"type":"Point","coordinates":[106.193729625,9.814454014]},"properties":{"Tên tổ chức công chứng":"Văn phòng công chứng Võ Văn Biểu","Địa chỉ":"Khóm 2, xã Tiểu Cần","Số điện thoại":"0962960411","Người đại diện công chứng viên":"Võ Văn Biểu","Chức vụ người đại diện công chứng viên":"Trưởng Văn phòng","layer_id":336,"fid":25,"label":"Văn phòng công chứng Võ Văn Biểu"}},{"type":"Feature","geometry":{"type":"Point","coordinates":[106.341188609,9.933245114]},"properties":{"Tên tổ chức công chứng":"Văn phòng công chứng Nguyễn Huy Cường","Địa chỉ":"Số 12, đường Điện Biên Phủ, phường Trà Vinh","Số điện thoại":"02946512468","Người đại diện công chứng viên":"Nguyễn Huy Cường","Chức vụ người đại diện công chứng viên":"Trưởng Văn phòng","layer_id":336,"fid":26,"label":"Văn phòng công chứng Nguyễn Huy Cường"}},{"type":"Feature","geometry":{"type":"Point","coordinates":[106.34602368,9.876358766]},"properties":{"Tên tổ chức công chứng":"Văn phòng công chứng Trần Văn Nhanh","Địa chỉ":"Đường 2/9, khóm 3, xã Châu Thành","Số điện thoại":"0909054509","Người đại diện công chứng viên":"Trần Văn Nhanh","Chức vụ người đại diện công chứng viên":"Trưởng Văn phòng","layer_id":336,"fid":27,"label":"Văn phòng công chứng Trần Văn Nhanh"}},{"type":"Feature","geometry":{"type":"Point","coordinates":[106.339388765,9.929351689]},"properties":{"Tên tổ chức công chứng":"Văn phòng công chứng Nguyễn Thanh Bình","Địa chỉ":"Số 135C, đường Phan Đình Phùng, phường Trà Vinh","Số điện thoại":"02943535335","Người đại diện công chứng viên":"Nguyễn Thanh Bình","Chức vụ người đại diện công chứng viên":"Trưởng Văn phòng","layer_id":336,"fid":28,"label":"Văn phòng công chứng Nguyễn Thanh Bình"}},{"type":"Feature","geometry":{"type":"Point","coordinates":[106.338999911,9.936021245]},"properties":{"Tên tổ chức công chứng":"Văn phòng công chứng Trần Văn Kha","Địa chỉ":"Số 36, đường Nguyễn Thái Học, phường Trà Vinh","Số điện thoại":"02943862753","Người đại diện công chứng viên":"Trần Thị Loan","Chức vụ người đại diện công chứng viên":"Trưởng Văn phòng","layer_id":336,"fid":29,"label":"Văn phòng công chứng Trần Văn Kha"}},{"type":"Feature","geometry":{"type":"Point","coordinates":[106.49481904,9.633959096]},"properties":{"Tên tổ chức công chứng":"Văn phòng công chứng Phùng Văn Vẹn","Địa chỉ":"Số 24, đường Điện Biên Phủ, phường Duyên Hải","Số điện thoại":"0977566802","Người đại diện công chứng viên":"Phùng Văn Vẹn","Chức vụ người đại diện công chứng viên":"Trưởng Văn phòng","layer_id":336,"fid":30,"label":"Văn phòng công chứng Phùng Văn Vẹn"}},{"type":"Feature","geometry":{"type":"Point","coordinates":[107.907036052,12.80195984]},"properties":{"Tên tổ chức công chứng":"Văn phòng công chứng Lê Thị Diễm Trang","Địa chỉ":"Số 88, QL 53, xã Càng Long","Số điện thoại":"0765838635","Người đại diện công chứng viên":"Lê Thị Diễm Trang","Chức vụ người đại diện công chứng viên":"Trưởng Văn phòng","layer_id":336,"fid":31,"label":"Văn phòng công chứng Lê Thị Diễm Trang"}},{"type":"Feature","geometry":{"type":"Point","coordinates":[106.340932952,9.93653022]},"properties":{"Tên tổ chức công chứng":"Văn phòng công chứng Công Lý - Trà Vinh","Địa chỉ":"Số 02, đường Lê Thánh Tôn, phường Trà Vinh","Số điện thoại":"02943765800","Người đại diện công chứng viên":"Kiều Quốc Phong","Chức vụ người đại diện công chứng viên":"Trưởng Văn phòng","layer_id":336,"fid":32,"label":"Văn phòng công chứng Công Lý - Trà Vinh"}}]}
