{"type":"FeatureCollection","name":"Chùa","metadata":{"source":"https://hatang.vinhlong.gov.vn/","downloaded_at":"2026-07-20T01:17:28+00:00","layer_id":337,"layer_name":"Chùa","catalog_endpoints":["/map/publicLayers2?inputs=sovhttdl"],"requested_bbox":[104.0,8.0,108.0,12.0],"tile_size":0.0,"tile_count":1,"tile_errors":[],"feature_count":68,"coordinate_order":"x,y (thường là longitude,latitude theo cấu hình EPSG:4326 của WebGIS)"},"features":[{"type":"Feature","geometry":{"type":"Point","coordinates":[106.341545034,9.943660141]},"properties":{"Chùa":"Chùa Lưỡng Xuyên","Địa chỉ":"Đường Lê Lợi, Phường Trà Vinh","Thời gian xây dựng":null,"Đặc điểm":null,"layer_id":337,"fid":6,"label":"Chùa Lưỡng Xuyên"}},{"type":"Feature","geometry":{"type":"Point","coordinates":[106.382346024,10.29583447]},"properties":{"Chùa":"Chùa Linh Phước","Địa chỉ":"Phú An Hoà, Châu Thành","Thời gian xây dựng":null,"Đặc điểm":null,"layer_id":337,"fid":30,"label":"Chùa Linh Phước"}},{"type":"Feature","geometry":{"type":"Point","coordinates":[106.303551006,9.91582904]},"properties":{"Chùa":"Chùa Âng","Địa chỉ":"Khóm 4, phường Nguyệt Hóa, tỉnh Vĩnh Long","Thời gian xây dựng":" ","Đặc điểm":null,"layer_id":337,"fid":31,"label":"Chùa Âng"}},{"type":"Feature","geometry":{"type":"Point","coordinates":[106.303689675,9.916004681]},"properties":{"Chùa":"Chùa Âng","Địa chỉ":"QL53,Phường Nguyệt Hóa","Thời gian xây dựng":null,"Đặc điểm":null,"layer_id":337,"fid":1,"label":"Chùa Âng"}},{"type":"Feature","geometry":{"type":"Point","coordinates":[106.333531473,9.925478626]},"properties":{"Chùa":"Chùa Khươne","Địa chỉ":"Đường Nguyễn Đáng, Phường Nguyệt Hóa","Thời gian xây dựng":null,"Đặc điểm":null,"layer_id":337,"fid":4,"label":"Chùa Khươne"}},{"type":"Feature","geometry":{"type":"Point","coordinates":[106.476845072,10.29347095]},"properties":{"Chùa":"Chùa Vạn Đức ","Địa chỉ":"Ấp 2, Bình Đại","Thời gian xây dựng":null,"Đặc điểm":null,"layer_id":337,"fid":28,"label":"Chùa Vạn Đức "}},{"type":"Feature","geometry":{"type":"Point","coordinates":[106.490598241,9.808890222]},"properties":{"Chùa":"Chùa Giác Linh","Địa chỉ":"Ấp Nhứt A, xã Mỹ Long, tỉnh Vĩnh Long","Thời gian xây dựng":"1857","Đặc điểm":null,"layer_id":337,"fid":32,"label":"Chùa Giác Linh"}},{"type":"Feature","geometry":{"type":"Point","coordinates":[106.438895136,10.233822397]},"properties":{"Chùa":"Chùa Phước Long Cổ Tự","Địa chỉ":" Phong Nẫm, Giồng Trôm","Thời gian xây dựng":null,"Đặc điểm":null,"layer_id":337,"fid":29,"label":"Chùa Phước Long Cổ Tự"}},{"type":"Feature","geometry":{"type":"Point","coordinates":[106.515966077,9.723372935]},"properties":{"Chùa":"Chùa Phước Mỹ","Địa chỉ":"Ấp Bến Chùa, xã Hiệp Mỹ, tỉnh Vĩnh Long","Thời gian xây dựng":"1886","Đặc điểm":null,"layer_id":337,"fid":33,"label":"Chùa Phước Mỹ"}},{"type":"Feature","geometry":{"type":"Point","coordinates":[106.303358874,9.644406485]},"properties":{"Chùa":"Chùa Cò","Địa chỉ":"Xã Đại An","Thời gian xây dựng":null,"Đặc điểm":null,"layer_id":337,"fid":3,"label":"Chùa Cò"}},{"type":"Feature","geometry":{"type":"Point","coordinates":[106.344964169,9.887136396]},"properties":{"Chùa":"Chùa Hang","Địa chỉ":"Đường Hai tháng Chín, Xã Châu Thành","Thời gian xây dựng":null,"Đặc điểm":null,"layer_id":337,"fid":2,"label":"Chùa Hang"}},{"type":"Feature","geometry":{"type":"Point","coordinates":[106.298274724,9.621199434]},"properties":{"Chùa":"Chùa Mé Láng","Địa chỉ":"Khóm 5, xã Đại An, tỉnh Vĩnh Long","Thời gian xây dựng":"có niên đại trước năm Tự Đức thứ năm","Đặc điểm":null,"layer_id":337,"fid":55,"label":"Chùa Mé Láng"}},{"type":"Feature","geometry":{"type":"Point","coordinates":[106.275104776,9.656164666]},"properties":{"Chùa":"Chùa Khmer Vàm Ray","Địa chỉ":"Xã Trà Cú","Thời gian xây dựng":null,"Đặc điểm":null,"layer_id":337,"fid":5,"label":"Chùa Khmer Vàm Ray"}},{"type":"Feature","geometry":{"type":"Point","coordinates":[106.347866987,9.936071024]},"properties":{"Chùa":"Chùa Long Bình","Địa chỉ":"Đường Hùng Vương, Phường Hòa Thuận","Thời gian xây dựng":null,"Đặc điểm":null,"layer_id":337,"fid":14,"label":"Chùa Long Bình"}},{"type":"Feature","geometry":{"type":"Point","coordinates":[106.211396035,9.907115046]},"properties":{"Chùa":"Chùa Ấp Sóc","Địa chỉ":"Ấp Sóc, xã Tân An, tỉnh Vĩnh Long","Thời gian xây dựng":"khoảng năm 1541 D.L","Đặc điểm":null,"layer_id":337,"fid":36,"label":"Chùa Ấp Sóc"}},{"type":"Feature","geometry":{"type":"Point","coordinates":[106.320442105,9.925913605]},"properties":{"Chùa":"Chùa Chim","Địa chỉ":"Đường Võ Văn Kiệt, Phường Nguyệt Hóa","Thời gian xây dựng":null,"Đặc điểm":null,"layer_id":337,"fid":8,"label":"Chùa Chim"}},{"type":"Feature","geometry":{"type":"Point","coordinates":[106.255647124,10.035140078]},"properties":{"Chùa":"Chùa Khánh Thạnh","Địa chỉ":"Xã Càng Long","Thời gian xây dựng":null,"Đặc điểm":null,"layer_id":337,"fid":9,"label":"Chùa Khánh Thạnh"}},{"type":"Feature","geometry":{"type":"Point","coordinates":[106.341369836,9.934421436]},"properties":{"Chùa":"Phước Minh Cung","Địa chỉ":"Số 44-Điện Biên Phủ, phường Trà Vinh, tỉnh Vĩnh Long","Thời gian xây dựng":"được xây dựng vào những thập niên cuối thế kỷ XIX","Đặc điểm":null,"layer_id":337,"fid":34,"label":"Phước Minh Cung"}},{"type":"Feature","geometry":{"type":"Point","coordinates":[106.314144061,9.985606671]},"properties":{"Chùa":"Chùa Phước Khánh","Địa chỉ":"Đường Trần Văn Ẩn,Phường Long Đức","Thời gian xây dựng":null,"Đặc điểm":null,"layer_id":337,"fid":7,"label":"Chùa Phước Khánh"}},{"type":"Feature","geometry":{"type":"Point","coordinates":[1063033374000000.0,9.92351869]},"properties":{"Chùa":"Chùa Koskeoseray","Địa chỉ":" Số 241 QL53, Phường Nguyệt Hóa, Tỉnh Vĩnh Long","Thời gian xây dựng":null,"Đặc điểm":null,"layer_id":337,"fid":15,"label":"Chùa Koskeoseray"}},{"type":"Feature","geometry":{"type":"Point","coordinates":[106.253973553,9.988212795]},"properties":{"Chùa":"Đình Phú Đức","Địa chỉ":"Ấp Phú Đức 1, xã Bình Phú, tỉnh Vĩnh Long","Thời gian xây dựng":"có niên đại trước năm Tự Đức thứ năm ","Đặc điểm":null,"layer_id":337,"fid":41,"label":"Đình Phú Đức"}},{"type":"Feature","geometry":{"type":"Point","coordinates":[106.384447931,9.665344479]},"properties":{"Chùa":"Chùa Tà Rom","Địa chỉ":"Ấp Tà Rom A, xã Đôn Châu, tỉnh Vĩnh Long","Thời gian xây dựng":"năm 1690","Đặc điểm":null,"layer_id":337,"fid":38,"label":"Chùa Tà Rom"}},{"type":"Feature","geometry":{"type":"Point","coordinates":[106.706596566,10.16390629]},"properties":{"Chùa":"Chùa Vạn Phước","Địa chỉ":"QL57B, Ấp Bình Chiến, Bình Đại","Thời gian xây dựng":null,"Đặc điểm":null,"layer_id":337,"fid":21,"label":"Chùa Vạn Phước"}},{"type":"Feature","geometry":{"type":"Point","coordinates":[106.064389477,9.85078352]},"properties":{"Chùa":"Chùa Ô Mịch","Địa chỉ":"Xã Cầu Kè ","Thời gian xây dựng":null,"Đặc điểm":null,"layer_id":337,"fid":17,"label":"Chùa Ô Mịch"}},{"type":"Feature","geometry":{"type":"Point","coordinates":[106.457615045,9.682652932]},"properties":{"Chùa":"Chùa Trà Khúp","Địa chỉ":"Ấp Trà Khúp, xã Ngũ Lạc, tỉnh Vĩnh Long","Thời gian xây dựng":"năm 1901","Đặc điểm":null,"layer_id":337,"fid":39,"label":"Chùa Trà Khúp"}},{"type":"Feature","geometry":{"type":"Point","coordinates":[106.571377192,9.645491062]},"properties":{"Chùa":"Thiền viện Trúc Lâm","Địa chỉ":"Phường Duyên Hải","Thời gian xây dựng":null,"Đặc điểm":null,"layer_id":337,"fid":16,"label":"Thiền viện Trúc Lâm"}},{"type":"Feature","geometry":{"type":"Point","coordinates":[106.05783905,9.872332005]},"properties":{"Chùa":"Nhà cổ Cầu Kè","Địa chỉ":"Khóm 2, xã Cầu Kè, tỉnh Vĩnh Long","Thời gian xây dựng":"năm 1924","Đặc điểm":null,"layer_id":337,"fid":40,"label":"Nhà cổ Cầu Kè"}},{"type":"Feature","geometry":{"type":"Point","coordinates":[106.316574355,9.906131528]},"properties":{"Chùa":"Chùa Xá Nẹt","Địa chỉ":"Phường Nguyệt Hóa","Thời gian xây dựng":null,"Đặc điểm":null,"layer_id":337,"fid":19,"label":"Chùa Xá Nẹt"}},{"type":"Feature","geometry":{"type":"Point","coordinates":[106.341153251,9.934472226]},"properties":{"Chùa":"Chùa Ông Phước Minh Cung","Địa chỉ":"Phường Trà Vinh","Thời gian xây dựng":null,"Đặc điểm":null,"layer_id":337,"fid":20,"label":"Chùa Ông Phước Minh Cung"}},{"type":"Feature","geometry":{"type":"Point","coordinates":[106.320319268,9.926045708]},"properties":{"Chùa":"Chùa KTưng","Địa chỉ":"Phường Nguyệt Hóa","Thời gian xây dựng":null,"Đặc điểm":null,"layer_id":337,"fid":18,"label":"Chùa KTưng"}},{"type":"Feature","geometry":{"type":"Point","coordinates":[106.494738521,9.647694035]},"properties":{"Chùa":"Đình Phước Lộc","Địa chỉ":"Khóm 4, phường Duyên Hải,tỉnh Vĩnh Long","Thời gian xây dựng":"có niên đại trước năm Tự Đức thứ năm ","Đặc điểm":null,"layer_id":337,"fid":42,"label":"Đình Phước Lộc"}},{"type":"Feature","geometry":{"type":"Point","coordinates":[106.219370508,10.194523462]},"properties":{"Chùa":"Chùa Kim Long Bến Tre (Chùa Ước)","Địa chỉ":"QL57, Vĩnh Thành, Chợ Lách","Thời gian xây dựng":null,"Đặc điểm":null,"layer_id":337,"fid":24,"label":"Chùa Kim Long Bến Tre (Chùa Ước)"}},{"type":"Feature","geometry":{"type":"Point","coordinates":[106.010687331,10.195684083]},"properties":{"Chùa":"Nơi thành lập chi bộ Đảng đầu tiên của tỉnh Vĩnh Long ","Địa chỉ":"Ấp 3, xã An Trường, tỉnh Vĩnh Long","Thời gian xây dựng":"năm 1930","Đặc điểm":null,"layer_id":337,"fid":43,"label":"Nơi thành lập chi bộ Đảng đầu tiên của tỉnh Vĩnh Long "}},{"type":"Feature","geometry":{"type":"Point","coordinates":[106.404653479,10.308359667]},"properties":{"Chùa":"Chùa Hội Tôn","Địa chỉ":"Ấp 8, Châu Thành","Thời gian xây dựng":null,"Đặc điểm":null,"layer_id":337,"fid":27,"label":"Chùa Hội Tôn"}},{"type":"Feature","geometry":{"type":"Point","coordinates":[106.237170557,9.673072652]},"properties":{"Chùa":"Chùa Bãi Xào Giữa","Địa chỉ":"Ấp Bãi Xào Giữa, xã Hàm Giang, tỉnh Vĩnh Long","Thời gian xây dựng":"năm 1847 ","Đặc điểm":null,"layer_id":337,"fid":44,"label":"Chùa Bãi Xào Giữa"}},{"type":"Feature","geometry":{"type":"Point","coordinates":[106.444231566,10.288727877]},"properties":{"Chùa":"Chùa Phật Minh","Địa chỉ":"69 ấp Hòa, An, Xã, Châu Thành","Thời gian xây dựng":null,"Đặc điểm":null,"layer_id":337,"fid":22,"label":"Chùa Phật Minh"}},{"type":"Feature","geometry":{"type":"Point","coordinates":[106.363787842,10.243161277]},"properties":{"Chùa":"Chùa Bạch Vân","Địa chỉ":"138 Đoàn Hoàng Minh, Phường Sơn Đông","Thời gian xây dựng":null,"Đặc điểm":null,"layer_id":337,"fid":23,"label":"Chùa Bạch Vân"}},{"type":"Feature","geometry":{"type":"Point","coordinates":[106.377537094,10.236271983]},"properties":{"Chùa":"Chùa Viên Minh","Địa chỉ":"156 Nguyễn Đình Chiểu, Phường An Hội","Thời gian xây dựng":null,"Đặc điểm":null,"layer_id":337,"fid":25,"label":"Chùa Viên Minh"}},{"type":"Feature","geometry":{"type":"Point","coordinates":[106.3933298,9.684751233]},"properties":{"Chùa":"Chùa Bào Môn","Địa chỉ":"Ấp Bào Môn, xã Đôn Châu, tỉnh Vĩnh Long","Thời gian xây dựng":"năm 1806 ","Đặc điểm":null,"layer_id":337,"fid":35,"label":"Chùa Bào Môn"}},{"type":"Feature","geometry":{"type":"Point","coordinates":[106.344015497,9.960143136]},"properties":{"Chùa":"Chùa Bình Phước","Địa chỉ":"Phường Long Đức","Thời gian xây dựng":null,"Đặc điểm":null,"layer_id":337,"fid":13,"label":"Chùa Bình Phước"}},{"type":"Feature","geometry":{"type":"Point","coordinates":[106.362965645,9.932883024]},"properties":{"Chùa":"Chùa Giữa Jumprasath","Địa chỉ":"Phường Hòa Thuận","Thời gian xây dựng":null,"Đặc điểm":null,"layer_id":337,"fid":10,"label":"Chùa Giữa Jumprasath"}},{"type":"Feature","geometry":{"type":"Point","coordinates":[106.195589175,9.680563643]},"properties":{"Chùa":"Chùa Long Thành","Địa chỉ":"Ấp Long Thuận, xã Lưu Nghiệp Anh, tỉnh Vĩnh Long","Thời gian xây dựng":"năm 1908","Đặc điểm":null,"layer_id":337,"fid":37,"label":"Chùa Long Thành"}},{"type":"Feature","geometry":{"type":"Point","coordinates":[106.311588408,9.915962587]},"properties":{"Chùa":"Chùa Samrong ek","Địa chỉ":"Phường Nguyệt Hóa","Thời gian xây dựng":null,"Đặc điểm":null,"layer_id":337,"fid":12,"label":"Chùa Samrong ek"}},{"type":"Feature","geometry":{"type":"Point","coordinates":[106.341938135,9.939207062]},"properties":{"Chùa":"Chùa ông Mẹt","Địa chỉ":"Đường Lê Lợi, Phường Trà Vinh","Thời gian xây dựng":null,"Đặc điểm":null,"layer_id":337,"fid":11,"label":"Chùa ông Mẹt"}},{"type":"Feature","geometry":{"type":"Point","coordinates":[106.369923908,10.235416909]},"properties":{"Chùa":"Chùa Viên Giác","Địa chỉ":"Đường Hoàng Lam, Phường An Hội","Thời gian xây dựng":null,"Đặc điểm":null,"layer_id":337,"fid":26,"label":"Chùa Viên Giác"}},{"type":"Feature","geometry":{"type":"Point","coordinates":[106.327059367,9.595116159]},"properties":{"Chùa":"Chùa Cái Cối","Địa chỉ":"Ấp Cái Cối, xã Long Vĩnh, tỉnh Vĩnh Long","Thời gian xây dựng":"Chùa được xây dựng vào năm 1816 và di dời đến vị trí hiện nay vào năm 1931","Đặc điểm":null,"layer_id":337,"fid":45,"label":"Chùa Cái Cối"}},{"type":"Feature","geometry":{"type":"Point","coordinates":[106.382370482,9.785729722]},"properties":{"Chùa":"Chùa Căn Nom","Địa chỉ":"Ấp Căn Nom, xã Nhị Trường, tỉnh Vĩnh Long","Thời gian xây dựng":"năm 1747 DL","Đặc điểm":null,"layer_id":337,"fid":46,"label":"Chùa Căn Nom"}},{"type":"Feature","geometry":{"type":"Point","coordinates":[106.473927769,9.70979209]},"properties":{"Chùa":"Chùa Lạc Hòa","Địa chỉ":"Ấp Lạc Hòa, xã Ngũ Lạc, tỉnh Vĩnh Long","Thời gian xây dựng":"năm 1650","Đặc điểm":null,"layer_id":337,"fid":47,"label":"Chùa Lạc Hòa"}},{"type":"Feature","geometry":{"type":"Point","coordinates":[106.039647046,9.893468974]},"properties":{"Chùa":"Thánh tịnh Thanh Long Tràng Võ","Địa chỉ":"Ấp Ngãi Nhì, xã Tam Ngãi, huyện Cầu Kè, tỉnh Vĩnh Long","Thời gian xây dựng":"vào năm 1930","Đặc điểm":null,"layer_id":337,"fid":48,"label":"Thánh tịnh Thanh Long Tràng Võ"}},{"type":"Feature","geometry":{"type":"Point","coordinates":[106.556432811,9.669418554]},"properties":{"Chùa":"Lầu bà Cố Hỷ Thượng Động nương nương","Địa chỉ":"Ấp Ba Động, xã Trường Long Hòa, tỉnh Vĩnh Long","Thời gian xây dựng":null,"Đặc điểm":null,"layer_id":337,"fid":49,"label":"Lầu bà Cố Hỷ Thượng Động nương nương"}},{"type":"Feature","geometry":{"type":"Point","coordinates":[106.55554266,9.628315973]},"properties":{"Chùa":"Đình miếu Cồn Trứng và Lăng Ông Cồn Tàu","Địa chỉ":"Xã Trường Long Hòa, tỉnh Trà Vinh","Thời gian xây dựng":"những năm đầu thời Minh Mạng","Đặc điểm":null,"layer_id":337,"fid":50,"label":"Đình miếu Cồn Trứng và Lăng Ông Cồn Tàu"}},{"type":"Feature","geometry":{"type":"Point","coordinates":[106.523094963,9.769389031]},"properties":{"Chùa":"Chùa Long Trường","Địa chỉ":"Ấp Long Trường, xã Long Hiệp, tỉnh Vĩnh Long","Thời gian xây dựng":"1928 dương lịch","Đặc điểm":null,"layer_id":337,"fid":51,"label":"Chùa Long Trường"}},{"type":"Feature","geometry":{"type":"Point","coordinates":[106.06440242,9.850774557]},"properties":{"Chùa":"Chùa Ô Mịch","Địa chỉ":"Ấp Ô Mịch, xã Cầu Kè, tỉnh Vĩnh Long","Thời gian xây dựng":"xây dựng vào những năm giữa thế kỷ XVI","Đặc điểm":null,"layer_id":337,"fid":52,"label":"Chùa Ô Mịch"}},{"type":"Feature","geometry":{"type":"Point","coordinates":[106.354077464,9.732757338]},"properties":{"Chùa":"Chùa Chông Bát","Địa chỉ":"Ấp Chông Bát, xã Long Hiệp, tỉnh Vĩnh Long","Thời gian xây dựng":"năm 1646","Đặc điểm":null,"layer_id":337,"fid":53,"label":"Chùa Chông Bát"}},{"type":"Feature","geometry":{"type":"Point","coordinates":[106.295795284,9.917320189]},"properties":{"Chùa":"Địa điểm Bờ Lũy - chùa Lò Gạch","Địa chỉ":"Ấp Ba Se A, xã Song Lộc,tỉnh Vĩnh Long","Thời gian xây dựng":null,"Đặc điểm":null,"layer_id":337,"fid":54,"label":"Địa điểm Bờ Lũy - chùa Lò Gạch"}},{"type":"Feature","geometry":{"type":"Point","coordinates":[106.288833,9.686871721]},"properties":{"Chùa":"Chùa Chà/ Chùa Sóc Chà","Địa chỉ":"Ấp Sóc Chà B, xã Trà Cú, tỉnh Vĩnh Long","Thời gian xây dựng":"năm 1752","Đặc điểm":null,"layer_id":337,"fid":56,"label":"Chùa Chà/ Chùa Sóc Chà"}},{"type":"Feature","geometry":{"type":"Point","coordinates":[106.070400983,9.888340206]},"properties":{"Chùa":"Minh Đức Cung","Địa chỉ":"Ấp Trà Kháo, xã Cầu Kè, tỉnh Vĩnh Long","Thời gian xây dựng":"năm 1885 dương lịch","Đặc điểm":null,"layer_id":337,"fid":57,"label":"Minh Đức Cung"}},{"type":"Feature","geometry":{"type":"Point","coordinates":[106.507768088,9.809165939]},"properties":{"Chùa":"Đồng Khởi Mỹ Long","Địa chỉ":"Khóm 1, xã Mỹ Long, tỉnh Vĩnh Long","Thời gian xây dựng":"Năm 2000","Đặc điểm":null,"layer_id":337,"fid":58,"label":"Đồng Khởi Mỹ Long"}},{"type":"Feature","geometry":{"type":"Point","coordinates":[106.119901243,9.902446211]},"properties":{"Chùa":"Chùa Tà Ốt","Địa chỉ":"Ấp Xóm Lớn, xã Cầu Kè, tỉnh Vĩnh Long","Thời gian xây dựng":"1736 (dương lịch)","Đặc điểm":null,"layer_id":337,"fid":59,"label":"Chùa Tà Ốt"}},{"type":"Feature","geometry":{"type":"Point","coordinates":[106.191732082,9.808878141]},"properties":{"Chùa":"Thiên Hậu Cung","Địa chỉ":"Khóm 5, xã Tiểu Cần, tỉnh Vĩnh Long","Thời gian xây dựng":"đến năm 1900","Đặc điểm":null,"layer_id":337,"fid":60,"label":"Thiên Hậu Cung"}},{"type":"Feature","geometry":{"type":"Point","coordinates":[106.332015972,9.656832453]},"properties":{"Chùa":"Chùa Bà Giam","Địa chỉ":"Ấp Bà Giam B, xã Đôn Châu, tỉnh Vĩnh Long","Thời gian xây dựng":"năm 1679 (dương lịch)","Đặc điểm":null,"layer_id":337,"fid":61,"label":"Chùa Bà Giam"}},{"type":"Feature","geometry":{"type":"Point","coordinates":[106.340894926,9.934546592]},"properties":{"Chùa":"Đình Long Đức","Địa chỉ":"Khóm 3, phường Trà Vinh, tỉnh Vĩnh Long","Thời gian xây dựng":"được xây dựng vào khoảng thập niên 20 - 30 thế kỷ XIX","Đặc điểm":null,"layer_id":337,"fid":62,"label":"Đình Long Đức"}},{"type":"Feature","geometry":{"type":"Point","coordinates":[106.359318499,9.952426347]},"properties":{"Chùa":"Đình Vĩnh Trường","Địa chỉ":"Ấp Vĩnh Trường, phường Hoà Thuận, tỉnh Vĩnh Long","Thời gian xây dựng":"có niên đại trước năm Tự Đức thứ năm","Đặc điểm":null,"layer_id":337,"fid":63,"label":"Đình Vĩnh Trường"}},{"type":"Feature","geometry":{"type":"Point","coordinates":[106.349183362,9.872125322]},"properties":{"Chùa":"Cổ Tông Miếu","Địa chỉ":"Khóm 2, xã Châu Thành, tỉnh Vĩnh Long","Thời gian xây dựng":"năm 1869","Đặc điểm":null,"layer_id":337,"fid":64,"label":"Cổ Tông Miếu"}},{"type":"Feature","geometry":{"type":"Point","coordinates":[106.383253546,9.75126908]},"properties":{"Chùa":"Chùa Đom Bốt Bi","Địa chỉ":"Ấp Là Ca A, xã Nhị Trường, tỉnh Vĩnh Long","Thời gian xây dựng":"năm 1856 ","Đặc điểm":null,"layer_id":337,"fid":65,"label":"Chùa Đom Bốt Bi"}},{"type":"Feature","geometry":{"type":"Point","coordinates":[106.295799666,9.917305885]},"properties":{"Chùa":"Chùa Lò Gạch","Địa chỉ":"Ấp Ba Se A, xã Song Lộc, tỉnh Vĩnh Long","Thời gian xây dựng":"năm 1886 ","Đặc điểm":null,"layer_id":337,"fid":66,"label":"Chùa Lò Gạch"}},{"type":"Feature","geometry":{"type":"Point","coordinates":[106.387441286,9.66577839]},"properties":{"Chùa":"Chùa Giác Ngộ","Địa chỉ":"Ấp Sa Văng, xã Đôn Châu, tỉnh Vĩnh Long","Thời gian xây dựng":"năm 1927","Đặc điểm":null,"layer_id":337,"fid":67,"label":"Chùa Giác Ngộ"}},{"type":"Feature","geometry":{"type":"Point","coordinates":[106.068162173,9.830285978]},"properties":{"Chùa":"Chùa Bhiramyaràja (chùa Phi Rùm Sóc)","Địa chỉ":"Ấp Rùm Sóc, xã Cầu Kè, tỉnh Vĩnh Long","Thời gian xây dựng":"năm 1097 dương lịch","Đặc điểm":null,"layer_id":337,"fid":68,"label":"Chùa Bhiramyaràja (chùa Phi Rùm Sóc)"}}]}
