{"type":"FeatureCollection","name":"Thông tin xã phường","metadata":{"source":"https://hatang.vinhlong.gov.vn/","downloaded_at":"2026-07-20T01:17:33+00:00","layer_id":339,"layer_name":"Thông tin xã phường","catalog_endpoints":["/map/publicLayersToShow"],"requested_bbox":[104.0,8.0,108.0,12.0],"tile_size":0.0,"tile_count":1,"tile_errors":[],"feature_count":124,"coordinate_order":"x,y (thường là longitude,latitude theo cấu hình EPSG:4326 của WebGIS)"},"features":[{"type":"Feature","geometry":{"type":"Point","coordinates":[105.991932746,10.283694251]},"properties":{"Tên xã phường":"An Bình","Bí thư":"Hồ Văn Kiên","Điện thoại BT":"0919283211","Chủ tịch":"Phan Thanh Hoàng","Điện thoại CT":"0939391050","Diện tích (Km2)":"61.84","Dân số (Người)":"51382","Trụ sở":"UBND xã Hòa Ninh cũ\n","Sáp nhập":"Hòa Ninh, Bình Hòa Phước, Đồng Phú, An Bình","layer_id":339,"fid":125,"label":"An Bình"}},{"type":"Feature","geometry":{"type":"Point","coordinates":[106.374520416,10.078684285]},"properties":{"Tên xã phường":"An Định","Bí thư":"Đỗ Hoàng Minh","Điện thoại BT":"0918589961","Chủ tịch":"Nguyễn Văn Trung","Điện thoại CT":"0989217910","Diện tích (Km2)":"46.59","Dân số (Người)":"37688","Trụ sở":"UBND xã An Định cũ","Sáp nhập":"Tân Trung, Minh Đức, An Định","layer_id":339,"fid":126,"label":"An Định"}},{"type":"Feature","geometry":{"type":"Point","coordinates":[106.530023732,10.049977463]},"properties":{"Tên xã phường":"An Hiệp","Bí thư":"Cao Công Thức","Điện thoại BT":"0987194474","Chủ tịch":"Bùi Tuấn An","Điện thoại CT":"0918254986","Diện tích (Km2)":"56.33","Dân số (Người)":"31248","Trụ sở":"UBND xã An Ngãi Tây cũ","Sáp nhập":"Tân Hưng, An Ngãi Tây, An Hiệp","layer_id":339,"fid":127,"label":"An Hiệp"}},{"type":"Feature","geometry":{"type":"Point","coordinates":[106.37638435,10.239446822]},"properties":{"Tên xã phường":"An Hội","Bí thư":"Bùi Minh Tuấn","Điện thoại BT":"0918468035","Chủ tịch":"Lê Xuân Vinh","Điện thoại CT":"0913886454","Diện tích (Km2)":"31.9","Dân số (Người)":"53476","Trụ sở":"UBND TP Bến Tre cũ\n","Sáp nhập":"An Hội,  Mỹ Thạnh An, Phú Nhuận, Sơn Phú","layer_id":339,"fid":128,"label":"An Hội"}},{"type":"Feature","geometry":{"type":"Point","coordinates":[106.540567178,10.070903089]},"properties":{"Tên xã phường":"An Ngãi Trung","Bí thư":"Phạm Thanh Hùng","Điện thoại BT":"0918279264","Chủ tịch":"Nguyễn Thành Long","Điện thoại CT":"0963373362","Diện tích (Km2)":"33.87","Dân số (Người)":"28941","Trụ sở":"UBND xã An Ngãi Trung cũ","Sáp nhập":"Mỹ Thạnh (huyện Ba Tri), An Phú Trung, An Ngãi Trung","layer_id":339,"fid":129,"label":"An Ngãi Trung"}},{"type":"Feature","geometry":{"type":"Point","coordinates":[106.016255334,9.87802266]},"properties":{"Tên xã phường":"An Phú Tân","Bí thư":"Trần Xuân Sơn","Điện thoại BT":"0917102338","Chủ tịch":"Ông Minh Phúc","Điện thoại CT":"0982716417","Diện tích (Km2)":"53.91","Dân số (Người)":"27473","Trụ sở":"UBND xã An Phú Tân cũ","Sáp nhập":"Hòa Tân, An Phú Tân","layer_id":339,"fid":130,"label":"An Phú Tân"}},{"type":"Feature","geometry":{"type":"Point","coordinates":[106.595217621,9.890079481]},"properties":{"Tên xã phường":"An Qui","Bí thư":"Trương Thanh Hải","Điện thoại BT":"0919115738","Chủ tịch":"Nguyễn Thị Mơ","Điện thoại CT":"0933011527","Diện tích (Km2)":"73.53","Dân số (Người)":"28342","Trụ sở":"UBND xã An Nhơn cũ","Sáp nhập":"An Thuận,cAn Nhơn, An Qui","layer_id":339,"fid":131,"label":"An Qui"}},{"type":"Feature","geometry":{"type":"Point","coordinates":[106.174529105,9.94772907]},"properties":{"Tên xã phường":"An Trường","Bí thư":"Nguyễn Văn Triều","Điện thoại BT":"0986577878","Chủ tịch":"Nguyễn Văn Á","Điện thoại CT":"0395896650","Diện tích (Km2)":"72.61","Dân số (Người)":"45505","Trụ sở":"UBND xã An Trường cũ","Sáp nhập":"Tân Bình (huyện Càng Long), An Trường A, An Trường","layer_id":339,"fid":132,"label":"An Trường"}},{"type":"Feature","geometry":{"type":"Point","coordinates":[106.590606364,10.044378363]},"properties":{"Tên xã phường":"Ba Tri","Bí thư":"Nguyễn Văn Chính","Điện thoại BT":"0919826899","Chủ tịch":"Phạm Văn Dũng","Điện thoại CT":"0918802951","Diện tích (Km2)":"49.47","Dân số (Người)":"52154","Trụ sở":"UBND huyện Ba Tri cũ","Sáp nhập":"Ba Tri (thị trấn), Vĩnh Hòa (huyện Ba Tri), An Đức, Vĩnh An, An Bình Tây","layer_id":339,"fid":133,"label":"Ba Tri"}},{"type":"Feature","geometry":{"type":"Point","coordinates":[106.655819336,10.076005712]},"properties":{"Tên xã phường":"Bảo Thạnh","Bí thư":"La Thanh Chiến","Điện thoại BT":"0359935879","Chủ tịch":"Võ Văn Tòng","Điện thoại CT":"0946742989","Diện tích (Km2)":"62.28","Dân số (Người)":"25225","Trụ sở":"UBND xã Bảo Thạnh cũ","Sáp nhập":"Bảo Thuận,  Bảo Thạnh","layer_id":339,"fid":134,"label":"Bảo Thạnh"}},{"type":"Feature","geometry":{"type":"Point","coordinates":[106.349798077,10.238053099]},"properties":{"Tên xã phường":"Bến Tre","Bí thư":"Châu Văn Bình","Điện thoại BT":"0944472926","Chủ tịch":"Nguyễn Văn Thương","Điện thoại CT":"0911377666","Diện tích (Km2)":"31.99","Dân số (Người)":"35917","Trụ sở":"UBND xã Bình Phú cũ","Sáp nhập":"Phường 7, Bình Phú (thành phố Bến Tre), Thanh Tân","layer_id":339,"fid":135,"label":"Bến Tre"}},{"type":"Feature","geometry":{"type":"Point","coordinates":[106.691534893,10.189862051]},"properties":{"Tên xã phường":"Bình Đại","Bí thư":"Trần Tú Anh","Điện thoại BT":"0913448489","Chủ tịch":"Huỳnh Văn Mai","Điện thoại CT":"0914141827","Diện tích (Km2)":"44.7","Dân số (Người)":"33881","Trụ sở":"Huyện ủy, UBND huyện Bình Đại cũ","Sáp nhập":"Bình Đại (thị trấn), Bình Thới, Bình Thắng","layer_id":339,"fid":136,"label":"Bình Đại"}},{"type":"Feature","geometry":{"type":"Point","coordinates":[105.813517345,10.071369404]},"properties":{"Tên xã phường":"Bình Minh","Bí thư":"Nguyễn Văn Trung","Điện thoại BT":"0902020333","Chủ tịch":"Nguyễn Quốc Đoàn","Điện thoại CT":"0919256071","Diện tích (Km2)":"23.86","Dân số (Người)":"34193","Trụ sở":"Trung tâm hành chính thị xã Bình Minh cũ","Sáp nhập":"Thuận An, (1 phần) Thành Phước, Cái Vồn","layer_id":339,"fid":137,"label":"Bình Minh"}},{"type":"Feature","geometry":{"type":"Point","coordinates":[106.243843817,9.961263257]},"properties":{"Tên xã phường":"Bình Phú","Bí thư":"Nguyễn Thanh Điền","Điện thoại BT":"0965555522","Chủ tịch":"Nguyễn Thanh Hải","Điện thoại CT":"0857533111","Diện tích (Km2)":"59.21","Dân số (Người)":"39152","Trụ sở":"UBND xã Bình Phú cũ","Sáp nhập":"Bình Phú (huyện Càng Long), Đại Phúc, Phương Thạnh","layer_id":339,"fid":138,"label":"Bình Phú"}},{"type":"Feature","geometry":{"type":"Point","coordinates":[106.022501417,10.20350195]},"properties":{"Tên xã phường":"Bình Phước","Bí thư":"Lê Thành Phương","Điện thoại BT":"0908981435","Chủ tịch":"Trương Chí Thiện","Điện thoại CT":"0979299179","Diện tích (Km2)":"35.67","Dân số (Người)":"29418","Trụ sở":"UBND xã Hòa Tịnh cũ","Sáp nhập":"Long Mỹ (huyện Mang Thít), Hòa Tịnh, Bình Phước","layer_id":339,"fid":139,"label":"Bình Phước"}},{"type":"Feature","geometry":{"type":"Point","coordinates":[105.983833568,10.117205745]},"properties":{"Tên xã phường":"Cái Ngang","Bí thư":"Nguyễn Thụy Yến Phương","Điện thoại BT":"0949505238","Chủ tịch":"Trần Ngọc Tuấn","Điện thoại CT":"0939479630","Diện tích (Km2)":"63.14","Dân số (Người)":"36654","Trụ sở":"UBND xã Hậu Lộc cũ","Sáp nhập":"Mỹ Lộc, Tân Lộc, Hậu Lộc, Phú Lộc","layer_id":339,"fid":140,"label":"Cái Ngang"}},{"type":"Feature","geometry":{"type":"Point","coordinates":[106.11057192,10.173731501]},"properties":{"Tên xã phường":"Cái Nhum","Bí thư":"Ngô Hùng Nhân","Điện thoại BT":"0985513508","Chủ tịch":"Mai Hà Phương","Điện thoại CT":"0888383079","Diện tích (Km2)":"52.45","Dân số (Người)":"38538","Trụ sở":"Trung tâm hành chính huyện Mang Thít cũ","Sáp nhập":"An Phước (huyện Mang Thít), Chánh An, Cái Nhum (thị trấn)","layer_id":339,"fid":141,"label":"Cái Nhum"}},{"type":"Feature","geometry":{"type":"Point","coordinates":[105.824452853,10.07051687]},"properties":{"Tên xã phường":"Cái Vồn","Bí thư":"Ngô Tùng Dũng","Điện thoại BT":"0945743639","Chủ tịch":"Nguyễn Thành Phương","Điện thoại CT":"0946369694","Diện tích (Km2)":"26.52","Dân số (Người)":"36031","Trụ sở":"Trung tâm Văn hóa - Thông tin và Thể thao thị xã Bình Minh","Sáp nhập":"Mỹ Hòa (thị xã Bình Minh), Ngãi Tứ (1 phần), Thành Phước (1 phần), Cái Vồn","layer_id":339,"fid":142,"label":"Cái Vồn"}},{"type":"Feature","geometry":{"type":"Point","coordinates":[106.204940934,9.998032333]},"properties":{"Tên xã phường":"Càng Long","Bí thư":"Trần Thị Bích Phượng","Điện thoại BT":"0919100719","Chủ tịch":"Dương Vũ Linh","Điện thoại CT":"0985180773","Diện tích (Km2)":"46.87","Dân số (Người)":"41542","Trụ sở":"UBND thị trấn Càng Long cũ","Sáp nhập":"Càng Long (thị trấn), Mỹ Cẩm, Nhị Long Phú","layer_id":339,"fid":143,"label":"Càng Long"}},{"type":"Feature","geometry":{"type":"Point","coordinates":[106.056254294,9.869241638]},"properties":{"Tên xã phường":"Cầu Kè","Bí thư":"Trần Phong Ba","Điện thoại BT":"0918353032","Chủ tịch":"Lê Hoàng Lam","Điện thoại CT":"0939032932","Diện tích (Km2)":"54.12","Dân số (Người)":"35491","Trụ sở":"UBND thị trấn Cầu Kè cũ","Sáp nhập":"Cầu Kè (thị trấn ), Hòa Ân, Châu Điền","layer_id":339,"fid":144,"label":"Cầu Kè"}},{"type":"Feature","geometry":{"type":"Point","coordinates":[106.45044988,9.796559609]},"properties":{"Tên xã phường":"Cầu Ngang","Bí thư":"Trần Minh Bảnh","Điện thoại BT":"0915861200","Chủ tịch":"Võ Thị Thúy Hằng","Điện thoại CT":"0329002979","Diện tích (Km2)":"35.32","Dân số (Người)":"28986","Trụ sở":"UBND thị trấn Cầu Ngang cũ\n","Sáp nhập":"Mỹ Hòa (huyện Cầu Ngang), Thuận Hòa, Cầu Ngang (thị trấn)","layer_id":339,"fid":145,"label":"Cầu Ngang"}},{"type":"Feature","geometry":{"type":"Point","coordinates":[106.491013077,10.218598035]},"properties":{"Tên xã phường":"Châu Hòa","Bí thư":"Võ Thị Kiều Chinh","Điện thoại BT":"0906482171","Chủ tịch":"Nguyễn Minh Tâm","Điện thoại CT":"0984237013","Diện tích (Km2)":"52.05","Dân số (Người)":"28425","Trụ sở":"UBND xã Châu Hòa cũ","Sáp nhập":"Châu Bình, Lương Quới, Châu Hòa","layer_id":339,"fid":146,"label":"Châu Hòa"}},{"type":"Feature","geometry":{"type":"Point","coordinates":[106.530814495,10.233382581]},"properties":{"Tên xã phường":"Châu Hưng","Bí thư":"Nguyễn Văn Nam","Điện thoại BT":"0918360777","Chủ tịch":"Lê Thành","Điện thoại CT":"0906263728","Diện tích (Km2)":"35.22","Dân số (Người)":"23229","Trụ sở":"UBND xã Thới Lai cũ","Sáp nhập":"Long Hòa (huyện Bình Đại), Thới Lai, Châu Hưng","layer_id":339,"fid":147,"label":"Châu Hưng"}},{"type":"Feature","geometry":{"type":"Point","coordinates":[106.344909167,9.879423815]},"properties":{"Tên xã phường":"Châu Thành","Bí thư":"Thạch Thị Sa Thy","Điện thoại BT":"0374595577","Chủ tịch":"Nguyễn Thị Ngọc Nhi","Điện thoại CT":"0917858505","Diện tích (Km2)":"87.41","Dân số (Người)":"50560","Trụ sở":"UBND thị trấn Châu Thành cũ","Sáp nhập":"Châu Thành (thị trấn), Mỹ Chánh, Thanh Mỹ, Đa Lộc","layer_id":339,"fid":148,"label":"Châu Thành"}},{"type":"Feature","geometry":{"type":"Point","coordinates":[106.123793765,10.262462289]},"properties":{"Tên xã phường":"Chợ Lách","Bí thư":"Lê Thị Hoàng Oanh","Điện thoại BT":"0949589358","Chủ tịch":"Nguyễn Việt Thương","Điện thoại CT":"0824391768","Diện tích (Km2)":"49.72","Dân số (Người)":"44316","Trụ sở":"Trung tâm hành chính huyện Chợ Lách cũ","Sáp nhập":"Long Thới (huyện Chợ Lách), Hòa Nghĩa, Chợ Lách (thị trấn)","layer_id":339,"fid":149,"label":"Chợ Lách"}},{"type":"Feature","geometry":{"type":"Point","coordinates":[106.302636761,9.638987746]},"properties":{"Tên xã phường":"Đại An","Bí thư":" Trần Văn Phong","Điện thoại BT":"0979133665","Chủ tịch":"Ngô Quốc Thạnh","Điện thoại CT":"0886404222","Diện tích (Km2)":"32.32","Dân số (Người)":"22672","Trụ sở":"UBND xã Đại An cũ","Sáp nhập":"Định An (thị trấn), Định An, Đại An","layer_id":339,"fid":150,"label":"Đại An"}},{"type":"Feature","geometry":{"type":"Point","coordinates":[106.447215578,10.002735082]},"properties":{"Tên xã phường":"Đại Điền","Bí thư":"Trần Văn Của","Điện thoại BT":"0918510976","Chủ tịch":"Đào Tăng Hùng","Điện thoại CT":"0982180446","Diện tích (Km2)":"59.26","Dân số (Người)":"37267","Trụ sở":"UBND xã Tân Phong cũ","Sáp nhập":"Phú Khánh, Tân Phong, Thới Thạnh, Đại Điền","layer_id":339,"fid":151,"label":"Đại Điền"}},{"type":"Feature","geometry":{"type":"Point","coordinates":[106.346322563,9.644946641]},"properties":{"Tên xã phường":"Đôn Châu","Bí thư":" Huỳnh Thị Triều","Điện thoại BT":"0975217106","Chủ tịch":"Dương Văn Trí","Điện thoại CT":"0397991879","Diện tích (Km2)":"58.93","Dân số (Người)":"32050","Trụ sở":"UBND xã Đôn Xuân cũ","Sáp nhập":"Đôn Xuân, Đôn Châu","layer_id":339,"fid":152,"label":"Đôn Châu"}},{"type":"Feature","geometry":{"type":"Point","coordinates":[106.434308278,9.553336352]},"properties":{"Tên xã phường":"Đông Hải","Bí thư":"Trịnh Minh Thảnh","Điện thoại BT":"0916093400 ","Chủ tịch":"Mai Quốc Vĩnh","Điện thoại CT":"0919800646","Diện tích (Km2)":"68.91","Dân số (Người)":"14222","Trụ sở":"UBND xã Đông Hải cũ\n","Sáp nhập":"Đông Hải","layer_id":339,"fid":153,"label":"Đông Hải"}},{"type":"Feature","geometry":{"type":"Point","coordinates":[106.389153882,10.103284872]},"properties":{"Tên xã phường":"Đồng Khởi","Bí thư":"Nguyễn Quốc Hưng","Điện thoại BT":"0973436273","Chủ tịch":"Nguyễn Thị Thuý Liễu","Điện thoại CT":"0919379329","Diện tích (Km2)":"41.12","Dân số (Người)":"35384","Trụ sở":"UBND xã Bình Khánh cũ","Sáp nhập":"Định Thủy, Phước Hiệp, Bình Khánh","layer_id":339,"fid":154,"label":"Đồng Khởi"}},{"type":"Feature","geometry":{"type":"Point","coordinates":[105.844320084,10.041781386]},"properties":{"Tên xã phường":"Đông Thành","Bí thư":"Ngô Thị Hồng Gấm","Điện thoại BT":"0939480280","Chủ tịch":"Lê Minh Thọ","Điện thoại CT":"0913222287","Diện tích (Km2)":"44.35","Dân số (Người)":"41793","Trụ sở":"UBND xã Đông Bình cũ","Sáp nhập":"Đông Thuận, Đông Bình, Đông Thạnh, Đông Thành","layer_id":339,"fid":155,"label":"Đông Thành"}},{"type":"Feature","geometry":{"type":"Point","coordinates":[106.492619867,9.6350458]},"properties":{"Tên xã phường":"Duyên Hải","Bí thư":"Dương Văn Triệu","Điện thoại BT":"0913684933","Chủ tịch":"Nguyễn Văn Lánh","Điện thoại CT":"0978933366","Diện tích (Km2)":"69.63","Dân số (Người)":"24356","Trụ sở":"UBND phường 1 cũ","Sáp nhập":"Phường 1(thị xã Duyên Hải), Long Toàn, Dân Thành","layer_id":339,"fid":156,"label":"Duyên Hải"}},{"type":"Feature","geometry":{"type":"Point","coordinates":[106.400817708,10.304825373]},"properties":{"Tên xã phường":"Giao Long","Bí thư":"Nguyễn Hữu Kim","Điện thoại BT":"0932911933","Chủ tịch":"Hồ Thị Lan Hương","Điện thoại CT":"0912256397","Diện tích (Km2)":"42.45","Dân số (Người)":"40150","Trụ sở":"UBND xã Quới Sơn cũ","Sáp nhập":"An Phước (huyện Châu Thành), Quới Sơn, Giao Long","layer_id":339,"fid":157,"label":"Giao Long"}},{"type":"Feature","geometry":{"type":"Point","coordinates":[106.509651258,10.151573561]},"properties":{"Tên xã phường":"Giồng Trôm","Bí thư":"Nguyễn Thái Bình","Điện thoại BT":"0918433698","Chủ tịch":"Nguyễn Vũ Phong","Điện thoại CT":"0942287962","Diện tích (Km2)":"42.39","Dân số (Người)":"37599","Trụ sở":"Trung tâm hành chính huyện Giồng Trôm cũ","Sáp nhập":"Giồng Trôm (thị trấn), Bình Hòa, Bình Thành","layer_id":339,"fid":158,"label":"Giồng Trôm"}},{"type":"Feature","geometry":{"type":"Point","coordinates":[106.266934885,9.655196387]},"properties":{"Tên xã phường":"Hàm Giang","Bí thư":"Trần Bé Sáu","Điện thoại BT":"0919481412","Chủ tịch":"Lê Thanh Sơn","Điện thoại CT":"0977139997","Diện tích (Km2)":"60.66","Dân số (Người)":"30752","Trụ sở":"UBND xã Hàm Tân cũ","Sáp nhập":"Hàm Tân, Kim Sơn, Hàm Giang","layer_id":339,"fid":159,"label":"Hàm Giang"}},{"type":"Feature","geometry":{"type":"Point","coordinates":[106.477132022,9.731754242]},"properties":{"Tên xã phường":"Hiệp Mỹ","Bí thư":"Dương Văn Thương","Điện thoại BT":"0918136167","Chủ tịch":"Cao Thị Ngân","Điện thoại CT":"0913135864","Diện tích (Km2)":"67.45","Dân số (Người)":"31460","Trụ sở":"UBND xã Hiệp Mỹ Tây cũ","Sáp nhập":"Long Sơn, Hiệp Mỹ Đông, Hiệp Mỹ Tây","layer_id":339,"fid":160,"label":"Hiệp Mỹ"}},{"type":"Feature","geometry":{"type":"Point","coordinates":[106.112128007,10.040491108]},"properties":{"Tên xã phường":"Hiếu Phụng","Bí thư":"Huỳnh Thị Nhanh","Điện thoại BT":"0939854279","Chủ tịch":"Lê Hải Việt","Điện thoại CT":"0932899694","Diện tích (Km2)":"42.46","Dân số (Người)":"28418","Trụ sở":"UBND xã Hiếu Thuận cũ","Sáp nhập":"Hiếu Thuận, Trung An, Hiếu Phụng","layer_id":339,"fid":161,"label":"Hiếu Phụng"}},{"type":"Feature","geometry":{"type":"Point","coordinates":[106.095227892,9.984156278]},"properties":{"Tên xã phường":"Hiếu Thành","Bí thư":"Nguyễn Văn Phước Thiện","Điện thoại BT":"0987980459","Chủ tịch":"Nguyễn Phú Quốc","Điện thoại CT":"0939859901","Diện tích (Km2)":"53.41","Dân số (Người)":"34331","Trụ sở":"UBND xã Hiếu Thành cũ","Sáp nhập":"Hiếu Nhơn, Hiếu Nghĩa, Hiếu Thành","layer_id":339,"fid":162,"label":"Hiếu Thành"}},{"type":"Feature","geometry":{"type":"Point","coordinates":[106.0459965,10.043274003]},"properties":{"Tên xã phường":"Hòa Bình","Bí thư":"Nguyễn Văn Trạng","Điện thoại BT":"0949694243","Chủ tịch":"Nguyễn Hoàng Khang","Điện thoại CT":"0939189449","Diện tích (Km2)":"65.61","Dân số (Người)":"39787","Trụ sở":"UBND xã Hòa Bình cũ","Sáp nhập":"Xuân Hiệp, Thới Hòa, Hòa Bình","layer_id":339,"fid":163,"label":"Hòa Bình"}},{"type":"Feature","geometry":{"type":"Point","coordinates":[106.005659648,10.085287671]},"properties":{"Tên xã phường":"Hòa Hiệp","Bí thư":"Nguyễn Thị Thu Hiền","Điện thoại BT":"0946681855","Chủ tịch":"Phạm Thành Nguyên","Điện thoại CT":"0907916100","Diện tích (Km2)":"44.1","Dân số (Người)":"31099","Trụ sở":"UBND xã Hòa Lộc cũ","Sáp nhập":"Hòa Thạnh,  Hòa Lộc, Hòa Hiệp","layer_id":339,"fid":164,"label":"Hòa Hiệp"}},{"type":"Feature","geometry":{"type":"Point","coordinates":[106.47188135,9.906093807]},"properties":{"Tên xã phường":"Hòa Minh","Bí thư":"Thái Thanh Phong","Điện thoại BT":"0979474365","Chủ tịch":"Lê Văn Trí","Điện thoại CT":"0987971807","Diện tích (Km2)":"35.75","Dân số (Người)":"16843","Trụ sở":"UBND xã Hòa Minh cũ","Sáp nhập":"Hòa Minh","layer_id":339,"fid":165,"label":"Hòa Minh"}},{"type":"Feature","geometry":{"type":"Point","coordinates":[106.360868227,9.939007108]},"properties":{"Tên xã phường":"Hòa Thuận","Bí thư":"Lê Văn Mạnh","Điện thoại BT":"0944732727","Chủ tịch":"Nguyễn Bé Sáu","Điện thoại CT":"0919899928","Diện tích (Km2)":"16.51","Dân số (Người)":"25384","Trụ sở":"UBND xã Hòa Thuận cũ","Sáp nhập":"Phường 5 (thành phố Trà Vinh), Hòa Thuận","layer_id":339,"fid":166,"label":"Hòa Thuận"}},{"type":"Feature","geometry":{"type":"Point","coordinates":[106.203658174,9.79487762]},"properties":{"Tên xã phường":"Hùng Hòa","Bí thư":"Nguyễn Thị Ngọc Bích","Điện thoại BT":"0987605454","Chủ tịch":"Nguyễn Minh Mẫu","Điện thoại CT":"0988329477","Diện tích (Km2)":"57.51","Dân số (Người)":"28221","Trụ sở":"UBND xã Tân Hùng cũ","Sáp nhập":"Ngãi Hùng, Tân Hùng, Hùng Hòa","layer_id":339,"fid":167,"label":"Hùng Hòa"}},{"type":"Feature","geometry":{"type":"Point","coordinates":[106.248391164,10.177019232]},"properties":{"Tên xã phường":"Hưng Khánh Trung","Bí thư":"Võ Tuấn Thông","Điện thoại BT":"0395665565","Chủ tịch":"Võ Thanh Hiếu","Điện thoại CT":"0939239839","Diện tích (Km2)":"32.14","Dân số (Người)":"27672","Trụ sở":"UBND xã Hưng Khánh Trung A cũ","Sáp nhập":"Vĩnh Hòa (huyện Chợ Lách), Hưng Khánh Trung A, Hưng Khánh Trung B","layer_id":339,"fid":168,"label":"Hưng Khánh Trung"}},{"type":"Feature","geometry":{"type":"Point","coordinates":[106.423353373,9.903986306]},"properties":{"Tên xã phường":"Hưng Mỹ","Bí thư":"Nguyễn Minh Thuy","Điện thoại BT":"0947366638","Chủ tịch":"Nguyễn Văn Ngoan","Điện thoại CT":"0984590963","Diện tích (Km2)":"67.02","Dân số (Người)":"40259","Trụ sở":"UBND xã Hưng Mỹ cũ\n","Sáp nhập":"Hòa Lợi (huyện Châu Thành), Phước Hảo, Hưng Mỹ","layer_id":339,"fid":169,"label":"Hưng Mỹ"}},{"type":"Feature","geometry":{"type":"Point","coordinates":[106.492615893,10.097334275]},"properties":{"Tên xã phường":"Hưng Nhượng","Bí thư":"Đinh Thị Thanh Nhanh","Điện thoại BT":"0916729844","Chủ tịch":"Trần Thống Nhất","Điện thoại CT":"0913605704","Diện tích (Km2)":"53.66","Dân số (Người)":"37568","Trụ sở":"UBND xã Hưng Nhượng cũ","Sáp nhập":"Tân Thanh, Hưng Lễ, Hưng Nhượng","layer_id":339,"fid":170,"label":"Hưng Nhượng"}},{"type":"Feature","geometry":{"type":"Point","coordinates":[106.400875313,10.01570122]},"properties":{"Tên xã phường":"Hương Mỹ","Bí thư":"Trần Thị Thúy","Điện thoại BT":"0918988108","Chủ tịch":"Nguyễn Minh Chánh","Điện thoại CT":"0917102118","Diện tích (Km2)":"55.01","Dân số (Người)":"38427","Trụ sở":"UBND xã Hương Mỹ cũ","Sáp nhập":"Ngãi Đăng, Cẩm Sơn, Hương Mỹ","layer_id":339,"fid":171,"label":"Hương Mỹ"}},{"type":"Feature","geometry":{"type":"Point","coordinates":[106.589791213,10.225242723]},"properties":{"Tên xã phường":"Lộc Thuận","Bí thư":"Huỳnh Khắc Đoàn Cương","Điện thoại BT":"0982937299","Chủ tịch":"Trần Thanh Hòa","Điện thoại CT":"0918211622","Diện tích (Km2)":"42.7","Dân số (Người)":"28704","Trụ sở":"UBND xã Lộc Thuận cũ","Sáp nhập":"Vang Quới Đông, Vang Quới Tây, Lộc Thuận","layer_id":339,"fid":172,"label":"Lộc Thuận"}},{"type":"Feature","geometry":{"type":"Point","coordinates":[105.963843316,10.248442103]},"properties":{"Tên xã phường":"Long Châu","Bí thư":"Võ Quốc Thanh","Điện thoại BT":"0918170353","Chủ tịch":"Đoàn Văn Huệ","Điện thoại CT":"0918735570","Diện tích (Km2)":"12.63","Dân số (Người)":"49480","Trụ sở":"UBND phường 1 cũ","Sáp nhập":"Phường 1, Phường 9 (thành phố Vĩnh Long), Trường An","layer_id":339,"fid":173,"label":"Long Châu"}},{"type":"Feature","geometry":{"type":"Point","coordinates":[106.332352171,9.98209316]},"properties":{"Tên xã phường":"Long Đức","Bí thư":"Nguyễn Văn Nhủ","Điện thoại BT":"0945590404","Chủ tịch":"Nguyễn Văn Liêu","Điện thoại CT":"0903759171","Diện tích (Km2)":"40.62","Dân số (Người)":"33662","Trụ sở":"UBND xã Long Đức cũ","Sáp nhập":"Phường 4 (thành phố Trà Vinh), Long Đức","layer_id":339,"fid":174,"label":"Long Đức"}},{"type":"Feature","geometry":{"type":"Point","coordinates":[106.340549458,9.709011265]},"properties":{"Tên xã phường":"Long Hiệp","Bí thư":"Trần Văn Mười","Điện thoại BT":"0913741847","Chủ tịch":"Nguyễn Khánh Hòa","Điện thoại CT":"0934032959","Diện tích (Km2)":"65.17","Dân số (Người)":"32425","Trụ sở":"UBND xã Long Hiệp cũ","Sáp nhập":"Ngọc Biên, Tân Hiệp, Long Hiệp","layer_id":339,"fid":175,"label":"Long Hiệp"}},{"type":"Feature","geometry":{"type":"Point","coordinates":[106.01163651,10.193941273]},"properties":{"Tên xã phường":"Long Hồ","Bí thư":"Trần Ngọc Bá Nhân","Điện thoại BT":"0978860530","Chủ tịch":"Trương Thanh Trà","Điện thoại CT":"0939483807","Diện tích (Km2)":"47.64","Dân số (Người)":"54312","Trụ sở":"Trung tâm hành chính huyện Long Hồ cũ","Sáp nhập":"Long Hồ (thị trấn), Long An, Long Phước","layer_id":339,"fid":176,"label":"Long Hồ"}},{"type":"Feature","geometry":{"type":"Point","coordinates":[106.499609556,9.885730219]},"properties":{"Tên xã phường":"Long Hòa","Bí thư":"Lê Văn Nhiên","Điện thoại BT":"0916093563","Chủ tịch":"Phạm Đắc Tâm","Điện thoại CT":"0936038254","Diện tích (Km2)":"52.67","Dân số (Người)":"13309","Trụ sở":"UBND xã Long Hòa cũ","Sáp nhập":"Long Hòa","layer_id":339,"fid":177,"label":"Long Hòa"}},{"type":"Feature","geometry":{"type":"Point","coordinates":[106.487427058,9.679310695]},"properties":{"Tên xã phường":"Long Hữu","Bí thư":"Lê Văn Nhớ","Điện thoại BT":"0919328698","Chủ tịch":"Lê Thành Tâm","Điện thoại CT":"0916216240","Diện tích (Km2)":"67.28","Dân số (Người)":"15321","Trụ sở":"UBND xã Long Hữu cũ","Sáp nhập":"Hiệp Thạnh, Long Hữu","layer_id":339,"fid":178,"label":"Long Hữu"}},{"type":"Feature","geometry":{"type":"Point","coordinates":[106.446907161,9.609799095]},"properties":{"Tên xã phường":"Long Thành","Bí thư":"Trương Văn Huy","Điện thoại BT":"0977924486","Chủ tịch":"Đào Văn Năng","Điện thoại CT":"0917858879","Diện tích (Km2)":"51.51","Dân số (Người)":"15429","Trụ sở":"UBND thị trấn Long Thành cũ","Sáp nhập":"Long Thành (thị trấn), Long Khánh","layer_id":339,"fid":179,"label":"Long Thành"}},{"type":"Feature","geometry":{"type":"Point","coordinates":[106.353825378,9.604210609]},"properties":{"Tên xã phường":"Long Vĩnh","Bí thư":"Thái Thị Mỹ Dung","Điện thoại BT":"0916131298","Chủ tịch":"Nguyễn Văn Giới","Điện thoại CT":"0888994455","Diện tích (Km2)":"96.37","Dân số (Người)":"16344","Trụ sở":"UBND xã Long Vĩnh cũ","Sáp nhập":"Long Vĩnh","layer_id":339,"fid":180,"label":"Long Vĩnh"}},{"type":"Feature","geometry":{"type":"Point","coordinates":[105.914322756,9.959620655]},"properties":{"Tên xã phường":"Lục Sĩ Thành","Bí thư":"Nguyễn Văn Hai","Điện thoại BT":"0939973373","Chủ tịch":"Nguyễn Thành Luân","Điện thoại CT":"0949694264","Diện tích (Km2)":"43.52","Dân số (Người)":"23457","Trụ sở":"UBND xã Lục Sĩ Thành cũ","Sáp nhập":"Phú Thành, Lục Sĩ","layer_id":339,"fid":181,"label":"Lục Sĩ Thành"}},{"type":"Feature","geometry":{"type":"Point","coordinates":[106.451440901,10.240317966]},"properties":{"Tên xã phường":"Lương Hòa","Bí thư":"Lê Văn Tường","Điện thoại BT":"0918136753","Chủ tịch":"Phạm Thanh Nam","Điện thoại CT":"0982236313","Diện tích (Km2)":"37.48","Dân số (Người)":"25940","Trụ sở":"UBND xã Phong Nẫm cũ","Sáp nhập":"Lương Hòa (huyện Giồng Trôm), Phong Nẫm","layer_id":339,"fid":182,"label":"Lương Hòa"}},{"type":"Feature","geometry":{"type":"Point","coordinates":[106.434390173,10.221900847]},"properties":{"Tên xã phường":"Lương Phú","Bí thư":"Nguyễn Văn Nhân","Điện thoại BT":"0919240025","Chủ tịch":"Nguyễn Thái Hùng","Điện thoại CT":"0983892377","Diện tích (Km2)":"27.88","Dân số (Người)":"25554","Trụ sở":"UBND xã Mỹ Thạnh cũ","Sáp nhập":"Mỹ Thạnh (huyện Giồng Trôm), Thuận Điền, Lương Phú","layer_id":339,"fid":183,"label":"Lương Phú"}},{"type":"Feature","geometry":{"type":"Point","coordinates":[106.220082883,9.698952102]},"properties":{"Tên xã phường":"Lưu Nghiệp Anh","Bí thư":"Ngô Trường Giang","Điện thoại BT":"0987325394","Chủ tịch":"Huỳnh Văn Nghị","Điện thoại CT":"0989522797","Diện tích (Km2)":"54.62","Dân số (Người)":"29658","Trụ sở":"UBND xã Lưu Nghiệp Anh cũ","Sáp nhập":"An Quảng Hữu, Lưu Nghiệp Anh","layer_id":339,"fid":184,"label":"Lưu Nghiệp Anh"}},{"type":"Feature","geometry":{"type":"Point","coordinates":[106.334870205,10.13319341]},"properties":{"Tên xã phường":"Mỏ Cày","Bí thư":"Hà Quốc Cường","Điện thoại BT":"0913886224","Chủ tịch":"Huỳnh Trung Tính","Điện thoại CT":"0888100666","Diện tích (Km2)":"38.89","Dân số (Người)":"49852","Trụ sở":"Trung tâm chính trị - hành chính huyện Mỏ Cày Nam cũ","Sáp nhập":"Mỏ Cày (thị trấn), An Thạnh (huyện Mỏ Cày Nam), Tân Hội, Đa Phước Hội","layer_id":339,"fid":185,"label":"Mỏ Cày"}},{"type":"Feature","geometry":{"type":"Point","coordinates":[106.582495319,10.11925214]},"properties":{"Tên xã phường":"Mỹ Chánh Hòa","Bí thư":"Dương Văn Chương","Điện thoại BT":"0907881453","Chủ tịch":"Đặng Thị Quyên","Điện thoại CT":"0974217940","Diện tích (Km2)":"50.61","Dân số (Người)":"29376","Trụ sở":"UBND xã Mỹ Chánh cũ","Sáp nhập":"Mỹ Hòa, Mỹ Chánh (huyện Ba Tri), Mỹ Nhơn","layer_id":339,"fid":186,"label":"Mỹ Chánh Hòa"}},{"type":"Feature","geometry":{"type":"Point","coordinates":[106.507280541,9.809587648]},"properties":{"Tên xã phường":"Mỹ Long","Bí thư":"Trần Thị Kim Chung","Điện thoại BT":"0989623249","Chủ tịch":"Đường Quang Thập","Điện thoại CT":"0907163364","Diện tích (Km2)":"73.61","Dân số (Người)":"25385","Trụ sở":"UBND thị trấn Mỹ Long cũ","Sáp nhập":"Mỹ Long (thị trấn), Mỹ Long Bắc, Mỹ Long Nam","layer_id":339,"fid":187,"label":"Mỹ Long"}},{"type":"Feature","geometry":{"type":"Point","coordinates":[105.826782285,10.133588532]},"properties":{"Tên xã phường":"Mỹ Thuận","Bí thư":"Bùi Văn Dai","Điện thoại BT":"0917138059","Chủ tịch":"Trần Thanh Sang","Điện thoại CT":"0917214910","Diện tích (Km2)":"56.01","Dân số (Người)":"29312","Trụ sở":"UBND xã Nguyễn Văn Thảnh cũ","Sáp nhập":"Thành Trung, Nguyễn Văn Thảnh, Mỹ Thuận","layer_id":339,"fid":188,"label":"Mỹ Thuận"}},{"type":"Feature","geometry":{"type":"Point","coordinates":[105.929998507,9.996654591]},"properties":{"Tên xã phường":"Ngãi Tứ","Bí thư":"Lê Minh Hiền","Điện thoại BT":"0986364445","Chủ tịch":"Lê Hoàng An","Điện thoại CT":"0969771199","Diện tích (Km2)":"69.12","Dân số (Người)":"48795","Trụ sở":"UBND xã Bình Ninh cũ","Sáp nhập":"Loan Mỹ,  Bình Ninh, (1 phần) Ngãi Tứ, (1 phần thị trấn) Trà Ôn","layer_id":339,"fid":189,"label":"Ngãi Tứ"}},{"type":"Feature","geometry":{"type":"Point","coordinates":[106.427899607,9.666293065]},"properties":{"Tên xã phường":"Ngũ Lạc","Bí thư":"Lê Vũ Phương","Điện thoại BT":"0913659424","Chủ tịch":"Sơn Huỳnh Luận","Điện thoại CT":"0818430004","Diện tích (Km2)":"60.92","Dân số (Người)":"32309","Trụ sở":"UBND xã Ngũ Lạc cũ","Sáp nhập":"Thạnh Hòa Sơn, Ngũ Lạc","layer_id":339,"fid":190,"label":"Ngũ Lạc"}},{"type":"Feature","geometry":{"type":"Point","coordinates":[106.331956297,9.922284423]},"properties":{"Tên xã phường":"Nguyệt Hóa","Bí thư":"Nguyễn Quốc Phương","Điện thoại BT":"0913633626","Chủ tịch":"Lâm Quốc Thống","Điện thoại CT":"0939898098","Diện tích (Km2)":"21.14","Dân số (Người)":"37066","Trụ sở":"UBND phường 7 cũ","Sáp nhập":"Phường 7, Phường 8(thành phố Trà Vinh), Nguyệt Hóa","layer_id":339,"fid":191,"label":"Nguyệt Hóa"}},{"type":"Feature","geometry":{"type":"Point","coordinates":[106.26884532,10.009194628]},"properties":{"Tên xã phường":"Nhị Long","Bí thư":"Trần Minh Thanh","Điện thoại BT":"0913188190","Chủ tịch":"Nguyễn Thanh Bình","Điện thoại CT":"0907481195","Diện tích (Km2)":"57.95","Dân số (Người)":"34633","Trụ sở":"UBND xã Nhị Long cũ","Sáp nhập":"Đại Phước, Đức Mỹ, Nhị Long","layer_id":339,"fid":192,"label":"Nhị Long"}},{"type":"Feature","geometry":{"type":"Point","coordinates":[106.389413958,9.756694434]},"properties":{"Tên xã phường":"Nhị Trường","Bí thư":"Nguyễn Văn Ngà","Điện thoại BT":"0918378554","Chủ tịch":"Trần Văn An","Điện thoại CT":"0986842118","Diện tích (Km2)":"72.34","Dân số (Người)":"38184","Trụ sở":"UBND xã Nhị Trường cũ","Sáp nhập":"Hiệp Hòa, Trường Thọ, Nhị Trường","layer_id":339,"fid":193,"label":"Nhị Trường"}},{"type":"Feature","geometry":{"type":"Point","coordinates":[106.0542333,10.240082649]},"properties":{"Tên xã phường":"Nhơn Phú","Bí thư":"Nguyễn Huỳnh Thu","Điện thoại BT":"0939141838","Chủ tịch":"Nguyễn Hùng Phú","Điện thoại CT":"0977394665","Diện tích (Km2)":"38.09","Dân số (Người)":"34898","Trụ sở":"UBND xã Mỹ An cũ","Sáp nhập":"Mỹ An (huyện Mang Thít), Mỹ Phước, Nhơn Phú","layer_id":339,"fid":194,"label":"Nhơn Phú"}},{"type":"Feature","geometry":{"type":"Point","coordinates":[106.287576345,10.114927226]},"properties":{"Tên xã phường":"Nhuận Phú Tân","Bí thư":"Phạm Thanh Truyền","Điện thoại BT":"0985432526","Chủ tịch":"Nguyễn Văn Vũ","Điện thoại CT":"0828843839","Diện tích (Km2)":"41.64","Dân số (Người)":"38837","Trụ sở":"UBND xã Khánh Thạnh Tân cũ","Sáp nhập":"Khánh Thạnh Tân, Tân Thanh Tây, Nhuận Phú Tân","layer_id":339,"fid":195,"label":"Nhuận Phú Tân"}},{"type":"Feature","geometry":{"type":"Point","coordinates":[106.122547185,9.840440424]},"properties":{"Tên xã phường":"Phong Thạnh","Bí thư":"Diêu Hùng Thắng","Điện thoại BT":"0902849750","Chủ tịch":"Nguyễn Thị Nhiền","Điện thoại CT":"0965124455","Diện tích (Km2)":"77.33","Dân số (Người)":"41525","Trụ sở":"UBND xã Phong Thạnh cũ","Sáp nhập":"Ninh Thới, Phong Phú, Phong Thạnh","layer_id":339,"fid":196,"label":"Phong Thạnh"}},{"type":"Feature","geometry":{"type":"Point","coordinates":[106.373811871,10.249450628]},"properties":{"Tên xã phường":"Phú Khương","Bí thư":"Huỳnh Vĩnh Khánh","Điện thoại BT":"0913965029","Chủ tịch":"Hồ Phước Hưng","Điện thoại CT":"0919063899","Diện tích (Km2)":"24.97","Dân số (Người)":"47059","Trụ sở":"UBND phường Phú Khương cũ","Sáp nhập":"Phường 8(thành phố Bến Tre), Phú Khương, Phú Hưng,  Nhơn Thạnh","layer_id":339,"fid":197,"label":"Phú Khương"}},{"type":"Feature","geometry":{"type":"Point","coordinates":[106.080006632,10.269313531]},"properties":{"Tên xã phường":"Phú Phụng","Bí thư":"Trần Văn Đém","Điện thoại BT":"0979330349","Chủ tịch":"Trương Văn Phúc","Điện thoại CT":"0945680898","Diện tích (Km2)":"47.89","Dân số (Người)":"38495","Trụ sở":"UBND xã Vĩnh Bình cũ","Sáp nhập":"Sơn Định, Vĩnh Bình, Phú Phụng","layer_id":339,"fid":198,"label":"Phú Phụng"}},{"type":"Feature","geometry":{"type":"Point","coordinates":[105.921594756,10.161732831]},"properties":{"Tên xã phường":"Phú Quới","Bí thư":"Đặng Hữu Dứt","Điện thoại BT":"0918822589","Chủ tịch":"Võ Trung Sơn","Điện thoại CT":"0908481315","Diện tích (Km2)":"50.58","Dân số (Người)":"49669","Trụ sở":"UBND xã Phú Quới cũ","Sáp nhập":"Lộc Hòa, Hòa Phú, Thạnh Quới, Phú Quới","layer_id":339,"fid":199,"label":"Phú Quới"}},{"type":"Feature","geometry":{"type":"Point","coordinates":[106.388462898,10.270566659]},"properties":{"Tên xã phường":"Phú Tân","Bí thư":"Vũ Thanh Hà","Điện thoại BT":"0916383999","Chủ tịch":"Nguyễn Minh Phương","Điện thoại CT":"0918948789","Diện tích (Km2)":"26.58","Dân số (Người)":"28568","Trụ sở":"UBND xã Hữu Định cũ","Sáp nhập":"Phú Tân, Hữu Định, Phước Thạnh","layer_id":339,"fid":200,"label":"Phú Tân"}},{"type":"Feature","geometry":{"type":"Point","coordinates":[106.489573068,10.267347793]},"properties":{"Tên xã phường":"Phú Thuận","Bí thư":"Nguyễn Văn Lớn","Điện thoại BT":"0919826384","Chủ tịch":"Bùi Phúc Hậu","Điện thoại CT":"0918249802","Diện tích (Km2)":"29.28","Dân số (Người)":"16883","Trụ sở":"UBND xã Phú Thuận cũ","Sáp nhập":"Long Định, Tam Hiệp, Phú Thuận","layer_id":339,"fid":201,"label":"Phú Thuận"}},{"type":"Feature","geometry":{"type":"Point","coordinates":[106.357137993,10.301099915]},"properties":{"Tên xã phường":"Phú Túc","Bí thư":"Phan Song Toàn","Điện thoại BT":"0913796618","Chủ tịch":"Thái Hoàng Thi","Điện thoại CT":"0939545477","Diện tích (Km2)":"63.14","Dân số (Người)":"62073","Trụ sở":"UBND huyện Châu Thành cũ","Sáp nhập":"Châu Thành (thị trấn), Tân Thạch, Tường Đa, Phú Túc","layer_id":339,"fid":202,"label":"Phú Túc"}},{"type":"Feature","geometry":{"type":"Point","coordinates":[105.970143987,10.240821763]},"properties":{"Tên xã phường":"Phước Hậu","Bí thư":"Nguyễn Quốc Duy","Điện thoại BT":"0918275814","Chủ tịch":"Nguyễn Thành Lâm","Điện thoại CT":"0909563764","Diện tích (Km2)":"15.52","Dân số (Người)":"50839","Trụ sở":"UBND phường 3 cũ","Sáp nhập":"Phường 3, Phường 4 (thành phố Vĩnh Long), Phước Hậu","layer_id":339,"fid":203,"label":"Phước Hậu"}},{"type":"Feature","geometry":{"type":"Point","coordinates":[106.395002976,10.152842045]},"properties":{"Tên xã phường":"Phước Long","Bí thư":"Trần Dương Thuấn","Điện thoại BT":"0918473757","Chủ tịch":"Lê Văn Trung","Điện thoại CT":"0918315654","Diện tích (Km2)":"39.95","Dân số (Người)":"27284","Trụ sở":"UBND xã Phước Long cũ","Sáp nhập":"Long Mỹ (huyện Giồng Trôm), Hưng Phong, Phước Long","layer_id":339,"fid":204,"label":"Phước Long"}},{"type":"Feature","geometry":{"type":"Point","coordinates":[106.274673221,10.185526813]},"properties":{"Tên xã phường":"Phước Mỹ Trung","Bí thư":"Phạm Thị Thanh Thảo","Điện thoại BT":"0912323056","Chủ tịch":"Nguyễn Văn Ngoạn","Điện thoại CT":"0909565956","Diện tích (Km2)":"38.19","Dân số (Người)":"36526","Trụ sở":"Trung tâm Chính trị - hành chính huyện Mỏ Cày Bắc cũ","Sáp nhập":"Phước Mỹ Trung (thị trấn), Phú Mỹ, Thạnh Ngãi, Tân Phú Tây","layer_id":339,"fid":205,"label":"Phước Mỹ Trung"}},{"type":"Feature","geometry":{"type":"Point","coordinates":[106.164529419,10.161298581]},"properties":{"Tên xã phường":"Quới An","Bí thư":"Lê Thị Thanh Vân","Điện thoại BT":"0398312839","Chủ tịch":"Lê Văn Khái","Điện thoại CT":"0983995675","Diện tích (Km2)":"44.93","Dân số (Người)":"29101","Trụ sở":"UBND xã Quới An cũ","Sáp nhập":"Trung Thành Tây, Tân Quới Trung, Quới An","layer_id":339,"fid":206,"label":"Quới An"}},{"type":"Feature","geometry":{"type":"Point","coordinates":[106.475918652,9.982548383]},"properties":{"Tên xã phường":"Quới Điền","Bí thư":"Huỳnh Thị Cẩm","Điện thoại BT":"0918917785","Chủ tịch":"Mai Hoàng Nhựt","Điện thoại CT":"0972175726","Diện tích (Km2)":"49.58","Dân số (Người)":"30012","Trụ sở":"UBND xã Quới Điền cũ","Sáp nhập":"Hòa Lợi (huyện Thạnh Phú), Mỹ Hưng, Quới Điền","layer_id":339,"fid":207,"label":"Quới Điền"}},{"type":"Feature","geometry":{"type":"Point","coordinates":[106.229671568,10.111557804]},"properties":{"Tên xã phường":"Quới Thiện","Bí thư":"Nguyễn Thị Diệu Hiền","Điện thoại BT":"0988481234","Chủ tịch":"Nguyễn Văn Móm Em","Điện thoại CT":"0939453367","Diện tích (Km2)":"46.95","Dân số (Người)":"26240","Trụ sở":"UBND xã Thanh Bình cũ","Sáp nhập":"Thanh Bình, Quới Thiện","layer_id":339,"fid":208,"label":"Quới Thiện"}},{"type":"Feature","geometry":{"type":"Point","coordinates":[106.338373329,10.26795111]},"properties":{"Tên xã phường":"Sơn Đông","Bí thư":"Trần Quốc Huân","Điện thoại BT":"0944191315","Chủ tịch":"Nguyễn Văn Được","Điện thoại CT":"0985518178","Diện tích (Km2)":"23.48","Dân số (Người)":"34188","Trụ sở":"UBND xã Sơn Đông cũ","Sáp nhập":"Phường 6, Sơn Đông, Tam Phước","layer_id":339,"fid":209,"label":"Sơn Đông"}},{"type":"Feature","geometry":{"type":"Point","coordinates":[106.28463131,9.865413002]},"properties":{"Tên xã phường":"Song Lộc","Bí thư":"Tô Thị Thu Hồng","Điện thoại BT":"0934107999","Chủ tịch":"Ngô Hồng Thanh","Điện thoại CT":"0909567805","Diện tích (Km2)":"80.1","Dân số (Người)":"42628","Trụ sở":"UBND xã Lương Hòa A cũ","Sáp nhập":"Lương Hòa (huyện Châu Thành), Lương Hòa A, Song Lộc","layer_id":339,"fid":210,"label":"Song Lộc"}},{"type":"Feature","geometry":{"type":"Point","coordinates":[105.902725907,10.109695207]},"properties":{"Tên xã phường":"Song Phú","Bí thư":"Đinh Quang Huy","Điện thoại BT":"0944188839","Chủ tịch":"Lê Trí Hùng","Điện thoại CT":"0972088778","Diện tích (Km2)":"76.58","Dân số (Người)":"50646","Trụ sở":"UBND xã Song Phú cũ","Sáp nhập":"Tân Phú (huyện Tam Bình), Long Phú, Phú Thịnh, Song Phú","layer_id":339,"fid":211,"label":"Song Phú"}},{"type":"Feature","geometry":{"type":"Point","coordinates":[105.999271947,10.046532113]},"properties":{"Tên xã phường":"Tam Bình","Bí thư":"Lê Ngọc Đức","Điện thoại BT":"0903133903","Chủ tịch":"Nguyễn Văn Thắng","Điện thoại CT":"0988988513","Diện tích (Km2)":"34.63","Dân số (Người)":"32612","Trụ sở":"Trung tâm hành chính huyện Tam Bình cũ","Sáp nhập":"Mỹ Thạnh Trung,Tam Bình (1 phần thị trấn)","layer_id":339,"fid":212,"label":"Tam Bình"}},{"type":"Feature","geometry":{"type":"Point","coordinates":[106.076388749,9.920930773]},"properties":{"Tên xã phường":"Tam Ngãi","Bí thư":"Trần Thanh Bình","Điện thoại BT":"0919329459","Chủ tịch":"Lê Thị Hoàng","Điện thoại CT":"0939366177","Diện tích (Km2)":"61.31","Dân số (Người)":"40282","Trụ sở":"UBND xã Thông Hòa cũ","Sáp nhập":"Thông Hòa, Thạnh Phú, Tam Ngãi","layer_id":339,"fid":213,"label":"Tam Ngãi"}},{"type":"Feature","geometry":{"type":"Point","coordinates":[106.228715119,9.925667646]},"properties":{"Tên xã phường":"Tân An","Bí thư":" Trần Thị Xí Lìne","Điện thoại BT":"0978486061","Chủ tịch":"Đinh Thanh Quân","Điện thoại CT":"0939910025","Diện tích (Km2)":"57.25","Dân số (Người)":"33013","Trụ sở":"UBND xã Huyền Hội cũ","Sáp nhập":"Huyền Hội, Tân An","layer_id":339,"fid":214,"label":"Tân An"}},{"type":"Feature","geometry":{"type":"Point","coordinates":[105.933361513,10.235932502]},"properties":{"Tên xã phường":"Tân Hạnh","Bí thư":"Nguyễn Thanh Hà","Điện thoại BT":"0909254278","Chủ tịch":"Đặng Văn Đức","Điện thoại CT":"0387378710","Diện tích (Km2)":"17.84","Dân số (Người)":"32093","Trụ sở":"UBND xã Tân Hạnh cũ","Sáp nhập":"Phường 8(thành phố Vĩnh Long), Tân Hạnh","layer_id":339,"fid":215,"label":"Tân Hạnh"}},{"type":"Feature","geometry":{"type":"Point","coordinates":[106.465339117,10.1402369]},"properties":{"Tên xã phường":"Tân Hào","Bí thư":"Đặng Hồng Sơn","Điện thoại BT":"0918252420","Chủ tịch":"Nguyễn Thành Nghĩa","Điện thoại CT":"0917130269","Diện tích (Km2)":"44.45","Dân số (Người)":"30694","Trụ sở":"UBND xã Tân Hào cũ","Sáp nhập":"Tân Lợi Thạnh, Thạnh Phú Đông, Tân Hào","layer_id":339,"fid":216,"label":"Tân Hào"}},{"type":"Feature","geometry":{"type":"Point","coordinates":[106.160062914,9.763313674]},"properties":{"Tên xã phường":"Tân Hòa","Bí thư":"Nguyễn Minh Thành","Điện thoại BT":"0978554557","Chủ tịch":"Triệu Văn Dày","Điện thoại CT":"0916132012","Diện tích (Km2)":"61.21","Dân số (Người)":"41202","Trụ sở":"UBND xã Tân Hòa cũ","Sáp nhập":"Long Thới (huyện Tiểu Cần), Tân Hòa, Cầu Quan (thị trấn)","layer_id":339,"fid":217,"label":"Tân Hòa"}},{"type":"Feature","geometry":{"type":"Point","coordinates":[106.074474619,10.122411076]},"properties":{"Tên xã phường":"Tân Long Hội","Bí thư":"Trương Võ Minh Nguyệt","Điện thoại BT":"0942546484","Chủ tịch":"Phạm Phương Nam","Điện thoại CT":"0983840243","Diện tích (Km2)":"36.27","Dân số (Người)":"26358","Trụ sở":"UBND xã Tân Long cũ","Sáp nhập":"Tân An Hội, Tân Long, Tân Long Hội","layer_id":339,"fid":218,"label":"Tân Long Hội"}},{"type":"Feature","geometry":{"type":"Point","coordinates":[105.715045388,10.142550231]},"properties":{"Tên xã phường":"Tân Lược","Bí thư":"Nguyễn Văn Tập","Điện thoại BT":"0917139394","Chủ tịch":"Võ Ngọc Thơ","Điện thoại CT":"0945459479","Diện tích (Km2)":"56.39","Dân số (Người)":"38844","Trụ sở":"UBND xã Tân Lược cũ","Sáp nhập":"Tân Thành, Tân An Thạnh, Tân Lược","layer_id":339,"fid":219,"label":"Tân Lược"}},{"type":"Feature","geometry":{"type":"Point","coordinates":[105.901611956,10.266673019]},"properties":{"Tên xã phường":"Tân Ngãi","Bí thư":"Hồ Vũ Nam","Điện thoại BT":"0983833646","Chủ tịch":"Trương Minh Trí","Điện thoại CT":"0939990047","Diện tích (Km2)":"21.7","Dân số (Người)":"31294","Trụ sở":"UBND phường Tân Hòa cũ","Sáp nhập":"Tân Hòa, Tân Hội, Tân Ngãi","layer_id":339,"fid":220,"label":"Tân Ngãi"}},{"type":"Feature","geometry":{"type":"Point","coordinates":[106.182829462,10.289803824]},"properties":{"Tên xã phường":"Tân Phú","Bí thư":"Phạm Văn Sang","Điện thoại BT":"0918592800","Chủ tịch":"Võ Thanh Tùng","Điện thoại CT":"0914292929","Diện tích (Km2)":"51.93","Dân số (Người)":"35355","Trụ sở":"UBND xã Tân Phú cũ","Sáp nhập":"Tân Phú (huyện Châu Thành), Tiên Long, Phú Đức","layer_id":339,"fid":221,"label":"Tân Phú"}},{"type":"Feature","geometry":{"type":"Point","coordinates":[105.757261658,10.1053899]},"properties":{"Tên xã phường":"Tân Quới","Bí thư":"Đào Anh Xuân Nhựt","Điện thoại BT":"0947680039","Chủ tịch":"Đinh Văn Lạc","Điện thoại CT":"0919356383","Diện tích (Km2)":"45.66","Dân số (Người)":"50858","Trụ sở":"Trung tâm hành chính huyện Bình Tân cũ","Sáp nhập":"Tân Bình (huyện Bình Tân), Thành Lợi, Tân Quới (thị trấn)","layer_id":339,"fid":222,"label":"Tân Quới"}},{"type":"Feature","geometry":{"type":"Point","coordinates":[106.307671711,10.185535815]},"properties":{"Tên xã phường":"Tân Thành Bình","Bí thư":"Lê Văn Nhiên","Điện thoại BT":"0909326667","Chủ tịch":"Phan Văn Thới","Điện thoại CT":"0918764860","Diện tích (Km2)":"52.65","Dân số (Người)":"46858","Trụ sở":"UBND xã Thành An cũ","Sáp nhập":"Tân Bình (huyện Mỏ Cày Bắc),Thành An, Hòa Lộc, Tân Thành Bình","layer_id":339,"fid":223,"label":"Tân Thành Bình"}},{"type":"Feature","geometry":{"type":"Point","coordinates":[106.620241543,10.008583534]},"properties":{"Tên xã phường":"Tân Thủy","Bí thư":"Bùi Thành Dương","Điện thoại BT":"0833999079","Chủ tịch":"Trần Văn Chận","Điện thoại CT":"0393839479","Diện tích (Km2)":"52.55","Dân số (Người)":"45743","Trụ sở":"UBND xã Tân Thủy cũ","Sáp nhập":"Tiệm Tôm (thị trấn), An Hòa Tây, Tân Thủy","layer_id":339,"fid":224,"label":"Tân Thủy"}},{"type":"Feature","geometry":{"type":"Point","coordinates":[106.627060959,10.085692677]},"properties":{"Tên xã phường":"Tân Xuân","Bí thư":"Phạm Thị Cúc","Điện thoại BT":"0916928080","Chủ tịch":"Nguyễn Đại Thắng","Điện thoại CT":"0394040285","Diện tích (Km2)":"50.44","Dân số (Người)":"36387","Trụ sở":"UBND xã Phước Ngãi cũ","Sáp nhập":"Phú Lễ, Phước Ngãi, Tân Xuân","layer_id":339,"fid":225,"label":"Tân Xuân"}},{"type":"Feature","geometry":{"type":"Point","coordinates":[106.264750259,9.811899803]},"properties":{"Tên xã phường":"Tập Ngãi","Bí thư":"Lê Chí Thảo","Điện thoại BT":"0907996156","Chủ tịch":"Trần Thanh Quyển","Điện thoại CT":"0978111217","Diện tích (Km2)":"58.77","Dân số (Người)":"31825","Trụ sở":"UBND xã Tập Ngãi cũ","Sáp nhập":"Hiếu Tử, Tập Ngãi","layer_id":339,"fid":226,"label":"Tập Ngãi"}},{"type":"Feature","geometry":{"type":"Point","coordinates":[106.261504676,9.738472832]},"properties":{"Tên xã phường":"Tập Sơn","Bí thư":"Tăng Thị Thắm","Điện thoại BT":"0912384448","Chủ tịch":"Thái Hoàng Giang","Điện thoại CT":"0989874699","Diện tích (Km2)":"67.44","Dân số (Người)":"39985","Trụ sở":"UBND xã Tập Sơn cũ","Sáp nhập":"Tân Sơn, Phước Hưng, Tập Sơn","layer_id":339,"fid":227,"label":"Tập Sơn"}},{"type":"Feature","geometry":{"type":"Point","coordinates":[105.998705822,10.257845497]},"properties":{"Tên xã phường":"Thanh Đức","Bí thư":"Đặng Văn Lượng","Điện thoại BT":"0913671781","Chủ tịch":"Trương Thị Cẩm Vân","Điện thoại CT":"0939112464","Diện tích (Km2)":"16.49","Dân số (Người)":"35158","Trụ sở":"UBND xã Thanh Đức cũ","Sáp nhập":"Phường 5 (thành phố Vĩnh Long), Thanh Đức","layer_id":339,"fid":228,"label":"Thanh Đức"}},{"type":"Feature","geometry":{"type":"Point","coordinates":[106.653591101,9.877513217]},"properties":{"Tên xã phường":"Thạnh Hải","Bí thư":"Lê Văn Tiến","Điện thoại BT":"0919240002","Chủ tịch":"Phan Văn Bình","Điện thoại CT":"0934056319","Diện tích (Km2)":"100.71","Dân số (Người)":"18261","Trụ sở":"UBND xã Thạnh Hải cũ","Sáp nhập":"An Điền,  Thạnh Hải","layer_id":339,"fid":229,"label":"Thạnh Hải"}},{"type":"Feature","geometry":{"type":"Point","coordinates":[106.610762307,9.879916493]},"properties":{"Tên xã phường":"Thạnh Phong","Bí thư":"Nguyễn Thanh Nghị","Điện thoại BT":"0919239556","Chủ tịch":"Phạm Văn Hùng","Điện thoại CT":"0918982104","Diện tích (Km2)":"77.97","Dân số (Người)":"20255","Trụ sở":"UBND xã Giao Thạnh cũ","Sáp nhập":"Giao Thạnh,  Thạnh Phong","layer_id":339,"fid":230,"label":"Thạnh Phong"}},{"type":"Feature","geometry":{"type":"Point","coordinates":[106.516399404,9.948208515]},"properties":{"Tên xã phường":"Thạnh Phú","Bí thư":"Nguyễn Ngọc Tân","Điện thoại BT":"0919088692","Chủ tịch":"Trần Văn Lược","Điện thoại CT":"0962973425","Diện tích (Km2)":"70.7","Dân số (Người)":"42268","Trụ sở":"Huyện ủy Thạnh phú cũ","Sáp nhập":"Thạnh Phú (thị trấn), An Thạnh (huyện Thạnh Phú), Bình Thạnh, Mỹ An","layer_id":339,"fid":231,"label":"Thạnh Phú"}},{"type":"Feature","geometry":{"type":"Point","coordinates":[106.691827056,10.117872099]},"properties":{"Tên xã phường":"Thạnh Phước","Bí thư":"Phạm Thanh Hùng","Điện thoại BT":"0918249881","Chủ tịch":"Nguyễn Luân Vũ","Điện thoại CT":"0919239697","Diện tích (Km2)":"76.99","Dân số (Người)":"21208","Trụ sở":"UBND xã Thạnh Phước cũ","Sáp nhập":"Đại Hòa Lộc,  Thạnh Phước","layer_id":339,"fid":232,"label":"Thạnh Phước"}},{"type":"Feature","geometry":{"type":"Point","coordinates":[106.324578609,10.049718315]},"properties":{"Tên xã phường":"Thành Thới","Bí thư":"Nguyễn Văn Đảm","Điện thoại BT":"0913768762","Chủ tịch":"Trần Quốc Cường","Điện thoại CT":"0915370808","Diện tích (Km2)":"49.35","Dân số (Người)":"35102","Trụ sở":"UBND xã Thành Thới A cũ","Sáp nhập":"An Thới, Thành Thới A, Thành Thới B","layer_id":339,"fid":233,"label":"Thành Thới"}},{"type":"Feature","geometry":{"type":"Point","coordinates":[106.596647172,10.183992175]},"properties":{"Tên xã phường":"Thạnh Trị","Bí thư":"Bùi Thị Huyền Trang","Điện thoại BT":"0984300229","Chủ tịch":"Nguyễn Hồng Hải","Điện thoại CT":"0917131535","Diện tích (Km2)":"73.26","Dân số (Người)":"29457","Trụ sở":"UBND xã Phú Long cũ","Sáp nhập":"Định Trung, Phú Lon, Thạnh Trị","layer_id":339,"fid":234,"label":"Thạnh Trị"}},{"type":"Feature","geometry":{"type":"Point","coordinates":[106.722553543,10.056842323]},"properties":{"Tên xã phường":"Thới Thuận","Bí thư":"Nguyễn Thanh Phong","Điện thoại BT":"0819717379","Chủ tịch":"Võ Trịnh Quốc Toàn","Điện thoại CT":"0918312132","Diện tích (Km2)":"116.95","Dân số (Người)":"20968","Trụ sở":"UBND xã Thới Thuận cũ","Sáp nhập":"Thừa Đức, Thới Thuận","layer_id":339,"fid":235,"label":"Thới Thuận"}},{"type":"Feature","geometry":{"type":"Point","coordinates":[106.243326764,10.272297353]},"properties":{"Tên xã phường":"Tiên Thủy","Bí thư":"Huỳnh Thanh Tuấn","Điện thoại BT":"0977385390","Chủ tịch":"Nguyễn Văn Khiêm","Điện thoại CT":"0939725790","Diện tích (Km2)":"33.81","Dân số (Người)":"31792","Trụ sở":"UBND thị trấn Tiên Thủy cũ","Sáp nhập":"Tiên Thủy (thị trấn), Thành Triệu, Quới Thành","layer_id":339,"fid":236,"label":"Tiên Thủy"}},{"type":"Feature","geometry":{"type":"Point","coordinates":[106.196946444,9.821824423]},"properties":{"Tên xã phường":"Tiểu Cần","Bí thư":"Nguyễn Văn Tám","Điện thoại BT":"0916652814","Chủ tịch":"Hồ Như Biển","Điện thoại CT":"0918283818","Diện tích (Km2)":"49.73","Dân số (Người)":"34150","Trụ sở":"UBND thị trấn Tiểu Cần cũ","Sáp nhập":"Tiểu Cần (thị trấn), Phú Cần, Hiếu Trung","layer_id":339,"fid":237,"label":"Tiểu Cần"}},{"type":"Feature","geometry":{"type":"Point","coordinates":[105.990214484,10.016760626]},"properties":{"Tên xã phường":"Trà Côn","Bí thư":"Nguyễn Thị Tuyền","Điện thoại BT":"0908909030","Chủ tịch":"Hà Văn Thanh Khương","Điện thoại CT":"0939977897","Diện tích (Km2)":"59.37","Dân số (Người)":"45778","Trụ sở":"UBND xã Trà Côn cũ","Sáp nhập":"Nhơn Bình, Trà Côn, Tân Mỹ","layer_id":339,"fid":238,"label":"Trà Côn"}},{"type":"Feature","geometry":{"type":"Point","coordinates":[106.258278076,9.697802131]},"properties":{"Tên xã phường":"Trà Cú","Bí thư":"Lê Thanh Bình","Điện thoại BT":"0888238881","Chủ tịch":"Huỳnh Văn Danh","Điện thoại CT":"0918842649","Diện tích (Km2)":"37.33","Dân số (Người)":"30037","Trụ sở":"UBND thị trấn Trà Cú cũ","Sáp nhập":"Trà Cú (thị trấn), Ngãi Xuyên, Thanh Sơn","layer_id":339,"fid":239,"label":"Trà Cú"}},{"type":"Feature","geometry":{"type":"Point","coordinates":[105.925488484,9.966931077]},"properties":{"Tên xã phường":"Trà Ôn","Bí thư":"Nguyễn Hoàng Minh","Điện thoại BT":"0979285959","Chủ tịch":"Nguyễn Chí Hiếu","Điện thoại CT":"0931613939","Diện tích (Km2)":"42.78","Dân số (Người)":"37869","Trụ sở":"Trung tâm hành chính huyện Trà Ôn cũ","Sáp nhập":"Tích Thiện,  (1 phần thị trấn) Trà Ôn","layer_id":339,"fid":240,"label":"Trà Ôn"}},{"type":"Feature","geometry":{"type":"Point","coordinates":[106.341440356,9.944011596]},"properties":{"Tên xã phường":"Trà Vinh","Bí thư":"Dương Hiền Hải Đăng","Điện thoại BT":"0834500404","Chủ tịch":"Nguyễn Văn Bình","Điện thoại CT":"0918428066","Diện tích (Km2)":"15.73","Dân số (Người)":"45397","Trụ sở":"UBND phường 1 cũ","Sáp nhập":"Phường 1, Phường 3, Phường 9 (thành phố Trà Vinh)","layer_id":339,"fid":241,"label":"Trà Vinh"}},{"type":"Feature","geometry":{"type":"Point","coordinates":[106.132612393,10.111742469]},"properties":{"Tên xã phường":"Trung Hiệp","Bí thư":"Phạm Minh Hoàng","Điện thoại BT":"0938090669","Chủ tịch":"Trương Thị Hồng Thắm","Điện thoại CT":"0397081149","Diện tích (Km2)":"46.73","Dân số (Người)":"34451","Trụ sở":"UBND xã Trung Hiệp cũ","Sáp nhập":"Tân An Luông, Trung Chánh, Trung Hiệp","layer_id":339,"fid":242,"label":"Trung Hiệp"}},{"type":"Feature","geometry":{"type":"Point","coordinates":[106.199171282,10.056102513]},"properties":{"Tên xã phường":"Trung Ngãi","Bí thư":"Trần Trung Dũng","Điện thoại BT":"0989850159","Chủ tịch":"Võ Minh Hoàng","Điện thoại CT":"0907960444","Diện tích (Km2)":"39.25","Dân số (Người)":"27309","Trụ sở":"UBND xã Trung Ngãi cũ","Sáp nhập":"Trung Thành Đông, Trung Nghĩa, Trung Ngãi","layer_id":339,"fid":243,"label":"Trung Ngãi"}},{"type":"Feature","geometry":{"type":"Point","coordinates":[106.190331264,10.084550631]},"properties":{"Tên xã phường":"Trung Thành","Bí thư":"Bùi Tấn Đảm","Điện thoại BT":"0986858220","Chủ tịch":"Tô Thị Liễu Châu","Điện thoại CT":"0907247289","Diện tích (Km2)":"35.88","Dân số (Người)":"35593","Trụ sở":"Trung tâm hành chính huyện Vũng Liêm cũ","Sáp nhập":"Vũng Liêm (thị trấn), Trung Hiếu, Trung Thàn","layer_id":339,"fid":244,"label":"Trung Thành"}},{"type":"Feature","geometry":{"type":"Point","coordinates":[106.509491524,9.686039092]},"properties":{"Tên xã phường":"Trường Long Hòa","Bí thư":"Nguyễn Trọng Nhân","Điện thoại BT":"0913187656","Chủ tịch":"Nguyễn Hoàng Hải","Điện thoại CT":"0915990460","Diện tích (Km2)":"56.49","Dân số (Người)":"16150","Trụ sở":"UBND phường 2 cũ","Sáp nhập":"Phường 2 (thị xã Duyên Hải), Trường Long Hòa","layer_id":339,"fid":245,"label":"Trường Long Hòa"}},{"type":"Feature","geometry":{"type":"Point","coordinates":[106.451449535,9.851537841]},"properties":{"Tên xã phường":"Vinh Kim","Bí thư":"Nguyễn Minh Cảnh","Điện thoại BT":"0918137496","Chủ tịch":"Đường Thế Biển","Điện thoại CT":"0917404714","Diện tích (Km2)":"56.68","Dân số (Người)":"30261","Trụ sở":"UBND xã Vinh Kim cũ","Sáp nhập":"Kim Hòa, Vinh Kim","layer_id":339,"fid":246,"label":"Vinh Kim"}},{"type":"Feature","geometry":{"type":"Point","coordinates":[106.215257873,10.20144819]},"properties":{"Tên xã phường":"Vĩnh Thành","Bí thư":"Nguyễn Văn Liêm","Điện thoại BT":"0942249339","Chủ tịch":"Phạm Hồng Sơn","Điện thoại CT":"0916384078","Diện tích (Km2)":"52.01","Dân số (Người)":"42885","Trụ sở":"UBND xã Vĩnh Thành cũ","Sáp nhập":"Phú Sơn, Tân Thiềng, Vĩnh Thành","layer_id":339,"fid":247,"label":"Vĩnh Thành"}},{"type":"Feature","geometry":{"type":"Point","coordinates":[106.010089416,9.950695597]},"properties":{"Tên xã phường":"Vĩnh Xuân","Bí thư":"Đặng Thị Bé Sáu","Điện thoại BT":"0917825699","Chủ tịch":"Lưu Chí Thương","Điện thoại CT":"0917419366","Diện tích (Km2)":"57.79","Dân số (Người)":"42370","Trụ sở":"UBND xã Vĩnh Xuân cũ","Sáp nhập":"Hựu Thành, Thuận Thới, Vĩnh Xuân","layer_id":339,"fid":248,"label":"Vĩnh Xuân"}}]}
