{"type":"FeatureCollection","name":"Cơ sở khám chữa bệnh","metadata":{"source":"https://hatang.vinhlong.gov.vn/","downloaded_at":"2026-07-20T01:17:38+00:00","layer_id":340,"layer_name":"Cơ sở khám chữa bệnh","catalog_endpoints":["/map/publicLayers2?inputs=so_y_te"],"requested_bbox":[104.0,8.0,108.0,12.0],"tile_size":0.0,"tile_count":1,"tile_errors":[],"feature_count":147,"coordinate_order":"x,y (thường là longitude,latitude theo cấu hình EPSG:4326 của WebGIS)"},"features":[{"type":"Feature","id":945,"geometry":{"type":"Point","coordinates":[105.940495137,10.260723128]},"properties":{"Mã đơn vị khám chữa bệnh":"86137","Tên đơn vị":"Bệnh Viện Đa Khoa Xuyên Á Vĩnh Long","Loại hình":"Tư nhân","Xếp cấp chuyên môn kỹ thuật":"Cơ bản","Hình thức tổ chức":"Bệnh viện đa khoa","Giường PD ":"250","Giường TK":"274","Giường HSTC":"5","Giường HSCC":null,"Địa chỉ":"Số 68E Đường Phạm Hùng Khóm 9 Phường Long Châu Tỉnh Vĩnh Long","Số điện thoại":"02706 255 115","layer_id":340,"fid":945,"label":"Bệnh Viện Đa Khoa Xuyên Á Vĩnh Long"}},{"type":"Feature","id":805,"geometry":{"type":"Point","coordinates":[105.99925598,10.230198135]},"properties":{"Mã đơn vị khám chữa bệnh":"86131","Tên đơn vị":"Bệnh viện Tâm thần Vĩnh Long","Loại hình":null,"Xếp cấp chuyên môn kỹ thuật":null,"Hình thức tổ chức":null,"Giường PD ":null,"Giường TK":null,"Giường HSTC":null,"Giường HSCC":null,"Địa chỉ":"Số 289/16 Khóm Hưng Quới, Phường Thanh Đức, Tỉnh Vĩnh Long","Số điện thoại":"2703939678","layer_id":340,"fid":805,"label":"Bệnh viện Tâm thần Vĩnh Long"}},{"type":"Feature","id":801,"geometry":{"type":"Point","coordinates":[105.988949,10.232078]},"properties":{"Mã đơn vị khám chữa bệnh":"86001","Tên đơn vị":"Bệnh viện đa khoa Vĩnh Long","Loại hình":null,"Xếp cấp chuyên môn kỹ thuật":null,"Hình thức tổ chức":null,"Giường PD ":null,"Giường TK":null,"Giường HSTC":null,"Giường HSCC":null,"Địa chỉ":"301 Trần Phú, phường Phước Hậu, tỉnh Vĩnh Long","Số điện thoại":"02703.823.520","layer_id":340,"fid":801,"label":"Bệnh viện đa khoa Vĩnh Long"}},{"type":"Feature","id":802,"geometry":{"type":"Point","coordinates":[105.94253,10.1887]},"properties":{"Mã đơn vị khám chữa bệnh":"86138","Tên đơn vị":"Bệnh viện đa khoa khu vực Hoà Phú","Loại hình":null,"Xếp cấp chuyên môn kỹ thuật":null,"Hình thức tổ chức":null,"Giường PD ":null,"Giường TK":null,"Giường HSTC":null,"Giường HSCC":null,"Địa chỉ":"ấp Long Hoà","Số điện thoại":"2703811999","layer_id":340,"fid":802,"label":"Bệnh viện đa khoa khu vực Hoà Phú"}},{"type":"Feature","id":944,"geometry":{"type":"Point","coordinates":[106.337536442,9.924355151]},"properties":{"Mã đơn vị khám chữa bệnh":"84141","Tên đơn vị":"Bệnh viện đa khoa Minh Tâm Trà Vinh","Loại hình":"Tư nhân","Xếp cấp chuyên môn kỹ thuật":"Cơ bản","Hình thức tổ chức":"Bệnh viện đa khoa","Giường PD ":"57","Giường TK":"62","Giường HSTC":"0","Giường HSCC":"18","Địa chỉ":"Số 36 Nguyễn Đáng, Khóm 20, Phường Trà Vinh, Tỉnh Vĩnh Long","Số điện thoại":"02943850665","layer_id":340,"fid":944,"label":"Bệnh viện đa khoa Minh Tâm Trà Vinh"}},{"type":"Feature","id":803,"geometry":{"type":"Point","coordinates":[105.9827822,10.2314264]},"properties":{"Mã đơn vị khám chữa bệnh":"86136","Tên đơn vị":"Bệnh viện Chuyên khoa Mắt Vĩnh Long","Loại hình":null,"Xếp cấp chuyên môn kỹ thuật":null,"Hình thức tổ chức":null,"Giường PD ":null,"Giường TK":null,"Giường HSTC":null,"Giường HSCC":null,"Địa chỉ":"Số 304, đường Trần Phú, phường Phước Hậu, tỉnh Vĩnh Long","Số điện thoại":"02703826321","layer_id":340,"fid":803,"label":"Bệnh viện Chuyên khoa Mắt Vĩnh Long"}},{"type":"Feature","id":804,"geometry":{"type":"Point","coordinates":[105.99994,10.23044]},"properties":{"Mã đơn vị khám chữa bệnh":"86132","Tên đơn vị":"BỆNH VIỆN PHỔI VĨNH LONG","Loại hình":null,"Xếp cấp chuyên môn kỹ thuật":null,"Hình thức tổ chức":null,"Giường PD ":null,"Giường TK":null,"Giường HSTC":null,"Giường HSCC":null,"Địa chỉ":"290/16 Khóm Hưng Quới, Phường Thanh Đức, tỉnh Vĩnh Long","Số điện thoại":"02703896115","layer_id":340,"fid":804,"label":"BỆNH VIỆN PHỔI VĨNH LONG"}},{"type":"Feature","id":806,"geometry":{"type":"Point","coordinates":[105.995205,10.220252]},"properties":{"Mã đơn vị khám chữa bệnh":"86003","Tên đơn vị":"Bệnh viện  Y dược cổ truyền Vĩnh Long","Loại hình":null,"Xếp cấp chuyên môn kỹ thuật":null,"Hình thức tổ chức":null,"Giường PD ":null,"Giường TK":null,"Giường HSTC":null,"Giường HSCC":null,"Địa chỉ":"496 tổ 33, ấp Long Thuận B, xã Long Hồ, tỉnh Vĩnh Long","Số điện thoại":"02703823420","layer_id":340,"fid":806,"label":"Bệnh viện  Y dược cổ truyền Vĩnh Long"}},{"type":"Feature","id":946,"geometry":{"type":"Point","coordinates":[106.332466125,9.922463233]},"properties":{"Mã đơn vị khám chữa bệnh":"84163","Tên đơn vị":"Phòng khám đa khoa Minh Tâm","Loại hình":"Tư nhân","Xếp cấp chuyên môn kỹ thuật":"Cơ bản","Hình thức tổ chức":"Phòng khám đa khoa","Giường PD ":null,"Giường TK":null,"Giường HSTC":null,"Giường HSCC":null,"Địa chỉ":"Số 48B, đường Sơn Thông, Phường Nguyệt Hóa, Tỉnh Vĩnh Long","Số điện thoại":"02943900808","layer_id":340,"fid":946,"label":"Phòng khám đa khoa Minh Tâm"}},{"type":"Feature","id":807,"geometry":{"type":"Point","coordinates":[106.323822,9.934081]},"properties":{"Mã đơn vị khám chữa bệnh":"84001","Tên đơn vị":"Bệnh viện Đa Khoa Trà Vinh","Loại hình":null,"Xếp cấp chuyên môn kỹ thuật":null,"Hình thức tổ chức":null,"Giường PD ":null,"Giường TK":null,"Giường HSTC":null,"Giường HSCC":null,"Địa chỉ":"Số 399, Nguyễn Đáng, phường Nguyệt Hóa, tỉnh Vĩnh Long","Số điện thoại":"2943.862553","layer_id":340,"fid":807,"label":"Bệnh viện Đa Khoa Trà Vinh"}},{"type":"Feature","id":808,"geometry":{"type":"Point","coordinates":[106.29417,9.90308]},"properties":{"Mã đơn vị khám chữa bệnh":"84134","Tên đơn vị":"Bệnh viện Phổi Trà Vinh","Loại hình":null,"Xếp cấp chuyên môn kỹ thuật":null,"Hình thức tổ chức":null,"Giường PD ":null,"Giường TK":null,"Giường HSTC":null,"Giường HSCC":null,"Địa chỉ":"ấp Sâm Bua, xã Song Lộc, tỉnh Vĩnh Long","Số điện thoại":"02943767878","layer_id":340,"fid":808,"label":"Bệnh viện Phổi Trà Vinh"}},{"type":"Feature","id":947,"geometry":{"type":"Point","coordinates":[106.452877879,9.845585132]},"properties":{"Mã đơn vị khám chữa bệnh":"84168","Tên đơn vị":"Phòng khám đa khoa Thuận Phước","Loại hình":"Tư nhân","Xếp cấp chuyên môn kỹ thuật":"Ban đầu","Hình thức tổ chức":"Phòng khám đa khoa","Giường PD ":"0","Giường TK":"0","Giường HSTC":"0","Giường HSCC":"2","Địa chỉ":"Thửa đất số 2849, tờ bản đồ số 7, ấp Chà Và, xã Vinh Kim, tỉnh Vĩnh Long","Số điện thoại":"2943727979","layer_id":340,"fid":947,"label":"Phòng khám đa khoa Thuận Phước"}},{"type":"Feature","id":809,"geometry":{"type":"Point","coordinates":[106.301472,9.927917]},"properties":{"Mã đơn vị khám chữa bệnh":"84133","Tên đơn vị":"BỆNH VIỆN SẢN - NHI TRÀ VINH","Loại hình":null,"Xếp cấp chuyên môn kỹ thuật":null,"Hình thức tổ chức":null,"Giường PD ":null,"Giường TK":null,"Giường HSTC":null,"Giường HSCC":null,"Địa chỉ":"SỐ 199/3 KHÓM BẾN CÓ PHƯỜNG NGUYỆT HÓA TỈNH VĨNH LONG","Số điện thoại":"0294 3849 456","layer_id":340,"fid":809,"label":"BỆNH VIỆN SẢN - NHI TRÀ VINH"}},{"type":"Feature","id":810,"geometry":{"type":"Point","coordinates":[106.285594,9.933479]},"properties":{"Mã đơn vị khám chữa bệnh":"84060","Tên đơn vị":"Bệnh viện Y dược cổ truyền Trà Vinh","Loại hình":null,"Xếp cấp chuyên môn kỹ thuật":null,"Hình thức tổ chức":null,"Giường PD ":null,"Giường TK":null,"Giường HSTC":null,"Giường HSCC":null,"Địa chỉ":"Số 81, Quốc lộ 53, Khóm Bến Có, Phường Nguyệt Hóa, Tỉnh Vĩnh Long","Số điện thoại":"02943842036","layer_id":340,"fid":810,"label":"Bệnh viện Y dược cổ truyền Trà Vinh"}},{"type":"Feature","id":811,"geometry":{"type":"Point","coordinates":[106.185776,9.809156]},"properties":{"Mã đơn vị khám chữa bệnh":"84005","Tên đơn vị":"BỆNH VIỆN ĐA KHOA KHU VỰC TIỂU CẦN","Loại hình":null,"Xếp cấp chuyên môn kỹ thuật":null,"Hình thức tổ chức":null,"Giường PD ":null,"Giường TK":null,"Giường HSTC":null,"Giường HSCC":null,"Địa chỉ":"Ấp Đại Mong, Xã Tiểu Cần, Tỉnh Vĩnh Long","Số điện thoại":"`02943.822.007","layer_id":340,"fid":811,"label":"BỆNH VIỆN ĐA KHOA KHU VỰC TIỂU CẦN"}},{"type":"Feature","id":812,"geometry":{"type":"Point","coordinates":[106.450677,9.792629]},"properties":{"Mã đơn vị khám chữa bệnh":"84007","Tên đơn vị":"Bệnh viện Đa khoa Khu vực Cầu Ngang","Loại hình":null,"Xếp cấp chuyên môn kỹ thuật":null,"Hình thức tổ chức":null,"Giường PD ":null,"Giường TK":null,"Giường HSTC":null,"Giường HSCC":null,"Địa chỉ":"Số 34 Nguyễn Trí Tài, khóm Minh Thuận A, Xã Cầu Ngang, Tỉnh Vĩnh Long","Số điện thoại":"02943725209","layer_id":340,"fid":812,"label":"Bệnh viện Đa khoa Khu vực Cầu Ngang"}},{"type":"Feature","id":813,"geometry":{"type":"Point","coordinates":[106.3136244,10.1213578]},"properties":{"Mã đơn vị khám chữa bệnh":"83600","Tên đơn vị":"Bệnh viện Đa khoa khu vực Cù Lao Minh","Loại hình":null,"Xếp cấp chuyên môn kỹ thuật":null,"Hình thức tổ chức":null,"Giường PD ":null,"Giường TK":null,"Giường HSTC":null,"Giường HSCC":null,"Địa chỉ":"Quốc lộ 57, Ấp Tân Lộc, xã Mỏ Cày, tỉnh Vĩnh Long","Số điện thoại":"02753.842461","layer_id":340,"fid":813,"label":"Bệnh viện Đa khoa khu vực Cù Lao Minh"}},{"type":"Feature","id":814,"geometry":{"type":"Point","coordinates":[106.363092,10.245482]},"properties":{"Mã đơn vị khám chữa bệnh":"83012","Tên đơn vị":"Bệnh viện  YHCT Trần Văn An","Loại hình":null,"Xếp cấp chuyên môn kỹ thuật":null,"Hình thức tổ chức":null,"Giường PD ":null,"Giường TK":null,"Giường HSTC":null,"Giường HSCC":null,"Địa chỉ":"Số 44, đường Đoàn Hoàng Minh, phường Sơn Đông, tỉnh Vĩnh Long","Số điện thoại":"2753829650","layer_id":340,"fid":814,"label":"Bệnh viện  YHCT Trần Văn An"}},{"type":"Feature","id":815,"geometry":{"type":"Point","coordinates":[106.39255,10.26914]},"properties":{"Mã đơn vị khám chữa bệnh":"83040","Tên đơn vị":"Bệnh viện Phổi Bến Tre","Loại hình":null,"Xếp cấp chuyên môn kỹ thuật":null,"Hình thức tổ chức":null,"Giường PD ":null,"Giường TK":null,"Giường HSTC":null,"Giường HSCC":null,"Địa chỉ":"99A9, Khu phố Hữu Thành, phường Phú Tân, tỉnh Vĩnh Long","Số điện thoại":"2753561898","layer_id":340,"fid":815,"label":"Bệnh viện Phổi Bến Tre"}},{"type":"Feature","id":816,"geometry":{"type":"Point","coordinates":[106.39195,10.26903]},"properties":{"Mã đơn vị khám chữa bệnh":"83039","Tên đơn vị":"Bệnh viện Tâm thần Bến Tre","Loại hình":null,"Xếp cấp chuyên môn kỹ thuật":null,"Hình thức tổ chức":null,"Giường PD ":null,"Giường TK":null,"Giường HSTC":null,"Giường HSCC":null,"Địa chỉ":"99A8, khu phố Hữu Thành, \nphường Phú Tân,\n tỉnh Vĩnh Long","Số điện thoại":"02753820005","layer_id":340,"fid":816,"label":"Bệnh viện Tâm thần Bến Tre"}},{"type":"Feature","id":817,"geometry":{"type":"Point","coordinates":[105.94207,10.26117]},"properties":{"Mã đơn vị khám chữa bệnh":"86128","Tên đơn vị":"Trung tâm Y tế khu vực Vĩnh Long","Loại hình":null,"Xếp cấp chuyên môn kỹ thuật":null,"Hình thức tổ chức":null,"Giường PD ":null,"Giường TK":null,"Giường HSTC":null,"Giường HSCC":null,"Địa chỉ":"67N, khóm 2, phường Long Châu, tỉnh Vĩnh Long","Số điện thoại":"02703.815.777","layer_id":340,"fid":817,"label":"Trung tâm Y tế khu vực Vĩnh Long"}},{"type":"Feature","id":818,"geometry":{"type":"Point","coordinates":[106.011061,10.191871]},"properties":{"Mã đơn vị khám chữa bệnh":"86006","Tên đơn vị":"Trung tâm Y tế khu vực Long Hồ","Loại hình":null,"Xếp cấp chuyên môn kỹ thuật":null,"Hình thức tổ chức":null,"Giường PD ":null,"Giường TK":null,"Giường HSTC":null,"Giường HSCC":null,"Địa chỉ":"Ấp An Đức - xã Long Hồ - tỉnh Vĩnh Long","Số điện thoại":"02703.850.203","layer_id":340,"fid":818,"label":"Trung tâm Y tế khu vực Long Hồ"}},{"type":"Feature","id":819,"geometry":{"type":"Point","coordinates":[106.114094,10.17903]},"properties":{"Mã đơn vị khám chữa bệnh":"86019","Tên đơn vị":"Trung tâm Y tế khu vực Mang Thít","Loại hình":null,"Xếp cấp chuyên môn kỹ thuật":null,"Hình thức tổ chức":null,"Giường PD ":null,"Giường TK":null,"Giường HSTC":null,"Giường HSCC":null,"Địa chỉ":"Đường tỉnh 907, khóm 4, xã Cái Nhum, tỉnh Vĩnh Long","Số điện thoại":"02703840012","layer_id":340,"fid":819,"label":"Trung tâm Y tế khu vực Mang Thít"}},{"type":"Feature","id":820,"geometry":{"type":"Point","coordinates":[106.1872,10.09266]},"properties":{"Mã đơn vị khám chữa bệnh":"86080","Tên đơn vị":"Trung tâm Y tế khu vực Nguyễn Văn Thủ","Loại hình":null,"Xếp cấp chuyên môn kỹ thuật":null,"Hình thức tổ chức":null,"Giường PD ":null,"Giường TK":null,"Giường HSTC":null,"Giường HSCC":null,"Địa chỉ":"Số 73, đường Nam Kỳ Khởi Nghĩa, ấp 1, xã Trung Thành, tỉnh Vĩnh Long","Số điện thoại":"02703.870.202","layer_id":340,"fid":820,"label":"Trung tâm Y tế khu vực Nguyễn Văn Thủ"}},{"type":"Feature","id":821,"geometry":{"type":"Point","coordinates":[105.9777256,10.0433097]},"properties":{"Mã đơn vị khám chữa bệnh":"86049","Tên đơn vị":"Trung tâm Y tế khu vực Tam Bình","Loại hình":null,"Xếp cấp chuyên môn kỹ thuật":null,"Hình thức tổ chức":null,"Giường PD ":null,"Giường TK":null,"Giường HSTC":null,"Giường HSCC":null,"Địa chỉ":"366 Trần Văn Bảy, ấp 4, xã Tam Bình, tỉnh Vĩnh Long","Số điện thoại":"02703 860755","layer_id":340,"fid":821,"label":"Trung tâm Y tế khu vực Tam Bình"}},{"type":"Feature","id":822,"geometry":{"type":"Point","coordinates":[105.92172,9.96937]},"properties":{"Mã đơn vị khám chữa bệnh":"86066","Tên đơn vị":"Trung tâm y tế khu vực Trà Ôn","Loại hình":null,"Xếp cấp chuyên môn kỹ thuật":null,"Hình thức tổ chức":null,"Giường PD ":null,"Giường TK":null,"Giường HSTC":null,"Giường HSCC":null,"Địa chỉ":"32/7A, đường Võ Tánh, ấp 5, xã Trà Ôn","Số điện thoại":"02703770331","layer_id":340,"fid":822,"label":"Trung tâm y tế khu vực Trà Ôn"}},{"type":"Feature","id":823,"geometry":{"type":"Point","coordinates":[105.82387,10.07158]},"properties":{"Mã đơn vị khám chữa bệnh":"86032","Tên đơn vị":"Trung tâm Y tế khu vực Bình Minh","Loại hình":null,"Xếp cấp chuyên môn kỹ thuật":null,"Hình thức tổ chức":null,"Giường PD ":null,"Giường TK":null,"Giường HSTC":null,"Giường HSCC":null,"Địa chỉ":"Số 36, đường Nguyễn Văn Thảnh, Khóm 3,\n Phường Bình Minh, tỉnh Vĩnh Long","Số điện thoại":"02703.890.331","layer_id":340,"fid":823,"label":"Trung tâm Y tế khu vực Bình Minh"}},{"type":"Feature","id":824,"geometry":{"type":"Point","coordinates":[106.347528,9.873222]},"properties":{"Mã đơn vị khám chữa bệnh":"84003","Tên đơn vị":"Trung tâm Y tế khu vực Châu Thành A","Loại hình":null,"Xếp cấp chuyên môn kỹ thuật":null,"Hình thức tổ chức":null,"Giường PD ":null,"Giường TK":null,"Giường HSTC":null,"Giường HSCC":null,"Địa chỉ":"Số 163, đường 2/9, xã Châu Thành, tỉnh Vĩnh Long","Số điện thoại":"02943 872 041 ","layer_id":340,"fid":824,"label":"Trung tâm Y tế khu vực Châu Thành A"}},{"type":"Feature","id":825,"geometry":{"type":"Point","coordinates":[106.505457,9.647313]},"properties":{"Mã đơn vị khám chữa bệnh":"84008","Tên đơn vị":"Trung tâm Y tế khu vực Duyên Hải","Loại hình":null,"Xếp cấp chuyên môn kỹ thuật":null,"Hình thức tổ chức":null,"Giường PD ":null,"Giường TK":null,"Giường HSTC":null,"Giường HSCC":null,"Địa chỉ":"Khóm 3, phường Duyên Hải, tỉnh Vĩnh Long","Số điện thoại":"0294.3832044","layer_id":340,"fid":825,"label":"Trung tâm Y tế khu vực Duyên Hải"}},{"type":"Feature","id":826,"geometry":{"type":"Point","coordinates":[106.199687,9.981521]},"properties":{"Mã đơn vị khám chữa bệnh":"84002","Tên đơn vị":"Trung tâm Y tế khu vực Càng Long","Loại hình":null,"Xếp cấp chuyên môn kỹ thuật":null,"Hình thức tổ chức":null,"Giường PD ":null,"Giường TK":null,"Giường HSTC":null,"Giường HSCC":null,"Địa chỉ":"Ấp Mỹ Huê, xã Càng Long, tỉnh Vĩnh Long","Số điện thoại":"02943882015","layer_id":340,"fid":826,"label":"Trung tâm Y tế khu vực Càng Long"}},{"type":"Feature","id":827,"geometry":{"type":"Point","coordinates":[106.054282,9.866374]},"properties":{"Mã đơn vị khám chữa bệnh":"84004","Tên đơn vị":"Trung tâm Y tế khu vực Cầu Kè","Loại hình":null,"Xếp cấp chuyên môn kỹ thuật":null,"Hình thức tổ chức":null,"Giường PD ":null,"Giường TK":null,"Giường HSTC":null,"Giường HSCC":null,"Địa chỉ":"Ấp 4, xã Cầu Kè, tỉnh Vĩnh long","Số điện thoại":"02943834019","layer_id":340,"fid":827,"label":"Trung tâm Y tế khu vực Cầu Kè"}},{"type":"Feature","id":828,"geometry":{"type":"Point","coordinates":[106.263333,9.678222]},"properties":{"Mã đơn vị khám chữa bệnh":"84006","Tên đơn vị":"Trung tâm y tế khu vực Trà Cú","Loại hình":null,"Xếp cấp chuyên môn kỹ thuật":null,"Hình thức tổ chức":null,"Giường PD ":null,"Giường TK":null,"Giường HSTC":null,"Giường HSCC":null,"Địa chỉ":"ấp 1, Xã Trà Cú, tỉnh Vĩnh Long","Số điện thoại":"02943874250","layer_id":340,"fid":828,"label":"Trung tâm y tế khu vực Trà Cú"}},{"type":"Feature","id":829,"geometry":{"type":"Point","coordinates":[106.44755,9.60953]},"properties":{"Mã đơn vị khám chữa bệnh":"84153","Tên đơn vị":"Trung tâm Y tế khu vực Long Thành","Loại hình":null,"Xếp cấp chuyên môn kỹ thuật":null,"Hình thức tổ chức":null,"Giường PD ":null,"Giường TK":null,"Giường HSTC":null,"Giường HSCC":null,"Địa chỉ":"Ấp 3, xã Long Thành, tỉnh Vĩnh Long","Số điện thoại":"02943738022","layer_id":340,"fid":829,"label":"Trung tâm Y tế khu vực Long Thành"}},{"type":"Feature","id":830,"geometry":{"type":"Point","coordinates":[106.37088,10.23083]},"properties":{"Mã đơn vị khám chữa bệnh":"83008","Tên đơn vị":"Trung tâm Y tế khu vực Bến Tre","Loại hình":null,"Xếp cấp chuyên môn kỹ thuật":null,"Hình thức tổ chức":null,"Giường PD ":null,"Giường TK":null,"Giường HSTC":null,"Giường HSCC":null,"Địa chỉ":"Khu phố Mỹ An C, phường An Hội, tỉnh Vĩnh Long","Số điện thoại":"02753575115","layer_id":340,"fid":830,"label":"Trung tâm Y tế khu vực Bến Tre"}},{"type":"Feature","id":831,"geometry":{"type":"Point","coordinates":[106.331448,10.134479]},"properties":{"Mã đơn vị khám chữa bệnh":"83029","Tên đơn vị":"Trung tâm Y tế Khu vực Mỏ Cày Nam","Loại hình":null,"Xếp cấp chuyên môn kỹ thuật":null,"Hình thức tổ chức":null,"Giường PD ":null,"Giường TK":null,"Giường HSTC":null,"Giường HSCC":null,"Địa chỉ":"Ấp 7, xã Mỏ Cày, tỉnh Vĩnh Long","Số điện thoại":"02753842053","layer_id":340,"fid":831,"label":"Trung tâm Y tế Khu vực Mỏ Cày Nam"}},{"type":"Feature","id":832,"geometry":{"type":"Point","coordinates":[106.2811,10.20108]},"properties":{"Mã đơn vị khám chữa bệnh":"83038","Tên đơn vị":"Trung tâm Y tế Khu vực Mỏ Cày Bắc","Loại hình":null,"Xếp cấp chuyên môn kỹ thuật":null,"Hình thức tổ chức":null,"Giường PD ":null,"Giường TK":null,"Giường HSTC":null,"Giường HSCC":null,"Địa chỉ":"ấp Phước Hậu, xã Phước Mỹ Trung, tỉnh Vĩnh Long ","Số điện thoại":"0753.669.940","layer_id":340,"fid":832,"label":"Trung tâm Y tế Khu vực Mỏ Cày Bắc"}},{"type":"Feature","id":833,"geometry":{"type":"Point","coordinates":[106.515616,9.951387]},"properties":{"Mã đơn vị khám chữa bệnh":"83700","Tên đơn vị":"Trung tâm Y tế khu vực Thạnh Phú","Loại hình":null,"Xếp cấp chuyên môn kỹ thuật":null,"Hình thức tổ chức":null,"Giường PD ":null,"Giường TK":null,"Giường HSTC":null,"Giường HSCC":null,"Địa chỉ":"số 98/4, đường Đồng Văn Dẫn, ấp Thạnh Trị Hạ 4, xã Thạnh Phú, tỉnh Vĩnh Long","Số điện thoại":"02753.870.970","layer_id":340,"fid":833,"label":"Trung tâm Y tế khu vực Thạnh Phú"}},{"type":"Feature","id":834,"geometry":{"type":"Point","coordinates":[106.702828,10.178475]},"properties":{"Mã đơn vị khám chữa bệnh":"83200","Tên đơn vị":"Trung tâm Y tế khu vực Bình Đại","Loại hình":null,"Xếp cấp chuyên môn kỹ thuật":null,"Hình thức tổ chức":null,"Giường PD ":null,"Giường TK":null,"Giường HSTC":null,"Giường HSCC":null,"Địa chỉ":"ấp Bình Đại 1, xã Bình Đại, tỉnh Vĩnh Long","Số điện thoại":"02753851953","layer_id":340,"fid":834,"label":"Trung tâm Y tế khu vực Bình Đại"}},{"type":"Feature","id":835,"geometry":{"type":"Point","coordinates":[106.359976,10.304548]},"properties":{"Mã đơn vị khám chữa bệnh":"83300","Tên đơn vị":"Trung tâm Y tế khu vực Châu Thành","Loại hình":null,"Xếp cấp chuyên môn kỹ thuật":null,"Hình thức tổ chức":null,"Giường PD ":null,"Giường TK":null,"Giường HSTC":null,"Giường HSCC":null,"Địa chỉ":"Ấp 2, xã Phú Túc, tỉnh Vĩnh Long","Số điện thoại":"02753 860335","layer_id":340,"fid":835,"label":"Trung tâm Y tế khu vực Châu Thành"}},{"type":"Feature","id":836,"geometry":{"type":"Point","coordinates":[105.96374,10.24873]},"properties":{"Mã đơn vị khám chữa bệnh":"86098","Tên đơn vị":"Trạm Y tế phường Long Châu","Loại hình":null,"Xếp cấp chuyên môn kỹ thuật":null,"Hình thức tổ chức":null,"Giường PD ":null,"Giường TK":null,"Giường HSTC":null,"Giường HSCC":null,"Địa chỉ":"Số 8, đường Võ Văn Kiệt, Khóm 5, phường Long Châu, tỉnh Vĩnh Long","Số điện thoại":"02703.822.852","layer_id":340,"fid":836,"label":"Trạm Y tế phường Long Châu"}},{"type":"Feature","id":837,"geometry":{"type":"Point","coordinates":[106.00372,10.25653]},"properties":{"Mã đơn vị khám chữa bệnh":"86102","Tên đơn vị":"Trạm Y tế phường Thanh Đức","Loại hình":null,"Xếp cấp chuyên môn kỹ thuật":null,"Hình thức tổ chức":null,"Giường PD ":null,"Giường TK":null,"Giường HSTC":null,"Giường HSCC":null,"Địa chỉ":"Khóm Thanh Mỹ 2, phường Thanh Đức ,tỉnh Vĩnh Long","Số điện thoại":"02703.830.409","layer_id":340,"fid":837,"label":"Trạm Y tế phường Thanh Đức"}},{"type":"Feature","id":838,"geometry":{"type":"Point","coordinates":[105.97397,10.23288]},"properties":{"Mã đơn vị khám chữa bệnh":"86100","Tên đơn vị":"Trạm Y tế phường Phước Hậu","Loại hình":null,"Xếp cấp chuyên môn kỹ thuật":null,"Hình thức tổ chức":null,"Giường PD ":null,"Giường TK":null,"Giường HSTC":null,"Giường HSCC":null,"Địa chỉ":"Khóm Phước Lợi A, phường Phước Hậu, tỉnh Vĩnh Long","Số điện thoại":"02703.826.638","layer_id":340,"fid":838,"label":"Trạm Y tế phường Phước Hậu"}},{"type":"Feature","id":839,"geometry":{"type":"Point","coordinates":[105.9392,10.23533]},"properties":{"Mã đơn vị khám chữa bệnh":"86103","Tên đơn vị":"Trạm Y tế phường Tân Hạnh","Loại hình":null,"Xếp cấp chuyên môn kỹ thuật":null,"Hình thức tổ chức":null,"Giường PD ":null,"Giường TK":null,"Giường HSTC":null,"Giường HSCC":null,"Địa chỉ":"Khóm Tân An, phường Tân Hạnh, tỉnh Vĩnh Long","Số điện thoại":"02703.821.575","layer_id":340,"fid":839,"label":"Trạm Y tế phường Tân Hạnh"}},{"type":"Feature","id":840,"geometry":{"type":"Point","coordinates":[105.91938,10.24808]},"properties":{"Mã đơn vị khám chữa bệnh":"86004","Tên đơn vị":"Trạm Y tế phường Tân Ngãi","Loại hình":null,"Xếp cấp chuyên môn kỹ thuật":null,"Hình thức tổ chức":null,"Giường PD ":null,"Giường TK":null,"Giường HSTC":null,"Giường HSCC":null,"Địa chỉ":"58A ,khóm Vĩnh Phú, phường Tân Ngãi, tỉnh Vĩnh Long","Số điện thoại":"02703.815.385","layer_id":340,"fid":840,"label":"Trạm Y tế phường Tân Ngãi"}},{"type":"Feature","id":841,"geometry":{"type":"Point","coordinates":[105.992476,10.184714]},"properties":{"Mã đơn vị khám chữa bệnh":"86111","Tên đơn vị":"Trạm Y tế xã Long Hồ","Loại hình":null,"Xếp cấp chuyên môn kỹ thuật":null,"Hình thức tổ chức":null,"Giường PD ":null,"Giường TK":null,"Giường HSTC":null,"Giường HSCC":null,"Địa chỉ":"ấp Phú An, xã Long Hồ, tỉnh Vĩnh Long","Số điện thoại":"02703.851.674","layer_id":340,"fid":841,"label":"Trạm Y tế xã Long Hồ"}},{"type":"Feature","id":842,"geometry":{"type":"Point","coordinates":[105.922054,10.165419]},"properties":{"Mã đơn vị khám chữa bệnh":"86007","Tên đơn vị":"Trạm Y tế xã Phú Quới","Loại hình":null,"Xếp cấp chuyên môn kỹ thuật":null,"Hình thức tổ chức":null,"Giường PD ":null,"Giường TK":null,"Giường HSTC":null,"Giường HSCC":null,"Địa chỉ":"ấp Phước Yên A, xã Phú Quới, tỉnh Vĩnh Long","Số điện thoại":"02703.811.230","layer_id":340,"fid":842,"label":"Trạm Y tế xã Phú Quới"}},{"type":"Feature","id":843,"geometry":{"type":"Point","coordinates":[105.96542,10.272684]},"properties":{"Mã đơn vị khám chữa bệnh":"86015","Tên đơn vị":"Trạm Y tế xã An Bình","Loại hình":null,"Xếp cấp chuyên môn kỹ thuật":null,"Hình thức tổ chức":null,"Giường PD ":null,"Giường TK":null,"Giường HSTC":null,"Giường HSCC":null,"Địa chỉ":"ấp Bình Thuận 1, xã An Bình, tỉnh Vĩnh Long","Số điện thoại":"02703859575","layer_id":340,"fid":843,"label":"Trạm Y tế xã An Bình"}},{"type":"Feature","id":844,"geometry":{"type":"Point","coordinates":[106.138789,10.202589]},"properties":{"Mã đơn vị khám chữa bệnh":"86115","Tên đơn vị":"Trạm Y tế xã Cái Nhum","Loại hình":null,"Xếp cấp chuyên môn kỹ thuật":null,"Hình thức tổ chức":null,"Giường PD ":null,"Giường TK":null,"Giường HSTC":null,"Giường HSCC":null,"Địa chỉ":"Ấp Thanh Thủy, xã Cái Nhum, tỉnh Vĩnh Long","Số điện thoại":"02703934030","layer_id":340,"fid":844,"label":"Trạm Y tế xã Cái Nhum"}},{"type":"Feature","id":845,"geometry":{"type":"Point","coordinates":[106.05136,10.159916]},"properties":{"Mã đơn vị khám chữa bệnh":"86023","Tên đơn vị":"Trạm Y tế xã Tân Long Hội","Loại hình":null,"Xếp cấp chuyên môn kỹ thuật":null,"Hình thức tổ chức":null,"Giường PD ":null,"Giường TK":null,"Giường HSTC":null,"Giường HSCC":null,"Địa chỉ":"Ấp Thân Bình, xã Tân Long Hội, tỉnh Vĩnh Long","Số điện thoại":"02703933010","layer_id":340,"fid":845,"label":"Trạm Y tế xã Tân Long Hội"}},{"type":"Feature","id":846,"geometry":{"type":"Point","coordinates":[106.05324,10.181932]},"properties":{"Mã đơn vị khám chữa bệnh":"86022","Tên đơn vị":"Trạm Y tế xã Bình Phước","Loại hình":null,"Xếp cấp chuyên môn kỹ thuật":null,"Hình thức tổ chức":null,"Giường PD ":null,"Giường TK":null,"Giường HSTC":null,"Giường HSCC":null,"Địa chỉ":"Ấp Phước Chí, xã Bình Phước, tỉnh Vĩnh Long","Số điện thoại":"02703937218","layer_id":340,"fid":846,"label":"Trạm Y tế xã Bình Phước"}},{"type":"Feature","id":847,"geometry":{"type":"Point","coordinates":[106.100712,10.231905]},"properties":{"Mã đơn vị khám chữa bệnh":"86021","Tên đơn vị":"Trạm Y tế xã Nhơn Phú","Loại hình":null,"Xếp cấp chuyên môn kỹ thuật":null,"Hình thức tổ chức":null,"Giường PD ":null,"Giường TK":null,"Giường HSTC":null,"Giường HSCC":null,"Địa chỉ":"Ấp Cái Kè, xã Nhơn Phú, tỉnh Vĩnh Long","Số điện thoại":"02703849923","layer_id":340,"fid":847,"label":"Trạm Y tế xã Nhơn Phú"}},{"type":"Feature","id":848,"geometry":{"type":"Point","coordinates":[106.23628,10.11181]},"properties":{"Mã đơn vị khám chữa bệnh":"86086","Tên đơn vị":"Trạm Y tế xã Quới Thiện","Loại hình":null,"Xếp cấp chuyên môn kỹ thuật":null,"Hình thức tổ chức":null,"Giường PD ":null,"Giường TK":null,"Giường HSTC":null,"Giường HSCC":null,"Địa chỉ":"Xã Quới Thiện, tỉnh Vĩnh Long","Số điện thoại":"02703.980.739","layer_id":340,"fid":848,"label":"Trạm Y tế xã Quới Thiện"}},{"type":"Feature","id":849,"geometry":{"type":"Point","coordinates":[106.19655,10.07859]},"properties":{"Mã đơn vị khám chữa bệnh":"86113","Tên đơn vị":"Trạm Y tế xã Trung Thành","Loại hình":null,"Xếp cấp chuyên môn kỹ thuật":null,"Hình thức tổ chức":null,"Giường PD ":null,"Giường TK":null,"Giường HSTC":null,"Giường HSCC":null,"Địa chỉ":"Xã Trung Thành, tỉnh Vĩnh Long","Số điện thoại":"02702.227.981","layer_id":340,"fid":849,"label":"Trạm Y tế xã Trung Thành"}},{"type":"Feature","id":850,"geometry":{"type":"Point","coordinates":[106.19919,10.05662]},"properties":{"Mã đơn vị khám chữa bệnh":"86091","Tên đơn vị":"Trạm Y tế xã Trung Ngãi","Loại hình":null,"Xếp cấp chuyên môn kỹ thuật":null,"Hình thức tổ chức":null,"Giường PD ":null,"Giường TK":null,"Giường HSTC":null,"Giường HSCC":null,"Địa chỉ":"Xã Trung Ngãi, tỉnh Vĩnh Long","Số điện thoại":"02703.871.372","layer_id":340,"fid":850,"label":"Trạm Y tế xã Trung Ngãi"}},{"type":"Feature","id":851,"geometry":{"type":"Point","coordinates":[106.16744,10.16162]},"properties":{"Mã đơn vị khám chữa bệnh":"86085","Tên đơn vị":"Trạm Y tế xã Quới An","Loại hình":null,"Xếp cấp chuyên môn kỹ thuật":null,"Hình thức tổ chức":null,"Giường PD ":null,"Giường TK":null,"Giường HSTC":null,"Giường HSCC":null,"Địa chỉ":"Xã Quới An, tỉnh Vĩnh Long","Số điện thoại":"02703.870.495","layer_id":340,"fid":851,"label":"Trạm Y tế xã Quới An"}},{"type":"Feature","id":852,"geometry":{"type":"Point","coordinates":[106.13497,10.1151]},"properties":{"Mã đơn vị khám chữa bệnh":"86088","Tên đơn vị":"Trạm Y tế xã Trung Hiệp","Loại hình":null,"Xếp cấp chuyên môn kỹ thuật":null,"Hình thức tổ chức":null,"Giường PD ":null,"Giường TK":null,"Giường HSTC":null,"Giường HSCC":null,"Địa chỉ":"Xã Trung Hiệp, tỉnh Vĩnh Long","Số điện thoại":"02703.870.584","layer_id":340,"fid":852,"label":"Trạm Y tế xã Trung Hiệp"}},{"type":"Feature","id":853,"geometry":{"type":"Point","coordinates":[106.11313,10.03529]},"properties":{"Mã đơn vị khám chữa bệnh":"86081","Tên đơn vị":"Trạm Y tế xã Hiếu Phụng","Loại hình":null,"Xếp cấp chuyên môn kỹ thuật":null,"Hình thức tổ chức":null,"Giường PD ":null,"Giường TK":null,"Giường HSTC":null,"Giường HSCC":null,"Địa chỉ":"Xã Hiếu Phụng, tỉnh Vĩnh Long","Số điện thoại":"02703.987.549","layer_id":340,"fid":853,"label":"Trạm Y tế xã Hiếu Phụng"}},{"type":"Feature","id":854,"geometry":{"type":"Point","coordinates":[106.09516,9.98527]},"properties":{"Mã đơn vị khám chữa bệnh":"86089","Tên đơn vị":"Trạm Y tế xã Hiếu Thành","Loại hình":null,"Xếp cấp chuyên môn kỹ thuật":null,"Hình thức tổ chức":null,"Giường PD ":null,"Giường TK":null,"Giường HSTC":null,"Giường HSCC":null,"Địa chỉ":"Xã Hiếu Thành, tỉnh Vĩnh Long","Số điện thoại":"02703.889.828","layer_id":340,"fid":854,"label":"Trạm Y tế xã Hiếu Thành"}},{"type":"Feature","id":855,"geometry":{"type":"Point","coordinates":[106.01547,10.071]},"properties":{"Mã đơn vị khám chữa bệnh":"86117","Tên đơn vị":"Trạm Y tế xã Tam Bình","Loại hình":null,"Xếp cấp chuyên môn kỹ thuật":null,"Hình thức tổ chức":null,"Giường PD ":null,"Giường TK":null,"Giường HSTC":null,"Giường HSCC":null,"Địa chỉ":"Ấp Tường Nhơn B, xã Tam Bình, tỉnh Vĩnh Long","Số điện thoại":"02703 279444","layer_id":340,"fid":855,"label":"Trạm Y tế xã Tam Bình"}},{"type":"Feature","id":856,"geometry":{"type":"Point","coordinates":[106.0047109,10.0859051]},"properties":{"Mã đơn vị khám chữa bệnh":"86053","Tên đơn vị":"Trạm Y tế xã Hoà Hiệp","Loại hình":null,"Xếp cấp chuyên môn kỹ thuật":null,"Hình thức tổ chức":null,"Giường PD ":null,"Giường TK":null,"Giường HSTC":null,"Giường HSCC":null,"Địa chỉ":"Ấp 2A, xã Hòa Hiệp, tỉnh Vĩnh Long","Số điện thoại":"02703 860557","layer_id":340,"fid":856,"label":"Trạm Y tế xã Hoà Hiệp"}},{"type":"Feature","id":857,"geometry":{"type":"Point","coordinates":[105.9417613,10.0854034]},"properties":{"Mã đơn vị khám chữa bệnh":"86057","Tên đơn vị":"Trạm Y tế xã Cái Ngang","Loại hình":null,"Xếp cấp chuyên môn kỹ thuật":null,"Hình thức tổ chức":null,"Giường PD ":null,"Giường TK":null,"Giường HSTC":null,"Giường HSCC":null,"Địa chỉ":"Ấp 5B, xã Cái Ngang, tỉnh Vĩnh Long","Số điện thoại":"02703 718003","layer_id":340,"fid":857,"label":"Trạm Y tế xã Cái Ngang"}},{"type":"Feature","id":858,"geometry":{"type":"Point","coordinates":[105.8950797,10.1093497]},"properties":{"Mã đơn vị khám chữa bệnh":"86056","Tên đơn vị":"Trạm Y tế xã Song Phú","Loại hình":null,"Xếp cấp chuyên môn kỹ thuật":null,"Hình thức tổ chức":null,"Giường PD ":null,"Giường TK":null,"Giường HSTC":null,"Giường HSCC":null,"Địa chỉ":"Ấp Phú Hòa Yên, xã Song Phú, tỉnh Vĩnh Long","Số điện thoại":"0338 491277","layer_id":340,"fid":858,"label":"Trạm Y tế xã Song Phú"}},{"type":"Feature","id":859,"geometry":{"type":"Point","coordinates":[105.9384365,9.9902207]},"properties":{"Mã đơn vị khám chữa bệnh":"86063","Tên đơn vị":"Trạm Y tế xã Ngãi Tứ","Loại hình":null,"Xếp cấp chuyên môn kỹ thuật":null,"Hình thức tổ chức":null,"Giường PD ":null,"Giường TK":null,"Giường HSTC":null,"Giường HSCC":null,"Địa chỉ":"Ấp An Phú Tân, xã Ngãi Tứ, tỉnh Vĩnh Long","Số điện thoại":"02703 719272","layer_id":340,"fid":859,"label":"Trạm Y tế xã Ngãi Tứ"}},{"type":"Feature","id":860,"geometry":{"type":"Point","coordinates":[105.7969,10.06725]},"properties":{"Mã đơn vị khám chữa bệnh":"86112","Tên đơn vị":"Trạm Y tế Phường Bình Minh","Loại hình":null,"Xếp cấp chuyên môn kỹ thuật":null,"Hình thức tổ chức":null,"Giường PD ":null,"Giường TK":null,"Giường HSTC":null,"Giường HSCC":null,"Địa chỉ":"Số 67/3 Huỳnh Văn Đạt , khóm 4, phường Bình Minh, tỉnh Vĩnh Long","Số điện thoại":"'02703.740.025","layer_id":340,"fid":860,"label":"Trạm Y tế Phường Bình Minh"}},{"type":"Feature","id":861,"geometry":{"type":"Point","coordinates":[105.84404,10.06949]},"properties":{"Mã đơn vị khám chữa bệnh":"86129","Tên đơn vị":"Trạm Y tế Phường Cái Vồn","Loại hình":null,"Xếp cấp chuyên môn kỹ thuật":null,"Hình thức tổ chức":null,"Giường PD ":null,"Giường TK":null,"Giường HSTC":null,"Giường HSCC":null,"Địa chỉ":"Tổ 12, đường Phan Văn Năm, khóm 1, phường Cái Vồn, tỉnh Vĩnh Long","Số điện thoại":"02703.741.199","layer_id":340,"fid":861,"label":"Trạm Y tế Phường Cái Vồn"}},{"type":"Feature","id":862,"geometry":{"type":"Point","coordinates":[105.84338,10.04411]},"properties":{"Mã đơn vị khám chữa bệnh":"86040","Tên đơn vị":"Trạm Y tế Phường Đông Thành","Loại hình":null,"Xếp cấp chuyên môn kỹ thuật":null,"Hình thức tổ chức":null,"Giường PD ":null,"Giường TK":null,"Giường HSTC":null,"Giường HSCC":null,"Địa chỉ":"Tổ 12, ấp Đông Hậu, phường Đông Thành, tỉnh Vĩnh Long","Số điện thoại":"02730.765.945","layer_id":340,"fid":862,"label":"Trạm Y tế Phường Đông Thành"}},{"type":"Feature","id":863,"geometry":{"type":"Point","coordinates":[106.332778,9.829167]},"properties":{"Mã đơn vị khám chữa bệnh":"84073","Tên đơn vị":"Trạm y tế xã Châu Thành","Loại hình":null,"Xếp cấp chuyên môn kỹ thuật":null,"Hình thức tổ chức":null,"Giường PD ":null,"Giường TK":null,"Giường HSTC":null,"Giường HSCC":null,"Địa chỉ":"Ấp Đầu Giồng A, xã Châu Thành, tỉnh Vĩnh Long","Số điện thoại":"02943 791 598","layer_id":340,"fid":863,"label":"Trạm y tế xã Châu Thành"}},{"type":"Feature","id":864,"geometry":{"type":"Point","coordinates":[106.259233,9.893809]},"properties":{"Mã đơn vị khám chữa bệnh":"84052","Tên đơn vị":"Trạm Y tế xã Song Lộc","Loại hình":null,"Xếp cấp chuyên môn kỹ thuật":null,"Hình thức tổ chức":null,"Giường PD ":null,"Giường TK":null,"Giường HSTC":null,"Giường HSCC":null,"Địa chỉ":"ấp Ô Bắp, xã Song Lộc, tỉnh Vĩnh Long","Số điện thoại":"02943.896.788","layer_id":340,"fid":864,"label":"Trạm Y tế xã Song Lộc"}},{"type":"Feature","id":865,"geometry":{"type":"Point","coordinates":[106.446504,9.919719]},"properties":{"Mã đơn vị khám chữa bệnh":"84009","Tên đơn vị":"Phòng khám đa khoa khu vực Hòa Minh","Loại hình":null,"Xếp cấp chuyên môn kỹ thuật":null,"Hình thức tổ chức":null,"Giường PD ":null,"Giường TK":null,"Giường HSTC":null,"Giường HSCC":null,"Địa chỉ":"Số 12 ấp Đại Thôn A, xã Hòa Minh, tỉnh Vĩnh Long","Số điện thoại":"2943899050","layer_id":340,"fid":865,"label":"Phòng khám đa khoa khu vực Hòa Minh"}},{"type":"Feature","id":866,"geometry":{"type":"Point","coordinates":[106.423056,9.903889]},"properties":{"Mã đơn vị khám chữa bệnh":"84103","Tên đơn vị":"Trạm Y tế xã Hưng Mỹ","Loại hình":null,"Xếp cấp chuyên môn kỹ thuật":null,"Hình thức tổ chức":null,"Giường PD ":null,"Giường TK":null,"Giường HSTC":null,"Giường HSCC":null,"Địa chỉ":"Ấp Rạch Vồn, xã Hưng Mỹ, Tỉnh Vĩnh Long","Số điện thoại":"02943599041","layer_id":340,"fid":866,"label":"Trạm Y tế xã Hưng Mỹ"}},{"type":"Feature","id":867,"geometry":{"type":"Point","coordinates":[106.499444,9.885556]},"properties":{"Mã đơn vị khám chữa bệnh":"84105","Tên đơn vị":"Trạm Y tế  Xã Long Hòa","Loại hình":null,"Xếp cấp chuyên môn kỹ thuật":null,"Hình thức tổ chức":null,"Giường PD ":null,"Giường TK":null,"Giường HSTC":null,"Giường HSCC":null,"Địa chỉ":"Số 507,Âp Rạch Gốc, Xã Long Hòa,Tỉnh Vĩnh Long","Số điện thoại":"2943799082","layer_id":340,"fid":867,"label":"Trạm Y tế  Xã Long Hòa"}},{"type":"Feature","id":868,"geometry":{"type":"Point","coordinates":[106.450684,9.794629]},"properties":{"Mã đơn vị khám chữa bệnh":"84106","Tên đơn vị":"Trạm Y tế xã Cầu Ngang","Loại hình":null,"Xếp cấp chuyên môn kỹ thuật":null,"Hình thức tổ chức":null,"Giường PD ":null,"Giường TK":null,"Giường HSTC":null,"Giường HSCC":null,"Địa chỉ":"Ấp Minh Thuận A, xã Cầu Ngang, tỉnh Vĩnh Long","Số điện thoại":"0294.3725201","layer_id":340,"fid":868,"label":"Trạm Y tế xã Cầu Ngang"}},{"type":"Feature","id":869,"geometry":{"type":"Point","coordinates":[106.507145,9.809037]},"properties":{"Mã đơn vị khám chữa bệnh":"84039","Tên đơn vị":"Trạm Y tế xã Mỹ Long","Loại hình":null,"Xếp cấp chuyên môn kỹ thuật":null,"Hình thức tổ chức":null,"Giường PD ":null,"Giường TK":null,"Giường HSTC":null,"Giường HSCC":null,"Địa chỉ":"Ấp II, xã Mỹ Long, tỉnh Vĩnh Long","Số điện thoại":"02943.829470","layer_id":340,"fid":869,"label":"Trạm Y tế xã Mỹ Long"}},{"type":"Feature","id":870,"geometry":{"type":"Point","coordinates":[106.444518,9.852326]},"properties":{"Mã đơn vị khám chữa bệnh":"84109","Tên đơn vị":"Trạm y tế xã Vinh Kim","Loại hình":null,"Xếp cấp chuyên môn kỹ thuật":null,"Hình thức tổ chức":null,"Giường PD ":null,"Giường TK":null,"Giường HSTC":null,"Giường HSCC":null,"Địa chỉ":"ấp Chà Và, xã Vinh Kim, tỉnh Vĩnh Long","Số điện thoại":"02943827506","layer_id":340,"fid":870,"label":"Trạm y tế xã Vinh Kim"}},{"type":"Feature","id":871,"geometry":{"type":"Point","coordinates":[106.3898,9.7571]},"properties":{"Mã đơn vị khám chữa bệnh":"84038","Tên đơn vị":"Trạm y tế xã Nhị Trường","Loại hình":null,"Xếp cấp chuyên môn kỹ thuật":null,"Hình thức tổ chức":null,"Giường PD ":null,"Giường TK":null,"Giường HSTC":null,"Giường HSCC":null,"Địa chỉ":"Ấp Nô Lựa A, xã Nhị Trường, tỉnh Vĩnh Long","Số điện thoại":"0373952273","layer_id":340,"fid":871,"label":"Trạm y tế xã Nhị Trường"}},{"type":"Feature","id":872,"geometry":{"type":"Point","coordinates":[106.477587,9.732462]},"properties":{"Mã đơn vị khám chữa bệnh":"84086","Tên đơn vị":"Trạm y tế xã Hiệp Mỹ","Loại hình":null,"Xếp cấp chuyên môn kỹ thuật":null,"Hình thức tổ chức":null,"Giường PD ":null,"Giường TK":null,"Giường HSTC":null,"Giường HSCC":null,"Địa chỉ":"Ấp Chợ, xã Hiệp Mỹ, tỉnh Vĩnh Long","Số điện thoại":"02943.820068","layer_id":340,"fid":872,"label":"Trạm y tế xã Hiệp Mỹ"}},{"type":"Feature","id":873,"geometry":{"type":"Point","coordinates":[106.18016,9.80233]},"properties":{"Mã đơn vị khám chữa bệnh":"84096","Tên đơn vị":" Trạm Y tế xã Tiểu Cần","Loại hình":null,"Xếp cấp chuyên môn kỹ thuật":null,"Hình thức tổ chức":null,"Giường PD ":null,"Giường TK":null,"Giường HSTC":null,"Giường HSCC":null,"Địa chỉ":"Âp Đại Mong, Xã Tiểu Cần, tỉnh Vĩnh Long","Số điện thoại":"02943.822.420","layer_id":340,"fid":873,"label":" Trạm Y tế xã Tiểu Cần"}},{"type":"Feature","id":874,"geometry":{"type":"Point","coordinates":[106.162299,9.765812]},"properties":{"Mã đơn vị khám chữa bệnh":"84041","Tên đơn vị":"Trạm Y tế xã Tân Hòa","Loại hình":null,"Xếp cấp chuyên môn kỹ thuật":null,"Hình thức tổ chức":null,"Giường PD ":null,"Giường TK":null,"Giường HSTC":null,"Giường HSCC":null,"Địa chỉ":"Ấp Nhơn Hoà, xã Tân Hoà, tỉnh Vĩnh Long","Số điện thoại":"02943.824.557","layer_id":340,"fid":874,"label":"Trạm Y tế xã Tân Hòa"}},{"type":"Feature","id":875,"geometry":{"type":"Point","coordinates":[106.206302,9.785161]},"properties":{"Mã đơn vị khám chữa bệnh":"84040","Tên đơn vị":"Trạm Y tế xã Hùng Hòa","Loại hình":null,"Xếp cấp chuyên môn kỹ thuật":null,"Hình thức tổ chức":null,"Giường PD ":null,"Giường TK":null,"Giường HSTC":null,"Giường HSCC":null,"Địa chỉ":"Ấp Chợ, xã Hùng Hòa, tỉnh Vĩnh Long","Số điện thoại":"02943.610.333","layer_id":340,"fid":875,"label":"Trạm Y tế xã Hùng Hòa"}},{"type":"Feature","id":876,"geometry":{"type":"Point","coordinates":[106.263981,9.826952]},"properties":{"Mã đơn vị khám chữa bệnh":"84017","Tên đơn vị":"Trạm Y tế xã Tập Ngãi","Loại hình":null,"Xếp cấp chuyên môn kỹ thuật":null,"Hình thức tổ chức":null,"Giường PD ":null,"Giường TK":null,"Giường HSTC":null,"Giường HSCC":null,"Địa chỉ":"Ấp Lê Văn Quới, xã Tập Ngãi, tỉnh Vĩnh Long","Số điện thoại":"02943.618.057","layer_id":340,"fid":876,"label":"Trạm Y tế xã Tập Ngãi"}},{"type":"Feature","id":877,"geometry":{"type":"Point","coordinates":[106.51718,9.59932]},"properties":{"Mã đơn vị khám chữa bệnh":"84011","Tên đơn vị":"Trạm Y tế phường Duyên Hải","Loại hình":null,"Xếp cấp chuyên môn kỹ thuật":null,"Hình thức tổ chức":null,"Giường PD ":null,"Giường TK":null,"Giường HSTC":null,"Giường HSCC":null,"Địa chỉ":"Khóm Giồng Giếng, phường Duyên Hải, tỉnh Vĩnh Long","Số điện thoại":"0294.3739573","layer_id":340,"fid":877,"label":"Trạm Y tế phường Duyên Hải"}},{"type":"Feature","id":878,"geometry":{"type":"Point","coordinates":[106.5566,9.67518]},"properties":{"Mã đơn vị khám chữa bệnh":"84123","Tên đơn vị":"Trạm Y tế phường Trường Long Hòa","Loại hình":null,"Xếp cấp chuyên môn kỹ thuật":null,"Hình thức tổ chức":null,"Giường PD ":null,"Giường TK":null,"Giường HSTC":null,"Giường HSCC":null,"Địa chỉ":"Ấp Ba Động, phường Trường Long Hòa, tỉnh Vĩnh Long ","Số điện thoại":"0294.3839010","layer_id":340,"fid":878,"label":"Trạm Y tế phường Trường Long Hòa"}},{"type":"Feature","id":879,"geometry":{"type":"Point","coordinates":[106.48043,9.67723]},"properties":{"Mã đơn vị khám chữa bệnh":"84064","Tên đơn vị":"Trạm Y tế xã Long Hữu","Loại hình":null,"Xếp cấp chuyên môn kỹ thuật":null,"Hình thức tổ chức":null,"Giường PD ":null,"Giường TK":null,"Giường HSTC":null,"Giường HSCC":null,"Địa chỉ":"Ấp 16, xã Long Hữu, tỉnh Vĩnh Long ","Số điện thoại":"0294.3836226","layer_id":340,"fid":879,"label":"Trạm Y tế xã Long Hữu"}},{"type":"Feature","id":880,"geometry":{"type":"Point","coordinates":[106.233144,10.032329]},"properties":{"Mã đơn vị khám chữa bệnh":"84077","Tên đơn vị":"Trạm Y tế xã Càng Long","Loại hình":null,"Xếp cấp chuyên môn kỹ thuật":null,"Hình thức tổ chức":null,"Giường PD ":null,"Giường TK":null,"Giường HSTC":null,"Giường HSCC":null,"Địa chỉ":"Ấp Hiệp Phú, xã Càng Long, tỉnh Vĩnh Long","Số điện thoại":"0974902978","layer_id":340,"fid":880,"label":"Trạm Y tế xã Càng Long"}},{"type":"Feature","id":881,"geometry":{"type":"Point","coordinates":[106.174371,9.947649]},"properties":{"Mã đơn vị khám chữa bệnh":"84072","Tên đơn vị":"Trạm Y tế xã An Trường","Loại hình":null,"Xếp cấp chuyên môn kỹ thuật":null,"Hình thức tổ chức":null,"Giường PD ":null,"Giường TK":null,"Giường HSTC":null,"Giường HSCC":null,"Địa chỉ":"Ấp 7A, xã An Trường, tỉnh Vĩnh Long","Số điện thoại":"0989699591","layer_id":340,"fid":881,"label":"Trạm Y tế xã An Trường"}},{"type":"Feature","id":882,"geometry":{"type":"Point","coordinates":[106.230958,9.925655]},"properties":{"Mã đơn vị khám chữa bệnh":"84022","Tên đơn vị":"Trạm Y tế xã Tân An","Loại hình":null,"Xếp cấp chuyên môn kỹ thuật":null,"Hình thức tổ chức":null,"Giường PD ":null,"Giường TK":null,"Giường HSTC":null,"Giường HSCC":null,"Địa chỉ":"Ấp Lưu tư, xã Tân An, tỉnh Vĩnh Long","Số điện thoại":"0979138255","layer_id":340,"fid":882,"label":"Trạm Y tế xã Tân An"}},{"type":"Feature","id":883,"geometry":{"type":"Point","coordinates":[106.268152,10.007252]},"properties":{"Mã đơn vị khám chữa bệnh":"84010","Tên đơn vị":"Trạm Y tế xã Nhị Long","Loại hình":null,"Xếp cấp chuyên môn kỹ thuật":null,"Hình thức tổ chức":null,"Giường PD ":null,"Giường TK":null,"Giường HSTC":null,"Giường HSCC":null,"Địa chỉ":"Ấp Đon, xã Nhị Long, tỉnh Vĩnh Long","Số điện thoại":"0974229350","layer_id":340,"fid":883,"label":"Trạm Y tế xã Nhị Long"}},{"type":"Feature","id":884,"geometry":{"type":"Point","coordinates":[106.243009,9.95993]},"properties":{"Mã đơn vị khám chữa bệnh":"84074","Tên đơn vị":"Trạm Y tế xã Bình Phú","Loại hình":null,"Xếp cấp chuyên môn kỹ thuật":null,"Hình thức tổ chức":null,"Giường PD ":null,"Giường TK":null,"Giường HSTC":null,"Giường HSCC":null,"Địa chỉ":"Ấp Nguyệt Lãng A, xã Bình Phú, tỉnh Vĩnh Long","Số điện thoại":"0935906274","layer_id":340,"fid":884,"label":"Trạm Y tế xã Bình Phú"}},{"type":"Feature","id":885,"geometry":{"type":"Point","coordinates":[106.079538,9.861356]},"properties":{"Mã đơn vị khám chữa bệnh":"84046","Tên đơn vị":"Trạm Y tế xã Cầu Kè","Loại hình":null,"Xếp cấp chuyên môn kỹ thuật":null,"Hình thức tổ chức":null,"Giường PD ":null,"Giường TK":null,"Giường HSTC":null,"Giường HSCC":null,"Địa chỉ":"Ấp Ô Tưng A, xã Cầu Kè, tỉnh Vĩnh long","Số điện thoại":"02942213594","layer_id":340,"fid":885,"label":"Trạm Y tế xã Cầu Kè"}},{"type":"Feature","id":886,"geometry":{"type":"Point","coordinates":[106.090278,9.830833]},"properties":{"Mã đơn vị khám chữa bệnh":"84045","Tên đơn vị":"Trạm Y tế xã Phong Thạnh","Loại hình":null,"Xếp cấp chuyên môn kỹ thuật":null,"Hình thức tổ chức":null,"Giường PD ":null,"Giường TK":null,"Giường HSTC":null,"Giường HSCC":null,"Địa chỉ":"Ấp Kinh Xáng, xã Phong Thạnh, tỉnh Vĩnh long","Số điện thoại":"02943816381","layer_id":340,"fid":886,"label":"Trạm Y tế xã Phong Thạnh"}},{"type":"Feature","id":887,"geometry":{"type":"Point","coordinates":[106.016703,9.875509]},"properties":{"Mã đơn vị khám chữa bệnh":"84138","Tên đơn vị":"Trạm Y Tế An Phú Tân","Loại hình":null,"Xếp cấp chuyên môn kỹ thuật":null,"Hình thức tổ chức":null,"Giường PD ":null,"Giường TK":null,"Giường HSTC":null,"Giường HSCC":null,"Địa chỉ":"Ấp An Trại, xã An Phú Tân, tỉnh Vĩnh long","Số điện thoại":"02943719367","layer_id":340,"fid":887,"label":"Trạm Y Tế An Phú Tân"}},{"type":"Feature","id":888,"geometry":{"type":"Point","coordinates":[106.02443,9.89944]},"properties":{"Mã đơn vị khám chữa bệnh":"84062","Tên đơn vị":"Trạm Y tế Xã Tam Ngãi","Loại hình":null,"Xếp cấp chuyên môn kỹ thuật":null,"Hình thức tổ chức":null,"Giường PD ":null,"Giường TK":null,"Giường HSTC":null,"Giường HSCC":null,"Địa chỉ":"Ấp Ngọc Hồ, xã Tam Ngãi, tỉnh Vĩnh long","Số điện thoại":"02943719490","layer_id":340,"fid":888,"label":"Trạm Y tế Xã Tam Ngãi"}},{"type":"Feature","id":889,"geometry":{"type":"Point","coordinates":[106.264028,9.703]},"properties":{"Mã đơn vị khám chữa bệnh":"84131","Tên đơn vị":"Trạm Y tế xã Trà Cú","Loại hình":null,"Xếp cấp chuyên môn kỹ thuật":null,"Hình thức tổ chức":null,"Giường PD ":null,"Giường TK":null,"Giường HSTC":null,"Giường HSCC":null,"Địa chỉ":"Ấp Xoài Xiêm, xã Trà Cú, tỉnh Vỉnh Long","Số điện thoại":"02943655263","layer_id":340,"fid":889,"label":"Trạm Y tế xã Trà Cú"}},{"type":"Feature","id":890,"geometry":{"type":"Point","coordinates":[106.183889,9.725083]},"properties":{"Mã đơn vị khám chữa bệnh":"84130","Tên đơn vị":"Trạm Y tế Xã Lưu Nghiệp Anh","Loại hình":null,"Xếp cấp chuyên môn kỹ thuật":null,"Hình thức tổ chức":null,"Giường PD ":null,"Giường TK":null,"Giường HSTC":null,"Giường HSCC":null,"Địa chỉ":"ấp An Quảng Hữu, xã Lưu Nghiệp Anh, tỉnh Vĩnh Long","Số điện thoại":"02943870103","layer_id":340,"fid":890,"label":"Trạm Y tế Xã Lưu Nghiệp Anh"}},{"type":"Feature","id":891,"geometry":{"type":"Point","coordinates":[106.30775,9.634083]},"properties":{"Mã đơn vị khám chữa bệnh":"84014","Tên đơn vị":"Trạm Y tế xã Đại An","Loại hình":null,"Xếp cấp chuyên môn kỹ thuật":null,"Hình thức tổ chức":null,"Giường PD ":null,"Giường TK":null,"Giường HSTC":null,"Giường HSCC":null,"Địa chỉ":"Ấp Xà Lôn, xã Đại An, tỉnh Vỉnh Long","Số điện thoại":"02946550817","layer_id":340,"fid":891,"label":"Trạm Y tế xã Đại An"}},{"type":"Feature","id":892,"geometry":{"type":"Point","coordinates":[106.294694,9.665278]},"properties":{"Mã đơn vị khám chữa bệnh":"84027","Tên đơn vị":"Trạm Y tế xã Hàm Giang","Loại hình":null,"Xếp cấp chuyên môn kỹ thuật":null,"Hình thức tổ chức":null,"Giường PD ":null,"Giường TK":null,"Giường HSTC":null,"Giường HSCC":null,"Địa chỉ":"Ấp Chợ, Xã Hàm Giang, Tỉnh Vĩnh Long","Số điện thoại":"02943878262","layer_id":340,"fid":892,"label":"Trạm Y tế xã Hàm Giang"}},{"type":"Feature","id":893,"geometry":{"type":"Point","coordinates":[106.342167,9.7055]},"properties":{"Mã đơn vị khám chữa bệnh":"84015","Tên đơn vị":"Trạm Y tế xã Long Hiệp","Loại hình":null,"Xếp cấp chuyên môn kỹ thuật":null,"Hình thức tổ chức":null,"Giường PD ":null,"Giường TK":null,"Giường HSTC":null,"Giường HSCC":null,"Địa chỉ":"ấp Chợ, xã Long Hiệp, tỉnh Vĩnh Long","Số điện thoại":"02943671263","layer_id":340,"fid":893,"label":"Trạm Y tế xã Long Hiệp"}},{"type":"Feature","id":894,"geometry":{"type":"Point","coordinates":[106.306528,9.758556]},"properties":{"Mã đơn vị khám chữa bệnh":"84016","Tên đơn vị":"Trạm Y tế xã Tập Sơn","Loại hình":null,"Xếp cấp chuyên môn kỹ thuật":null,"Hình thức tổ chức":null,"Giường PD ":null,"Giường TK":null,"Giường HSTC":null,"Giường HSCC":null,"Địa chỉ":"ấp Chợ Dưới, xã Tập Sơn, tỉnh Vĩnh long","Số điện thoại":"02943877065","layer_id":340,"fid":894,"label":"Trạm Y tế xã Tập Sơn"}},{"type":"Feature","id":895,"geometry":{"type":"Point","coordinates":[106.40396,9.60493]},"properties":{"Mã đơn vị khám chữa bệnh":"84145","Tên đơn vị":"Trạm Y tế xã  Long Thành","Loại hình":null,"Xếp cấp chuyên môn kỹ thuật":null,"Hình thức tổ chức":null,"Giường PD ":null,"Giường TK":null,"Giường HSTC":null,"Giường HSCC":null,"Địa chỉ":"Ấp Tân Thành, xã Long Thành, tỉnh Vĩnh Long","Số điện thoại":"02943837175","layer_id":340,"fid":895,"label":"Trạm Y tế xã  Long Thành"}},{"type":"Feature","id":896,"geometry":{"type":"Point","coordinates":[106.43432,9.55324]},"properties":{"Mã đơn vị khám chữa bệnh":"84089","Tên đơn vị":"Trạm Y tế xã Đông Hải","Loại hình":null,"Xếp cấp chuyên môn kỹ thuật":null,"Hình thức tổ chức":null,"Giường PD ":null,"Giường TK":null,"Giường HSTC":null,"Giường HSCC":null,"Địa chỉ":"Ấp Định An, xã Đông Hải, tỉnh Vĩnh Long","Số điện thoại":"02943737119","layer_id":340,"fid":896,"label":"Trạm Y tế xã Đông Hải"}},{"type":"Feature","id":897,"geometry":{"type":"Point","coordinates":[106.35463,9.60297]},"properties":{"Mã đơn vị khám chữa bệnh":"84050","Tên đơn vị":"Trạm Y tế xã Long Vĩnh","Loại hình":null,"Xếp cấp chuyên môn kỹ thuật":null,"Hình thức tổ chức":null,"Giường PD ":null,"Giường TK":null,"Giường HSTC":null,"Giường HSCC":null,"Địa chỉ":"Ấp Kinh Đào, xã Long Vĩnh, Vĩnh Long","Số điện thoại":"02943830035","layer_id":340,"fid":897,"label":"Trạm Y tế xã Long Vĩnh"}},{"type":"Feature","id":898,"geometry":{"type":"Point","coordinates":[106.34723,9.6462]},"properties":{"Mã đơn vị khám chữa bệnh":"84029","Tên đơn vị":"Trạm Y tế xã Đôn Châu","Loại hình":null,"Xếp cấp chuyên môn kỹ thuật":null,"Hình thức tổ chức":null,"Giường PD ":null,"Giường TK":null,"Giường HSTC":null,"Giường HSCC":null,"Địa chỉ":"Ấp Chợ, xã Đôn Châu, tỉnh Vĩnh long","Số điện thoại":"02943876288","layer_id":340,"fid":898,"label":"Trạm Y tế xã Đôn Châu"}},{"type":"Feature","id":900,"geometry":{"type":"Point","coordinates":[106.374364648,10.242409792]},"properties":{"Mã đơn vị khám chữa bệnh":"83511","Tên đơn vị":"Trạm Y tế  phường An Hội","Loại hình":null,"Xếp cấp chuyên môn kỹ thuật":null,"Hình thức tổ chức":null,"Giường PD ":null,"Giường TK":null,"Giường HSTC":null,"Giường HSCC":null,"Địa chỉ":"Khu phố Phú Nhuận 2, Phường An Hội, tỉnh Vĩnh Long","Số điện thoại":"02753812372","layer_id":340,"fid":900,"label":"Trạm Y tế  phường An Hội"}},{"type":"Feature","id":899,"geometry":{"type":"Point","coordinates":[106.427416622,9.663574266]},"properties":{"Mã đơn vị khám chữa bệnh":"84048","Tên đơn vị":"Trạm y tế xã Ngũ Lạc","Loại hình":null,"Xếp cấp chuyên môn kỹ thuật":null,"Hình thức tổ chức":null,"Giường PD ":null,"Giường TK":null,"Giường HSTC":null,"Giường HSCC":null,"Địa chỉ":"Ấp Cây Da, xã Ngũ Lạc, tỉnh Vĩnh Long","Số điện thoại":"02943838014","layer_id":340,"fid":899,"label":"Trạm y tế xã Ngũ Lạc"}},{"type":"Feature","id":901,"geometry":{"type":"Point","coordinates":[106.35907,10.235]},"properties":{"Mã đơn vị khám chữa bệnh":"83323","Tên đơn vị":"Trạm Y tế phường Bến Tre","Loại hình":null,"Xếp cấp chuyên môn kỹ thuật":null,"Hình thức tổ chức":null,"Giường PD ":null,"Giường TK":null,"Giường HSTC":null,"Giường HSCC":null,"Địa chỉ":"32E5, đường số 4, phường Bến Tre, tỉnh Vĩnh Long","Số điện thoại":"02753823320","layer_id":340,"fid":901,"label":"Trạm Y tế phường Bến Tre"}},{"type":"Feature","id":902,"geometry":{"type":"Point","coordinates":[106.33935,10.26714]},"properties":{"Mã đơn vị khám chữa bệnh":"83318","Tên đơn vị":"Trạm Y tế phường Sơn Đông","Loại hình":null,"Xếp cấp chuyên môn kỹ thuật":null,"Hình thức tổ chức":null,"Giường PD ":null,"Giường TK":null,"Giường HSTC":null,"Giường HSCC":null,"Địa chỉ":"Khu phố 2, phường Sơn Đông, tỉnh Vĩnh Long","Số điện thoại":"02753829021","layer_id":340,"fid":902,"label":"Trạm Y tế phường Sơn Đông"}},{"type":"Feature","id":903,"geometry":{"type":"Point","coordinates":[106.37413,10.2495]},"properties":{"Mã đơn vị khám chữa bệnh":null,"Tên đơn vị":"Trạm Y tế  phường Phú Khương","Loại hình":null,"Xếp cấp chuyên môn kỹ thuật":null,"Hình thức tổ chức":null,"Giường PD ":null,"Giường TK":null,"Giường HSTC":null,"Giường HSCC":null,"Địa chỉ":"khu phố Phú Chánh, phường Phú Khương, tỉnh Vĩnh Long","Số điện thoại":"02753826702","layer_id":340,"fid":903,"label":"Trạm Y tế  phường Phú Khương"}},{"type":"Feature","id":904,"geometry":{"type":"Point","coordinates":[106.38849,10.26972]},"properties":{"Mã đơn vị khám chữa bệnh":"83321","Tên đơn vị":"Trạm Y tế phường Phú Tân","Loại hình":null,"Xếp cấp chuyên môn kỹ thuật":null,"Hình thức tổ chức":null,"Giường PD ":null,"Giường TK":null,"Giường HSTC":null,"Giường HSCC":null,"Địa chỉ":"Thửa đất số 727, Tờ bản đồ số 15, khu phố Hữu Thành, \nphường Phú Tân, tỉnh Vĩnh Long","Số điện thoại":"02753828795","layer_id":340,"fid":904,"label":"Trạm Y tế phường Phú Tân"}},{"type":"Feature","id":905,"geometry":{"type":"Point","coordinates":[106.356583,10.145247]},"properties":{"Mã đơn vị khám chữa bệnh":"83620","Tên đơn vị":"Trạm Y tế xã Đồng Khởi","Loại hình":null,"Xếp cấp chuyên môn kỹ thuật":null,"Hình thức tổ chức":null,"Giường PD ":null,"Giường TK":null,"Giường HSTC":null,"Giường HSCC":null,"Địa chỉ":"Ấp Định Nhơn, xã Đồng Khởi, tỉnh Vĩnh Long","Số điện thoại":"02753843772","layer_id":340,"fid":905,"label":"Trạm Y tế xã Đồng Khởi"}},{"type":"Feature","id":906,"geometry":{"type":"Point","coordinates":[106.334722,10.133889]},"properties":{"Mã đơn vị khám chữa bệnh":"83624","Tên đơn vị":"Trạm Y tế xã Mỏ Cày","Loại hình":null,"Xếp cấp chuyên môn kỹ thuật":null,"Hình thức tổ chức":null,"Giường PD ":null,"Giường TK":null,"Giường HSTC":null,"Giường HSCC":null,"Địa chỉ":"Ấp 5, xã Mỏ Cày, tỉnh Vĩnh Long","Số điện thoại":"02753842873","layer_id":340,"fid":906,"label":"Trạm Y tế xã Mỏ Cày"}},{"type":"Feature","id":907,"geometry":{"type":"Point","coordinates":[106.32519,10.047656]},"properties":{"Mã đơn vị khám chữa bệnh":"83610","Tên đơn vị":"Trạm Y tế xã Thành Thới","Loại hình":null,"Xếp cấp chuyên môn kỹ thuật":null,"Hình thức tổ chức":null,"Giường PD ":null,"Giường TK":null,"Giường HSTC":null,"Giường HSCC":null,"Địa chỉ":"Ấp An Trạch Đông, xã Thành Thới, tỉnh Vĩnh Long","Số điện thoại":"02753847742","layer_id":340,"fid":907,"label":"Trạm Y tế xã Thành Thới"}},{"type":"Feature","id":908,"geometry":{"type":"Point","coordinates":[106.368889,10.078889]},"properties":{"Mã đơn vị khám chữa bệnh":"83604","Tên đơn vị":"Trạm Y tế xã An Định","Loại hình":null,"Xếp cấp chuyên môn kỹ thuật":null,"Hình thức tổ chức":null,"Giường PD ":null,"Giường TK":null,"Giường HSTC":null,"Giường HSCC":null,"Địa chỉ":"Ấp Phú Đông 1, xã An Định, tỉnh Vĩnh Long","Số điện thoại":"02753847119","layer_id":340,"fid":908,"label":"Trạm Y tế xã An Định"}},{"type":"Feature","id":909,"geometry":{"type":"Point","coordinates":[106.400538,10.014366]},"properties":{"Mã đơn vị khám chữa bệnh":"83608","Tên đơn vị":"Trạm Y tế xã Hương Mỹ","Loại hình":null,"Xếp cấp chuyên môn kỹ thuật":null,"Hình thức tổ chức":null,"Giường PD ":null,"Giường TK":null,"Giường HSTC":null,"Giường HSCC":null,"Địa chỉ":"Ấp Thị, xã Hương Mỹ, tỉnh Vĩnh Long","Số điện thoại":"02753849198","layer_id":340,"fid":909,"label":"Trạm Y tế xã Hương Mỹ"}},{"type":"Feature","id":910,"geometry":{"type":"Point","coordinates":[106.27153,10.19403]},"properties":{"Mã đơn vị khám chữa bệnh":"83609","Tên đơn vị":"Trạm y tế xã Phước Mỹ Trung","Loại hình":null,"Xếp cấp chuyên môn kỹ thuật":null,"Hình thức tổ chức":null,"Giường PD ":null,"Giường TK":null,"Giường HSTC":null,"Giường HSCC":null,"Địa chỉ":"ấp Phước Hậu, xã Phước Mỹ Trung, tỉnh Vĩnh Long","Số điện thoại":"02753845160","layer_id":340,"fid":910,"label":"Trạm y tế xã Phước Mỹ Trung"}},{"type":"Feature","id":911,"geometry":{"type":"Point","coordinates":[106.33385,10.20684]},"properties":{"Mã đơn vị khám chữa bệnh":"83617","Tên đơn vị":"Trạm y tế xã Tân Thành Bình","Loại hình":null,"Xếp cấp chuyên môn kỹ thuật":null,"Hình thức tổ chức":null,"Giường PD ":null,"Giường TK":null,"Giường HSTC":null,"Giường HSCC":null,"Địa chỉ":"Ấp Tân Long 2, xã Tân Thành Bình, Tỉnh vĩnh Long ","Số điện thoại":"2753840486","layer_id":340,"fid":911,"label":"Trạm y tế xã Tân Thành Bình"}},{"type":"Feature","id":912,"geometry":{"type":"Point","coordinates":[106.24517,10.12389]},"properties":{"Mã đơn vị khám chữa bệnh":"83618","Tên đơn vị":"Trạm y tế xã Nhuận Phú Tân","Loại hình":null,"Xếp cấp chuyên môn kỹ thuật":null,"Hình thức tổ chức":null,"Giường PD ":null,"Giường TK":null,"Giường HSTC":null,"Giường HSCC":null,"Địa chỉ":"Ấp Tân Nhuận, xã Nhuận Phú Tân, Tỉnh vĩnh Long ","Số điện thoại":"02753846145","layer_id":340,"fid":912,"label":"Trạm y tế xã Nhuận Phú Tân"}},{"type":"Feature","id":913,"geometry":{"type":"Point","coordinates":[106.590945,10.046634]},"properties":{"Mã đơn vị khám chữa bệnh":"83024","Tên đơn vị":"Trạm Y tế xã Ba Tri","Loại hình":null,"Xếp cấp chuyên môn kỹ thuật":null,"Hình thức tổ chức":null,"Giường PD ":null,"Giường TK":null,"Giường HSTC":null,"Giường HSCC":null,"Địa chỉ":"ấp 2, xã Ba Tri, tỉnh Vĩnh Long","Số điện thoại":"2753899938","layer_id":340,"fid":913,"label":"Trạm Y tế xã Ba Tri"}},{"type":"Feature","id":914,"geometry":{"type":"Point","coordinates":[106.627762,9.998614]},"properties":{"Mã đơn vị khám chữa bệnh":"83102","Tên đơn vị":"Trạm Y tế xã Tân Thuỷ","Loại hình":null,"Xếp cấp chuyên môn kỹ thuật":null,"Hình thức tổ chức":null,"Giường PD ":null,"Giường TK":null,"Giường HSTC":null,"Giường HSCC":null,"Địa chỉ":"ấp An Bình, xã Tân Thủy, tỉnh Vĩnh Long","Số điện thoại":"2753856615","layer_id":340,"fid":914,"label":"Trạm Y tế xã Tân Thuỷ"}},{"type":"Feature","id":915,"geometry":{"type":"Point","coordinates":[106.538946,10.07129]},"properties":{"Mã đơn vị khám chữa bệnh":"83111","Tên đơn vị":"Trạm Y tế xã An Ngãi Trung","Loại hình":null,"Xếp cấp chuyên môn kỹ thuật":null,"Hình thức tổ chức":null,"Giường PD ":null,"Giường TK":null,"Giường HSTC":null,"Giường HSCC":null,"Địa chỉ":"ấp An Định 1, xã An Ngãi Trung, tỉnh Vĩnh Long","Số điện thoại":"2753857202","layer_id":340,"fid":915,"label":"Trạm Y tế xã An Ngãi Trung"}},{"type":"Feature","id":916,"geometry":{"type":"Point","coordinates":[106.655692,10.075855]},"properties":{"Mã đơn vị khám chữa bệnh":"83113","Tên đơn vị":"Trạm Y tế xã Bảo Thạnh","Loại hình":null,"Xếp cấp chuyên môn kỹ thuật":null,"Hình thức tổ chức":null,"Giường PD ":null,"Giường TK":null,"Giường HSTC":null,"Giường HSCC":null,"Địa chỉ":"ấp Thạnh Nghĩa, xã Bảo Thạnh, tỉnh Vĩnh Long","Số điện thoại":"2753881483","layer_id":340,"fid":916,"label":"Trạm Y tế xã Bảo Thạnh"}},{"type":"Feature","id":917,"geometry":{"type":"Point","coordinates":[106.627906,10.119241]},"properties":{"Mã đơn vị khám chữa bệnh":"83107","Tên đơn vị":"Trạm Y tế xã Tân Xuân","Loại hình":null,"Xếp cấp chuyên môn kỹ thuật":null,"Hình thức tổ chức":null,"Giường PD ":null,"Giường TK":null,"Giường HSTC":null,"Giường HSCC":null,"Địa chỉ":"ấp Tân Thanh 2, xã Tân Xuân, tỉnh Vĩnh Long","Số điện thoại":"2753858914","layer_id":340,"fid":917,"label":"Trạm Y tế xã Tân Xuân"}},{"type":"Feature","id":918,"geometry":{"type":"Point","coordinates":[106.530239,10.050276]},"properties":{"Mã đơn vị khám chữa bệnh":"83103","Tên đơn vị":"Trạm Y tế xã An Hiệp","Loại hình":null,"Xếp cấp chuyên môn kỹ thuật":null,"Hình thức tổ chức":null,"Giường PD ":null,"Giường TK":null,"Giường HSTC":null,"Giường HSCC":null,"Địa chỉ":" ấp Giồng Quéo, xã An Hiệp, tỉnh Vĩnh Long","Số điện thoại":"2753857189","layer_id":340,"fid":918,"label":"Trạm Y tế xã An Hiệp"}},{"type":"Feature","id":919,"geometry":{"type":"Point","coordinates":[106.582328,10.119796]},"properties":{"Mã đơn vị khám chữa bệnh":"83101","Tên đơn vị":"Trạm Y tế xã Mỹ Chánh Hòa","Loại hình":null,"Xếp cấp chuyên môn kỹ thuật":null,"Hình thức tổ chức":null,"Giường PD ":null,"Giường TK":null,"Giường HSTC":null,"Giường HSCC":null,"Địa chỉ":"ấp Gò Da, xã Mỹ Chánh Hòa, tỉnh Vĩnh Long","Số điện thoại":"2753888006","layer_id":340,"fid":919,"label":"Trạm Y tế xã Mỹ Chánh Hòa"}},{"type":"Feature","id":920,"geometry":{"type":"Point","coordinates":[106.447222,10001667.0]},"properties":{"Mã đơn vị khám chữa bệnh":"83704","Tên đơn vị":"Trạm Y tế xã Đại Điền","Loại hình":null,"Xếp cấp chuyên môn kỹ thuật":null,"Hình thức tổ chức":null,"Giường PD ":null,"Giường TK":null,"Giường HSTC":null,"Giường HSCC":null,"Địa chỉ":"ấp Thạnh A, xã Đại Điền, tỉnh Vĩnh Long","Số điện thoại":"02753.877.866","layer_id":340,"fid":920,"label":"Trạm Y tế xã Đại Điền"}},{"type":"Feature","id":921,"geometry":{"type":"Point","coordinates":[106.476833,9.961944]},"properties":{"Mã đơn vị khám chữa bệnh":"83712","Tên đơn vị":"Trạm Y tế xã Quới Điền","Loại hình":null,"Xếp cấp chuyên môn kỹ thuật":null,"Hình thức tổ chức":null,"Giường PD ":null,"Giường TK":null,"Giường HSTC":null,"Giường HSCC":null,"Địa chỉ":"ấp Quí Đức B, xã Quới Điền, tỉnh Vĩnh Long","Số điện thoại":"02753.877.146","layer_id":340,"fid":921,"label":"Trạm Y tế xã Quới Điền"}},{"type":"Feature","id":922,"geometry":{"type":"Point","coordinates":[106.513056,9.962083]},"properties":{"Mã đơn vị khám chữa bệnh":"83718","Tên đơn vị":"Trạm Y tế xã Thạnh Phú","Loại hình":null,"Xếp cấp chuyên môn kỹ thuật":null,"Hình thức tổ chức":null,"Giường PD ":null,"Giường TK":null,"Giường HSTC":null,"Giường HSCC":null,"Địa chỉ":"ấp Thạnh Trị Thượng, xã Thạnh Phú, tỉnh Vĩnh long","Số điện thoại":"02753.878.861","layer_id":340,"fid":922,"label":"Trạm Y tế xã Thạnh Phú"}},{"type":"Feature","id":923,"geometry":{"type":"Point","coordinates":[106.55946,9.909371]},"properties":{"Mã đơn vị khám chữa bệnh":"83709","Tên đơn vị":"Trạm Y tế xã An Qui","Loại hình":null,"Xếp cấp chuyên môn kỹ thuật":null,"Hình thức tổ chức":null,"Giường PD ":null,"Giường TK":null,"Giường HSTC":null,"Giường HSCC":null,"Địa chỉ":"ấp An Bình 1, xã An Qui, tỉnh Vĩnh Long","Số điện thoại":"02753.889.013","layer_id":340,"fid":923,"label":"Trạm Y tế xã An Qui"}},{"type":"Feature","id":924,"geometry":{"type":"Point","coordinates":[106.653306,9.877556]},"properties":{"Mã đơn vị khám chữa bệnh":"83705","Tên đơn vị":"Trạm Y tế xã Thạnh Hải","Loại hình":null,"Xếp cấp chuyên môn kỹ thuật":null,"Hình thức tổ chức":null,"Giường PD ":null,"Giường TK":null,"Giường HSTC":null,"Giường HSCC":null,"Địa chỉ":"ấp Thạnh Hưng B, xã Thạnh Hải, tỉnh Vĩnh Long","Số điện thoại":"02753.886.308","layer_id":340,"fid":924,"label":"Trạm Y tế xã Thạnh Hải"}},{"type":"Feature","id":926,"geometry":{"type":"Point","coordinates":[106.730333738,10.062097457]},"properties":{"Mã đơn vị khám chữa bệnh":"83213","Tên đơn vị":"Trạm Y tế xã xã thới thuận","Loại hình":null,"Xếp cấp chuyên môn kỹ thuật":null,"Hình thức tổ chức":null,"Giường PD ":null,"Giường TK":null,"Giường HSTC":null,"Giường HSCC":null,"Địa chỉ":"ấp Thới Lợi 2, xã Thới Thuận, Tỉnh Vĩnh Long","Số điện thoại":"02753852935","layer_id":340,"fid":926,"label":"Trạm Y tế xã xã thới thuận"}},{"type":"Feature","id":925,"geometry":{"type":"Point","coordinates":[106.610944,9.879139]},"properties":{"Mã đơn vị khám chữa bệnh":"83702","Tên đơn vị":"Trạm Y tế xã Thạnh Phong","Loại hình":null,"Xếp cấp chuyên môn kỹ thuật":null,"Hình thức tổ chức":null,"Giường PD ":null,"Giường TK":null,"Giường HSTC":null,"Giường HSCC":null,"Địa chỉ":"ấp Giao hòa A, xã Thạnh Phong, tỉnh Vĩnh Long","Số điện thoại":"02753.876.208","layer_id":340,"fid":925,"label":"Trạm Y tế xã Thạnh Phong"}},{"type":"Feature","id":927,"geometry":{"type":"Point","coordinates":[106.691559052,10.119204543]},"properties":{"Mã đơn vị khám chữa bệnh":"83207","Tên đơn vị":"Trạm Y tế xã Thạnh Phước","Loại hình":null,"Xếp cấp chuyên môn kỹ thuật":null,"Hình thức tổ chức":null,"Giường PD ":null,"Giường TK":null,"Giường HSTC":null,"Giường HSCC":null,"Địa chỉ":"Ấp Tân Long, xã Thạnh Phước, tỉnh Vĩnh Long","Số điện thoại":"02753884160","layer_id":340,"fid":927,"label":"Trạm Y tế xã Thạnh Phước"}},{"type":"Feature","id":928,"geometry":{"type":"Point","coordinates":[106.6893312,10.1941248]},"properties":{"Mã đơn vị khám chữa bệnh":"83219","Tên đơn vị":"Trạm Y tế xã Bình Đại","Loại hình":null,"Xếp cấp chuyên môn kỹ thuật":null,"Hình thức tổ chức":null,"Giường PD ":null,"Giường TK":null,"Giường HSTC":null,"Giường HSCC":null,"Địa chỉ":"Ấp Bình Thới 3 xã Bình Đại,  tỉnh Vĩnh Long","Số điện thoại":"02753591220","layer_id":340,"fid":928,"label":"Trạm Y tế xã Bình Đại"}},{"type":"Feature","id":929,"geometry":{"type":"Point","coordinates":[106.6063453,10.2117228]},"properties":{"Mã đơn vị khám chữa bệnh":"83217","Tên đơn vị":"Trạm Y Tế Thạnh Trị","Loại hình":null,"Xếp cấp chuyên môn kỹ thuật":null,"Hình thức tổ chức":null,"Giường PD ":null,"Giường TK":null,"Giường HSTC":null,"Giường HSCC":null,"Địa chỉ":"ấp Giồng tre, xã thạnh trị, tỉnh Vĩnh Long","Số điện thoại":"02753855728","layer_id":340,"fid":929,"label":"Trạm Y Tế Thạnh Trị"}},{"type":"Feature","id":930,"geometry":{"type":"Point","coordinates":[106.582992,10.220389]},"properties":{"Mã đơn vị khám chữa bệnh":"83202","Tên đơn vị":"Trạm Y tế Lộc Thuận","Loại hình":null,"Xếp cấp chuyên môn kỹ thuật":null,"Hình thức tổ chức":null,"Giường PD ":null,"Giường TK":null,"Giường HSTC":null,"Giường HSCC":null,"Địa chỉ":"ấp Lộc Hòa, xã Lộc Thuận, tỉnh Vĩnh Long","Số điện thoại":"02753855726","layer_id":340,"fid":930,"label":"Trạm Y tế Lộc Thuận"}},{"type":"Feature","id":931,"geometry":{"type":"Point","coordinates":[106.531219,10.232277]},"properties":{"Mã đơn vị khám chữa bệnh":"83204","Tên đơn vị":"Trạm Y tế xã Châu Hưng","Loại hình":null,"Xếp cấp chuyên môn kỹ thuật":null,"Hình thức tổ chức":null,"Giường PD ":null,"Giường TK":null,"Giường HSTC":null,"Giường HSCC":null,"Địa chỉ":"ấp Sân Banh, xã Châu Hưng, tỉnh Vĩnh Long","Số điện thoại":"02753749145","layer_id":340,"fid":931,"label":"Trạm Y tế xã Châu Hưng"}},{"type":"Feature","id":932,"geometry":{"type":"Point","coordinates":[106.4942128,10.2702118]},"properties":{"Mã đơn vị khám chữa bệnh":"83208","Tên đơn vị":"Trạm Y tế Phú Thuận","Loại hình":null,"Xếp cấp chuyên môn kỹ thuật":null,"Hình thức tổ chức":null,"Giường PD ":null,"Giường TK":null,"Giường HSTC":null,"Giường HSCC":null,"Địa chỉ":"Ấp  Phú Long, Xã Phú Thuận, Tỉnh Vĩnh Long","Số điện thoại":"02753853551","layer_id":340,"fid":932,"label":"Trạm Y tế Phú Thuận"}},{"type":"Feature","id":933,"geometry":{"type":"Point","coordinates":[106.24292,10.270948]},"properties":{"Mã đơn vị khám chữa bệnh":"83301","Tên đơn vị":"Trung tâm Y tế khu vực Châu Thành cơ sở Hàm Long","Loại hình":null,"Xếp cấp chuyên môn kỹ thuật":null,"Hình thức tổ chức":null,"Giường PD ":null,"Giường TK":null,"Giường HSTC":null,"Giường HSCC":null,"Địa chỉ":"Ấp Chánh. xã Tiên Thuỷ, tỉnh Vĩnh Long","Số điện thoại":"2753868120","layer_id":340,"fid":933,"label":"Trung tâm Y tế khu vực Châu Thành cơ sở Hàm Long"}},{"type":"Feature","id":934,"geometry":{"type":"Point","coordinates":[106.39071,10.29171]},"properties":{"Mã đơn vị khám chữa bệnh":"83324","Tên đơn vị":"Trạm Y tế xã Tiên Thủy","Loại hình":null,"Xếp cấp chuyên môn kỹ thuật":null,"Hình thức tổ chức":null,"Giường PD ":null,"Giường TK":null,"Giường HSTC":null,"Giường HSCC":null,"Địa chỉ":"Ấp Phước Thới, xã Giao Long, tỉnh Vĩnh Long","Số điện thoại":"02753894758","layer_id":340,"fid":934,"label":"Trạm Y tế xã Tiên Thủy"}},{"type":"Feature","id":935,"geometry":{"type":"Point","coordinates":[106.365421,10.326085]},"properties":{"Mã đơn vị khám chữa bệnh":"83304","Tên đơn vị":"Trạm Y tế xã Tân Phú","Loại hình":null,"Xếp cấp chuyên môn kỹ thuật":null,"Hình thức tổ chức":null,"Giường PD ":null,"Giường TK":null,"Giường HSTC":null,"Giường HSCC":null,"Địa chỉ":"Ấp Tân Phú, xã Phú Túc, tỉnh Vĩnh Long","Số điện thoại":"02753610171","layer_id":340,"fid":935,"label":"Trạm Y tế xã Tân Phú"}},{"type":"Feature","id":936,"geometry":{"type":"Point","coordinates":[106.2595,10.295393]},"properties":{"Mã đơn vị khám chữa bệnh":"83303","Tên đơn vị":"Trạm Y tế xã Phú Túc","Loại hình":null,"Xếp cấp chuyên môn kỹ thuật":null,"Hình thức tổ chức":null,"Giường PD ":null,"Giường TK":null,"Giường HSTC":null,"Giường HSCC":null,"Địa chỉ":"Ấp Chợ, xã Tiên Thủy, tỉnh Vĩnh Long","Số điện thoại":"02753 866813","layer_id":340,"fid":936,"label":"Trạm Y tế xã Phú Túc"}},{"type":"Feature","id":937,"geometry":{"type":"Point","coordinates":[106.197029,10.289032]},"properties":{"Mã đơn vị khám chữa bệnh":"83320","Tên đơn vị":"Trạm Y tế xã Giao Long","Loại hình":null,"Xếp cấp chuyên môn kỹ thuật":null,"Hình thức tổ chức":null,"Giường PD ":null,"Giường TK":null,"Giường HSTC":null,"Giường HSCC":null,"Địa chỉ":"Ấp Tân Bắc, xã Tân Phú, Tỉnh Vĩnh Long","Số điện thoại":"02753867603","layer_id":340,"fid":937,"label":"Trạm Y tế xã Giao Long"}},{"type":"Feature","id":938,"geometry":{"type":"Point","coordinates":[9.924393,106.347051]},"properties":{"Mã đơn vị khám chữa bệnh":"84142","Tên đơn vị":"Bệnh viện Trường Đại học Trà Vinh","Loại hình":null,"Xếp cấp chuyên môn kỹ thuật":null,"Hình thức tổ chức":null,"Giường PD ":null,"Giường TK":null,"Giường HSTC":null,"Giường HSCC":null,"Địa chỉ":"Số 126, Nguyễn Thiện Thành, Khóm 4, Phường Hòa Thuận, Tỉnh Vĩnh Long","Số điện thoại":"02943858115","layer_id":340,"fid":938,"label":"Bệnh viện Trường Đại học Trà Vinh"}},{"type":"Feature","id":939,"geometry":{"type":"Point","coordinates":[106.333249,9.928634]},"properties":{"Mã đơn vị khám chữa bệnh":"84127","Tên đơn vị":"Bệnh viện Quân Dân y Trà Vinh","Loại hình":null,"Xếp cấp chuyên môn kỹ thuật":null,"Hình thức tổ chức":null,"Giường PD ":null,"Giường TK":null,"Giường HSTC":null,"Giường HSCC":null,"Địa chỉ":"219 Nguyễn Thị Minh Khai, Khóm 6, phường Nguyệt Hóa, tỉnh Vĩnh Long","Số điện thoại":"02943865139","layer_id":340,"fid":939,"label":"Bệnh viện Quân Dân y Trà Vinh"}},{"type":"Feature","id":940,"geometry":{"type":"Point","coordinates":[106.3375441,9.924414867]},"properties":{"Mã đơn vị khám chữa bệnh":"84141","Tên đơn vị":"Bệnh viện đa khoa Minh Tâm Trà Vinh","Loại hình":null,"Xếp cấp chuyên môn kỹ thuật":null,"Hình thức tổ chức":null,"Giường PD ":null,"Giường TK":null,"Giường HSTC":null,"Giường HSCC":null,"Địa chỉ":"Số 36 Nguyễn Đáng, Khóm 20, Phường Trà Vinh, Tỉnh Vĩnh Long","Số điện thoại":"02943850665","layer_id":340,"fid":940,"label":"Bệnh viện đa khoa Minh Tâm Trà Vinh"}},{"type":"Feature","id":941,"geometry":{"type":"Point","coordinates":[105.9404701,10.2616062]},"properties":{"Mã đơn vị khám chữa bệnh":"86137","Tên đơn vị":"Bệnh Viện Đa Khoa Xuyên Á Vĩnh Long","Loại hình":null,"Xếp cấp chuyên môn kỹ thuật":null,"Hình thức tổ chức":null,"Giường PD ":null,"Giường TK":null,"Giường HSTC":null,"Giường HSCC":null,"Địa chỉ":"Số 68E Đường Phạm Hùng Khóm 9 Phường Long Châu Tỉnh Vĩnh Long","Số điện thoại":"02706 255 115","layer_id":340,"fid":941,"label":"Bệnh Viện Đa Khoa Xuyên Á Vĩnh Long"}},{"type":"Feature","id":942,"geometry":{"type":"Point","coordinates":[106.33241,9.92238]},"properties":{"Mã đơn vị khám chữa bệnh":"84163","Tên đơn vị":"Phòng khám đa khoa Minh Tâm","Loại hình":null,"Xếp cấp chuyên môn kỹ thuật":null,"Hình thức tổ chức":null,"Giường PD ":null,"Giường TK":null,"Giường HSTC":null,"Giường HSCC":null,"Địa chỉ":"Số 48B, đường Sơn Thông, Phường Nguyệt Hóa, Tỉnh Vĩnh Long","Số điện thoại":"02943900808","layer_id":340,"fid":942,"label":"Phòng khám đa khoa Minh Tâm"}},{"type":"Feature","id":943,"geometry":{"type":"Point","coordinates":[106.45321,9.84539]},"properties":{"Mã đơn vị khám chữa bệnh":"84168","Tên đơn vị":"Phòng khám đa khoa Thuận Phước","Loại hình":null,"Xếp cấp chuyên môn kỹ thuật":null,"Hình thức tổ chức":null,"Giường PD ":null,"Giường TK":null,"Giường HSTC":null,"Giường HSCC":null,"Địa chỉ":"Thửa đất số 2849, tờ bản đồ số 7, ấp Chà Và, xã Vinh Kim, tỉnh Vĩnh Long","Số điện thoại":"2943727979","layer_id":340,"fid":943,"label":"Phòng khám đa khoa Thuận Phước"}}]}
