{"type":"FeatureCollection","name":"Trung tâm văn hóa","metadata":{"source":"https://hatang.vinhlong.gov.vn/","downloaded_at":"2026-07-20T01:17:44+00:00","layer_id":341,"layer_name":"Trung tâm văn hóa","catalog_endpoints":["/map/publicLayers2?inputs=sovhttdl"],"requested_bbox":[104.0,8.0,108.0,12.0],"tile_size":0.0,"tile_count":1,"tile_errors":[],"feature_count":92,"coordinate_order":"x,y (thường là longitude,latitude theo cấu hình EPSG:4326 của WebGIS)"},"features":[{"type":"Feature","id":1,"geometry":{"type":"Point","coordinates":[106.327721726,9.924826055]},"properties":{"Tên trung tâm văn hóa":"Trung Tâm Văn Hóa Phường Trà Vinh","Địa chỉ":"QL53, Phường Nguyệt Hóa, Tỉnh Vĩnh Long","Số điện thoại":null,"Năm xây dựng":null,"layer_id":341,"fid":1,"label":"Trung Tâm Văn Hóa Phường Trà Vinh"}},{"type":"Feature","id":51,"geometry":{"type":"Point","coordinates":[106.4377694,10.236520894]},"properties":{"Tên trung tâm văn hóa":"Nhà Văn Hóa ấp Cầu Hòa","Địa chỉ":"xã Phong Nẫm, Tỉnh Vĩnh Long","Số điện thoại":null,"Năm xây dựng":null,"layer_id":341,"fid":51,"label":"Nhà Văn Hóa ấp Cầu Hòa"}},{"type":"Feature","id":2,"geometry":{"type":"Point","coordinates":[106.333543314,9.927574839]},"properties":{"Tên trung tâm văn hóa":"Trung tâm sinh hoạt thanh thiếu nhi tỉnh Trà Vinh","Địa chỉ":"156 Đ. Nguyễn Đáng, Phường Nguyệt Hóa, Tỉnh Vĩnh Long","Số điện thoại":null,"Năm xây dựng":null,"layer_id":341,"fid":2,"label":"Trung tâm sinh hoạt thanh thiếu nhi tỉnh Trà Vinh"}},{"type":"Feature","id":3,"geometry":{"type":"Point","coordinates":[106.336421353,9.924151097]},"properties":{"Tên trung tâm văn hóa":"Trung tâm Văn hoá người Hoa Trà Vinh","Địa chỉ":"9/5 Đ. Nguyễn Đáng, Phường Trà Vinh, Tỉnh Vĩnh Long","Số điện thoại":null,"Năm xây dựng":null,"layer_id":341,"fid":3,"label":"Trung tâm Văn hoá người Hoa Trà Vinh"}},{"type":"Feature","id":6,"geometry":{"type":"Point","coordinates":[105.947012754,10.259118797]},"properties":{"Tên trung tâm văn hóa":"Trung tâm Văn Hóa Nghệ thuật Tỉnh Vĩnh Long","Địa chỉ":"107 Phạm Hùng, Phường Long Châu","Số điện thoại":null,"Năm xây dựng":null,"layer_id":341,"fid":6,"label":"Trung tâm Văn Hóa Nghệ thuật Tỉnh Vĩnh Long"}},{"type":"Feature","id":4,"geometry":{"type":"Point","coordinates":[106.341439101,9.940821558]},"properties":{"Tên trung tâm văn hóa":"Trung Tâm Văn Hóa Tỉnh Trà Vinh","Địa chỉ":"Số 7 Phan Chu Trinh, Phường  Trà Vinh, Tỉnh Vĩnh Long","Số điện thoại":null,"Năm xây dựng":null,"layer_id":341,"fid":4,"label":"Trung Tâm Văn Hóa Tỉnh Trà Vinh"}},{"type":"Feature","id":52,"geometry":{"type":"Point","coordinates":[106.424588219,10.183222115]},"properties":{"Tên trung tâm văn hóa":"Nhà Văn hóa Ấp Lương Quới","Địa chỉ":"Xã Giồng Trôm, Tỉnh Vĩnh Long","Số điện thoại":null,"Năm xây dựng":null,"layer_id":341,"fid":52,"label":"Nhà Văn hóa Ấp Lương Quới"}},{"type":"Feature","id":5,"geometry":{"type":"Point","coordinates":[105.971663326,10.256288359]},"properties":{"Tên trung tâm văn hóa":"Trung tâm Văn Hóa Thông Tin Vĩnh Long","Địa chỉ":"1 Đường Hưng Đạo Vương, Phường Long Châu,  Tỉnh Vĩnh Long, Việt Nam","Số điện thoại":null,"Năm xây dựng":null,"layer_id":341,"fid":5,"label":"Trung tâm Văn Hóa Thông Tin Vĩnh Long"}},{"type":"Feature","id":53,"geometry":{"type":"Point","coordinates":[106.402871153,10.266860956]},"properties":{"Tên trung tâm văn hóa":"Nhà văn hoá ấp Hữu Thành","Địa chỉ":"phường Phú Tân, Tỉnh Vĩnh Long","Số điện thoại":null,"Năm xây dựng":null,"layer_id":341,"fid":53,"label":"Nhà văn hoá ấp Hữu Thành"}},{"type":"Feature","id":7,"geometry":{"type":"Point","coordinates":[105.976387005,10.253557357]},"properties":{"Tên trung tâm văn hóa":"Nhà Văn hóa Thành phố Vĩnh Long","Địa chỉ":"60 Ba Mươi Tháng Tư, Phường Long Châu, Tỉnh Vĩnh Long, Việt Nam","Số điện thoại":null,"Năm xây dựng":null,"layer_id":341,"fid":7,"label":"Nhà Văn hóa Thành phố Vĩnh Long"}},{"type":"Feature","id":54,"geometry":{"type":"Point","coordinates":[106.414427234,10.273877321]},"properties":{"Tên trung tâm văn hóa":"Nhà văn hóa ấp Phước Trạch","Địa chỉ":"phường Phú Tân, Tỉnh Vĩnh Long","Số điện thoại":null,"Năm xây dựng":null,"layer_id":341,"fid":54,"label":"Nhà văn hóa ấp Phước Trạch"}},{"type":"Feature","id":55,"geometry":{"type":"Point","coordinates":[106.493601034,10.208325589]},"properties":{"Tên trung tâm văn hóa":"Nhà văn hóa ấp Thới Trị","Địa chỉ":"xã Châu Hòa, Tỉnh Vĩnh Long","Số điện thoại":null,"Năm xây dựng":null,"layer_id":341,"fid":55,"label":"Nhà văn hóa ấp Thới Trị"}},{"type":"Feature","id":8,"geometry":{"type":"Point","coordinates":[105.971856835,10.256301149]},"properties":{"Tên trung tâm văn hóa":"Trung tâm Văn hóa Tỉnh Vĩnh Long","Địa chỉ":" Phường Long Châu, Tỉnh Vĩnh Long, Việt Nam","Số điện thoại":null,"Năm xây dựng":null,"layer_id":341,"fid":8,"label":"Trung tâm Văn hóa Tỉnh Vĩnh Long"}},{"type":"Feature","id":10,"geometry":{"type":"Point","coordinates":[106.368853031,10.224899036]},"properties":{"Tên trung tâm văn hóa":"Trung Tâm Văn Hoá Thể Thao Và Truyền Thanh Tp. Bến Tre","Địa chỉ":"273 Đ. Nguyễn Văn Nguyễn, Phường An Hội ,Tỉnh Vĩnh Long ","Số điện thoại":null,"Năm xây dựng":null,"layer_id":341,"fid":10,"label":"Trung Tâm Văn Hoá Thể Thao Và Truyền Thanh Tp. Bến Tre"}},{"type":"Feature","id":11,"geometry":{"type":"Point","coordinates":[106.337538524,10.266987995]},"properties":{"Tên trung tâm văn hóa":"Trung tâm văn hoá xã Sơn Đông","Địa chỉ":"788Q+Q2M, ĐT884, Phường Sơn Đông,Tỉnh Vĩnh Long","Số điện thoại":null,"Năm xây dựng":null,"layer_id":341,"fid":11,"label":"Trung tâm văn hoá xã Sơn Đông"}},{"type":"Feature","id":56,"geometry":{"type":"Point","coordinates":[106.495567382,10.250333829]},"properties":{"Tên trung tâm văn hóa":"Nhà Văn hoá xã Châu Hưng","Địa chỉ":"Xã Châu Hưng, Tỉnh Vĩnh Long","Số điện thoại":null,"Năm xây dựng":null,"layer_id":341,"fid":56,"label":"Nhà Văn hoá xã Châu Hưng"}},{"type":"Feature","id":12,"geometry":{"type":"Point","coordinates":[106.359846914,10.309424955]},"properties":{"Tên trung tâm văn hóa":"Trung tâm Văn Hoá Thể Thao Huyện Châu Thành","Địa chỉ":"Đường Lý Thường Kiệt, xã Phú Túc, Tỉnh Vĩnh Long ","Số điện thoại":null,"Năm xây dựng":null,"layer_id":341,"fid":12,"label":"Trung tâm Văn Hoá Thể Thao Huyện Châu Thành"}},{"type":"Feature","id":86,"geometry":{"type":"Point","coordinates":[106.359693653,10.232224411]},"properties":{"Tên trung tâm văn hóa":"Nhà Văn hóa Khu Phố Mỹ Tân","Địa chỉ":"Tỉnh Vĩnh Long","Số điện thoại":null,"Năm xây dựng":null,"layer_id":341,"fid":86,"label":"Nhà Văn hóa Khu Phố Mỹ Tân"}},{"type":"Feature","id":57,"geometry":{"type":"Point","coordinates":[106.499842071,10.22163893]},"properties":{"Tên trung tâm văn hóa":"Nhà văn hóa ấp Phú Trị","Địa chỉ":"xã Châu Hòa, Tỉnh Vĩnh Long","Số điện thoại":null,"Năm xây dựng":null,"layer_id":341,"fid":57,"label":"Nhà văn hóa ấp Phú Trị"}},{"type":"Feature","id":58,"geometry":{"type":"Point","coordinates":[106.496159059,10.285240297]},"properties":{"Tên trung tâm văn hóa":"Nhà văn hoá ấp 3","Địa chỉ":"Xã Phú Thuận, tỉnh Vĩnh Long","Số điện thoại":null,"Năm xây dựng":null,"layer_id":341,"fid":58,"label":"Nhà văn hoá ấp 3"}},{"type":"Feature","id":87,"geometry":{"type":"Point","coordinates":[106.424849841,10.26927297]},"properties":{"Tên trung tâm văn hóa":"Nhà văn hóa ấp Phú Thạnh","Địa chỉ":"Xã Châu Thành, Tỉnh Vĩnh Long","Số điện thoại":null,"Năm xây dựng":null,"layer_id":341,"fid":87,"label":"Nhà văn hóa ấp Phú Thạnh"}},{"type":"Feature","id":88,"geometry":{"type":"Point","coordinates":[106.356841991,10.215365064]},"properties":{"Tên trung tâm văn hóa":"Nhà văn hoá Mỹ An","Địa chỉ":"Phường An Hội, Tỉnh Vĩnh Long","Số điện thoại":null,"Năm xây dựng":null,"layer_id":341,"fid":88,"label":"Nhà văn hoá Mỹ An"}},{"type":"Feature","id":91,"geometry":{"type":"Point","coordinates":[106.503514782,9.814076895]},"properties":{"Tên trung tâm văn hóa":"Văn Hoá Khóm 4","Địa chỉ":"Xã Mỹ Long , Tỉnh Vĩnh Long","Số điện thoại":null,"Năm xây dựng":null,"layer_id":341,"fid":91,"label":"Văn Hoá Khóm 4"}},{"type":"Feature","id":89,"geometry":{"type":"Point","coordinates":[106.266789618,10.296520282]},"properties":{"Tên trung tâm văn hóa":"Nhà Văn hóa Phước Thạnh 1","Địa chỉ":"Xã Tiên Thủy, Tỉnh Vĩnh Long","Số điện thoại":null,"Năm xây dựng":null,"layer_id":341,"fid":89,"label":"Nhà Văn hóa Phước Thạnh 1"}},{"type":"Feature","id":9,"geometry":{"type":"Point","coordinates":[106.375251516,10.241235251]},"properties":{"Tên trung tâm văn hóa":"Trung tâm Văn hoá tỉnh Bến Tre","Địa chỉ":"88/1 Đường 30 Tháng 4, Phường An Hội","Số điện thoại":null,"Năm xây dựng":null,"layer_id":341,"fid":9,"label":"Trung tâm Văn hoá tỉnh Bến Tre"}},{"type":"Feature","id":92,"geometry":{"type":"Point","coordinates":[106.504616441,9.804598895]},"properties":{"Tên trung tâm văn hóa":"  Nhà Văn Hóa Ấp Bến Đái B","Địa chỉ":"Xã Mỹ Long , Tỉnh Vĩnh Long","Số điện thoại":null,"Năm xây dựng":null,"layer_id":341,"fid":92,"label":"  Nhà Văn Hóa Ấp Bến Đái B"}},{"type":"Feature","id":17,"geometry":{"type":"Point","coordinates":[106.045384132,9.89783411]},"properties":{"Tên trung tâm văn hóa":"Nhà văn hóa ấp Bà My","Địa chỉ":"Xã Cầu Kè, Tỉnh Vĩnh Long","Số điện thoại":null,"Năm xây dựng":null,"layer_id":341,"fid":17,"label":"Nhà văn hóa ấp Bà My"}},{"type":"Feature","id":14,"geometry":{"type":"Point","coordinates":[106.142077432,9.916716589]},"properties":{"Tên trung tâm văn hóa":"Nhà Văn Hóa Ấp Trà Ốp","Địa chỉ":" ĐT911, xã Càng Long, tỉnh Vĩnh Long","Số điện thoại":null,"Năm xây dựng":null,"layer_id":341,"fid":14,"label":"Nhà Văn Hóa Ấp Trà Ốp"}},{"type":"Feature","id":59,"geometry":{"type":"Point","coordinates":[106.5313115,10.123005271]},"properties":{"Tên trung tâm văn hóa":"Nhà Văn Hoá Ấp Bình Lợi","Địa chỉ":"Xã Giồng Trôm, Tỉnh Vĩnh Long","Số điện thoại":null,"Năm xây dựng":null,"layer_id":341,"fid":59,"label":"Nhà Văn Hoá Ấp Bình Lợi"}},{"type":"Feature","id":15,"geometry":{"type":"Point","coordinates":[106.313470678,9.967259819]},"properties":{"Tên trung tâm văn hóa":"Nhà văn hóa ấp Huệ Sanh","Địa chỉ":"Phường Long Đức, tỉnh Vĩnh Long ","Số điện thoại":null,"Năm xây dựng":null,"layer_id":341,"fid":15,"label":"Nhà văn hóa ấp Huệ Sanh"}},{"type":"Feature","id":13,"geometry":{"type":"Point","coordinates":[106.357606553,10.250787532]},"properties":{"Tên trung tâm văn hóa":"Trung Tâm Hoạt Động Thanh Thiếu Niên","Địa chỉ":" Phường Sơn Đông","Số điện thoại":null,"Năm xây dựng":null,"layer_id":341,"fid":13,"label":"Trung Tâm Hoạt Động Thanh Thiếu Niên"}},{"type":"Feature","id":16,"geometry":{"type":"Point","coordinates":[106.30993032,9.962637929]},"properties":{"Tên trung tâm văn hóa":"Nhà văn hoá ấp Hoà Hữu","Địa chỉ":"473 Đ. Trương Văn Kĩnh, Phường Long Đức, tỉnh Vĩnh Long ","Số điện thoại":null,"Năm xây dựng":null,"layer_id":341,"fid":16,"label":"Nhà văn hoá ấp Hoà Hữu"}},{"type":"Feature","id":60,"geometry":{"type":"Point","coordinates":[106.580853241,10.13532772]},"properties":{"Tên trung tâm văn hóa":"Nhà Văn Hóa Xã Mỹ Hòa","Địa chỉ":"Xã Mỹ Hòa Tỉnh Vĩnh Long","Số điện thoại":null,"Năm xây dựng":null,"layer_id":341,"fid":60,"label":"Nhà Văn Hóa Xã Mỹ Hòa"}},{"type":"Feature","id":63,"geometry":{"type":"Point","coordinates":[106.447453771,10.040335849]},"properties":{"Tên trung tâm văn hóa":"Nhà Văn hóa xã Phú Khánh","Địa chỉ":"Xã Thạnh Phú, Tỉnh Vĩnh Long","Số điện thoại":null,"Năm xây dựng":null,"layer_id":341,"fid":63,"label":"Nhà Văn hóa xã Phú Khánh"}},{"type":"Feature","id":18,"geometry":{"type":"Point","coordinates":[106.207825537,10.149626232]},"properties":{"Tên trung tâm văn hóa":"Trung tâm Văn hóa xã Quới Thiện","Địa chỉ":"xã Phú Quới, Tỉnh Vĩnh Long, Việt Nam","Số điện thoại":null,"Năm xây dựng":null,"layer_id":341,"fid":18,"label":"Trung tâm Văn hóa xã Quới Thiện"}},{"type":"Feature","id":61,"geometry":{"type":"Point","coordinates":[106.034422529,10.21104427]},"properties":{"Tên trung tâm văn hóa":"Nhà Văn hoá Xã Hoà Tịnh","Địa chỉ":"Xã Bình Phước, Tỉnh Vĩnh Long","Số điện thoại":null,"Năm xây dựng":null,"layer_id":341,"fid":61,"label":"Nhà Văn hoá Xã Hoà Tịnh"}},{"type":"Feature","id":25,"geometry":{"type":"Point","coordinates":[106.207944276,10.187026338]},"properties":{"Tên trung tâm văn hóa":"Nhà Văn hóa xã Chợ Lách","Địa chỉ":"xã Chợ Lách, tỉnh Vĩnh Long","Số điện thoại":null,"Năm xây dựng":null,"layer_id":341,"fid":25,"label":"Nhà Văn hóa xã Chợ Lách"}},{"type":"Feature","id":62,"geometry":{"type":"Point","coordinates":[106.311149341,10.07263517]},"properties":{"Tên trung tâm văn hóa":"Nhà Văn Hóa Ấp Thới Khương","Địa chỉ":"Xã Thành Thới, Tỉnh Vĩnh Long","Số điện thoại":null,"Năm xây dựng":null,"layer_id":341,"fid":62,"label":"Nhà Văn Hóa Ấp Thới Khương"}},{"type":"Feature","id":19,"geometry":{"type":"Point","coordinates":[106.11210908,10.174698165]},"properties":{"Tên trung tâm văn hóa":"Trung tâm văn hóa huyện Mang Thít","Địa chỉ":"Xã Cái Nhum, Tỉnh Vĩnh Long, Việt Nam","Số điện thoại":null,"Năm xây dựng":null,"layer_id":341,"fid":19,"label":"Trung tâm văn hóa huyện Mang Thít"}},{"type":"Feature","id":64,"geometry":{"type":"Point","coordinates":[106.403402579,10.243590713]},"properties":{"Tên trung tâm văn hóa":"Nhà văn hóa ấp Phú Chiến","Địa chỉ":"Phường Phú Khương","Số điện thoại":null,"Năm xây dựng":null,"layer_id":341,"fid":64,"label":"Nhà văn hóa ấp Phú Chiến"}},{"type":"Feature","id":20,"geometry":{"type":"Point","coordinates":[106.042614173,9.998712343]},"properties":{"Tên trung tâm văn hóa":"Nhà Văn hóa xã Thới Hòa","Địa chỉ":"Xã Hòa Bình,Tỉnh Vĩnh Long, Việt Nam","Số điện thoại":null,"Năm xây dựng":null,"layer_id":341,"fid":20,"label":"Nhà Văn hóa xã Thới Hòa"}},{"type":"Feature","id":21,"geometry":{"type":"Point","coordinates":[106.047780519,9.985602382]},"properties":{"Tên trung tâm văn hóa":"Nhà văn hoá Vĩnh Tiến","Địa chỉ":"Xã Vĩnh Xuân,Tỉnh Vĩnh Long, Việt Nam","Số điện thoại":null,"Năm xây dựng":null,"layer_id":341,"fid":21,"label":"Nhà văn hoá Vĩnh Tiến"}},{"type":"Feature","id":65,"geometry":{"type":"Point","coordinates":[106.391385214,10.32019111]},"properties":{"Tên trung tâm văn hóa":"Nhà văn hóa Ấp Quới An","Địa chỉ":"Xã Giao Long, Tỉnh Vĩnh Long","Số điện thoại":null,"Năm xây dựng":null,"layer_id":341,"fid":65,"label":"Nhà văn hóa Ấp Quới An"}},{"type":"Feature","id":22,"geometry":{"type":"Point","coordinates":[106.295832817,10.157049934]},"properties":{"Tên trung tâm văn hóa":"Nhà Văn Hóa Tân Bình","Địa chỉ":"Xã Tân Thành Bình, Tỉnh Vĩnh Long","Số điện thoại":null,"Năm xây dựng":null,"layer_id":341,"fid":22,"label":"Nhà Văn Hóa Tân Bình"}},{"type":"Feature","id":23,"geometry":{"type":"Point","coordinates":[106.338588767,10.202262736]},"properties":{"Tên trung tâm văn hóa":"Nhà Văn hoá ấp Tân Long 3","Địa chỉ":"Nguyễn Thị Định, Tân Thành Bình, Tỉnh Vĩnh Long","Số điện thoại":null,"Năm xây dựng":null,"layer_id":341,"fid":23,"label":"Nhà Văn hoá ấp Tân Long 3"}},{"type":"Feature","id":66,"geometry":{"type":"Point","coordinates":[106.359693653,10.232224411]},"properties":{"Tên trung tâm văn hóa":"Nhà Văn hóa Khu Phố Mỹ Tân","Địa chỉ":"Tỉnh Vĩnh Long","Số điện thoại":null,"Năm xây dựng":null,"layer_id":341,"fid":66,"label":"Nhà Văn hóa Khu Phố Mỹ Tân"}},{"type":"Feature","id":24,"geometry":{"type":"Point","coordinates":[106.392353941,10.141797709]},"properties":{"Tên trung tâm văn hóa":"Nhà Văn hóa xã Phước Long","Địa chỉ":"Xã Phước Long, Tỉnh Vĩnh Long","Số điện thoại":null,"Năm xây dựng":null,"layer_id":341,"fid":24,"label":"Nhà Văn hóa xã Phước Long"}},{"type":"Feature","id":67,"geometry":{"type":"Point","coordinates":[106.424849841,10.26927297]},"properties":{"Tên trung tâm văn hóa":"Nhà văn hóa ấp Phú Thạnh","Địa chỉ":"Xã Châu Thành, Tỉnh Vĩnh Long","Số điện thoại":null,"Năm xây dựng":null,"layer_id":341,"fid":67,"label":"Nhà văn hóa ấp Phú Thạnh"}},{"type":"Feature","id":68,"geometry":{"type":"Point","coordinates":[106.356841991,10.215365064]},"properties":{"Tên trung tâm văn hóa":"Nhà văn hoá Mỹ An","Địa chỉ":"Phường An Hội, Tỉnh Vĩnh Long","Số điện thoại":null,"Năm xây dựng":null,"layer_id":341,"fid":68,"label":"Nhà văn hoá Mỹ An"}},{"type":"Feature","id":26,"geometry":{"type":"Point","coordinates":[106.505338913,10.15476951]},"properties":{"Tên trung tâm văn hóa":"Nhà Văn Hóa Thị Trấn Giồng Trôm","Địa chỉ":"Xã Giồng Trôm, Tỉnh Vĩnh Long","Số điện thoại":null,"Năm xây dựng":null,"layer_id":341,"fid":26,"label":"Nhà Văn Hóa Thị Trấn Giồng Trôm"}},{"type":"Feature","id":69,"geometry":{"type":"Point","coordinates":[106.266789618,10.296520282]},"properties":{"Tên trung tâm văn hóa":"Nhà Văn hóa Phước Thạnh 1","Địa chỉ":"Xã Tiên Thủy, Tỉnh Vĩnh Long","Số điện thoại":null,"Năm xây dựng":null,"layer_id":341,"fid":69,"label":"Nhà Văn hóa Phước Thạnh 1"}},{"type":"Feature","id":27,"geometry":{"type":"Point","coordinates":[106.343576037,10.160762167]},"properties":{"Tên trung tâm văn hóa":"Nhà Văn Hóa ấp Hòa Phú 2","Địa chỉ":"Xã Đồng Khởi,Tỉnh Vĩnh Long , Việt Nam","Số điện thoại":null,"Năm xây dựng":null,"layer_id":341,"fid":27,"label":"Nhà Văn Hóa ấp Hòa Phú 2"}},{"type":"Feature","id":28,"geometry":{"type":"Point","coordinates":[106.050790714,9.865406274]},"properties":{"Tên trung tâm văn hóa":"Nhà Văn Hóa Ấp Chông Nô 1","Địa chỉ":"Xã Cầu Kè, Tỉnh Vĩnh Long","Số điện thoại":null,"Năm xây dựng":null,"layer_id":341,"fid":28,"label":"Nhà Văn Hóa Ấp Chông Nô 1"}},{"type":"Feature","id":70,"geometry":{"type":"Point","coordinates":[106.119655759,10.253779591]},"properties":{"Tên trung tâm văn hóa":"Nhà Văn hóa ấp Sơn Châu","Địa chỉ":"Xã Phú Phụng, Tỉnh Vĩnh Long","Số điện thoại":null,"Năm xây dựng":null,"layer_id":341,"fid":70,"label":"Nhà Văn hóa ấp Sơn Châu"}},{"type":"Feature","id":29,"geometry":{"type":"Point","coordinates":[106.045178888,9.929535857]},"properties":{"Tên trung tâm văn hóa":"Nhà văn hoá ấp Rạch Nghệ","Địa chỉ":"Xã Cầu Kè, Tỉnh Vĩnh Long","Số điện thoại":null,"Năm xây dựng":null,"layer_id":341,"fid":29,"label":"Nhà văn hoá ấp Rạch Nghệ"}},{"type":"Feature","id":30,"geometry":{"type":"Point","coordinates":[106.171216837,9.946085449]},"properties":{"Tên trung tâm văn hóa":"Nhà Văn Hóa Ấp 8A","Địa chỉ":" ĐH2, Xã Càng Long, Tỉnh Vĩnh Long","Số điện thoại":null,"Năm xây dựng":null,"layer_id":341,"fid":30,"label":"Nhà Văn Hóa Ấp 8A"}},{"type":"Feature","id":90,"geometry":{"type":"Point","coordinates":[106.119655759,10.253779591]},"properties":{"Tên trung tâm văn hóa":"Nhà Văn hóa ấp Sơn Châu","Địa chỉ":"Xã Phú Phụng, Tỉnh Vĩnh Long","Số điện thoại":null,"Năm xây dựng":null,"layer_id":341,"fid":90,"label":"Nhà Văn hóa ấp Sơn Châu"}},{"type":"Feature","id":31,"geometry":{"type":"Point","coordinates":[106.348075536,9.870091235]},"properties":{"Tên trung tâm văn hóa":"Nhà Văn Hoá Khóm 2","Địa chỉ":"Xã Châu Thành, Tỉnh Vĩnh Long","Số điện thoại":null,"Năm xây dựng":null,"layer_id":341,"fid":31,"label":"Nhà Văn Hoá Khóm 2"}},{"type":"Feature","id":93,"geometry":{"type":"Point","coordinates":[106.238207418,9.739718849]},"properties":{"Tên trung tâm văn hóa":"Nhà Văn Hoá ấp Bến Thế","Địa chỉ":"Xã Trà Cú, Tỉnh Vĩnh Long","Số điện thoại":null,"Năm xây dựng":null,"layer_id":341,"fid":93,"label":"Nhà Văn Hoá ấp Bến Thế"}},{"type":"Feature","id":32,"geometry":{"type":"Point","coordinates":[106.083206261,9.860356588]},"properties":{"Tên trung tâm văn hóa":"NHÀ VĂN HÓA Ô TƯNG A","Địa chỉ":"Xã Cầu Kè, Tỉnh Vĩnh Long","Số điện thoại":null,"Năm xây dựng":null,"layer_id":341,"fid":32,"label":"NHÀ VĂN HÓA Ô TƯNG A"}},{"type":"Feature","id":95,"geometry":{"type":"Point","coordinates":[106.365876723,9.763688732]},"properties":{"Tên trung tâm văn hóa":"Nhà văn Hóa ấp Giồng Chanh","Địa chỉ":"xã Nhị Trường , Tỉnh Vĩnh Long","Số điện thoại":null,"Năm xây dựng":null,"layer_id":341,"fid":95,"label":"Nhà văn Hóa ấp Giồng Chanh"}},{"type":"Feature","id":94,"geometry":{"type":"Point","coordinates":[106.217564829,10.00928614]},"properties":{"Tên trung tâm văn hóa":"Nhà văn hoá khóm 9","Địa chỉ":"Xã Càng Long, Tỉnh Vĩnh Long","Số điện thoại":null,"Năm xây dựng":null,"layer_id":341,"fid":94,"label":"Nhà văn hoá khóm 9"}},{"type":"Feature","id":35,"geometry":{"type":"Point","coordinates":[106.063901892,9.86628356]},"properties":{"Tên trung tâm văn hóa":"Nhà văn hóa khóm 5","Địa chỉ":"Xã Cầu Kè, Tỉnh Vĩnh Long","Số điện thoại":null,"Năm xây dựng":null,"layer_id":341,"fid":35,"label":"Nhà văn hóa khóm 5"}},{"type":"Feature","id":71,"geometry":{"type":"Point","coordinates":[106.4377694,10.236520894]},"properties":{"Tên trung tâm văn hóa":"Nhà Văn Hóa ấp Cầu Hòa","Địa chỉ":"xã Phong Nẫm, Tỉnh Vĩnh Long","Số điện thoại":null,"Năm xây dựng":null,"layer_id":341,"fid":71,"label":"Nhà Văn Hóa ấp Cầu Hòa"}},{"type":"Feature","id":36,"geometry":{"type":"Point","coordinates":[106.12836461,9.851964052]},"properties":{"Tên trung tâm văn hóa":"Nhà Văn Hoá Xã Phong Thạnh","Địa chỉ":"Xã Cầu Kè, Tỉnh Vĩnh Long","Số điện thoại":null,"Năm xây dựng":null,"layer_id":341,"fid":36,"label":"Nhà Văn Hoá Xã Phong Thạnh"}},{"type":"Feature","id":37,"geometry":{"type":"Point","coordinates":[106.113932356,9.827839329]},"properties":{"Tên trung tâm văn hóa":"Nhà Văn Hoá ấp 1","Địa chỉ":"Xã Cầu Kè, Tỉnh Vĩnh Long","Số điện thoại":null,"Năm xây dựng":null,"layer_id":341,"fid":37,"label":"Nhà Văn Hoá ấp 1"}},{"type":"Feature","id":72,"geometry":{"type":"Point","coordinates":[106.424588219,10.183222115]},"properties":{"Tên trung tâm văn hóa":"Nhà Văn hóa Ấp Lương Quới","Địa chỉ":"Xã Giồng Trôm, Tỉnh Vĩnh Long","Số điện thoại":null,"Năm xây dựng":null,"layer_id":341,"fid":72,"label":"Nhà Văn hóa Ấp Lương Quới"}},{"type":"Feature","id":38,"geometry":{"type":"Point","coordinates":[106.255730989,9.958662393]},"properties":{"Tên trung tâm văn hóa":"Nhà Văn Hóa ấp Hưng Nhượng A","Địa chỉ":"Xã Càng Long, Tỉnh Vĩnh Long","Số điện thoại":null,"Năm xây dựng":null,"layer_id":341,"fid":38,"label":"Nhà Văn Hóa ấp Hưng Nhượng A"}},{"type":"Feature","id":39,"geometry":{"type":"Point","coordinates":[106.160844134,9.764743952]},"properties":{"Tên trung tâm văn hóa":"Nhà văn hóa ấp Nhơn Hòa","Địa chỉ":"Xã Tiểu Cần, Tỉnh Vĩnh Long","Số điện thoại":null,"Năm xây dựng":null,"layer_id":341,"fid":39,"label":"Nhà văn hóa ấp Nhơn Hòa"}},{"type":"Feature","id":73,"geometry":{"type":"Point","coordinates":[106.402871153,10.266860956]},"properties":{"Tên trung tâm văn hóa":"Nhà văn hoá ấp Hữu Thành","Địa chỉ":"phường Phú Tân, Tỉnh Vĩnh Long","Số điện thoại":null,"Năm xây dựng":null,"layer_id":341,"fid":73,"label":"Nhà văn hoá ấp Hữu Thành"}},{"type":"Feature","id":74,"geometry":{"type":"Point","coordinates":[106.414427234,10.273877321]},"properties":{"Tên trung tâm văn hóa":"Nhà văn hóa ấp Phước Trạch","Địa chỉ":"phường Phú Tân, Tỉnh Vĩnh Long","Số điện thoại":null,"Năm xây dựng":null,"layer_id":341,"fid":74,"label":"Nhà văn hóa ấp Phước Trạch"}},{"type":"Feature","id":40,"geometry":{"type":"Point","coordinates":[106.080807091,9.796344013]},"properties":{"Tên trung tâm văn hóa":"Nhà Văn Hóa Ấp Mỹ Văn","Địa chỉ":"Xã Cầu Kè, Tỉnh Vĩnh Long","Số điện thoại":null,"Năm xây dựng":null,"layer_id":341,"fid":40,"label":"Nhà Văn Hóa Ấp Mỹ Văn"}},{"type":"Feature","id":75,"geometry":{"type":"Point","coordinates":[106.493601034,10.208325589]},"properties":{"Tên trung tâm văn hóa":"Nhà văn hóa ấp Thới Trị","Địa chỉ":"xã Châu Hòa, Tỉnh Vĩnh Long","Số điện thoại":null,"Năm xây dựng":null,"layer_id":341,"fid":75,"label":"Nhà văn hóa ấp Thới Trị"}},{"type":"Feature","id":41,"geometry":{"type":"Point","coordinates":[106.178026515,9.944680688]},"properties":{"Tên trung tâm văn hóa":"Nhà văn hóa ấp 7","Địa chỉ":"Xã Càng Long, Tỉnh Vĩnh Long","Số điện thoại":null,"Năm xây dựng":null,"layer_id":341,"fid":41,"label":"Nhà văn hóa ấp 7"}},{"type":"Feature","id":42,"geometry":{"type":"Point","coordinates":[106.171218163,9.946084377]},"properties":{"Tên trung tâm văn hóa":"Nhà Văn Hóa Ấp 8A","Địa chỉ":"Xã Càng Long, Tỉnh Vĩnh Long","Số điện thoại":null,"Năm xây dựng":null,"layer_id":341,"fid":42,"label":"Nhà Văn Hóa Ấp 8A"}},{"type":"Feature","id":76,"geometry":{"type":"Point","coordinates":[106.495567382,10.250333829]},"properties":{"Tên trung tâm văn hóa":"Nhà Văn hoá xã Châu Hưng","Địa chỉ":"Xã Châu Hưng, Tỉnh Vĩnh Long","Số điện thoại":null,"Năm xây dựng":null,"layer_id":341,"fid":76,"label":"Nhà Văn hoá xã Châu Hưng"}},{"type":"Feature","id":43,"geometry":{"type":"Point","coordinates":[106.17306805,9.811467669]},"properties":{"Tên trung tâm văn hóa":"Nhà Văn Hóa Ấp Ô Ét","Địa chỉ":"Xã Tiểu Cần, Tỉnh Vĩnh Long","Số điện thoại":null,"Năm xây dựng":null,"layer_id":341,"fid":43,"label":"Nhà Văn Hóa Ấp Ô Ét"}},{"type":"Feature","id":44,"geometry":{"type":"Point","coordinates":[106.028754287,9.901561079]},"properties":{"Tên trung tâm văn hóa":"Nhà văn hóa ấp 1, xã Tam Ngãi, tỉnh Vĩnh Long","Địa chỉ":" Xã Tam Ngãi, tỉnh Vĩnh Long","Số điện thoại":null,"Năm xây dựng":null,"layer_id":341,"fid":44,"label":"Nhà văn hóa ấp 1, xã Tam Ngãi, tỉnh Vĩnh Long"}},{"type":"Feature","id":77,"geometry":{"type":"Point","coordinates":[106.499842071,10.22163893]},"properties":{"Tên trung tâm văn hóa":"Nhà văn hóa ấp Phú Trị","Địa chỉ":"xã Châu Hòa, Tỉnh Vĩnh Long","Số điện thoại":null,"Năm xây dựng":null,"layer_id":341,"fid":77,"label":"Nhà văn hóa ấp Phú Trị"}},{"type":"Feature","id":45,"geometry":{"type":"Point","coordinates":[106.066433986,9.881907112]},"properties":{"Tên trung tâm văn hóa":"Nhà văn hóa ấp Giồng Lớn","Địa chỉ":"Xã Cầu Kè, Tỉnh Vĩnh Long","Số điện thoại":null,"Năm xây dựng":null,"layer_id":341,"fid":45,"label":"Nhà văn hóa ấp Giồng Lớn"}},{"type":"Feature","id":46,"geometry":{"type":"Point","coordinates":[105.926981364,9.96890584]},"properties":{"Tên trung tâm văn hóa":"Khu Văn Hóa Huyện Trà Ôn","Địa chỉ":"123 Đ. 30 Tháng 4, Xã Trà Ôn, Tỉnh Vĩnh Long, Việt Nam","Số điện thoại":null,"Năm xây dựng":null,"layer_id":341,"fid":46,"label":"Khu Văn Hóa Huyện Trà Ôn"}},{"type":"Feature","id":78,"geometry":{"type":"Point","coordinates":[106.496159059,10.285240297]},"properties":{"Tên trung tâm văn hóa":"Nhà văn hoá ấp 3","Địa chỉ":"Xã Phú Thuận, tỉnh Vĩnh Long","Số điện thoại":null,"Năm xây dựng":null,"layer_id":341,"fid":78,"label":"Nhà văn hoá ấp 3"}},{"type":"Feature","id":79,"geometry":{"type":"Point","coordinates":[106.5313115,10.123005271]},"properties":{"Tên trung tâm văn hóa":"Nhà Văn Hoá Ấp Bình Lợi","Địa chỉ":"Xã Giồng Trôm, Tỉnh Vĩnh Long","Số điện thoại":null,"Năm xây dựng":null,"layer_id":341,"fid":79,"label":"Nhà Văn Hoá Ấp Bình Lợi"}},{"type":"Feature","id":80,"geometry":{"type":"Point","coordinates":[106.580853241,10.13532772]},"properties":{"Tên trung tâm văn hóa":"Nhà Văn Hóa Xã Mỹ Hòa","Địa chỉ":"Xã Mỹ Hòa Tỉnh Vĩnh Long","Số điện thoại":null,"Năm xây dựng":null,"layer_id":341,"fid":80,"label":"Nhà Văn Hóa Xã Mỹ Hòa"}},{"type":"Feature","id":48,"geometry":{"type":"Point","coordinates":[106.042614578,9.998711023]},"properties":{"Tên trung tâm văn hóa":"Nhà Văn hóa xã Thới Hòa","Địa chỉ":"Xã Hòa Bình,Tỉnh Vĩnh Long, Việt Nam","Số điện thoại":null,"Năm xây dựng":null,"layer_id":341,"fid":48,"label":"Nhà Văn hóa xã Thới Hòa"}},{"type":"Feature","id":49,"geometry":{"type":"Point","coordinates":[106.016174902,9.985385096]},"properties":{"Tên trung tâm văn hóa":"Nhà Văn hoá ấp Vĩnh Lợi","Địa chỉ":"Xã Vĩnh Xuân, TỉnhVĩnh Long, Việt Nam","Số điện thoại":null,"Năm xây dựng":null,"layer_id":341,"fid":49,"label":"Nhà Văn hoá ấp Vĩnh Lợi"}},{"type":"Feature","id":81,"geometry":{"type":"Point","coordinates":[106.034422529,10.21104427]},"properties":{"Tên trung tâm văn hóa":"Nhà Văn hoá Xã Hoà Tịnh","Địa chỉ":"Xã Bình Phước, Tỉnh Vĩnh Long","Số điện thoại":null,"Năm xây dựng":null,"layer_id":341,"fid":81,"label":"Nhà Văn hoá Xã Hoà Tịnh"}},{"type":"Feature","id":50,"geometry":{"type":"Point","coordinates":[1.063144491e+16,1.007756834e+16]},"properties":{"Tên trung tâm văn hóa":"Nhà Văn Hóa Ấp Thới Hòa","Địa chỉ":"Xã Thành Thới, Tỉnh Vĩnh Long","Số điện thoại":null,"Năm xây dựng":null,"layer_id":341,"fid":50,"label":"Nhà Văn Hóa Ấp Thới Hòa"}},{"type":"Feature","id":82,"geometry":{"type":"Point","coordinates":[106.311149341,10.07263517]},"properties":{"Tên trung tâm văn hóa":"Nhà Văn Hóa Ấp Thới Khương","Địa chỉ":"Xã Thành Thới, Tỉnh Vĩnh Long","Số điện thoại":null,"Năm xây dựng":null,"layer_id":341,"fid":82,"label":"Nhà Văn Hóa Ấp Thới Khương"}},{"type":"Feature","id":83,"geometry":{"type":"Point","coordinates":[106.447453771,10.040335849]},"properties":{"Tên trung tâm văn hóa":"Nhà Văn hóa xã Phú Khánh","Địa chỉ":"Xã Thạnh Phú, Tỉnh Vĩnh Long","Số điện thoại":null,"Năm xây dựng":null,"layer_id":341,"fid":83,"label":"Nhà Văn hóa xã Phú Khánh"}},{"type":"Feature","id":84,"geometry":{"type":"Point","coordinates":[106.403402579,10.243590713]},"properties":{"Tên trung tâm văn hóa":"Nhà văn hóa ấp Phú Chiến","Địa chỉ":"Phường Phú Khương","Số điện thoại":null,"Năm xây dựng":null,"layer_id":341,"fid":84,"label":"Nhà văn hóa ấp Phú Chiến"}},{"type":"Feature","id":85,"geometry":{"type":"Point","coordinates":[106.391385214,10.32019111]},"properties":{"Tên trung tâm văn hóa":"Nhà văn hóa Ấp Quới An","Địa chỉ":"Xã Giao Long, Tỉnh Vĩnh Long","Số điện thoại":null,"Năm xây dựng":null,"layer_id":341,"fid":85,"label":"Nhà văn hóa Ấp Quới An"}}]}
