{"type":"FeatureCollection","name":"Trung tâm hành chính công","metadata":{"source":"https://hatang.vinhlong.gov.vn/","downloaded_at":"2026-07-20T01:17:49+00:00","layer_id":342,"layer_name":"Trung tâm hành chính công","catalog_endpoints":["/map/publicLayers2?inputs=sonoivu"],"requested_bbox":[104.0,8.0,108.0,12.0],"tile_size":0.0,"tile_count":1,"tile_errors":[],"feature_count":124,"coordinate_order":"x,y (thường là longitude,latitude theo cấu hình EPSG:4326 của WebGIS)"},"features":[{"type":"Feature","geometry":{"type":"Point","coordinates":[106.005659648,10.085287671]},"properties":{"Tên Trung tâm hành chính công":"Trung tâm Phục vụ hành chính công xã Hòa Hiệp","Địa chỉ":"Ấp 2A, xã Hòa Hiệp, tỉnh Vĩnh Long","Số điện thoại":"02703 860 556","Chỉ số Cải cách hành chính (PAR Index)":null,"Chỉ số hài lòng của người dân, tổ chức (SIPAS)":null,"layer_id":342,"fid":34,"label":"Trung tâm Phục vụ hành chính công xã Hòa Hiệp"}},{"type":"Feature","geometry":{"type":"Point","coordinates":[105.999271947,10.046532113]},"properties":{"Tên Trung tâm hành chính công":"Trung tâm Phục vụ hành chính công xã Tam Bình","Địa chỉ":"Khóm 1, xã Tam Bình, tỉnh Vĩnh Long","Số điện thoại":"02703 711 773","Chỉ số Cải cách hành chính (PAR Index)":null,"Chỉ số hài lòng của người dân, tổ chức (SIPAS)":null,"layer_id":342,"fid":35,"label":"Trung tâm Phục vụ hành chính công xã Tam Bình"}},{"type":"Feature","geometry":{"type":"Point","coordinates":[105.929998507,9.996654591]},"properties":{"Tên Trung tâm hành chính công":"Trung tâm Phục vụ hành chính công xã Ngãi Tứ","Địa chỉ":"Ấp An Phú Tân, xã Ngãi Tứ, tỉnh Vĩnh Long","Số điện thoại":"02703 719 888 - 0986 202 852","Chỉ số Cải cách hành chính (PAR Index)":null,"Chỉ số hài lòng của người dân, tổ chức (SIPAS)":null,"layer_id":342,"fid":36,"label":"Trung tâm Phục vụ hành chính công xã Ngãi Tứ"}},{"type":"Feature","geometry":{"type":"Point","coordinates":[105.902725907,10.109695207]},"properties":{"Tên Trung tâm hành chính công":"Trung tâm Phục vụ hành chính công xã Song Phú","Địa chỉ":"Ấp Phú Trường Yên, xã Song Phú, tỉnh Vĩnh Long","Số điện thoại":"02703 864 228","Chỉ số Cải cách hành chính (PAR Index)":null,"Chỉ số hài lòng của người dân, tổ chức (SIPAS)":null,"layer_id":342,"fid":37,"label":"Trung tâm Phục vụ hành chính công xã Song Phú"}},{"type":"Feature","geometry":{"type":"Point","coordinates":[105.970143987,10.240821763]},"properties":{"Tên Trung tâm hành chính công":"Trung tâm Phục vụ hành chính công  phường Phước Hậu","Địa chỉ":"Số 54, đường Mậu Thân, phường Phước Hậu, tỉnh Vĩnh Long","Số điện thoại":"02703 888 138","Chỉ số Cải cách hành chính (PAR Index)":null,"Chỉ số hài lòng của người dân, tổ chức (SIPAS)":null,"layer_id":342,"fid":12,"label":"Trung tâm Phục vụ hành chính công  phường Phước Hậu"}},{"type":"Feature","geometry":{"type":"Point","coordinates":[105.998705822,10.257845497]},"properties":{"Tên Trung tâm hành chính công":"Trung tâm Phục vụ hành chính công phường Thanh Đức","Địa chỉ":"Khóm Thanh Mỹ 1, phường Thanh Đức, tỉnh Vĩnh Long","Số điện thoại":"02703 850 331","Chỉ số Cải cách hành chính (PAR Index)":null,"Chỉ số hài lòng của người dân, tổ chức (SIPAS)":null,"layer_id":342,"fid":10,"label":"Trung tâm Phục vụ hành chính công phường Thanh Đức"}},{"type":"Feature","geometry":{"type":"Point","coordinates":[105.963843316,10.248442103]},"properties":{"Tên Trung tâm hành chính công":"Trung tâm Phục vụ hành chính công  phường Long Châu","Địa chỉ":"Số 8, đường Võ Văn Kiệt, phường Long Châu, tỉnh Vĩnh Long","Số điện thoại":"02703 823 446","Chỉ số Cải cách hành chính (PAR Index)":null,"Chỉ số hài lòng của người dân, tổ chức (SIPAS)":null,"layer_id":342,"fid":11,"label":"Trung tâm Phục vụ hành chính công  phường Long Châu"}},{"type":"Feature","geometry":{"type":"Point","coordinates":[105.933361513,10.235932502]},"properties":{"Tên Trung tâm hành chính công":"Trung tâm Phục vụ hành chính công  phường Tân Hạnh","Địa chỉ":"Số 39/13, Khóm Tân An, phường Tân Hạnh, tỉnh Vĩnh Long","Số điện thoại":"02703811345 - 0776 807 297","Chỉ số Cải cách hành chính (PAR Index)":null,"Chỉ số hài lòng của người dân, tổ chức (SIPAS)":null,"layer_id":342,"fid":13,"label":"Trung tâm Phục vụ hành chính công  phường Tân Hạnh"}},{"type":"Feature","geometry":{"type":"Point","coordinates":[105.901611956,10.266673019]},"properties":{"Tên Trung tâm hành chính công":"Trung tâm Phục vụ hành chính công  phường Tân Ngãi","Địa chỉ":"Khóm Tân Phú, phường Tân Ngãi, tỉnh Vĩnh Long","Số điện thoại":"02703 823 954","Chỉ số Cải cách hành chính (PAR Index)":null,"Chỉ số hài lòng của người dân, tổ chức (SIPAS)":null,"layer_id":342,"fid":14,"label":"Trung tâm Phục vụ hành chính công  phường Tân Ngãi"}},{"type":"Feature","geometry":{"type":"Point","coordinates":[105.991932746,10.283694251]},"properties":{"Tên Trung tâm hành chính công":"Trung tâm Phục vụ hành chính công xã An Bình ","Địa chỉ":"Ấp Bình Thuận 1, xã An Bình, tỉnh Vĩnh Long","Số điện thoại":"02703 859 901","Chỉ số Cải cách hành chính (PAR Index)":null,"Chỉ số hài lòng của người dân, tổ chức (SIPAS)":null,"layer_id":342,"fid":15,"label":"Trung tâm Phục vụ hành chính công xã An Bình "}},{"type":"Feature","geometry":{"type":"Point","coordinates":[106.01163651,10.193941273]},"properties":{"Tên Trung tâm hành chính công":"Trung tâm Phục vụ hành chính công xã Long Hồ ","Địa chỉ":"Khóm 5, xã Long Hồ, tỉnh Vĩnh Long","Số điện thoại":"02703 850 348","Chỉ số Cải cách hành chính (PAR Index)":null,"Chỉ số hài lòng của người dân, tổ chức (SIPAS)":null,"layer_id":342,"fid":16,"label":"Trung tâm Phục vụ hành chính công xã Long Hồ "}},{"type":"Feature","geometry":{"type":"Point","coordinates":[105.921594756,10.161732831]},"properties":{"Tên Trung tâm hành chính công":"Trung tâm Phục vụ hành chính công xã Phú Quới","Địa chỉ":"Ấp Phú Long A, xã Phú Quới, tỉnh Vĩnh Long","Số điện thoại":"02703 811 124","Chỉ số Cải cách hành chính (PAR Index)":null,"Chỉ số hài lòng của người dân, tổ chức (SIPAS)":null,"layer_id":342,"fid":17,"label":"Trung tâm Phục vụ hành chính công xã Phú Quới"}},{"type":"Feature","geometry":{"type":"Point","coordinates":[106.11057192,10.173731501]},"properties":{"Tên Trung tâm hành chính công":"Trung tâm Phục vụ hành chính công xã Cái Nhum","Địa chỉ":"Khóm 1, xã Cái Nhum, tỉnh Vĩnh Long","Số điện thoại":"02703 840 941 - 0903 879 111","Chỉ số Cải cách hành chính (PAR Index)":null,"Chỉ số hài lòng của người dân, tổ chức (SIPAS)":null,"layer_id":342,"fid":18,"label":"Trung tâm Phục vụ hành chính công xã Cái Nhum"}},{"type":"Feature","geometry":{"type":"Point","coordinates":[106.074474619,10.122411076]},"properties":{"Tên Trung tâm hành chính công":"Trung tâm Phục vụ hành chính công xã Tân Long Hội","Địa chỉ":"Ấp Tân Hiệp, xã Tân Long Hội, tỉnh Vĩnh Long","Số điện thoại":"02703 933 260 - 0939 958 229 - 0939 511 459","Chỉ số Cải cách hành chính (PAR Index)":null,"Chỉ số hài lòng của người dân, tổ chức (SIPAS)":null,"layer_id":342,"fid":19,"label":"Trung tâm Phục vụ hành chính công xã Tân Long Hội"}},{"type":"Feature","geometry":{"type":"Point","coordinates":[106.0542333,10.240082649]},"properties":{"Tên Trung tâm hành chính công":"Trung tâm Phục vụ hành chính công xã Nhơn Phú","Địa chỉ":"Ấp Chợ, xã Nhơn Phú, tỉnh Vĩnh Long","Số điện thoại":"02703 849 915 - 0358 974 633","Chỉ số Cải cách hành chính (PAR Index)":null,"Chỉ số hài lòng của người dân, tổ chức (SIPAS)":null,"layer_id":342,"fid":20,"label":"Trung tâm Phục vụ hành chính công xã Nhơn Phú"}},{"type":"Feature","geometry":{"type":"Point","coordinates":[106.590606364,10.044378363]},"properties":{"Tên Trung tâm hành chính công":"Trung tâm Phục vụ hành chính công Xã Ba Tri","Địa chỉ":"Khu phố 2, xã Ba Tri","Số điện thoại":"02753.850.006","Chỉ số Cải cách hành chính (PAR Index)":null,"Chỉ số hài lòng của người dân, tổ chức (SIPAS)":null,"layer_id":342,"fid":75,"label":"Trung tâm Phục vụ hành chính công Xã Ba Tri"}},{"type":"Feature","geometry":{"type":"Point","coordinates":[106.022501417,10.20350195]},"properties":{"Tên Trung tâm hành chính công":"Trung tâm Phục vụ hành chính công xã Bình Phước","Địa chỉ":"Ấp Bình Tịnh B, xã Bình Phước, tỉnh Vĩnh Long","Số điện thoại":"02703 840 287 - 0979 073 719","Chỉ số Cải cách hành chính (PAR Index)":null,"Chỉ số hài lòng của người dân, tổ chức (SIPAS)":null,"layer_id":342,"fid":21,"label":"Trung tâm Phục vụ hành chính công xã Bình Phước"}},{"type":"Feature","geometry":{"type":"Point","coordinates":[106.229671568,10.111557804]},"properties":{"Tên Trung tâm hành chính công":"Trung tâm Phục vụ hành chính công xã Quới Thiện","Địa chỉ":"Ấp Thái Bình, xã Quới Thiện, tỉnh Vĩnh Long","Số điện thoại":"02703 980 632","Chỉ số Cải cách hành chính (PAR Index)":null,"Chỉ số hài lòng của người dân, tổ chức (SIPAS)":null,"layer_id":342,"fid":22,"label":"Trung tâm Phục vụ hành chính công xã Quới Thiện"}},{"type":"Feature","geometry":{"type":"Point","coordinates":[106.190331264,10.084550631]},"properties":{"Tên Trung tâm hành chính công":"Trung tâm Phục vụ hành chính công xã Trung Thành","Địa chỉ":"Khóm 2, xã Trung Thành, tỉnh Vĩnh Long","Số điện thoại":"02703 871 274","Chỉ số Cải cách hành chính (PAR Index)":null,"Chỉ số hài lòng của người dân, tổ chức (SIPAS)":null,"layer_id":342,"fid":23,"label":"Trung tâm Phục vụ hành chính công xã Trung Thành"}},{"type":"Feature","geometry":{"type":"Point","coordinates":[106.199171282,10.056102513]},"properties":{"Tên Trung tâm hành chính công":"Trung tâm Phục vụ hành chính công xã Trung Ngãi","Địa chỉ":"Ấp Giồng Ké, xã Trung Ngãi, tỉnh Vĩnh Long","Số điện thoại":"02703 870 403 - 0982 875 489","Chỉ số Cải cách hành chính (PAR Index)":null,"Chỉ số hài lòng của người dân, tổ chức (SIPAS)":null,"layer_id":342,"fid":24,"label":"Trung tâm Phục vụ hành chính công xã Trung Ngãi"}},{"type":"Feature","geometry":{"type":"Point","coordinates":[106.164529419,10.161298581]},"properties":{"Tên Trung tâm hành chính công":"Trung tâm Phục vụ hành chính công xã Quới An","Địa chỉ":"Ấp Vàm An, xã Quới An, tỉnh Vĩnh Long","Số điện thoại":"0909 142 248","Chỉ số Cải cách hành chính (PAR Index)":null,"Chỉ số hài lòng của người dân, tổ chức (SIPAS)":null,"layer_id":342,"fid":25,"label":"Trung tâm Phục vụ hành chính công xã Quới An"}},{"type":"Feature","geometry":{"type":"Point","coordinates":[106.132612393,10.111742469]},"properties":{"Tên Trung tâm hành chính công":"Trung tâm Phục vụ hành chính công xã Trung Hiệp","Địa chỉ":"Ấp Rạch Ngay, xã Trung Hiệp, tỉnh Vĩnh Long","Số điện thoại":"0354 485 098","Chỉ số Cải cách hành chính (PAR Index)":null,"Chỉ số hài lòng của người dân, tổ chức (SIPAS)":null,"layer_id":342,"fid":26,"label":"Trung tâm Phục vụ hành chính công xã Trung Hiệp"}},{"type":"Feature","geometry":{"type":"Point","coordinates":[106.112128007,10.040491108]},"properties":{"Tên Trung tâm hành chính công":"Trung tâm Phục vụ hành chính công xã Hiếu Phụng","Địa chỉ":"Ấp Phú Cường, xã Hiếu Phụng, tỉnh Vĩnh Long","Số điện thoại":"02703 987 550 - 0983 156 431","Chỉ số Cải cách hành chính (PAR Index)":null,"Chỉ số hài lòng của người dân, tổ chức (SIPAS)":null,"layer_id":342,"fid":27,"label":"Trung tâm Phục vụ hành chính công xã Hiếu Phụng"}},{"type":"Feature","geometry":{"type":"Point","coordinates":[106.095227892,9.984156278]},"properties":{"Tên Trung tâm hành chính công":"Trung tâm Phục vụ hành chính công xã Hiếu Thành","Địa chỉ":"Ấp Hiếu Xuân Tây , xã Hiếu Thành, tỉnh Vĩnh Long","Số điện thoại":"02703 874 078","Chỉ số Cải cách hành chính (PAR Index)":null,"Chỉ số hài lòng của người dân, tổ chức (SIPAS)":null,"layer_id":342,"fid":28,"label":"Trung tâm Phục vụ hành chính công xã Hiếu Thành"}},{"type":"Feature","geometry":{"type":"Point","coordinates":[105.914322756,9.959620655]},"properties":{"Tên Trung tâm hành chính công":"Trung tâm Phục vụ hành chính công xã Lục Sĩ Thành","Địa chỉ":"Ấp Tân An, xã Lục Sĩ Thành, tỉnh Vĩnh Long","Số điện thoại":"0703 780 162","Chỉ số Cải cách hành chính (PAR Index)":null,"Chỉ số hài lòng của người dân, tổ chức (SIPAS)":null,"layer_id":342,"fid":29,"label":"Trung tâm Phục vụ hành chính công xã Lục Sĩ Thành"}},{"type":"Feature","geometry":{"type":"Point","coordinates":[105.925488484,9.966931077]},"properties":{"Tên Trung tâm hành chính công":"Trung tâm Phục vụ hành chính công xã Trà Ôn","Địa chỉ":"Số 180, đường 30/4, Khu 5 xã Trà Ôn, tỉnh Vĩnh Long","Số điện thoại":"02703 772 200","Chỉ số Cải cách hành chính (PAR Index)":null,"Chỉ số hài lòng của người dân, tổ chức (SIPAS)":null,"layer_id":342,"fid":30,"label":"Trung tâm Phục vụ hành chính công xã Trà Ôn"}},{"type":"Feature","geometry":{"type":"Point","coordinates":[105.990214484,10.016760626]},"properties":{"Tên Trung tâm hành chính công":"Trung tâm Phục vụ hành chính công xã Trà Côn","Địa chỉ":"Ấp Trà Ngoa, xã Trà Côn, tỉnh Vĩnh Long","Số điện thoại":"0918 639 833 - 0961 170 961","Chỉ số Cải cách hành chính (PAR Index)":null,"Chỉ số hài lòng của người dân, tổ chức (SIPAS)":null,"layer_id":342,"fid":31,"label":"Trung tâm Phục vụ hành chính công xã Trà Côn"}},{"type":"Feature","geometry":{"type":"Point","coordinates":[106.010089416,9.950695597]},"properties":{"Tên Trung tâm hành chính công":"Trung tâm Phục vụ hành chính công xã Vĩnh Xuân","Địa chỉ":"Ấp Vĩnh Trinh, xã Vĩnh Xuân, tỉnh Vĩnh Long","Số điện thoại":"02703 884 237 - 0977 129 317","Chỉ số Cải cách hành chính (PAR Index)":null,"Chỉ số hài lòng của người dân, tổ chức (SIPAS)":null,"layer_id":342,"fid":32,"label":"Trung tâm Phục vụ hành chính công xã Vĩnh Xuân"}},{"type":"Feature","geometry":{"type":"Point","coordinates":[106.0459965,10.043274003]},"properties":{"Tên Trung tâm hành chính công":"Trung tâm Phục vụ hành chính công xã Hòa Bình","Địa chỉ":"Ấp Ngãi Hòa, xã Hòa Bình, tỉnh Vĩnh Long","Số điện thoại":"02703 722 228","Chỉ số Cải cách hành chính (PAR Index)":null,"Chỉ số hài lòng của người dân, tổ chức (SIPAS)":null,"layer_id":342,"fid":33,"label":"Trung tâm Phục vụ hành chính công xã Hòa Bình"}},{"type":"Feature","geometry":{"type":"Point","coordinates":[105.983833568,10.117205745]},"properties":{"Tên Trung tâm hành chính công":"Trung tâm Phục vụ hành chính công xã Cái Ngang","Địa chỉ":"Ấp 5B, xã Hậu Lộc, tỉnh Vĩnh Long","Số điện thoại":"02703 718 021","Chỉ số Cải cách hành chính (PAR Index)":null,"Chỉ số hài lòng của người dân, tổ chức (SIPAS)":null,"layer_id":342,"fid":38,"label":"Trung tâm Phục vụ hành chính công xã Cái Ngang"}},{"type":"Feature","geometry":{"type":"Point","coordinates":[105.757261658,10.1053899]},"properties":{"Tên Trung tâm hành chính công":"Trung tâm Phục vụ hành chính công xã Tân Quới","Địa chỉ":"Ấp Thành Quới,  xã Tân Quới, tỉnh Vĩnh Long","Số điện thoại":"02703 766 226 - 0915 471 725","Chỉ số Cải cách hành chính (PAR Index)":null,"Chỉ số hài lòng của người dân, tổ chức (SIPAS)":null,"layer_id":342,"fid":39,"label":"Trung tâm Phục vụ hành chính công xã Tân Quới"}},{"type":"Feature","geometry":{"type":"Point","coordinates":[105.715045388,10.142550231]},"properties":{"Tên Trung tâm hành chính công":"Trung tâm Phục vụ hành chính công xã Tân Lược","Địa chỉ":"Ấp Tân Vĩnh, xã Tân Lược, tỉnh Vĩnh Long","Số điện thoại":"02703 754 666 - 0944 301 960","Chỉ số Cải cách hành chính (PAR Index)":null,"Chỉ số hài lòng của người dân, tổ chức (SIPAS)":null,"layer_id":342,"fid":40,"label":"Trung tâm Phục vụ hành chính công xã Tân Lược"}},{"type":"Feature","geometry":{"type":"Point","coordinates":[105.826782285,10.133588532]},"properties":{"Tên Trung tâm hành chính công":"Trung tâm Phục vụ hành chính công xã Mỹ Thuận","Địa chỉ":"Ấp Hòa Thới, xã Mỹ Thuận, tỉnh Vĩnh Long","Số điện thoại":"0909 101 114","Chỉ số Cải cách hành chính (PAR Index)":null,"Chỉ số hài lòng của người dân, tổ chức (SIPAS)":null,"layer_id":342,"fid":41,"label":"Trung tâm Phục vụ hành chính công xã Mỹ Thuận"}},{"type":"Feature","geometry":{"type":"Point","coordinates":[105.813517345,10.071369404]},"properties":{"Tên Trung tâm hành chính công":"Trung tâm Phục vụ hành chính công phường Bình Minh","Địa chỉ":"Số 194, đường Nguyễn Văn Thảnh, khóm 5, phường Bình Minh, tỉnh Vĩnh Long","Số điện thoại":"02703 891 990 - 0949 281 881","Chỉ số Cải cách hành chính (PAR Index)":null,"Chỉ số hài lòng của người dân, tổ chức (SIPAS)":null,"layer_id":342,"fid":42,"label":"Trung tâm Phục vụ hành chính công phường Bình Minh"}},{"type":"Feature","geometry":{"type":"Point","coordinates":[105.825816467,10.042285326]},"properties":{"Tên Trung tâm hành chính công":"Trung tâm Phục vụ hành chính công phường Cái Vồn","Địa chỉ":"Khóm 1, phường Cái Vồn, tỉnh Vĩnh Long","Số điện thoại":"02703 543 567 - 0889 367 959","Chỉ số Cải cách hành chính (PAR Index)":null,"Chỉ số hài lòng của người dân, tổ chức (SIPAS)":null,"layer_id":342,"fid":43,"label":"Trung tâm Phục vụ hành chính công phường Cái Vồn"}},{"type":"Feature","geometry":{"type":"Point","coordinates":[105.844320084,10.041781386]},"properties":{"Tên Trung tâm hành chính công":"Trung tâm Phục vụ hành chính công phường Đông Thành","Địa chỉ":"Tổ 13, Đông Hậu, phường Đông Thành, tỉnh Vĩnh Long","Số điện thoại":"02703 890 101 - 0913 222 287 - 0948 464 344","Chỉ số Cải cách hành chính (PAR Index)":null,"Chỉ số hài lòng của người dân, tổ chức (SIPAS)":null,"layer_id":342,"fid":44,"label":"Trung tâm Phục vụ hành chính công phường Đông Thành"}},{"type":"Feature","geometry":{"type":"Point","coordinates":[106.37638435,10.239446822]},"properties":{"Tên Trung tâm hành chính công":"Trung tâm Phục vụ hành chính công Phường An Hội","Địa chỉ":"Đại lộ Đồng Khởi, Phường An Hội","Số điện thoại":"0275.3827.114","Chỉ số Cải cách hành chính (PAR Index)":null,"Chỉ số hài lòng của người dân, tổ chức (SIPAS)":null,"layer_id":342,"fid":45,"label":"Trung tâm Phục vụ hành chính công Phường An Hội"}},{"type":"Feature","geometry":{"type":"Point","coordinates":[106.373811871,10.249450628]},"properties":{"Tên Trung tâm hành chính công":"Trung tâm Phục vụ hành chính công Phường Phú Khương","Địa chỉ":"Đại lộ Đồng Khởi, Phường Phú Khương","Số điện thoại":"02753.822.536","Chỉ số Cải cách hành chính (PAR Index)":null,"Chỉ số hài lòng của người dân, tổ chức (SIPAS)":null,"layer_id":342,"fid":46,"label":"Trung tâm Phục vụ hành chính công Phường Phú Khương"}},{"type":"Feature","geometry":{"type":"Point","coordinates":[106.349798077,10.238053099]},"properties":{"Tên Trung tâm hành chính công":"Trung tâm Phục vụ hành chính công Phường Bến Tre","Địa chỉ":"Đường Võ Văn Khánh, khu phố Bình Thành, Phường Bến Tre","Số điện thoại":"02753.553.300","Chỉ số Cải cách hành chính (PAR Index)":null,"Chỉ số hài lòng của người dân, tổ chức (SIPAS)":null,"layer_id":342,"fid":47,"label":"Trung tâm Phục vụ hành chính công Phường Bến Tre"}},{"type":"Feature","geometry":{"type":"Point","coordinates":[106.338373329,10.26795111]},"properties":{"Tên Trung tâm hành chính công":"Trung tâm Phục vụ hành chính công Phường Sơn Đông","Địa chỉ":" Khu phố 2, Phường Sơn Đông","Số điện thoại":"02753.829.019","Chỉ số Cải cách hành chính (PAR Index)":null,"Chỉ số hài lòng của người dân, tổ chức (SIPAS)":null,"layer_id":342,"fid":48,"label":"Trung tâm Phục vụ hành chính công Phường Sơn Đông"}},{"type":"Feature","geometry":{"type":"Point","coordinates":[106.388462898,10.270566659]},"properties":{"Tên Trung tâm hành chính công":"Trung tâm Phục vụ hành chính công Phường Phú Tân","Địa chỉ":"Ấp Hữu Thành, Phường Phú Tân","Số điện thoại":"02753.860.831","Chỉ số Cải cách hành chính (PAR Index)":null,"Chỉ số hài lòng của người dân, tổ chức (SIPAS)":null,"layer_id":342,"fid":49,"label":"Trung tâm Phục vụ hành chính công Phường Phú Tân"}},{"type":"Feature","geometry":{"type":"Point","coordinates":[106.357137993,10.301099915]},"properties":{"Tên Trung tâm hành chính công":"Trung tâm Phục vụ hành chính công Xã Phú Túc","Địa chỉ":"Khu phố 3, xã Phú Túc","Số điện thoại":"02753.860.227","Chỉ số Cải cách hành chính (PAR Index)":null,"Chỉ số hài lòng của người dân, tổ chức (SIPAS)":null,"layer_id":342,"fid":50,"label":"Trung tâm Phục vụ hành chính công Xã Phú Túc"}},{"type":"Feature","geometry":{"type":"Point","coordinates":[106.400817708,10.304825373]},"properties":{"Tên Trung tâm hành chính công":"Trung tâm Phục vụ hành chính công Xã Giao Long","Địa chỉ":"Ấp Quới Thạnh Đông, xã Giao Long","Số điện thoại":"02753.611.112","Chỉ số Cải cách hành chính (PAR Index)":null,"Chỉ số hài lòng của người dân, tổ chức (SIPAS)":null,"layer_id":342,"fid":51,"label":"Trung tâm Phục vụ hành chính công Xã Giao Long"}},{"type":"Feature","geometry":{"type":"Point","coordinates":[106.243326764,10.272297353]},"properties":{"Tên Trung tâm hành chính công":"Trung tâm Phục vụ hành chính công Xã Tiên Thủy","Địa chỉ":"Khu phố Chánh, xã Tiên Thuỷ","Số điện thoại":"02753.868.118","Chỉ số Cải cách hành chính (PAR Index)":null,"Chỉ số hài lòng của người dân, tổ chức (SIPAS)":null,"layer_id":342,"fid":52,"label":"Trung tâm Phục vụ hành chính công Xã Tiên Thủy"}},{"type":"Feature","geometry":{"type":"Point","coordinates":[106.182829462,10.289803824]},"properties":{"Tên Trung tâm hành chính công":"Trung tâm Phục vụ hành chính công Xã Tân Phú","Địa chỉ":"Ấp Tân Bắc, xã Tân Phú","Số điện thoại":"0275.867.108","Chỉ số Cải cách hành chính (PAR Index)":null,"Chỉ số hài lòng của người dân, tổ chức (SIPAS)":null,"layer_id":342,"fid":53,"label":"Trung tâm Phục vụ hành chính công Xã Tân Phú"}},{"type":"Feature","geometry":{"type":"Point","coordinates":[106.080006632,10.269313531]},"properties":{"Tên Trung tâm hành chính công":"Trung tâm Phục vụ hành chính công Xã Phú Phụng","Địa chỉ":"Ấp Lộc Hiệp, xã Phú Phụng","Số điện thoại":"02753.712.779","Chỉ số Cải cách hành chính (PAR Index)":null,"Chỉ số hài lòng của người dân, tổ chức (SIPAS)":null,"layer_id":342,"fid":54,"label":"Trung tâm Phục vụ hành chính công Xã Phú Phụng"}},{"type":"Feature","geometry":{"type":"Point","coordinates":[106.215257873,10.20144819]},"properties":{"Tên Trung tâm hành chính công":"Trung tâm Phục vụ hành chính công Xã Vĩnh Thành","Địa chỉ":"Ấp Vĩnh Hưng 1, xã Vĩnh Thành","Số điện thoại":"02753.692.678","Chỉ số Cải cách hành chính (PAR Index)":null,"Chỉ số hài lòng của người dân, tổ chức (SIPAS)":null,"layer_id":342,"fid":55,"label":"Trung tâm Phục vụ hành chính công Xã Vĩnh Thành"}},{"type":"Feature","geometry":{"type":"Point","coordinates":[106.123793765,10.262462289]},"properties":{"Tên Trung tâm hành chính công":"Trung tâm Phục vụ hành chính công Xã Chợ Lách","Địa chỉ":"Khu phố 2, xã Chợ Lách","Số điện thoại":"02753.871.899","Chỉ số Cải cách hành chính (PAR Index)":null,"Chỉ số hài lòng của người dân, tổ chức (SIPAS)":null,"layer_id":342,"fid":56,"label":"Trung tâm Phục vụ hành chính công Xã Chợ Lách"}},{"type":"Feature","geometry":{"type":"Point","coordinates":[106.248391164,10.177019232]},"properties":{"Tên Trung tâm hành chính công":"Trung tâm Phục vụ hành chính công Xã Hưng Khánh Trung","Địa chỉ":"Ấp Cái Tắc, xã Hưng Khánh Trung","Số điện thoại":"02753.875.169","Chỉ số Cải cách hành chính (PAR Index)":null,"Chỉ số hài lòng của người dân, tổ chức (SIPAS)":null,"layer_id":342,"fid":57,"label":"Trung tâm Phục vụ hành chính công Xã Hưng Khánh Trung"}},{"type":"Feature","geometry":{"type":"Point","coordinates":[106.274673221,10.185526813]},"properties":{"Tên Trung tâm hành chính công":"Trung tâm Phục vụ hành chính công Xã Phước Mỹ Trung","Địa chỉ":"Ấp Phước Hậu, xã Phước Mỹ Trung ","Số điện thoại":"02753.669.952","Chỉ số Cải cách hành chính (PAR Index)":null,"Chỉ số hài lòng của người dân, tổ chức (SIPAS)":null,"layer_id":342,"fid":58,"label":"Trung tâm Phục vụ hành chính công Xã Phước Mỹ Trung"}},{"type":"Feature","geometry":{"type":"Point","coordinates":[106.307671711,10.185535815]},"properties":{"Tên Trung tâm hành chính công":"Trung tâm Phục vụ hành chính công Xã Tân Thành Bình","Địa chỉ":"Ấp Đông Thạnh, xã Tân Thành Bình","Số điện thoại":"02753.840.144","Chỉ số Cải cách hành chính (PAR Index)":null,"Chỉ số hài lòng của người dân, tổ chức (SIPAS)":null,"layer_id":342,"fid":59,"label":"Trung tâm Phục vụ hành chính công Xã Tân Thành Bình"}},{"type":"Feature","geometry":{"type":"Point","coordinates":[106.287576345,10.114927226]},"properties":{"Tên Trung tâm hành chính công":"Trung tâm Phục vụ hành chính công Xã Nhuận Phú Tân","Địa chỉ":"Ấp Tân Nhuận, xã Nhuận Phú Tân","Số điện thoại":"02753.846.102","Chỉ số Cải cách hành chính (PAR Index)":null,"Chỉ số hài lòng của người dân, tổ chức (SIPAS)":null,"layer_id":342,"fid":60,"label":"Trung tâm Phục vụ hành chính công Xã Nhuận Phú Tân"}},{"type":"Feature","geometry":{"type":"Point","coordinates":[106.334870205,10.13319341]},"properties":{"Tên Trung tâm hành chính công":"Trung tâm Phục vụ hành chính công Xã Mỏ Cày","Địa chỉ":"Khu phố 5, xã Mỏ Cày","Số điện thoại":"02753.662.333","Chỉ số Cải cách hành chính (PAR Index)":null,"Chỉ số hài lòng của người dân, tổ chức (SIPAS)":null,"layer_id":342,"fid":61,"label":"Trung tâm Phục vụ hành chính công Xã Mỏ Cày"}},{"type":"Feature","geometry":{"type":"Point","coordinates":[106.389153882,10.103284872]},"properties":{"Tên Trung tâm hành chính công":"Trung tâm Phục vụ hành chính công Xã Đồng Khởi","Địa chỉ":"Ấp Phước Lý, xã Đồng Khởi","Số điện thoại":"02753.847.153","Chỉ số Cải cách hành chính (PAR Index)":null,"Chỉ số hài lòng của người dân, tổ chức (SIPAS)":null,"layer_id":342,"fid":62,"label":"Trung tâm Phục vụ hành chính công Xã Đồng Khởi"}},{"type":"Feature","geometry":{"type":"Point","coordinates":[106.324578609,10.049718315]},"properties":{"Tên Trung tâm hành chính công":"Trung tâm Phục vụ hành chính công Xã Thành Thới","Địa chỉ":"Ấp An Lợi, xã Thành Thới","Số điện thoại":"02753.847.131","Chỉ số Cải cách hành chính (PAR Index)":null,"Chỉ số hài lòng của người dân, tổ chức (SIPAS)":null,"layer_id":342,"fid":63,"label":"Trung tâm Phục vụ hành chính công Xã Thành Thới"}},{"type":"Feature","geometry":{"type":"Point","coordinates":[106.374520416,10.078684285]},"properties":{"Tên Trung tâm hành chính công":"Trung tâm Phục vụ hành chính công Xã An Định","Địa chỉ":"Ấp Phú Đông 1, xã An Định","Số điện thoại":"02753.847.103","Chỉ số Cải cách hành chính (PAR Index)":null,"Chỉ số hài lòng của người dân, tổ chức (SIPAS)":null,"layer_id":342,"fid":64,"label":"Trung tâm Phục vụ hành chính công Xã An Định"}},{"type":"Feature","geometry":{"type":"Point","coordinates":[106.400875313,10.01570122]},"properties":{"Tên Trung tâm hành chính công":"Trung tâm Phục vụ Hành chính công Xã Hương Mỹ","Địa chỉ":" Ấp Thị, xã Hương Mỹ","Số điện thoại":"0275.3.849.111","Chỉ số Cải cách hành chính (PAR Index)":null,"Chỉ số hài lòng của người dân, tổ chức (SIPAS)":null,"layer_id":342,"fid":65,"label":"Trung tâm Phục vụ Hành chính công Xã Hương Mỹ"}},{"type":"Feature","geometry":{"type":"Point","coordinates":[106.447215578,10.002735082]},"properties":{"Tên Trung tâm hành chính công":"Trung tâm Phục vụ hành chính công Xã Đại Điền","Địa chỉ":"Ấp Thạnh A, xã Đại Điền","Số điện thoại":"02753.877.101","Chỉ số Cải cách hành chính (PAR Index)":null,"Chỉ số hài lòng của người dân, tổ chức (SIPAS)":null,"layer_id":342,"fid":66,"label":"Trung tâm Phục vụ hành chính công Xã Đại Điền"}},{"type":"Feature","geometry":{"type":"Point","coordinates":[106.475918652,9.982548383]},"properties":{"Tên Trung tâm hành chính công":"Trung tâm Phục vụ hành chính công Xã Quới Điền","Địa chỉ":"Ấp Quí Đức B, xã Quới Điền","Số điện thoại":"02753.877.145","Chỉ số Cải cách hành chính (PAR Index)":null,"Chỉ số hài lòng của người dân, tổ chức (SIPAS)":null,"layer_id":342,"fid":67,"label":"Trung tâm Phục vụ hành chính công Xã Quới Điền"}},{"type":"Feature","geometry":{"type":"Point","coordinates":[106.516399404,9.948208515]},"properties":{"Tên Trung tâm hành chính công":"Trung tâm Phục vụ hành chính công Xã Thạnh Phú","Địa chỉ":"Khu phố 3, xã Thạnh Phú","Số điện thoại":"02753.870.943","Chỉ số Cải cách hành chính (PAR Index)":null,"Chỉ số hài lòng của người dân, tổ chức (SIPAS)":null,"layer_id":342,"fid":68,"label":"Trung tâm Phục vụ hành chính công Xã Thạnh Phú"}},{"type":"Feature","geometry":{"type":"Point","coordinates":[106.595217621,9.890079481]},"properties":{"Tên Trung tâm hành chính công":"Trung tâm Phục vụ hành chính công Xã An Qui","Địa chỉ":"Ấp An Hòa, xã An Qui","Số điện thoại":"02753.822.215","Chỉ số Cải cách hành chính (PAR Index)":null,"Chỉ số hài lòng của người dân, tổ chức (SIPAS)":null,"layer_id":342,"fid":69,"label":"Trung tâm Phục vụ hành chính công Xã An Qui"}},{"type":"Feature","geometry":{"type":"Point","coordinates":[106.653591101,9.877513217]},"properties":{"Tên Trung tâm hành chính công":"Trung tâm Phục vụ hành chính công Xã Thạnh Hải","Địa chỉ":"Ấp Thạnh Hưng B, xã Thạnh Hải ","Số điện thoại":"02753.886.015","Chỉ số Cải cách hành chính (PAR Index)":null,"Chỉ số hài lòng của người dân, tổ chức (SIPAS)":null,"layer_id":342,"fid":70,"label":"Trung tâm Phục vụ hành chính công Xã Thạnh Hải"}},{"type":"Feature","geometry":{"type":"Point","coordinates":[106.610762307,9.879916493]},"properties":{"Tên Trung tâm hành chính công":"Trung tâm Phục vụ hành chính công Xã Thạnh Phong","Địa chỉ":"Ấp Giao Hòa A, xã Thạnh Phong","Số điện thoại":"0275.876.107","Chỉ số Cải cách hành chính (PAR Index)":null,"Chỉ số hài lòng của người dân, tổ chức (SIPAS)":null,"layer_id":342,"fid":71,"label":"Trung tâm Phục vụ hành chính công Xã Thạnh Phong"}},{"type":"Feature","geometry":{"type":"Point","coordinates":[106.620241543,10.008583534]},"properties":{"Tên Trung tâm hành chính công":"Trung tâm Phục vụ hành chính công Xã Tân Thủy","Địa chỉ":"Ấp Tân Bình, xã Tân Thủy","Số điện thoại":"02753.850.026","Chỉ số Cải cách hành chính (PAR Index)":null,"Chỉ số hài lòng của người dân, tổ chức (SIPAS)":null,"layer_id":342,"fid":72,"label":"Trung tâm Phục vụ hành chính công Xã Tân Thủy"}},{"type":"Feature","geometry":{"type":"Point","coordinates":[106.655819336,10.076005712]},"properties":{"Tên Trung tâm hành chính công":"Trung tâm Phục vụ hành chính công Xã Bảo Thạnh","Địa chỉ":"Ấp Thạnh Nghĩa, xã Bảo Thạnh","Số điện thoại":"02753.881.147","Chỉ số Cải cách hành chính (PAR Index)":null,"Chỉ số hài lòng của người dân, tổ chức (SIPAS)":null,"layer_id":342,"fid":73,"label":"Trung tâm Phục vụ hành chính công Xã Bảo Thạnh"}},{"type":"Feature","geometry":{"type":"Point","coordinates":[106.627060959,10.085692677]},"properties":{"Tên Trung tâm hành chính công":"Trung tâm Phục vụ hành chính công Xã Tân Xuân","Địa chỉ":"Ấp Phú Thuận, xã Tân Xuân","Số điện thoại":"02753.858.813","Chỉ số Cải cách hành chính (PAR Index)":null,"Chỉ số hài lòng của người dân, tổ chức (SIPAS)":null,"layer_id":342,"fid":74,"label":"Trung tâm Phục vụ hành chính công Xã Tân Xuân"}},{"type":"Feature","geometry":{"type":"Point","coordinates":[106.582495319,10.11925214]},"properties":{"Tên Trung tâm hành chính công":"Trung tâm Phục vụ hành chính công Xã Mỹ Chánh Hòa","Địa chỉ":"Ấp Gò Da, xã Mỹ Chánh Hòa","Số điện thoại":"02753.858.106","Chỉ số Cải cách hành chính (PAR Index)":null,"Chỉ số hài lòng của người dân, tổ chức (SIPAS)":null,"layer_id":342,"fid":76,"label":"Trung tâm Phục vụ hành chính công Xã Mỹ Chánh Hòa"}},{"type":"Feature","geometry":{"type":"Point","coordinates":[106.540567178,10.070903089]},"properties":{"Tên Trung tâm hành chính công":"Trung tâm Phục vụ hành chính công Xã An Ngãi Trung","Địa chỉ":"Ấp An Định 1, xã An Ngãi Trung","Số điện thoại":"02753.857.102","Chỉ số Cải cách hành chính (PAR Index)":null,"Chỉ số hài lòng của người dân, tổ chức (SIPAS)":null,"layer_id":342,"fid":77,"label":"Trung tâm Phục vụ hành chính công Xã An Ngãi Trung"}},{"type":"Feature","geometry":{"type":"Point","coordinates":[106.530023732,10.049977463]},"properties":{"Tên Trung tâm hành chính công":"Trung tâm Phục vụ hành chính công Xã An Hiệp","Địa chỉ":"Ấp Giồng Quéo, xã An Hiệp","Số điện thoại":"02753.857.126","Chỉ số Cải cách hành chính (PAR Index)":null,"Chỉ số hài lòng của người dân, tổ chức (SIPAS)":null,"layer_id":342,"fid":78,"label":"Trung tâm Phục vụ hành chính công Xã An Hiệp"}},{"type":"Feature","geometry":{"type":"Point","coordinates":[106.492615893,10.097334275]},"properties":{"Tên Trung tâm hành chính công":"Trung tâm Phục vụ hành chính công Xã Hưng Nhượng","Địa chỉ":"Ấp Hưng Hòa Tây, xã Hưng Nhượng","Số điện thoại":"02753.864.102","Chỉ số Cải cách hành chính (PAR Index)":null,"Chỉ số hài lòng của người dân, tổ chức (SIPAS)":null,"layer_id":342,"fid":79,"label":"Trung tâm Phục vụ hành chính công Xã Hưng Nhượng"}},{"type":"Feature","geometry":{"type":"Point","coordinates":[106.465339117,10.1402369]},"properties":{"Tên Trung tâm hành chính công":"Trung tâm Phục vụ hành chính công Xã Tân Hào","Địa chỉ":"Ấp Tân Thị, xã Tân Hào","Số điện thoại":"02753.863.501","Chỉ số Cải cách hành chính (PAR Index)":null,"Chỉ số hài lòng của người dân, tổ chức (SIPAS)":null,"layer_id":342,"fid":80,"label":"Trung tâm Phục vụ hành chính công Xã Tân Hào"}},{"type":"Feature","geometry":{"type":"Point","coordinates":[106.509651258,10.151573561]},"properties":{"Tên Trung tâm hành chính công":"Trung tâm Phục vụ hành chính công Xã Giồng Trôm","Địa chỉ":"Khu phố 2, xã Giồng Trôm","Số điện thoại":"02753.861.039","Chỉ số Cải cách hành chính (PAR Index)":null,"Chỉ số hài lòng của người dân, tổ chức (SIPAS)":null,"layer_id":342,"fid":81,"label":"Trung tâm Phục vụ hành chính công Xã Giồng Trôm"}},{"type":"Feature","geometry":{"type":"Point","coordinates":[106.395002976,10.152842045]},"properties":{"Tên Trung tâm hành chính công":"Trung tâm Phục vụ hành chính công Xã Phước Long","Địa chỉ":"Ấp Long Thị, xã Phước Long","Số điện thoại":"02753.863.102","Chỉ số Cải cách hành chính (PAR Index)":null,"Chỉ số hài lòng của người dân, tổ chức (SIPAS)":null,"layer_id":342,"fid":82,"label":"Trung tâm Phục vụ hành chính công Xã Phước Long"}},{"type":"Feature","geometry":{"type":"Point","coordinates":[106.434390173,10.221900847]},"properties":{"Tên Trung tâm hành chính công":"Trung tâm Phục vụ hành chính công Xã Lương Phú","Địa chỉ":"Ấp Căn Cứ, xã Lương Phú","Số điện thoại":"02753.862.209","Chỉ số Cải cách hành chính (PAR Index)":null,"Chỉ số hài lòng của người dân, tổ chức (SIPAS)":null,"layer_id":342,"fid":83,"label":"Trung tâm Phục vụ hành chính công Xã Lương Phú"}},{"type":"Feature","geometry":{"type":"Point","coordinates":[106.491013077,10.218598035]},"properties":{"Tên Trung tâm hành chính công":"Trung tâm Phục vụ hành chính công Xã Châu Hòa","Địa chỉ":"Ấp Phú Hòa, xã Châu Hòa","Số điện thoại":"02753.882.003","Chỉ số Cải cách hành chính (PAR Index)":null,"Chỉ số hài lòng của người dân, tổ chức (SIPAS)":null,"layer_id":342,"fid":84,"label":"Trung tâm Phục vụ hành chính công Xã Châu Hòa"}},{"type":"Feature","geometry":{"type":"Point","coordinates":[106.451440901,10.240317966]},"properties":{"Tên Trung tâm hành chính công":"Trung tâm Phục vụ hành chính công Xã Lương Hòa","Địa chỉ":"Ấp Giồng Sậy, xã Lương Hòa","Số điện thoại":"02753.862.276","Chỉ số Cải cách hành chính (PAR Index)":null,"Chỉ số hài lòng của người dân, tổ chức (SIPAS)":null,"layer_id":342,"fid":85,"label":"Trung tâm Phục vụ hành chính công Xã Lương Hòa"}},{"type":"Feature","geometry":{"type":"Point","coordinates":[106.691534893,10.189862051]},"properties":{"Tên Trung tâm hành chính công":"Trung tâm Phục vụ hành chính công Xã Bình Đại","Địa chỉ":"Khu phố 2, xã Bình Đại","Số điện thoại":"275.3851963","Chỉ số Cải cách hành chính (PAR Index)":null,"Chỉ số hài lòng của người dân, tổ chức (SIPAS)":null,"layer_id":342,"fid":86,"label":"Trung tâm Phục vụ hành chính công Xã Bình Đại"}},{"type":"Feature","geometry":{"type":"Point","coordinates":[106.589791213,10.225242723]},"properties":{"Tên Trung tâm hành chính công":"Trung tâm Phục vụ hành chính công Xã Lộc Thuận","Địa chỉ":"Ấp Lộc Hòa, xã Lộc Thuận","Số điện thoại":"02753.855.109","Chỉ số Cải cách hành chính (PAR Index)":null,"Chỉ số hài lòng của người dân, tổ chức (SIPAS)":null,"layer_id":342,"fid":87,"label":"Trung tâm Phục vụ hành chính công Xã Lộc Thuận"}},{"type":"Feature","geometry":{"type":"Point","coordinates":[106.530814495,10.233382581]},"properties":{"Tên Trung tâm hành chính công":"Trung tâm Phục vụ hành chính công Xã Châu Hưng","Địa chỉ":"Ấp Giồng Bông, xã Châu Hưng","Số điện thoại":"02753.854.102","Chỉ số Cải cách hành chính (PAR Index)":null,"Chỉ số hài lòng của người dân, tổ chức (SIPAS)":null,"layer_id":342,"fid":88,"label":"Trung tâm Phục vụ hành chính công Xã Châu Hưng"}},{"type":"Feature","geometry":{"type":"Point","coordinates":[106.489573068,10.267347793]},"properties":{"Tên Trung tâm hành chính công":"Trung tâm Phục vụ hành chính công Xã Phú Thuận","Địa chỉ":"Ấp Phú Thạnh, xã Phú Thuận","Số điện thoại":"02753.853.113","Chỉ số Cải cách hành chính (PAR Index)":null,"Chỉ số hài lòng của người dân, tổ chức (SIPAS)":null,"layer_id":342,"fid":89,"label":"Trung tâm Phục vụ hành chính công Xã Phú Thuận"}},{"type":"Feature","geometry":{"type":"Point","coordinates":[106.596647172,10.183992175]},"properties":{"Tên Trung tâm hành chính công":"Trung tâm Phục vụ hành chính công Xã Thạnh Trị","Địa chỉ":"Ấp Ao Vuông, xã Thạnh Trị","Số điện thoại":"02753.855.147","Chỉ số Cải cách hành chính (PAR Index)":null,"Chỉ số hài lòng của người dân, tổ chức (SIPAS)":null,"layer_id":342,"fid":90,"label":"Trung tâm Phục vụ hành chính công Xã Thạnh Trị"}},{"type":"Feature","geometry":{"type":"Point","coordinates":[106.691827056,10.117872099]},"properties":{"Tên Trung tâm hành chính công":"Trung tâm Phục vụ hành chính công Xã Thạnh Phước","Địa chỉ":"Ấp Tân Long, xã Thạnh Phước","Số điện thoại":"02753.884.002","Chỉ số Cải cách hành chính (PAR Index)":null,"Chỉ số hài lòng của người dân, tổ chức (SIPAS)":null,"layer_id":342,"fid":91,"label":"Trung tâm Phục vụ hành chính công Xã Thạnh Phước"}},{"type":"Feature","geometry":{"type":"Point","coordinates":[106.722553543,10.056842323]},"properties":{"Tên Trung tâm hành chính công":"Trung tâm Phục vụ hành chính công Xã Thới Thuận","Địa chỉ":"Ấp Thới Lợi 1, xã Thới Thuận","Số điện thoại":"02753.852.763","Chỉ số Cải cách hành chính (PAR Index)":null,"Chỉ số hài lòng của người dân, tổ chức (SIPAS)":null,"layer_id":342,"fid":92,"label":"Trung tâm Phục vụ hành chính công Xã Thới Thuận"}},{"type":"Feature","geometry":{"type":"Point","coordinates":[106.341440356,9.944011596]},"properties":{"Tên Trung tâm hành chính công":"Trung tâm Phục vụ hành chính công thuộc Ủy ban nhân dân phường Trà Vinh","Địa chỉ":"Số 09 Lê Thánh Tôn, Phường Trà Vinh, tỉnh Vĩnh Long","Số điện thoại":null,"Chỉ số Cải cách hành chính (PAR Index)":null,"Chỉ số hài lòng của người dân, tổ chức (SIPAS)":null,"layer_id":342,"fid":93,"label":"Trung tâm Phục vụ hành chính công thuộc Ủy ban nhân dân phường Trà Vinh"}},{"type":"Feature","geometry":{"type":"Point","coordinates":[106.332352171,9.98209316]},"properties":{"Tên Trung tâm hành chính công":"Trung tâm Phục vụ hành chính công thuộc Ủy ban nhân dân phường Long Đức","Địa chỉ":"Số 62, Đường 30/4, Phường Long Đức, tỉnh Vĩnh Long","Số điện thoại":null,"Chỉ số Cải cách hành chính (PAR Index)":null,"Chỉ số hài lòng của người dân, tổ chức (SIPAS)":null,"layer_id":342,"fid":94,"label":"Trung tâm Phục vụ hành chính công thuộc Ủy ban nhân dân phường Long Đức"}},{"type":"Feature","geometry":{"type":"Point","coordinates":[106.331956297,9.922284423]},"properties":{"Tên Trung tâm hành chính công":"Trung tâm Phục vụ hành chính công thuộc Ủy ban nhân dân phường Nguyệt Hóa","Địa chỉ":"Số 52, đường Sơn Thông, khóm 1, Phường Nguyệt Hóa, tỉnh Vĩnh Long","Số điện thoại":null,"Chỉ số Cải cách hành chính (PAR Index)":null,"Chỉ số hài lòng của người dân, tổ chức (SIPAS)":null,"layer_id":342,"fid":95,"label":"Trung tâm Phục vụ hành chính công thuộc Ủy ban nhân dân phường Nguyệt Hóa"}},{"type":"Feature","geometry":{"type":"Point","coordinates":[106.360868227,9.939007108]},"properties":{"Tên Trung tâm hành chính công":"Trung tâm Phục vụ hành chính công thuộc Ủy ban nhân dân phường Hòa Thuận","Địa chỉ":"Số 244, đường Hùng Vương nối dài, ấp Đa Cần, phường Hòa Thuận, tỉnh Vĩnh Long","Số điện thoại":null,"Chỉ số Cải cách hành chính (PAR Index)":null,"Chỉ số hài lòng của người dân, tổ chức (SIPAS)":null,"layer_id":342,"fid":96,"label":"Trung tâm Phục vụ hành chính công thuộc Ủy ban nhân dân phường Hòa Thuận"}},{"type":"Feature","geometry":{"type":"Point","coordinates":[106.492619867,9.6350458]},"properties":{"Tên Trung tâm hành chính công":"Trung tâm Phục vụ hành chính công thuộc Ủy ban nhân dân phường Duyên Hải","Địa chỉ":"Khóm 1, Phường Duyên Hải, , tỉnh Vĩnh Long","Số điện thoại":null,"Chỉ số Cải cách hành chính (PAR Index)":null,"Chỉ số hài lòng của người dân, tổ chức (SIPAS)":null,"layer_id":342,"fid":97,"label":"Trung tâm Phục vụ hành chính công thuộc Ủy ban nhân dân phường Duyên Hải"}},{"type":"Feature","geometry":{"type":"Point","coordinates":[106.509491524,9.686039092]},"properties":{"Tên Trung tâm hành chính công":"Trung tâm Phục vụ hành chính công thuộc Ủy ban nhân dân phường Trường Long Hòa","Địa chỉ":"Khóm 1, Phường Trường Long Hòa, tỉnh Vĩnh Long","Số điện thoại":null,"Chỉ số Cải cách hành chính (PAR Index)":null,"Chỉ số hài lòng của người dân, tổ chức (SIPAS)":null,"layer_id":342,"fid":98,"label":"Trung tâm Phục vụ hành chính công thuộc Ủy ban nhân dân phường Trường Long Hòa"}},{"type":"Feature","geometry":{"type":"Point","coordinates":[106.204940934,9.998032333]},"properties":{"Tên Trung tâm hành chính công":"Trung tâm Phục vụ hành chính công thuộc Ủy ban nhân dân xã Càng Long","Địa chỉ":"Khóm 3, xã Càng Long, tỉnh Vĩnh Long","Số điện thoại":null,"Chỉ số Cải cách hành chính (PAR Index)":null,"Chỉ số hài lòng của người dân, tổ chức (SIPAS)":null,"layer_id":342,"fid":100,"label":"Trung tâm Phục vụ hành chính công thuộc Ủy ban nhân dân xã Càng Long"}},{"type":"Feature","geometry":{"type":"Point","coordinates":[106.487427058,9.679310695]},"properties":{"Tên Trung tâm hành chính công":"Trung tâm Phục vụ hành chính công thuộc Ủy ban nhân dân xã Long Hữu","Địa chỉ":"Ấp 17, xã Long Hữu, tỉnh Vĩnh Long","Số điện thoại":null,"Chỉ số Cải cách hành chính (PAR Index)":null,"Chỉ số hài lòng của người dân, tổ chức (SIPAS)":null,"layer_id":342,"fid":99,"label":"Trung tâm Phục vụ hành chính công thuộc Ủy ban nhân dân xã Long Hữu"}},{"type":"Feature","geometry":{"type":"Point","coordinates":[106.174529105,9.94772907]},"properties":{"Tên Trung tâm hành chính công":"Trung tâm Phục vụ hành chính công thuộc Ủy ban nhân dân xã An Trường","Địa chỉ":"Ấp 7A, xã An Trường, tỉnh Vĩnh Long","Số điện thoại":null,"Chỉ số Cải cách hành chính (PAR Index)":null,"Chỉ số hài lòng của người dân, tổ chức (SIPAS)":null,"layer_id":342,"fid":101,"label":"Trung tâm Phục vụ hành chính công thuộc Ủy ban nhân dân xã An Trường"}},{"type":"Feature","geometry":{"type":"Point","coordinates":[106.228715119,9.925667646]},"properties":{"Tên Trung tâm hành chính công":"Trung tâm Phục vụ hành chính công thuộc Ủy ban nhân dân xã Tân An","Địa chỉ":"Ấp Lưu Tư, xã Huyền Hội, tỉnh Vĩnh Long","Số điện thoại":null,"Chỉ số Cải cách hành chính (PAR Index)":null,"Chỉ số hài lòng của người dân, tổ chức (SIPAS)":null,"layer_id":342,"fid":102,"label":"Trung tâm Phục vụ hành chính công thuộc Ủy ban nhân dân xã Tân An"}},{"type":"Feature","geometry":{"type":"Point","coordinates":[106.26884532,10.009194628]},"properties":{"Tên Trung tâm hành chính công":"Trung tâm Phục vụ hành chính công thuộc Ủy ban nhân dân xã Nhị Long","Địa chỉ":"Ấp Đon, xã Nhị Long, tỉnh Vĩnh Long","Số điện thoại":null,"Chỉ số Cải cách hành chính (PAR Index)":null,"Chỉ số hài lòng của người dân, tổ chức (SIPAS)":null,"layer_id":342,"fid":103,"label":"Trung tâm Phục vụ hành chính công thuộc Ủy ban nhân dân xã Nhị Long"}},{"type":"Feature","geometry":{"type":"Point","coordinates":[106.243843817,9.961263257]},"properties":{"Tên Trung tâm hành chính công":"Trung tâm Phục vụ hành chính công thuộc Ủy ban nhân dân xã Bình Phú","Địa chỉ":"Ấp Nguyệt Lãng A, xã Bình Phú, tỉnh Vĩnh Long","Số điện thoại":null,"Chỉ số Cải cách hành chính (PAR Index)":null,"Chỉ số hài lòng của người dân, tổ chức (SIPAS)":null,"layer_id":342,"fid":104,"label":"Trung tâm Phục vụ hành chính công thuộc Ủy ban nhân dân xã Bình Phú"}},{"type":"Feature","geometry":{"type":"Point","coordinates":[106.344909167,9.879423815]},"properties":{"Tên Trung tâm hành chính công":"Trung tâm Phục vụ hành chính công thuộc Ủy ban nhân dân xã Châu Thành","Địa chỉ":"Số 208, đường 2/9, Khóm 2, xã Châu Thành, tỉnh Vĩnh Long","Số điện thoại":null,"Chỉ số Cải cách hành chính (PAR Index)":null,"Chỉ số hài lòng của người dân, tổ chức (SIPAS)":null,"layer_id":342,"fid":105,"label":"Trung tâm Phục vụ hành chính công thuộc Ủy ban nhân dân xã Châu Thành"}},{"type":"Feature","geometry":{"type":"Point","coordinates":[106.28463131,9.865413002]},"properties":{"Tên Trung tâm hành chính công":"Trung tâm Phục vụ hành chính công thuộc Ủy ban nhân dân xã Song Lộc","Địa chỉ":"Ấp Hoà Lạc C, xã Lương Hoà A, tỉnh Vĩnh Long","Số điện thoại":null,"Chỉ số Cải cách hành chính (PAR Index)":null,"Chỉ số hài lòng của người dân, tổ chức (SIPAS)":null,"layer_id":342,"fid":106,"label":"Trung tâm Phục vụ hành chính công thuộc Ủy ban nhân dân xã Song Lộc"}},{"type":"Feature","geometry":{"type":"Point","coordinates":[106.423353373,9.903986306]},"properties":{"Tên Trung tâm hành chính công":"Trung tâm Phục vụ hành chính công thuộc Ủy ban nhân dân xã Hưng Mỹ","Địa chỉ":"Ấp Rạch Vồn, xã Hưng Mỹ, tỉnh Vĩnh Long","Số điện thoại":null,"Chỉ số Cải cách hành chính (PAR Index)":null,"Chỉ số hài lòng của người dân, tổ chức (SIPAS)":null,"layer_id":342,"fid":107,"label":"Trung tâm Phục vụ hành chính công thuộc Ủy ban nhân dân xã Hưng Mỹ"}},{"type":"Feature","geometry":{"type":"Point","coordinates":[106.499609556,9.885730219]},"properties":{"Tên Trung tâm hành chính công":"Trung tâm Phục vụ hành chính công thuộc Ủy ban nhân dân xã Long Hòa","Địa chỉ":"Ấp Rạch Gốc, xã Long Hòa, tỉnh Vĩnh Long","Số điện thoại":null,"Chỉ số Cải cách hành chính (PAR Index)":null,"Chỉ số hài lòng của người dân, tổ chức (SIPAS)":null,"layer_id":342,"fid":108,"label":"Trung tâm Phục vụ hành chính công thuộc Ủy ban nhân dân xã Long Hòa"}},{"type":"Feature","geometry":{"type":"Point","coordinates":[106.47188135,9.906093807]},"properties":{"Tên Trung tâm hành chính công":"Trung tâm Phục vụ hành chính công thuộc Ủy ban nhân dân xã Hòa Minh","Địa chỉ":"Ấp Đại Thôn A xã Hoà Minh, tỉnh Vĩnh Long","Số điện thoại":null,"Chỉ số Cải cách hành chính (PAR Index)":null,"Chỉ số hài lòng của người dân, tổ chức (SIPAS)":null,"layer_id":342,"fid":109,"label":"Trung tâm Phục vụ hành chính công thuộc Ủy ban nhân dân xã Hòa Minh"}},{"type":"Feature","geometry":{"type":"Point","coordinates":[106.056254294,9.869241638]},"properties":{"Tên Trung tâm hành chính công":"Trung tâm Phục vụ hành chính công thuộc Ủy ban nhân dân xã Cầu Kè","Địa chỉ":"Khóm 4, Thị trấn Cầu Kè, huyện Cầu Kè, tỉnh Vĩnh Long","Số điện thoại":null,"Chỉ số Cải cách hành chính (PAR Index)":null,"Chỉ số hài lòng của người dân, tổ chức (SIPAS)":null,"layer_id":342,"fid":110,"label":"Trung tâm Phục vụ hành chính công thuộc Ủy ban nhân dân xã Cầu Kè"}},{"type":"Feature","geometry":{"type":"Point","coordinates":[106.122547185,9.840440424]},"properties":{"Tên Trung tâm hành chính công":"Trung tâm Phục vụ hành chính công thuộc Ủy ban nhân dân xã Phong Thạnh","Địa chỉ":"Ấp 1, xã Phong Thạnh,  tỉnh Vĩnh Long","Số điện thoại":null,"Chỉ số Cải cách hành chính (PAR Index)":null,"Chỉ số hài lòng của người dân, tổ chức (SIPAS)":null,"layer_id":342,"fid":111,"label":"Trung tâm Phục vụ hành chính công thuộc Ủy ban nhân dân xã Phong Thạnh"}},{"type":"Feature","geometry":{"type":"Point","coordinates":[106.016255334,9.87802266]},"properties":{"Tên Trung tâm hành chính công":"Trung tâm Phục vụ hành chính công thuộc Ủy ban nhân dân xã An Phú Tân","Địa chỉ":"Ấp An Trại, xã An Phú Tân, tỉnh Vĩnh Long","Số điện thoại":null,"Chỉ số Cải cách hành chính (PAR Index)":null,"Chỉ số hài lòng của người dân, tổ chức (SIPAS)":null,"layer_id":342,"fid":112,"label":"Trung tâm Phục vụ hành chính công thuộc Ủy ban nhân dân xã An Phú Tân"}},{"type":"Feature","geometry":{"type":"Point","coordinates":[106.076388749,9.920930773]},"properties":{"Tên Trung tâm hành chính công":"Trung tâm Phục vụ hành chính công thuộc Ủy ban nhân dân xã Tam Ngãi","Địa chỉ":"Ấp Ô Chích, xã Thông Hòa, tỉnh Vĩnh Long","Số điện thoại":null,"Chỉ số Cải cách hành chính (PAR Index)":null,"Chỉ số hài lòng của người dân, tổ chức (SIPAS)":null,"layer_id":342,"fid":113,"label":"Trung tâm Phục vụ hành chính công thuộc Ủy ban nhân dân xã Tam Ngãi"}},{"type":"Feature","geometry":{"type":"Point","coordinates":[106.196946444,9.821824423]},"properties":{"Tên Trung tâm hành chính công":"Trung tâm Phục vụ hành chính công thuộc Ủy ban nhân dân xã Tiểu Cần","Địa chỉ":"Khóm 4, xã Tiểu Cần, tỉnh Vĩnh Long","Số điện thoại":null,"Chỉ số Cải cách hành chính (PAR Index)":null,"Chỉ số hài lòng của người dân, tổ chức (SIPAS)":null,"layer_id":342,"fid":114,"label":"Trung tâm Phục vụ hành chính công thuộc Ủy ban nhân dân xã Tiểu Cần"}},{"type":"Feature","geometry":{"type":"Point","coordinates":[106.160062914,9.763313674]},"properties":{"Tên Trung tâm hành chính công":"Trung tâm Phục vụ hành chính công thuộc Ủy ban nhân dân xã Tân Hòa","Địa chỉ":"Ấp Tân Thành Đông, xã Tân Hòa, tỉnh Vĩnh Long","Số điện thoại":null,"Chỉ số Cải cách hành chính (PAR Index)":null,"Chỉ số hài lòng của người dân, tổ chức (SIPAS)":null,"layer_id":342,"fid":115,"label":"Trung tâm Phục vụ hành chính công thuộc Ủy ban nhân dân xã Tân Hòa"}},{"type":"Feature","geometry":{"type":"Point","coordinates":[106.203658174,9.79487762]},"properties":{"Tên Trung tâm hành chính công":"Trung tâm Phục vụ hành chính công thuộc Ủy ban nhân dân xã Hùng Hòa","Địa chỉ":"Ấp Chợ, xã Hùng Hòa, tỉnh Vĩnh Long","Số điện thoại":null,"Chỉ số Cải cách hành chính (PAR Index)":null,"Chỉ số hài lòng của người dân, tổ chức (SIPAS)":null,"layer_id":342,"fid":116,"label":"Trung tâm Phục vụ hành chính công thuộc Ủy ban nhân dân xã Hùng Hòa"}},{"type":"Feature","geometry":{"type":"Point","coordinates":[106.264750259,9.811899803]},"properties":{"Tên Trung tâm hành chính công":"Trung tâm Phục vụ hành chính công thuộc Ủy ban nhân dân xã Tập Ngãi","Địa chỉ":"Ấp Ngãi Trung, xã Tập Ngãi, tỉnh Vĩnh long","Số điện thoại":null,"Chỉ số Cải cách hành chính (PAR Index)":null,"Chỉ số hài lòng của người dân, tổ chức (SIPAS)":null,"layer_id":342,"fid":117,"label":"Trung tâm Phục vụ hành chính công thuộc Ủy ban nhân dân xã Tập Ngãi"}},{"type":"Feature","geometry":{"type":"Point","coordinates":[106.45044988,9.796559609]},"properties":{"Tên Trung tâm hành chính công":"Trung tâm Phục vụ hành chính công thuộc Ủy ban nhân dân xã Cầu Ngang","Địa chỉ":"Khóm Minh Thuận A, xã Cầu Ngang (thị trấn Cầu Ngang cũ), tỉnh Vĩnh Long","Số điện thoại":null,"Chỉ số Cải cách hành chính (PAR Index)":null,"Chỉ số hài lòng của người dân, tổ chức (SIPAS)":null,"layer_id":342,"fid":118,"label":"Trung tâm Phục vụ hành chính công thuộc Ủy ban nhân dân xã Cầu Ngang"}},{"type":"Feature","geometry":{"type":"Point","coordinates":[106.507280541,9.809587648]},"properties":{"Tên Trung tâm hành chính công":"Trung tâm Phục vụ hành chính công thuộc Ủy ban nhân dân xã Mỹ Long","Địa chỉ":"Khóm II, xã Mỹ Long (thị trấn Mỹ Long cũ), tỉnh Vĩnh Long","Số điện thoại":null,"Chỉ số Cải cách hành chính (PAR Index)":null,"Chỉ số hài lòng của người dân, tổ chức (SIPAS)":null,"layer_id":342,"fid":119,"label":"Trung tâm Phục vụ hành chính công thuộc Ủy ban nhân dân xã Mỹ Long"}},{"type":"Feature","geometry":{"type":"Point","coordinates":[106.451449535,9.851537841]},"properties":{"Tên Trung tâm hành chính công":"Trung tâm Phục vụ hành chính công thuộc Ủy ban nhân dân xã Vinh Kim","Địa chỉ":"Ấp Chà Và, xã Vinh Kim, tỉnh Vĩnh Long","Số điện thoại":null,"Chỉ số Cải cách hành chính (PAR Index)":null,"Chỉ số hài lòng của người dân, tổ chức (SIPAS)":null,"layer_id":342,"fid":120,"label":"Trung tâm Phục vụ hành chính công thuộc Ủy ban nhân dân xã Vinh Kim"}},{"type":"Feature","geometry":{"type":"Point","coordinates":[106.389413958,9.756694434]},"properties":{"Tên Trung tâm hành chính công":"Trung tâm Phục vụ hành chính công thuộc Ủy ban nhân dân xã Nhị Trường","Địa chỉ":"Ấp Nô Lựa A, xã Nhị Trường, tỉnh Vĩnh Long","Số điện thoại":null,"Chỉ số Cải cách hành chính (PAR Index)":null,"Chỉ số hài lòng của người dân, tổ chức (SIPAS)":null,"layer_id":342,"fid":121,"label":"Trung tâm Phục vụ hành chính công thuộc Ủy ban nhân dân xã Nhị Trường"}},{"type":"Feature","geometry":{"type":"Point","coordinates":[106.477132022,9.731754242]},"properties":{"Tên Trung tâm hành chính công":"Trung tâm Phục vụ hành chính công thuộc Ủy ban nhân dân xã Hiệp Mỹ","Địa chỉ":"Ấp Chợ, xã Hiệp Mỹ, tỉnh Vĩnh Long","Số điện thoại":null,"Chỉ số Cải cách hành chính (PAR Index)":null,"Chỉ số hài lòng của người dân, tổ chức (SIPAS)":null,"layer_id":342,"fid":122,"label":"Trung tâm Phục vụ hành chính công thuộc Ủy ban nhân dân xã Hiệp Mỹ"}},{"type":"Feature","geometry":{"type":"Point","coordinates":[106.258278076,9.697802131]},"properties":{"Tên Trung tâm hành chính công":"Trung tâm Phục vụ hành chính công thuộc Ủy ban nhân dân xã Trà Cú","Địa chỉ":"Khóm 5, thị trấn Trà Cú, tỉnh Vĩnh Long","Số điện thoại":null,"Chỉ số Cải cách hành chính (PAR Index)":null,"Chỉ số hài lòng của người dân, tổ chức (SIPAS)":null,"layer_id":342,"fid":123,"label":"Trung tâm Phục vụ hành chính công thuộc Ủy ban nhân dân xã Trà Cú"}},{"type":"Feature","geometry":{"type":"Point","coordinates":[106.302636761,9.638987746]},"properties":{"Tên Trung tâm hành chính công":"Trung tâm Phục vụ hành chính công thuộc Ủy ban nhân dân xã Đại An","Địa chỉ":"Ấp Chợ, xã Đại An, tỉnh Vĩnh Long","Số điện thoại":null,"Chỉ số Cải cách hành chính (PAR Index)":null,"Chỉ số hài lòng của người dân, tổ chức (SIPAS)":null,"layer_id":342,"fid":124,"label":"Trung tâm Phục vụ hành chính công thuộc Ủy ban nhân dân xã Đại An"}},{"type":"Feature","geometry":{"type":"Point","coordinates":[106.220082883,9.698952102]},"properties":{"Tên Trung tâm hành chính công":"Trung tâm Phục vụ hành chính công thuộc Ủy ban nhân dân xã Lưu Nghiệp Anh","Địa chỉ":"Ấp Chợ, xã Lưu Nghiệp Anh, tỉnh Vĩnh Long","Số điện thoại":null,"Chỉ số Cải cách hành chính (PAR Index)":null,"Chỉ số hài lòng của người dân, tổ chức (SIPAS)":null,"layer_id":342,"fid":125,"label":"Trung tâm Phục vụ hành chính công thuộc Ủy ban nhân dân xã Lưu Nghiệp Anh"}},{"type":"Feature","geometry":{"type":"Point","coordinates":[106.266934885,9.655196387]},"properties":{"Tên Trung tâm hành chính công":"Trung tâm Phục vụ hành chính công thuộc Ủy ban nhân dân xã Hàm Giang","Địa chỉ":"Ấp Vàm Ray A, xã Hàm Tân, tỉnh Vĩnh Long","Số điện thoại":null,"Chỉ số Cải cách hành chính (PAR Index)":null,"Chỉ số hài lòng của người dân, tổ chức (SIPAS)":null,"layer_id":342,"fid":126,"label":"Trung tâm Phục vụ hành chính công thuộc Ủy ban nhân dân xã Hàm Giang"}},{"type":"Feature","geometry":{"type":"Point","coordinates":[106.340549458,9.709011265]},"properties":{"Tên Trung tâm hành chính công":"Trung tâm Phục vụ hành chính công thuộc Ủy ban nhân dân xã Long Hiệp","Địa chỉ":"Ấp Chợ, xã Long Hiệp, tỉnh Vĩnh Long","Số điện thoại":null,"Chỉ số Cải cách hành chính (PAR Index)":null,"Chỉ số hài lòng của người dân, tổ chức (SIPAS)":null,"layer_id":342,"fid":127,"label":"Trung tâm Phục vụ hành chính công thuộc Ủy ban nhân dân xã Long Hiệp"}},{"type":"Feature","geometry":{"type":"Point","coordinates":[106.261504676,9.738472832]},"properties":{"Tên Trung tâm hành chính công":"Trung tâm Phục vụ hành chính công thuộc Ủy ban nhân dân xã Tập Sơn","Địa chỉ":"Ấp Đông Sơn, xã Tập Sơn, tỉnh Vĩnh Long","Số điện thoại":null,"Chỉ số Cải cách hành chính (PAR Index)":null,"Chỉ số hài lòng của người dân, tổ chức (SIPAS)":null,"layer_id":342,"fid":128,"label":"Trung tâm Phục vụ hành chính công thuộc Ủy ban nhân dân xã Tập Sơn"}},{"type":"Feature","geometry":{"type":"Point","coordinates":[106.446907161,9.609799095]},"properties":{"Tên Trung tâm hành chính công":"Trung tâm Phục vụ hành chính công thuộc Ủy ban nhân dân xã Long Thành","Địa chỉ":"Khóm 3, xã Long Thành, tỉnh Vĩnh Long","Số điện thoại":null,"Chỉ số Cải cách hành chính (PAR Index)":null,"Chỉ số hài lòng của người dân, tổ chức (SIPAS)":null,"layer_id":342,"fid":129,"label":"Trung tâm Phục vụ hành chính công thuộc Ủy ban nhân dân xã Long Thành"}},{"type":"Feature","geometry":{"type":"Point","coordinates":[106.346322563,9.644946641]},"properties":{"Tên Trung tâm hành chính công":"Trung tâm Phục vụ hành chính công thuộc Ủy ban nhân dân xã Đôn Châu","Địa chỉ":"Ấp Chợ, xã Đôn Xuân, tỉnh Vĩnh Long","Số điện thoại":null,"Chỉ số Cải cách hành chính (PAR Index)":null,"Chỉ số hài lòng của người dân, tổ chức (SIPAS)":null,"layer_id":342,"fid":130,"label":"Trung tâm Phục vụ hành chính công thuộc Ủy ban nhân dân xã Đôn Châu"}},{"type":"Feature","geometry":{"type":"Point","coordinates":[106.427899607,9.666293065]},"properties":{"Tên Trung tâm hành chính công":"Trung tâm Phục vụ hành chính công thuộc Ủy ban nhân dân xã Ngũ Lạc","Địa chỉ":"Ấp Mé Láng, xã Ngũ Lạc, tỉnh Vĩnh Long","Số điện thoại":null,"Chỉ số Cải cách hành chính (PAR Index)":null,"Chỉ số hài lòng của người dân, tổ chức (SIPAS)":null,"layer_id":342,"fid":131,"label":"Trung tâm Phục vụ hành chính công thuộc Ủy ban nhân dân xã Ngũ Lạc"}},{"type":"Feature","geometry":{"type":"Point","coordinates":[106.434308278,9.553336352]},"properties":{"Tên Trung tâm hành chính công":"Trung tâm Phục vụ hành chính công thuộc Ủy ban nhân dân xã Đông Hải","Địa chỉ":"Ấp Định An, xã Đông Hải, tỉnh Vĩnh Long","Số điện thoại":null,"Chỉ số Cải cách hành chính (PAR Index)":null,"Chỉ số hài lòng của người dân, tổ chức (SIPAS)":null,"layer_id":342,"fid":132,"label":"Trung tâm Phục vụ hành chính công thuộc Ủy ban nhân dân xã Đông Hải"}},{"type":"Feature","geometry":{"type":"Point","coordinates":[106.353825378,9.604210609]},"properties":{"Tên Trung tâm hành chính công":"Trung tâm Phục vụ hành chính công thuộc Ủy ban nhân dân xã Long Vĩnh","Địa chỉ":"Ấp Kinh Đào, xã Long Vĩnh, tỉnh Vĩnh Long","Số điện thoại":null,"Chỉ số Cải cách hành chính (PAR Index)":null,"Chỉ số hài lòng của người dân, tổ chức (SIPAS)":null,"layer_id":342,"fid":133,"label":"Trung tâm Phục vụ hành chính công thuộc Ủy ban nhân dân xã Long Vĩnh"}}]}
