{"type":"FeatureCollection","name":"Khu di tích","metadata":{"source":"https://hatang.vinhlong.gov.vn/","downloaded_at":"2026-07-20T01:17:56+00:00","layer_id":344,"layer_name":"Khu di tích","catalog_endpoints":["/map/publicLayers2?inputs=sovhttdl"],"requested_bbox":[104.0,8.0,108.0,12.0],"tile_size":0.0,"tile_count":1,"tile_errors":[],"feature_count":135,"coordinate_order":"x,y (thường là longitude,latitude theo cấu hình EPSG:4326 của WebGIS)"},"features":[{"type":"Feature","id":1,"geometry":{"type":"Point","coordinates":[106.330143099,9.983775204]},"properties":{"Khu di tích":"Đền thờ Chủ tịch Hồ Chí Minh","Địa chỉ":"Ấp Vĩnh Hội, phường Long Đức, tỉnh Vĩnh Long","Năm xây dựng":"1971","Đặc điểm":null,"layer_id":344,"fid":1,"label":"Đền thờ Chủ tịch Hồ Chí Minh"}},{"type":"Feature","id":2,"geometry":{"type":"Point","coordinates":[106.186487361,9.704002637]},"properties":{"Khu di tích":"Di tích khảo cổ học: Lưu Cừ II","Địa chỉ":"Ấp Lưu Cừ II, xã Lưu Nghiệp Anh, tỉnh Vĩnh Long","Năm xây dựng":"được khai quật cuối năm 1986","Đặc điểm":null,"layer_id":344,"fid":2,"label":"Di tích khảo cổ học: Lưu Cừ II"}},{"type":"Feature","id":47,"geometry":{"type":"Point","coordinates":[106.582509937,10.037096553]},"properties":{"Khu di tích":"Mộ và khu lưu niệm Nguyễn Đình Chiểu","Địa chỉ":"Xã An Đức, Tỉnh Vĩnh Long","Năm xây dựng":"2002","Đặc điểm":null,"layer_id":344,"fid":47,"label":"Mộ và khu lưu niệm Nguyễn Đình Chiểu"}},{"type":"Feature","id":134,"geometry":{"type":"Point","coordinates":[105.987030767,10.050348238]},"properties":{"Khu di tích":"Khu lưu niệm giáo sư, viện sĩ  Trần Đại Nghĩa","Địa chỉ":"Xã Tam Bình, tỉnh Vĩnh Long","Năm xây dựng":"2013","Đặc điểm":"https://vr3d.com.vn/vinhlong/trandainghia/ktntrandainghia/?scene_show=scene_tongquan","layer_id":344,"fid":134,"label":"Khu lưu niệm giáo sư, viện sĩ  Trần Đại Nghĩa"}},{"type":"Feature","id":3,"geometry":{"type":"Point","coordinates":[106.304085255,9.917618202]},"properties":{"Khu di tích":"Di tích danh lam thắng cảnh Ao Bà Om ","Địa chỉ":"Khóm 4, phường Nguyệt Hóa, tỉnh Vĩnh Long","Năm xây dựng":null,"Đặc điểm":null,"layer_id":344,"fid":3,"label":"Di tích danh lam thắng cảnh Ao Bà Om "}},{"type":"Feature","id":6,"geometry":{"type":"Point","coordinates":[105.984606907,10.242757153]},"properties":{"Khu di tích":"Văn Thánh Miếu","Địa chỉ":"khóm 3, phường Phước Hậu, tỉnh Vĩnh Long","Năm xây dựng":"1864","Đặc điểm":null,"layer_id":344,"fid":6,"label":"Văn Thánh Miếu"}},{"type":"Feature","id":4,"geometry":{"type":"Point","coordinates":[106.053123935,10.050681251]},"properties":{"Khu di tích":"Di tích Chiến thắng Mương Khai Hiệp Hoà","Địa chỉ":"ấp Ngãi Hòa, xã Hòa Bình, tỉnh Vĩnh Long","Năm xây dựng":"2003","Đặc điểm":null,"layer_id":344,"fid":4,"label":"Di tích Chiến thắng Mương Khai Hiệp Hoà"}},{"type":"Feature","id":128,"geometry":{"type":"Point","coordinates":[105.907721566,10.269234862]},"properties":{"Khu di tích":"Đình Tân Hoa","Địa chỉ":"xã Tân Hoà, Vĩnh Long, Việt Nam","Năm xây dựng":null,"Đặc điểm":null,"layer_id":344,"fid":128,"label":"Đình Tân Hoa"}},{"type":"Feature","id":135,"geometry":{"type":"Point","coordinates":[105.970988274,10.257512927]},"properties":{"Khu di tích":"Bảo tàng tỉnh Vĩnh Long","Địa chỉ":"Số 1, Phan Bội Châu, Phường Long Châu, tỉnh Vĩnh Long","Năm xây dựng":"1993","Đặc điểm":"Là nơi dùng để nghiên cứu, trưng bày các di sản văn hóa, lịch sử nhằm tái hiện lại quá trình hình thành và phát triển của tỉnh Vĩnh Long","layer_id":344,"fid":135,"label":"Bảo tàng tỉnh Vĩnh Long"}},{"type":"Feature","id":48,"geometry":{"type":"Point","coordinates":[106.35749754,10.144058164]},"properties":{"Khu di tích":"Di tích Đồng Khởi Bến Tre","Địa chỉ":"Xã Đồng Khởi, tỉnh Vĩnh Long","Năm xây dựng":"2001","Đặc điểm":null,"layer_id":344,"fid":48,"label":"Di tích Đồng Khởi Bến Tre"}},{"type":"Feature","id":5,"geometry":{"type":"Point","coordinates":[105.972061154,10.257012561]},"properties":{"Khu di tích":"Di tích Khám lớn Vĩnh Long ","Địa chỉ":"Phường Long Châu, tỉnh Vĩnh Long","Năm xây dựng":"1915","Đặc điểm":null,"layer_id":344,"fid":5,"label":"Di tích Khám lớn Vĩnh Long "}},{"type":"Feature","id":7,"geometry":{"type":"Point","coordinates":[105.989932904,10.238392614]},"properties":{"Khu di tích":"Đình Long Thanh","Địa chỉ":"phường Thanh Đức, tỉnh Vĩnh Long\n","Năm xây dựng":"1754","Đặc điểm":null,"layer_id":344,"fid":7,"label":"Đình Long Thanh"}},{"type":"Feature","id":8,"geometry":{"type":"Point","coordinates":[105.978021722,1.025472942e+16]},"properties":{"Khu di tích":"Thất Phủ Miếu (Chùa Ông)","Địa chỉ":"phường Thanh Đức, tỉnh Vĩnh Long\n\n","Năm xây dựng":"1872","Đặc điểm":null,"layer_id":344,"fid":8,"label":"Thất Phủ Miếu (Chùa Ông)"}},{"type":"Feature","id":49,"geometry":{"type":"Point","coordinates":[106.611622558,10.066588032]},"properties":{"Khu di tích":"Di tích kiến trúc nghệ thuật Đình Phú Lễ","Địa chỉ":"Xã Tân Xuân, tỉnh Vĩnh Long","Năm xây dựng":"1896","Đặc điểm":null,"layer_id":344,"fid":49,"label":"Di tích kiến trúc nghệ thuật Đình Phú Lễ"}},{"type":"Feature","id":9,"geometry":{"type":"Point","coordinates":[106.094363235,10.159161729]},"properties":{"Khu di tích":"Thánh tịnh Ngọc Sơn Quang ","Địa chỉ":"xã Tân Long Hội, tỉnh Vĩnh Long","Năm xây dựng":"1932","Đặc điểm":null,"layer_id":344,"fid":9,"label":"Thánh tịnh Ngọc Sơn Quang "}},{"type":"Feature","id":129,"geometry":{"type":"Point","coordinates":[105.959421897,10.103254496]},"properties":{"Khu di tích":"Căn cứ Cái Ngang","Địa chỉ":"Xã Tam Bình, tỉnh Vĩnh Long","Năm xây dựng":null,"Đặc điểm":null,"layer_id":344,"fid":129,"label":"Căn cứ Cái Ngang"}},{"type":"Feature","id":10,"geometry":{"type":"Point","coordinates":[105.986326126,10.260378119]},"properties":{"Khu di tích":"Công Thần Miếu","Địa chỉ":"phường Thanh Đức, tỉnh Vĩnh Long","Năm xây dựng":"1837","Đặc điểm":null,"layer_id":344,"fid":10,"label":"Công Thần Miếu"}},{"type":"Feature","id":130,"geometry":{"type":"Point","coordinates":[105.93555445,9.96473189]},"properties":{"Khu di tích":"Lăng Ông Tiền quân Thống chế Điều bát","Địa chỉ":"Xã Trà Ôn, Tỉnh Vĩnh Long","Năm xây dựng":null,"Đặc điểm":null,"layer_id":344,"fid":130,"label":"Lăng Ông Tiền quân Thống chế Điều bát"}},{"type":"Feature","id":13,"geometry":{"type":"Point","coordinates":[105.959418936,10.103255346]},"properties":{"Khu di tích":"Căn cứ Cái Ngang","Địa chỉ":"ấp 4, xã Cái Ngang, tỉnh Vĩnh Long","Năm xây dựng":"1965","Đặc điểm":null,"layer_id":344,"fid":13,"label":"Căn cứ Cái Ngang"}},{"type":"Feature","id":79,"geometry":{"type":"Point","coordinates":[106.494068309,10.244377337]},"properties":{"Khu di tích":"Đình Châu Hưng","Địa chỉ":"Xã Châu Hưng, tỉnh Vĩnh Long","Năm xây dựng":"1952","Đặc điểm":null,"layer_id":344,"fid":79,"label":"Đình Châu Hưng"}},{"type":"Feature","id":80,"geometry":{"type":"Point","coordinates":[106.444671946,10.272836986]},"properties":{"Khu di tích":"Đình An Hóa","Địa chỉ":"Xã Châu Hưng, tỉnh Vĩnh Long","Năm xây dựng":"1959","Đặc điểm":null,"layer_id":344,"fid":80,"label":"Đình An Hóa"}},{"type":"Feature","id":81,"geometry":{"type":"Point","coordinates":[106.582510985,10.037090256]},"properties":{"Khu di tích":"Nơi ở cụ Nguyễn Đình Chiểu","Địa chỉ":"Xã Ba Tri, tỉnh Vĩnh Long","Năm xây dựng":"2017","Đặc điểm":null,"layer_id":344,"fid":81,"label":"Nơi ở cụ Nguyễn Đình Chiểu"}},{"type":"Feature","id":82,"geometry":{"type":"Point","coordinates":[106.446515373,10.020604195]},"properties":{"Khu di tích":"Nơi xuất quân Tiểu đoàn 307","Địa chỉ":"Xã Đại Điền, tỉnh Vĩnh Long","Năm xây dựng":"1988","Đặc điểm":null,"layer_id":344,"fid":82,"label":"Nơi xuất quân Tiểu đoàn 307"}},{"type":"Feature","id":51,"geometry":{"type":"Point","coordinates":[106.41161527,10.051123517]},"properties":{"Khu di tích":"Di tích Chùa Tuyên Linh","Địa chỉ":"Xã An Định, tỉnh Vĩnh Long","Năm xây dựng":"1861","Đặc điểm":null,"layer_id":344,"fid":51,"label":"Di tích Chùa Tuyên Linh"}},{"type":"Feature","id":14,"geometry":{"type":"Point","coordinates":[106.19085885,10.085309637]},"properties":{"Khu di tích":"Khu lưu niệm đồng chí Võ Văn Kiệt","Địa chỉ":"ấp 2, xã Trung Thành, tỉnh Vĩnh Long","Năm xây dựng":"2010","Đặc điểm":null,"layer_id":344,"fid":14,"label":"Khu lưu niệm đồng chí Võ Văn Kiệt"}},{"type":"Feature","id":131,"geometry":{"type":"Point","coordinates":[106.094371095,10.159137549]},"properties":{"Khu di tích":"Thánh tịnh Ngọc Sơn Quang","Địa chỉ":"Xã Tân Long Hội,tỉnh Vĩnh Long","Năm xây dựng":null,"Đặc điểm":null,"layer_id":344,"fid":131,"label":"Thánh tịnh Ngọc Sơn Quang"}},{"type":"Feature","id":15,"geometry":{"type":"Point","coordinates":[106.14960823,10.086180515]},"properties":{"Khu di tích":"Đình Bình Phụng","Địa chỉ":"ấp Bình Phụng, xã Trung Hiệp, tỉnh Vĩnh Long","Năm xây dựng":"1920","Đặc điểm":null,"layer_id":344,"fid":15,"label":"Đình Bình Phụng"}},{"type":"Feature","id":52,"geometry":{"type":"Point","coordinates":[106.30029435,10.203772837]},"properties":{"Khu di tích":"Di tích Căn cứ khu ủy Sài Gòn – Gia Định (7/1969 – 10/1970)","Địa chỉ":"Xã Phước Mỹ Trung, tỉnh Vĩnh Long","Năm xây dựng":"2012","Đặc điểm":null,"layer_id":344,"fid":52,"label":"Di tích Căn cứ khu ủy Sài Gòn – Gia Định (7/1969 – 10/1970)"}},{"type":"Feature","id":132,"geometry":{"type":"Point","coordinates":[106.34089527,9.934548327]},"properties":{"Khu di tích":"Đình Long Đức","Địa chỉ":"Phường Trà Vinh, Tỉnh Vĩnh Long","Năm xây dựng":null,"Đặc điểm":null,"layer_id":344,"fid":132,"label":"Đình Long Đức"}},{"type":"Feature","id":133,"geometry":{"type":"Point","coordinates":[106.228166496,10.112239785]},"properties":{"Khu di tích":" Khu mộ thân nhân Danh Thần Thoại Ngọc Hầu","Địa chỉ":"xã Quới Thiện, tỉnh Vĩnh Long","Năm xây dựng":"2018","Đặc điểm":"năm 2017 quần thể di tích thân nhân danh thần Thoại Ngọc Hầu được UBND tỉnh Vĩnh Long xếp hạng di tích lịch sử văn hóa cấp tỉnh. https://vr3d.com.vn/vinhlong/thoaingochau/","layer_id":344,"fid":133,"label":" Khu mộ thân nhân Danh Thần Thoại Ngọc Hầu"}},{"type":"Feature","id":16,"geometry":{"type":"Point","coordinates":[105.992096358,10.231932885]},"properties":{"Khu di tích":"Đình Long Hồ","Địa chỉ":"khóm 4, Phường Phước Hậu, tỉnh Vĩnh Long","Năm xây dựng":"nửa đầu TK XIX","Đặc điểm":null,"layer_id":344,"fid":16,"label":"Đình Long Hồ"}},{"type":"Feature","id":53,"geometry":{"type":"Point","coordinates":[106.612980702,10.122561272]},"properties":{"Khu di tích":"Địa điểm Ngôi nhà ông Nguyễn Văn Cung và ngã ba Cây Da đôi","Địa chỉ":"Xã Tân Xuân, tỉnh Vĩnh Long","Năm xây dựng":"1986","Đặc điểm":null,"layer_id":344,"fid":53,"label":"Địa điểm Ngôi nhà ông Nguyễn Văn Cung và ngã ba Cây Da đôi"}},{"type":"Feature","id":18,"geometry":{"type":"Point","coordinates":[106.014821265,10.246337853]},"properties":{"Khu di tích":"Mộ Nhà thơ Nhiêu Tâm","Địa chỉ":"ấp Cái Sơn Lớn, phường Thanh Đức, tỉnh Vĩnh Long","Năm xây dựng":null,"Đặc điểm":null,"layer_id":344,"fid":18,"label":"Mộ Nhà thơ Nhiêu Tâm"}},{"type":"Feature","id":54,"geometry":{"type":"Point","coordinates":[106.431652833,10.223523932]},"properties":{"Khu di tích":"Di tích Mộ và đền thờ Lãnh binh Nguyễn Ngọc Thăng","Địa chỉ":"Xã Lương Phú, tỉnh Vĩnh Long","Năm xây dựng":"1974","Đặc điểm":null,"layer_id":344,"fid":54,"label":"Di tích Mộ và đền thờ Lãnh binh Nguyễn Ngọc Thăng"}},{"type":"Feature","id":19,"geometry":{"type":"Point","coordinates":[105.999113559,10.075533805]},"properties":{"Khu di tích":"Miếu Quan Tiền hiền Phan Công An","Địa chỉ":"ấp Mỹ Phú 1, xã Tam Bình, tỉnh Vĩnh Long","Năm xây dựng":null,"Đặc điểm":null,"layer_id":344,"fid":19,"label":"Miếu Quan Tiền hiền Phan Công An"}},{"type":"Feature","id":20,"geometry":{"type":"Point","coordinates":[105.967807955,10.297723046]},"properties":{"Khu di tích":"Đình Hòa Ninh","Địa chỉ":"ấp Hòa Thuận, xã An Bình, tỉnh Vĩnh Long ","Năm xây dựng":"1849","Đặc điểm":null,"layer_id":344,"fid":20,"label":"Đình Hòa Ninh"}},{"type":"Feature","id":56,"geometry":{"type":"Point","coordinates":[106.657173705,10.080452577]},"properties":{"Khu di tích":"Di tích mộ Võ Trường Toản","Địa chỉ":"Xã Bảo Thạnh, tỉnh Vĩnh Long","Năm xây dựng":"2014","Đặc điểm":null,"layer_id":344,"fid":56,"label":"Di tích mộ Võ Trường Toản"}},{"type":"Feature","id":87,"geometry":{"type":"Point","coordinates":[105.842404091,10.00324231]},"properties":{"Khu di tích":"Đình Thần Mỹ An","Địa chỉ":"Phường Cái Vồn, Tỉnh Vĩnh Long","Năm xây dựng":null,"Đặc điểm":null,"layer_id":344,"fid":87,"label":"Đình Thần Mỹ An"}},{"type":"Feature","id":88,"geometry":{"type":"Point","coordinates":[106.357861573,9.847732129]},"properties":{"Khu di tích":"Đình Thần Mỹ Quý","Địa chỉ":"xã Cầu Ngang, Tỉnh Vĩnh Long","Năm xây dựng":null,"Đặc điểm":null,"layer_id":344,"fid":88,"label":"Đình Thần Mỹ Quý"}},{"type":"Feature","id":89,"geometry":{"type":"Point","coordinates":[105.936042351,10.230714191]},"properties":{"Khu di tích":"Miếu Bà Chúa Xứ","Địa chỉ":"Phường Tân Hạnh, Tỉnh Vĩnh Long","Năm xây dựng":null,"Đặc điểm":null,"layer_id":344,"fid":89,"label":"Miếu Bà Chúa Xứ"}},{"type":"Feature","id":22,"geometry":{"type":"Point","coordinates":[105.96623405,10.249901798]},"properties":{"Khu di tích":"Đình Tân Giai ","Địa chỉ":"khóm 1, phường Phước Hậu, tỉnh Vĩnh Long","Năm xây dựng":"1808","Đặc điểm":null,"layer_id":344,"fid":22,"label":"Đình Tân Giai "}},{"type":"Feature","id":58,"geometry":{"type":"Point","coordinates":[106.446014364,10.018661602]},"properties":{"Khu di tích":"Di tích kiến trúc nghệ thuật nhà cổ Huỳnh Phủ (Hương Liêm) và khu mộ","Địa chỉ":"Xã Đại Điền, tỉnh Vĩnh Long","Năm xây dựng":"1904","Đặc điểm":null,"layer_id":344,"fid":58,"label":"Di tích kiến trúc nghệ thuật nhà cổ Huỳnh Phủ (Hương Liêm) và khu mộ"}},{"type":"Feature","id":25,"geometry":{"type":"Point","coordinates":[105.754256493,10.102108126]},"properties":{"Khu di tích":"Đình Tân Quới ","Địa chỉ":"ấp Tân Thuận, xã Tân Quới, tỉnh Vĩnh Long","Năm xây dựng":"Đầu TK XIX","Đặc điểm":null,"layer_id":344,"fid":25,"label":"Đình Tân Quới "}},{"type":"Feature","id":26,"geometry":{"type":"Point","coordinates":[105.932234572,10.265723618]},"properties":{"Khu di tích":"Đình Tân Ngãi ","Địa chỉ":"khóm Tân Xuân, phường Tân Ngãi, tỉnh Vĩnh Long","Năm xây dựng":"TK XVIII","Đặc điểm":null,"layer_id":344,"fid":26,"label":"Đình Tân Ngãi "}},{"type":"Feature","id":27,"geometry":{"type":"Point","coordinates":[106.214886003,10.050047917]},"properties":{"Khu di tích":"Đình Phú Nhuận ","Địa chỉ":"ấp Phú Nhuận, xã Trung Ngãi, tỉnh Vĩnh Long","Năm xây dựng":"1836","Đặc điểm":null,"layer_id":344,"fid":27,"label":"Đình Phú Nhuận "}},{"type":"Feature","id":59,"geometry":{"type":"Point","coordinates":[106.250486915,10.261857711]},"properties":{"Khu di tích":"Di tích kiến trúc nghệ thuật Đình Tiên Thủy","Địa chỉ":"Xã Tiên Thủy, tỉnh Vĩnh Long","Năm xây dựng":"1778","Đặc điểm":null,"layer_id":344,"fid":59,"label":"Di tích kiến trúc nghệ thuật Đình Tiên Thủy"}},{"type":"Feature","id":28,"geometry":{"type":"Point","coordinates":[106.152158098,10.022866986]},"properties":{"Khu di tích":"Đình Trung Hòa ","Địa chỉ":"ấp Trung Hòa 2, xã Hiếu Phụng, tỉnh Vĩnh Long","Năm xây dựng":"1845","Đặc điểm":null,"layer_id":344,"fid":28,"label":"Đình Trung Hòa "}},{"type":"Feature","id":29,"geometry":{"type":"Point","coordinates":[105.936872222,10.235100495]},"properties":{"Khu di tích":"Đình Tân Hạnh ","Địa chỉ":"khóm Tân An, phường Tân Hạnh, tỉnh Vĩnh Long","Năm xây dựng":"1848","Đặc điểm":null,"layer_id":344,"fid":29,"label":"Đình Tân Hạnh "}},{"type":"Feature","id":60,"geometry":{"type":"Point","coordinates":[106.477452846,10.278182699]},"properties":{"Khu di tích":"Di tích Kiến trúc nghệ thuật Đình Long Phụng","Địa chỉ":"Xã Phú Thuận, tỉnh Vĩnh Long","Năm xây dựng":"1834","Đặc điểm":null,"layer_id":344,"fid":60,"label":"Di tích Kiến trúc nghệ thuật Đình Long Phụng"}},{"type":"Feature","id":112,"geometry":{"type":"Point","coordinates":[0.0,0.0]},"properties":{"Khu di tích":null,"Địa chỉ":null,"Năm xây dựng":null,"Đặc điểm":null,"layer_id":344,"fid":112,"label":null}},{"type":"Feature","id":113,"geometry":{"type":"Point","coordinates":[0.0,0.0]},"properties":{"Khu di tích":null,"Địa chỉ":null,"Năm xây dựng":null,"Đặc điểm":null,"layer_id":344,"fid":113,"label":null}},{"type":"Feature","id":114,"geometry":{"type":"Point","coordinates":[0.0,0.0]},"properties":{"Khu di tích":null,"Địa chỉ":null,"Năm xây dựng":null,"Đặc điểm":null,"layer_id":344,"fid":114,"label":null}},{"type":"Feature","id":73,"geometry":{"type":"Point","coordinates":[106.371144286,10.21330669]},"properties":{"Khu di tích":"Đình Phú Nhuận","Địa chỉ":"Phường An Hội, tỉnh Vĩnh Long","Năm xây dựng":"1911","Đặc điểm":null,"layer_id":344,"fid":73,"label":"Đình Phú Nhuận"}},{"type":"Feature","id":12,"geometry":{"type":"Point","coordinates":[105.989486654,10.22476808]},"properties":{"Khu di tích":"Khu lưu niệm Chủ tịch Hội đồng Bộ trưởng Phạm Hùng ","Địa chỉ":"ấp Long Thuận A, xã Long Hồ, tỉnh Vĩnh Long","Năm xây dựng":"2004","Đặc điểm":"https://vr3d.com.vn/vinhlong/phamhung/ktnphamhung/?scene_show=scene_tongquan","layer_id":344,"fid":12,"label":"Khu lưu niệm Chủ tịch Hội đồng Bộ trưởng Phạm Hùng "}},{"type":"Feature","id":83,"geometry":{"type":"Point","coordinates":[106.446599631,10.040567145]},"properties":{"Khu di tích":"Đình Phú Khánh","Địa chỉ":"Xã Đại Điền, tỉnh Vĩnh Long","Năm xây dựng":"1914","Đặc điểm":null,"layer_id":344,"fid":83,"label":"Đình Phú Khánh"}},{"type":"Feature","id":11,"geometry":{"type":"Point","coordinates":[105.907720797,10.269234212]},"properties":{"Khu di tích":"Đình Tân Hoa","Địa chỉ":"khóm Tân Hưng, phường Tân Ngãi, tỉnh Vĩnh Long","Năm xây dựng":"(1802-1820)","Đặc điểm":null,"layer_id":344,"fid":11,"label":"Đình Tân Hoa"}},{"type":"Feature","id":50,"geometry":{"type":"Point","coordinates":[106.499419167,10.166041159]},"properties":{"Khu di tích":"Di tích kiến trúc nghệ thuật Đình Bình Hòa","Địa chỉ":"Xã Giồng Trôm, tỉnh Vĩnh Long","Năm xây dựng":"1831","Đặc điểm":null,"layer_id":344,"fid":50,"label":"Di tích kiến trúc nghệ thuật Đình Bình Hòa"}},{"type":"Feature","id":17,"geometry":{"type":"Point","coordinates":[105.962530842,10.226438065]},"properties":{"Khu di tích":"Nghĩa Trủng Miếu (Miếu Âm Nhơn)              ","Địa chỉ":"ấp Phước Hanh B, xã Phước Hậu, tỉnh Vĩnh Long","Năm xây dựng":null,"Đặc điểm":null,"layer_id":344,"fid":17,"label":"Nghĩa Trủng Miếu (Miếu Âm Nhơn)              "}},{"type":"Feature","id":21,"geometry":{"type":"Point","coordinates":[105.907151938,9.962520485]},"properties":{"Khu di tích":"Đình Hậu Thạnh","Địa chỉ":"ấp Tân Thạnh, xã Lục Sĩ Thành, tỉnh Vĩnh Long","Năm xây dựng":"Khoảng cuối tk XIX","Đặc điểm":null,"layer_id":344,"fid":21,"label":"Đình Hậu Thạnh"}},{"type":"Feature","id":57,"geometry":{"type":"Point","coordinates":[106.372168319,10.33078494]},"properties":{"Khu di tích":"Di tích kiến trúc nghệ thuật Đình  Tân Thạch","Địa chỉ":"Xã  Phú Túc, tỉnh Vĩnh Long","Năm xây dựng":"1841","Đặc điểm":null,"layer_id":344,"fid":57,"label":"Di tích kiến trúc nghệ thuật Đình  Tân Thạch"}},{"type":"Feature","id":98,"geometry":{"type":"Point","coordinates":[106.014227865,10.269782338]},"properties":{"Khu di tích":"Đình thần phước định","Địa chỉ":"Xã Long Hồ, Tỉnh Vĩnh Long","Năm xây dựng":null,"Đặc điểm":null,"layer_id":344,"fid":98,"label":"Đình thần phước định"}},{"type":"Feature","id":23,"geometry":{"type":"Point","coordinates":[105.825828653,10.06940327]},"properties":{"Khu di tích":"Đình Mỹ Thuận ","Địa chỉ":"khóm 1, phường Cái Vồn, tỉnh Vĩnh Long","Năm xây dựng":"Đầu TK XX","Đặc điểm":null,"layer_id":344,"fid":23,"label":"Đình Mỹ Thuận "}},{"type":"Feature","id":24,"geometry":{"type":"Point","coordinates":[106.036186501,9.967754435]},"properties":{"Khu di tích":"Đình Vĩnh Thuận ","Địa chỉ":"ấp Vĩnh Thuận, xã Vĩnh Xuân, tỉnh Vĩnh Long ","Năm xây dựng":"Đầu TK XIX","Đặc điểm":null,"layer_id":344,"fid":24,"label":"Đình Vĩnh Thuận "}},{"type":"Feature","id":109,"geometry":{"type":"Point","coordinates":[0.0,0.0]},"properties":{"Khu di tích":null,"Địa chỉ":null,"Năm xây dựng":null,"Đặc điểm":null,"layer_id":344,"fid":109,"label":null}},{"type":"Feature","id":110,"geometry":{"type":"Point","coordinates":[0.0,0.0]},"properties":{"Khu di tích":null,"Địa chỉ":null,"Năm xây dựng":null,"Đặc điểm":null,"layer_id":344,"fid":110,"label":null}},{"type":"Feature","id":111,"geometry":{"type":"Point","coordinates":[0.0,0.0]},"properties":{"Khu di tích":null,"Địa chỉ":null,"Năm xây dựng":null,"Đặc điểm":null,"layer_id":344,"fid":111,"label":null}},{"type":"Feature","id":95,"geometry":{"type":"Point","coordinates":[105.996043805,10.309445902]},"properties":{"Khu di tích":"Đình Thần Đồng Phú","Địa chỉ":"Xã Long Hồ, Tỉnh Vĩnh Long","Năm xây dựng":null,"Đặc điểm":null,"layer_id":344,"fid":95,"label":"Đình Thần Đồng Phú"}},{"type":"Feature","id":46,"geometry":{"type":"Point","coordinates":[105.763354169,10.107209702]},"properties":{"Khu di tích":"Đình Đông Lợi","Địa chỉ":"xã Tân Quới, tỉnh Vĩnh Long","Năm xây dựng":"1885","Đặc điểm":null,"layer_id":344,"fid":46,"label":"Đình Đông Lợi"}},{"type":"Feature","id":74,"geometry":{"type":"Point","coordinates":[106.175625223,10.1025127]},"properties":{"Khu di tích":"Đình Tích Khánh","Địa chỉ":"Xã Nhuận Phú Tân, Tỉnh Vĩnh Long","Năm xây dựng":"1841-1847","Đặc điểm":null,"layer_id":344,"fid":74,"label":"Đình Tích Khánh"}},{"type":"Feature","id":62,"geometry":{"type":"Point","coordinates":[106.412114928,10.237807257]},"properties":{"Khu di tích":"Đình Phú Tự và Cổ thụ Bạch Mai","Địa chỉ":"Phường Phú Khương, tỉnh Vĩnh Long.","Năm xây dựng":"1904","Đặc điểm":null,"layer_id":344,"fid":62,"label":"Đình Phú Tự và Cổ thụ Bạch Mai"}},{"type":"Feature","id":63,"geometry":{"type":"Point","coordinates":[106.564641794,10.040916238]},"properties":{"Khu di tích":"Khu lưu niệm Đốc binh Phan Ngọc Tòng","Địa chỉ":"Xã An Hiệp, tỉnh Vĩnh Long.","Năm xây dựng":"1999","Đặc điểm":null,"layer_id":344,"fid":63,"label":"Khu lưu niệm Đốc binh Phan Ngọc Tòng"}},{"type":"Feature","id":99,"geometry":{"type":"Point","coordinates":[106.099701161,10.00447776]},"properties":{"Khu di tích":"Đình thần Đình Đôi","Địa chỉ":"Xã Hiếu Thành, Tỉnh Vĩnh Long","Năm xây dựng":null,"Đặc điểm":null,"layer_id":344,"fid":99,"label":"Đình thần Đình Đôi"}},{"type":"Feature","id":100,"geometry":{"type":"Point","coordinates":[106.023398974,10.191448927]},"properties":{"Khu di tích":"Đình thần Bình Phước","Địa chỉ":"Xã Long Hồ, Tỉnh Vĩnh Long","Năm xây dựng":null,"Đặc điểm":null,"layer_id":344,"fid":100,"label":"Đình thần Bình Phước"}},{"type":"Feature","id":101,"geometry":{"type":"Point","coordinates":[106.008823586,9.954099301]},"properties":{"Khu di tích":"Đình thần Vĩnh Xuân","Địa chỉ":"Xã Vĩnh Xuân, Tỉnh Vĩnh Long","Năm xây dựng":null,"Đặc điểm":null,"layer_id":344,"fid":101,"label":"Đình thần Vĩnh Xuân"}},{"type":"Feature","id":34,"geometry":{"type":"Point","coordinates":[105.924463051,10.253720889]},"properties":{"Khu di tích":"Thánh Thất Trường An ","Địa chỉ":"khóm Tân Quới Tây, phường Long Châu, tỉnh Vĩnh Long","Năm xây dựng":"1948","Đặc điểm":null,"layer_id":344,"fid":34,"label":"Thánh Thất Trường An "}},{"type":"Feature","id":35,"geometry":{"type":"Point","coordinates":[105.973512837,10.269032397]},"properties":{"Khu di tích":"Đình An Thành ","Địa chỉ":"ấp An Thành, xã An Bình, tỉnh Vĩnh Long","Năm xây dựng":"Đầu TK XIX","Đặc điểm":null,"layer_id":344,"fid":35,"label":"Đình An Thành "}},{"type":"Feature","id":42,"geometry":{"type":"Point","coordinates":[106.002117268,10.050663686]},"properties":{"Khu di tích":"Thánh tịnh Linh Châu Kim Đức","Địa chỉ":"ấp Tường Lễ, xã Tam Bình, tỉnh Vĩnh Long","Năm xây dựng":null,"Đặc điểm":null,"layer_id":344,"fid":42,"label":"Thánh tịnh Linh Châu Kim Đức"}},{"type":"Feature","id":43,"geometry":{"type":"Point","coordinates":[106.014227165,10.269787424]},"properties":{"Khu di tích":"Đình Phước Định","Địa chỉ":"ấp Phước Định 1, xã An Bình, tỉnh Vĩnh Long","Năm xây dựng":"Đầu tk XIX","Đặc điểm":null,"layer_id":344,"fid":43,"label":"Đình Phước Định"}},{"type":"Feature","id":70,"geometry":{"type":"Point","coordinates":[106.43640445,10.296829831]},"properties":{"Khu di tích":"Đình Giao Hòa","Địa chỉ":"Xã Giao Long, tỉnh Vĩnh Long.","Năm xây dựng":null,"Đặc điểm":null,"layer_id":344,"fid":70,"label":"Đình Giao Hòa"}},{"type":"Feature","id":44,"geometry":{"type":"Point","coordinates":[105.964442415,10.234003995]},"properties":{"Khu di tích":"Tượng đài Chiến thắng Mậu Thân","Địa chỉ":"xã Trung Thành, tỉnh Vĩnh Long","Năm xây dựng":"2019","Đặc điểm":null,"layer_id":344,"fid":44,"label":"Tượng đài Chiến thắng Mậu Thân"}},{"type":"Feature","id":71,"geometry":{"type":"Point","coordinates":[106.533381506,10.257039006]},"properties":{"Khu di tích":"Đình Vang Quới","Địa chỉ":"Xã Vang Quới Tây, huyện Bình Đại","Năm xây dựng":"1916","Đặc điểm":null,"layer_id":344,"fid":71,"label":"Đình Vang Quới"}},{"type":"Feature","id":72,"geometry":{"type":"Point","coordinates":[106.489178599,10.08541994]},"properties":{"Khu di tích":"Đền thờ Trương Tấn Bửu","Địa chỉ":"Xã Hưng Nhượng, tỉnh Vĩnh Long","Năm xây dựng":"1996","Đặc điểm":null,"layer_id":344,"fid":72,"label":"Đền thờ Trương Tấn Bửu"}},{"type":"Feature","id":64,"geometry":{"type":"Point","coordinates":[106.497842099,10.211404756]},"properties":{"Khu di tích":"Miếu thờ và mộ Lê Quang Quan (Tán Kế)","Địa chỉ":"Xã An Ngãi Trung, tỉnh Vĩnh Long.","Năm xây dựng":"1996","Đặc điểm":null,"layer_id":344,"fid":64,"label":"Miếu thờ và mộ Lê Quang Quan (Tán Kế)"}},{"type":"Feature","id":102,"geometry":{"type":"Point","coordinates":[0.0,0.0]},"properties":{"Khu di tích":null,"Địa chỉ":null,"Năm xây dựng":null,"Đặc điểm":null,"layer_id":344,"fid":102,"label":null}},{"type":"Feature","id":96,"geometry":{"type":"Point","coordinates":[105.973514038,10.269025747]},"properties":{"Khu di tích":"Đình thần An Thành","Địa chỉ":"Xã Long Hồ, Tỉnh Vĩnh Long","Năm xây dựng":null,"Đặc điểm":null,"layer_id":344,"fid":96,"label":"Đình thần An Thành"}},{"type":"Feature","id":103,"geometry":{"type":"Point","coordinates":[0.0,0.0]},"properties":{"Khu di tích":null,"Địa chỉ":null,"Năm xây dựng":null,"Đặc điểm":null,"layer_id":344,"fid":103,"label":null}},{"type":"Feature","id":75,"geometry":{"type":"Point","coordinates":[106.627103781,10.07849663]},"properties":{"Khu di tích":"Đình Phú Ngãi","Địa chỉ":"Xã Tân Xuân, tỉnh Vĩnh Long","Năm xây dựng":"1912","Đặc điểm":null,"layer_id":344,"fid":75,"label":"Đình Phú Ngãi"}},{"type":"Feature","id":76,"geometry":{"type":"Point","coordinates":[106.369750576,10.242018555]},"properties":{"Khu di tích":"Tòa thánh Cao đài Ban chỉnh đạo Bến Tre","Địa chỉ":"Phường Sơn Đông, tỉnh Vĩnh Long","Năm xây dựng":"1935","Đặc điểm":null,"layer_id":344,"fid":76,"label":"Tòa thánh Cao đài Ban chỉnh đạo Bến Tre"}},{"type":"Feature","id":77,"geometry":{"type":"Point","coordinates":[106.334039211,10.12571041]},"properties":{"Khu di tích":"Đình Chùa Bà","Địa chỉ":"Xã Mỏ Cày, tỉnh Vĩnh Long","Năm xây dựng":"1982","Đặc điểm":null,"layer_id":344,"fid":77,"label":"Đình Chùa Bà"}},{"type":"Feature","id":121,"geometry":{"type":"Point","coordinates":[0.0,0.0]},"properties":{"Khu di tích":null,"Địa chỉ":null,"Năm xây dựng":null,"Đặc điểm":null,"layer_id":344,"fid":121,"label":null}},{"type":"Feature","id":122,"geometry":{"type":"Point","coordinates":[0.0,0.0]},"properties":{"Khu di tích":null,"Địa chỉ":null,"Năm xây dựng":null,"Đặc điểm":null,"layer_id":344,"fid":122,"label":null}},{"type":"Feature","id":123,"geometry":{"type":"Point","coordinates":[0.0,0.0]},"properties":{"Khu di tích":null,"Địa chỉ":null,"Năm xây dựng":null,"Đặc điểm":null,"layer_id":344,"fid":123,"label":null}},{"type":"Feature","id":124,"geometry":{"type":"Point","coordinates":[0.0,0.0]},"properties":{"Khu di tích":null,"Địa chỉ":null,"Năm xây dựng":null,"Đặc điểm":null,"layer_id":344,"fid":124,"label":null}},{"type":"Feature","id":125,"geometry":{"type":"Point","coordinates":[0.0,0.0]},"properties":{"Khu di tích":null,"Địa chỉ":null,"Năm xây dựng":null,"Đặc điểm":null,"layer_id":344,"fid":125,"label":null}},{"type":"Feature","id":126,"geometry":{"type":"Point","coordinates":[0.0,0.0]},"properties":{"Khu di tích":null,"Địa chỉ":null,"Năm xây dựng":null,"Đặc điểm":null,"layer_id":344,"fid":126,"label":null}},{"type":"Feature","id":127,"geometry":{"type":"Point","coordinates":[0.0,0.0]},"properties":{"Khu di tích":null,"Địa chỉ":null,"Năm xây dựng":null,"Đặc điểm":null,"layer_id":344,"fid":127,"label":null}},{"type":"Feature","id":97,"geometry":{"type":"Point","coordinates":[105.96133232,10.26402546]},"properties":{"Khu di tích":"Đình thần Bình Lương","Địa chỉ":"Xã Long Hồ, Tỉnh Vĩnh Long","Năm xây dựng":null,"Đặc điểm":null,"layer_id":344,"fid":97,"label":"Đình thần Bình Lương"}},{"type":"Feature","id":36,"geometry":{"type":"Point","coordinates":[106.138316092,10.116750403]},"properties":{"Khu di tích":"Đình Trung Hưng ","Địa chỉ":"ấp Trung Hưng, xã Trung Hiệp, tỉnh Vĩnh Long","Năm xây dựng":"1843","Đặc điểm":null,"layer_id":344,"fid":36,"label":"Đình Trung Hưng "}},{"type":"Feature","id":65,"geometry":{"type":"Point","coordinates":[106.424546614,10.269842322]},"properties":{"Khu di tích":"KLN Liệt sỹ - Anh hùng LLVTND Trần Văn Ơn","Địa chỉ":"Phường Phú Tân, tỉnh Vĩnh Long.","Năm xây dựng":"2006","Đặc điểm":null,"layer_id":344,"fid":65,"label":"KLN Liệt sỹ - Anh hùng LLVTND Trần Văn Ơn"}},{"type":"Feature","id":104,"geometry":{"type":"Point","coordinates":[0.0,0.0]},"properties":{"Khu di tích":null,"Địa chỉ":null,"Năm xây dựng":null,"Đặc điểm":null,"layer_id":344,"fid":104,"label":null}},{"type":"Feature","id":37,"geometry":{"type":"Point","coordinates":[105.965559963,10.115515496]},"properties":{"Khu di tích":"Bia Nam Kỳ khởi nghĩa Cái Ngang ","Địa chỉ":"ấp 6, xã Cái Ngang, tỉnh Vĩnh Long","Năm xây dựng":"1996","Đặc điểm":null,"layer_id":344,"fid":37,"label":"Bia Nam Kỳ khởi nghĩa Cái Ngang "}},{"type":"Feature","id":38,"geometry":{"type":"Point","coordinates":[105.999969458,10.313178587]},"properties":{"Khu di tích":"Đình Phú Mỹ Đông ","Địa chỉ":"ấp Phú Thạnh, xã Lục Sĩ Thành, tỉnh Vĩnh Long","Năm xây dựng":"1849","Đặc điểm":null,"layer_id":344,"fid":38,"label":"Đình Phú Mỹ Đông "}},{"type":"Feature","id":66,"geometry":{"type":"Point","coordinates":[106.441815524,10.10492114]},"properties":{"Khu di tích":"Đền thờ nhà thơ Phan Văn Trị","Địa chỉ":"Xã Tân Hào, tỉnh Vĩnh Long.","Năm xây dựng":"2002","Đặc điểm":null,"layer_id":344,"fid":66,"label":"Đền thờ nhà thơ Phan Văn Trị"}},{"type":"Feature","id":67,"geometry":{"type":"Point","coordinates":[106.603557287,10.238790995]},"properties":{"Khu di tích":"Đình Lộc Thuận","Địa chỉ":"Xã Lộc Thuận, tỉnh Vĩnh Long.","Năm xây dựng":"1850","Đặc điểm":null,"layer_id":344,"fid":67,"label":"Đình Lộc Thuận"}},{"type":"Feature","id":39,"geometry":{"type":"Point","coordinates":[106.149530021,10.11886689]},"properties":{"Khu di tích":"Đình Quang Đức ","Địa chỉ":"ấp Quang Đức,  xã Trung Hiệp, tỉnh Vĩnh Long","Năm xây dựng":"1840","Đặc điểm":null,"layer_id":344,"fid":39,"label":"Đình Quang Đức "}},{"type":"Feature","id":68,"geometry":{"type":"Point","coordinates":[106.464558874,10.133505269]},"properties":{"Khu di tích":"Đền thờ Trung tướngĐồng Văn Cống","Địa chỉ":"Xã Tân Hào, tỉnh Vĩnh Long.","Năm xây dựng":"2008","Đặc điểm":null,"layer_id":344,"fid":68,"label":"Đền thờ Trung tướngĐồng Văn Cống"}},{"type":"Feature","id":40,"geometry":{"type":"Point","coordinates":[106.243466358,10.09706046]},"properties":{"Khu di tích":"Thánh thất Thanh Bình ","Địa chỉ":"ấp Thanh Khê, xã Quới Thiện, tỉnh Vĩnh Long","Năm xây dựng":"1940","Đặc điểm":null,"layer_id":344,"fid":40,"label":"Thánh thất Thanh Bình "}},{"type":"Feature","id":41,"geometry":{"type":"Point","coordinates":[106.008820345,9.954104557]},"properties":{"Khu di tích":"Đình Vĩnh Xuân","Địa chỉ":"ấp Vĩnh Trinh, xã Vĩnh Xuân, tỉnh Vĩnh Long","Năm xây dựng":"Đầu TK XIX","Đặc điểm":null,"layer_id":344,"fid":41,"label":"Đình Vĩnh Xuân"}},{"type":"Feature","id":78,"geometry":{"type":"Point","coordinates":[106.375079339,10.080788574]},"properties":{"Khu di tích":"Đình An Định","Địa chỉ":"Xã An Định, tỉnh Vĩnh Long","Năm xây dựng":"1803","Đặc điểm":null,"layer_id":344,"fid":78,"label":"Đình An Định"}},{"type":"Feature","id":55,"geometry":{"type":"Point","coordinates":[106.461559404,10.077600931]},"properties":{"Khu di tích":"Di tích Ngôi nhà ông Nguyễn Văn Trác – Nơi ở và làm việc của đồng chí Lê Duẩn từ 11/1955 – 3/1956","Địa chỉ":"Xã Hưng Nhượng, tỉnh Vĩnh Long.","Năm xây dựng":"2020","Đặc điểm":null,"layer_id":344,"fid":55,"label":"Di tích Ngôi nhà ông Nguyễn Văn Trác – Nơi ở và làm việc của đồng chí Lê Duẩn từ 11/1955 – 3/1956"}},{"type":"Feature","id":30,"geometry":{"type":"Point","coordinates":[105.991946145,10.054126904]},"properties":{"Khu di tích":"Nhà lưu niệm Ngọc Đầu Sư Nguyễn Văn Ngợi","Địa chỉ":"ấp 3, xã Tam Bình, tỉnh Vĩnh Long","Năm xây dựng":"1934","Đặc điểm":null,"layer_id":344,"fid":30,"label":"Nhà lưu niệm Ngọc Đầu Sư Nguyễn Văn Ngợi"}},{"type":"Feature","id":69,"geometry":{"type":"Point","coordinates":[106.377031437,10.236869573]},"properties":{"Khu di tích":"Đình An Hội","Địa chỉ":"Phường An Hội, tỉnh Vĩnh Long.","Năm xây dựng":"1846","Đặc điểm":null,"layer_id":344,"fid":69,"label":"Đình An Hội"}},{"type":"Feature","id":31,"geometry":{"type":"Point","coordinates":[105.922468387,9.966829889]},"properties":{"Khu di tích":"Quan Thánh Miếu ","Địa chỉ":" khóm Thanh Sơn, phường Thanh Đức, tỉnh Vĩnh Long","Năm xây dựng":"1880","Đặc điểm":null,"layer_id":344,"fid":31,"label":"Quan Thánh Miếu "}},{"type":"Feature","id":61,"geometry":{"type":"Point","coordinates":[105.989936095,10.238396335]},"properties":{"Khu di tích":"Di tích Kiến trúc nghệ thuật Đình Long Thạnh","Địa chỉ":"Xã Phú Thuận, tỉnh Vĩnh Long","Năm xây dựng":"1830","Đặc điểm":null,"layer_id":344,"fid":61,"label":"Di tích Kiến trúc nghệ thuật Đình Long Thạnh"}},{"type":"Feature","id":32,"geometry":{"type":"Point","coordinates":[105.993192944,10.121239535]},"properties":{"Khu di tích":"Bia Truyền thống Công an tỉnh Vĩnh Long ","Địa chỉ":"ấp Danh Tấm, xã Cái Ngang, tỉnh Vĩnh Long","Năm xây dựng":"2013","Đặc điểm":null,"layer_id":344,"fid":32,"label":"Bia Truyền thống Công an tỉnh Vĩnh Long "}},{"type":"Feature","id":33,"geometry":{"type":"Point","coordinates":[106.129095761,10.124734638]},"properties":{"Khu di tích":"Đình Quang Phong ","Địa chỉ":"ấp Bà Đông, xã Trung Hiệp, tỉnh Vĩnh Long","Năm xây dựng":"1825","Đặc điểm":null,"layer_id":344,"fid":33,"label":"Đình Quang Phong "}},{"type":"Feature","id":117,"geometry":{"type":"Point","coordinates":[0.0,0.0]},"properties":{"Khu di tích":null,"Địa chỉ":null,"Năm xây dựng":null,"Đặc điểm":null,"layer_id":344,"fid":117,"label":null}},{"type":"Feature","id":118,"geometry":{"type":"Point","coordinates":[0.0,0.0]},"properties":{"Khu di tích":null,"Địa chỉ":null,"Năm xây dựng":null,"Đặc điểm":null,"layer_id":344,"fid":118,"label":null}},{"type":"Feature","id":105,"geometry":{"type":"Point","coordinates":[0.0,0.0]},"properties":{"Khu di tích":null,"Địa chỉ":null,"Năm xây dựng":null,"Đặc điểm":null,"layer_id":344,"fid":105,"label":null}},{"type":"Feature","id":106,"geometry":{"type":"Point","coordinates":[0.0,0.0]},"properties":{"Khu di tích":null,"Địa chỉ":null,"Năm xây dựng":null,"Đặc điểm":null,"layer_id":344,"fid":106,"label":null}},{"type":"Feature","id":107,"geometry":{"type":"Point","coordinates":[0.0,0.0]},"properties":{"Khu di tích":null,"Địa chỉ":null,"Năm xây dựng":null,"Đặc điểm":null,"layer_id":344,"fid":107,"label":null}},{"type":"Feature","id":108,"geometry":{"type":"Point","coordinates":[0.0,0.0]},"properties":{"Khu di tích":null,"Địa chỉ":null,"Năm xây dựng":null,"Đặc điểm":null,"layer_id":344,"fid":108,"label":null}},{"type":"Feature","id":90,"geometry":{"type":"Point","coordinates":[105.949913101,10.246541438]},"properties":{"Khu di tích":"Đình Tân Hữu","Địa chỉ":"Phường Tân Hạnh, Tỉnh Vĩnh Long","Năm xây dựng":null,"Đặc điểm":null,"layer_id":344,"fid":90,"label":"Đình Tân Hữu"}},{"type":"Feature","id":91,"geometry":{"type":"Point","coordinates":[105.970476329,10.252982936]},"properties":{"Khu di tích":"Di tích Thành Long Hồ","Địa chỉ":"Phong Long Châu, Tỉnh Vĩnh Long","Năm xây dựng":null,"Đặc điểm":null,"layer_id":344,"fid":91,"label":"Di tích Thành Long Hồ"}},{"type":"Feature","id":92,"geometry":{"type":"Point","coordinates":[106.366505171,10.28247617]},"properties":{"Khu di tích":"Đình thần Phú Hữu","Địa chỉ":"Phường Phú Tân, Tỉnh Vĩnh Long","Năm xây dựng":null,"Đặc điểm":null,"layer_id":344,"fid":92,"label":"Đình thần Phú Hữu"}},{"type":"Feature","id":93,"geometry":{"type":"Point","coordinates":[105.967809184,10.297726439]},"properties":{"Khu di tích":"Đình thần Hòa Ninh","Địa chỉ":"Xã Long Hồ, Tỉnh Vĩnh Long","Năm xây dựng":null,"Đặc điểm":null,"layer_id":344,"fid":93,"label":"Đình thần Hòa Ninh"}},{"type":"Feature","id":115,"geometry":{"type":"Point","coordinates":[0.0,0.0]},"properties":{"Khu di tích":null,"Địa chỉ":null,"Năm xây dựng":null,"Đặc điểm":null,"layer_id":344,"fid":115,"label":null}},{"type":"Feature","id":116,"geometry":{"type":"Point","coordinates":[0.0,0.0]},"properties":{"Khu di tích":null,"Địa chỉ":null,"Năm xây dựng":null,"Đặc điểm":null,"layer_id":344,"fid":116,"label":null}},{"type":"Feature","id":94,"geometry":{"type":"Point","coordinates":[105.982364931,10.222814419]},"properties":{"Khu di tích":"Đình thần Phước Hậu","Địa chỉ":"Xã Long Hồ, Tỉnh Vĩnh Long","Năm xây dựng":null,"Đặc điểm":null,"layer_id":344,"fid":94,"label":"Đình thần Phước Hậu"}},{"type":"Feature","id":45,"geometry":{"type":"Point","coordinates":[106.189620514,10.084127988]},"properties":{"Khu di tích":"Tượng đài Đốc binh Lê Cẩn – Nguyễn Giao và Hồ Vũng Linh","Địa chỉ":"xã Trung Thành, tỉnh Vĩnh Long","Năm xây dựng":"2005","Đặc điểm":null,"layer_id":344,"fid":45,"label":"Tượng đài Đốc binh Lê Cẩn – Nguyễn Giao và Hồ Vũng Linh"}},{"type":"Feature","id":119,"geometry":{"type":"Point","coordinates":[0.0,0.0]},"properties":{"Khu di tích":null,"Địa chỉ":null,"Năm xây dựng":null,"Đặc điểm":null,"layer_id":344,"fid":119,"label":null}},{"type":"Feature","id":120,"geometry":{"type":"Point","coordinates":[0.0,0.0]},"properties":{"Khu di tích":null,"Địa chỉ":null,"Năm xây dựng":null,"Đặc điểm":null,"layer_id":344,"fid":120,"label":null}},{"type":"Feature","id":84,"geometry":{"type":"Point","coordinates":[106.725049712,10.051985218]},"properties":{"Khu di tích":"Bia tưởng niệm đoàn Văn Công Thanh Hải","Địa chỉ":"Xã Thới Thuận, tỉnh Vĩnh Long","Năm xây dựng":null,"Đặc điểm":null,"layer_id":344,"fid":84,"label":"Bia tưởng niệm đoàn Văn Công Thanh Hải"}},{"type":"Feature","id":85,"geometry":{"type":"Point","coordinates":[106.326288342,10.126282179]},"properties":{"Khu di tích":"Đình Hội Yên","Địa chỉ":"Xã Mỏ Cày, tỉnh Vĩnh Long","Năm xây dựng":"1883","Đặc điểm":null,"layer_id":344,"fid":85,"label":"Đình Hội Yên"}},{"type":"Feature","id":86,"geometry":{"type":"Point","coordinates":[106.220379393,10.208734422]},"properties":{"Khu di tích":"Nhà bia Trương Vĩnh Ký","Địa chỉ":"Xã Vĩnh Thành, tỉnh Vĩnh Long","Năm xây dựng":"1937","Đặc điểm":null,"layer_id":344,"fid":86,"label":"Nhà bia Trương Vĩnh Ký"}}]}
