{"type":"FeatureCollection","name":"Cơ sở kinh doanh mua bán khí","metadata":{"source":"https://hatang.vinhlong.gov.vn/","downloaded_at":"2026-07-20T01:18:09+00:00","layer_id":348,"layer_name":"Cơ sở kinh doanh mua bán khí","catalog_endpoints":["/map/publicLayers2?inputs=socongthuong"],"requested_bbox":[104.0,8.0,108.0,12.0],"tile_size":0.0,"tile_count":1,"tile_errors":[],"feature_count":32,"coordinate_order":"x,y (thường là longitude,latitude theo cấu hình EPSG:4326 của WebGIS)"},"features":[{"type":"Feature","id":1,"geometry":{"type":"Point","coordinates":[106.304950352,9.992764988]},"properties":{"Cửa hàng":"Công ty TNHH Đặng Anh","Địa chỉ":"02943853272","Điện thoại":"28, Hùng Vương, khóm 3, Phường Long Đức, tỉnh Vĩnh Long","layer_id":348,"fid":1,"label":"Công ty TNHH Đặng Anh"}},{"type":"Feature","id":2,"geometry":{"type":"Point","coordinates":[106.340596666,9.922226327]},"properties":{"Cửa hàng":"Công ty TNHH Thương Mại Dầu Khí Hoàng Đông","Địa chỉ":"0913790826","Điện thoại":"164 Nguyễn Chí Thanh, K7, Phường Trà Vinh, tỉnh Vĩnh Long","layer_id":348,"fid":2,"label":"Công ty TNHH Thương Mại Dầu Khí Hoàng Đông"}},{"type":"Feature","id":3,"geometry":{"type":"Point","coordinates":[106.336897536,9.936168648]},"properties":{"Cửa hàng":"Công Ty TNHH MTV Xăng Dầu Trà Vinh","Địa chỉ":"02943863321","Điện thoại":"24 Nguyễn Thị Minh Khai, Phường Trà Vinh, tỉnh Vĩnh Long","layer_id":348,"fid":3,"label":"Công Ty TNHH MTV Xăng Dầu Trà Vinh"}},{"type":"Feature","id":4,"geometry":{"type":"Point","coordinates":[106.268905138,10.009383032]},"properties":{"Cửa hàng":"Công ty Cổ phần Bách hoá Tổng hợp TAVI","Địa chỉ":"0967783509","Điện thoại":"Tổ 4, ấp Đon, xã Nhị Long, tỉnh Vĩnh Long","layer_id":348,"fid":4,"label":"Công ty Cổ phần Bách hoá Tổng hợp TAVI"}},{"type":"Feature","id":5,"geometry":{"type":"Point","coordinates":[106.188211449,10.085116185]},"properties":{"Cửa hàng":"DNTN Lãm","Địa chỉ":"0379123459","Điện thoại":"Tổ 9, ấp Bình Thành, xã \nTrung Thành, tỉnh Vĩnh Long","layer_id":348,"fid":5,"label":"DNTN Lãm"}},{"type":"Feature","id":6,"geometry":{"type":"Point","coordinates":[105.908834995,10.134560088]},"properties":{"Cửa hàng":"Công ty TNHH Gas Thuận Phát","Địa chỉ":"0907966456","Điện thoại":"Tổ 1, ấp Phú Lợi, xã Song Phú, tỉnh Vĩnh Long","layer_id":348,"fid":6,"label":"Công ty TNHH Gas Thuận Phát"}},{"type":"Feature","id":7,"geometry":{"type":"Point","coordinates":[105.835606781,10.061873898]},"properties":{"Cửa hàng":"Công ty TNHH Gas Tây Đô","Địa chỉ":"02703750789","Điện thoại":"Tổ 24, ấp Đông Lợi, phường Đông Thành, tỉnh Vĩnh Long","layer_id":348,"fid":7,"label":"Công ty TNHH Gas Tây Đô"}},{"type":"Feature","id":8,"geometry":{"type":"Point","coordinates":[105.836236007,10.034881955]},"properties":{"Cửa hàng":"Công ty TNHH Hoàng Ân Tây Ninh - CN Vĩnh Long","Địa chỉ":"028 6256 1652","Điện thoại":"Tổ 24 ấp Đông Lợi, phường Đông Thành, tỉnh Vĩnh Long","layer_id":348,"fid":8,"label":"Công ty TNHH Hoàng Ân Tây Ninh - CN Vĩnh Long"}},{"type":"Feature","id":9,"geometry":{"type":"Point","coordinates":[105.821817005,10.065873591]},"properties":{"Cửa hàng":"Công ty TNHH MTV TM-DV Nguyễn Quốc","Địa chỉ":"02703 212 895","Điện thoại":"1424 tổ 11 ấp Thuận Tiến C, phường Bình Minh, tỉnh Vĩnh Long","layer_id":348,"fid":9,"label":"Công ty TNHH MTV TM-DV Nguyễn Quốc"}},{"type":"Feature","id":10,"geometry":{"type":"Point","coordinates":[106.011821341,10.166003126]},"properties":{"Cửa hàng":"Công ty TNHH Trường Đạt","Địa chỉ":"02703 946 494","Điện thoại":"90/5 ấp An Hiệp, xã Long Hồ, tỉnh Vĩnh Long","layer_id":348,"fid":10,"label":"Công ty TNHH Trường Đạt"}},{"type":"Feature","id":11,"geometry":{"type":"Point","coordinates":[106.19390525,10.072378696]},"properties":{"Cửa hàng":"Công ty TNHH MTV Gas Trần Nguyễn","Địa chỉ":"02703 976 499","Điện thoại":"Tổ 7 ấp Trung Trạch, xã Trung Thành, tỉnh Vĩnh Long","layer_id":348,"fid":11,"label":"Công ty TNHH MTV Gas Trần Nguyễn"}},{"type":"Feature","id":12,"geometry":{"type":"Point","coordinates":[106.055010394,10.240331496]},"properties":{"Cửa hàng":"DNTN Chí Đạt Vĩnh Long","Địa chỉ":"02703 849 603","Điện thoại":"Số 162, ấp CHợ, xã Nhơn Phú, tỉnh Vĩnh Long","layer_id":348,"fid":12,"label":"DNTN Chí Đạt Vĩnh Long"}},{"type":"Feature","id":13,"geometry":{"type":"Point","coordinates":[105.849543255,10.087743904]},"properties":{"Cửa hàng":"DNTN TM Tân Ngọc Thu","Địa chỉ":"02703 750 306","Điện thoại":"1424 tổ 11, ấp Thuận Tiến C, phường Bình Minh, tỉnh Vĩnh Long","layer_id":348,"fid":13,"label":"DNTN TM Tân Ngọc Thu"}},{"type":"Feature","id":14,"geometry":{"type":"Point","coordinates":[106.004456281,10.256715345]},"properties":{"Cửa hàng":"Công ty TNHH Gas\nThu Ngọc","Địa chỉ":"0913 838 638","Điện thoại":"Số 101A, đường 14/9, Phường Thanh Đức, tỉnh Vĩnh Long","layer_id":348,"fid":14,"label":"Công ty TNHH Gas\nThu Ngọc"}},{"type":"Feature","id":15,"geometry":{"type":"Point","coordinates":[105.952492104,10.08669289]},"properties":{"Cửa hàng":"Công ty TNHH MTV Gas \nTrường An","Địa chỉ":"0355229069","Điện thoại":"Số 4, tổ 1, ấp Mỹ Phú, xã Cái Ngang, tỉnh Vĩnh Long","layer_id":348,"fid":15,"label":"Công ty TNHH MTV Gas \nTrường An"}},{"type":"Feature","id":16,"geometry":{"type":"Point","coordinates":[105.908840694,10.133687419]},"properties":{"Cửa hàng":"Công ty TNHH Gas\nVĩnh Long","Địa chỉ":"02703.864.616 ","Điện thoại":"Số 15A ấp Phú Hưng, xã Song Phú, tỉnh Vĩnh Long","layer_id":348,"fid":16,"label":"Công ty TNHH Gas\nVĩnh Long"}},{"type":"Feature","id":17,"geometry":{"type":"Point","coordinates":[105.953172413,10.258056449]},"properties":{"Cửa hàng":"Công ty TNHH Gas Cát Tường","Địa chỉ":"0939.459.068 ","Điện thoại":"Số 21/1B, đường Phạm Hùng, khóm 5, phường Long Châu, tỉnh Vĩnh Long","layer_id":348,"fid":17,"label":"Công ty TNHH Gas Cát Tường"}},{"type":"Feature","id":18,"geometry":{"type":"Point","coordinates":[106.145646388,10.070614739]},"properties":{"Cửa hàng":"Công ty TNHH Thanh Lãm","Địa chỉ":"0914.140.949","Điện thoại":"Thửa đất số 68, tờ bản đồ số 32, tổ 4, ấp An Thành Đông, xã Trung Thành, tỉnh Vĩnh Long","layer_id":348,"fid":18,"label":"Công ty TNHH Thanh Lãm"}},{"type":"Feature","id":20,"geometry":{"type":"Point","coordinates":[106.268285515,10.194902244]},"properties":{"Cửa hàng":"DNTN Sáu Thu","Địa chỉ":"02753.845105","Điện thoại":"số 15, ấp Thanh Hòa, xã Phước Mỹ Trung","layer_id":348,"fid":20,"label":"DNTN Sáu Thu"}},{"type":"Feature","id":19,"geometry":{"type":"Point","coordinates":[106.581265626,10.090320146]},"properties":{"Cửa hàng":"DNTN kinh doanh gas Bình An","Địa chỉ":"0906949432","Điện thoại":"số 9, ấp An Hòa, xã  Ba Tri","layer_id":348,"fid":19,"label":"DNTN kinh doanh gas Bình An"}},{"type":"Feature","id":21,"geometry":{"type":"Point","coordinates":[106.3804796,10.251609347]},"properties":{"Cửa hàng":"Hộ kinh doanh Minh Hiếu","Địa chỉ":"0909.949.838","Điện thoại":"Số 138D khu phố 3, Phường Phú Khương, Tỉnh Vĩnh Long","layer_id":348,"fid":21,"label":"Hộ kinh doanh Minh Hiếu"}},{"type":"Feature","id":22,"geometry":{"type":"Point","coordinates":[106.38472728,10.261958334]},"properties":{"Cửa hàng":"Công ty TNHH MTV TMDV Tấn Hưng","Địa chỉ":"0909173439","Điện thoại":"403 F Nguyễn Văn Cánh, phường Phú Khương, tỉnh Vĩnh Long ","layer_id":348,"fid":22,"label":"Công ty TNHH MTV TMDV Tấn Hưng"}},{"type":"Feature","id":23,"geometry":{"type":"Point","coordinates":[106.369148952,10.252160111]},"properties":{"Cửa hàng":"DNTN Hồng Hạnh","Địa chỉ":"02753.823194","Điện thoại":"số 25 B2, Khu phố 4, phường Phú Khương, tỉnh Vĩnh Long","layer_id":348,"fid":23,"label":"DNTN Hồng Hạnh"}},{"type":"Feature","id":24,"geometry":{"type":"Point","coordinates":[106.361595883,10.286603013]},"properties":{"Cửa hàng":"Doanh Nghiệp Tư Nhân Gas Hoàng Oanh","Địa chỉ":"0902432717","Điện thoại":"Số 56 đường số 2, ấp An Thuận A, Phường An Hội, tỉnh Vĩnh Long","layer_id":348,"fid":24,"label":"Doanh Nghiệp Tư Nhân Gas Hoàng Oanh"}},{"type":"Feature","id":25,"geometry":{"type":"Point","coordinates":[106.138419435,10.253254273]},"properties":{"Cửa hàng":"Công ty TNHH MTV Cường Thịnh Bến Tre","Địa chỉ":"0918008429","Điện thoại":"số 711/1 ấp 1, phường Sơn Đông, tỉnh Vĩnh Long","layer_id":348,"fid":25,"label":"Công ty TNHH MTV Cường Thịnh Bến Tre"}},{"type":"Feature","id":26,"geometry":{"type":"Point","coordinates":[106.23884071,10.264824208]},"properties":{"Cửa hàng":"Công ty TNHH Gas Hưng Tiên Thủy","Địa chỉ":"02753623456","Điện thoại":"Tổ 11, Khu phố Chánh, xã \nTiên Thủy, tỉnh Vĩnh Long","layer_id":348,"fid":26,"label":"Công ty TNHH Gas Hưng Tiên Thủy"}},{"type":"Feature","id":27,"geometry":{"type":"Point","coordinates":[106.366924532,10.261350149]},"properties":{"Cửa hàng":"Công ty TNHH Dầu Khí Bến Tre (Phú gas)","Địa chỉ":"0979097930 ","Điện thoại":"143/2 ấp Phước Hưng, xã Giao Long, tỉnh Vĩnh Long","layer_id":348,"fid":27,"label":"Công ty TNHH Dầu Khí Bến Tre (Phú gas)"}},{"type":"Feature","id":28,"geometry":{"type":"Point","coordinates":[106.397249873,10.324717486]},"properties":{"Cửa hàng":"Cty TNHH Gas Phương Tuyền","Địa chỉ":"02753870717","Điện thoại":"ấp An Hội A, xã An Thuận, tỉnh Vĩnh Long","layer_id":348,"fid":28,"label":"Cty TNHH Gas Phương Tuyền"}},{"type":"Feature","id":29,"geometry":{"type":"Point","coordinates":[106.384882696,10.210539558]},"properties":{"Cửa hàng":"Hộ kinh doanh cửa hàng Gas dầu khí Bến Tre","Địa chỉ":"0984999493","Điện thoại":"số 441B  ấp 01, phường Sơn Đông, tỉnh Vĩnh Long ","layer_id":348,"fid":29,"label":"Hộ kinh doanh cửa hàng Gas dầu khí Bến Tre"}},{"type":"Feature","id":30,"geometry":{"type":"Point","coordinates":[106.414064214,10.141818742]},"properties":{"Cửa hàng":" Công ty TNHH MTV Phước Long - Sơn Phú ","Địa chỉ":"0913965358","Điện thoại":"ấp Tân Điền 1 (thửa đất số 2154, tờ bản đồ số 3)phường An Hội, tỉnh Vĩnh Long","layer_id":348,"fid":30,"label":" Công ty TNHH MTV Phước Long - Sơn Phú "}},{"type":"Feature","id":31,"geometry":{"type":"Point","coordinates":[106.537308884,10.073162743]},"properties":{"Cửa hàng":"Công ty TNHH Gas Hiền Mai","Địa chỉ":"'0973003279 ","Điện thoại":"Thửa đất số 338, tờ bản đố số 11, ấp An Định 2, xã An Ngãi Trung, tỉnh Vĩnh Long","layer_id":348,"fid":31,"label":"Công ty TNHH Gas Hiền Mai"}},{"type":"Feature","id":32,"geometry":{"type":"Point","coordinates":[106.395404634,10.065207364]},"properties":{"Cửa hàng":"Hộ kinh doanh Lê Minh Tâm","Địa chỉ":"0914014794   ","Điện thoại":"ấp Phước Thiện, phường Phú Tân, tỉnh Vĩnh Long","layer_id":348,"fid":32,"label":"Hộ kinh doanh Lê Minh Tâm"}}]}
