{"type":"FeatureCollection","name":"Sản phẩm nông thôn tiêu biểu","metadata":{"source":"https://hatang.vinhlong.gov.vn/","downloaded_at":"2026-07-20T01:18:15+00:00","layer_id":349,"layer_name":"Sản phẩm nông thôn tiêu biểu","catalog_endpoints":["/map/publicLayers2?inputs=socongthuong"],"requested_bbox":[104.0,8.0,108.0,12.0],"tile_size":0.0,"tile_count":1,"tile_errors":[],"feature_count":85,"coordinate_order":"x,y (thường là longitude,latitude theo cấu hình EPSG:4326 của WebGIS)"},"features":[{"type":"Feature","id":16,"geometry":{"type":"Point","coordinates":[106.127061323,10.081090663]},"properties":{"Công ty":"Hộ kinh doanh Thành Công","Địa chỉ":"Số 9, tổ 9, ấp Tân Quang, xã Hiếu Phụng, tỉnh Vĩnh Long","Số điện thoại":"0986 550 678","Năng lực sản xuất":"100 tấn/năm","Sản phẩm":"Bộ sản phẩm: chả lụa, chả thủ Thành Công","Cấp khu vực":null,"Cấp quốc gia":null,"layer_id":349,"fid":16,"label":"Hộ kinh doanh Thành Công"}},{"type":"Feature","id":86,"geometry":{"type":"Point","coordinates":[105.993711848,10.258952505]},"properties":{"Công ty":"Công ty TNHH mỹ nghệ Thanh Đức","Địa chỉ":"đường 14/9, phường Thanh Đức, tỉnh Vĩnh Long","Số điện thoại":"091 300 2819","Năng lực sản xuất":"300 chậu/ngày","Sản phẩm":"Chậu gốm đỏ bằng đất nung","Cấp khu vực":"2024","Cấp quốc gia":"2025","layer_id":349,"fid":86,"label":"Công ty TNHH mỹ nghệ Thanh Đức"}},{"type":"Feature","id":17,"geometry":{"type":"Point","coordinates":[106.195760461,10.062685193]},"properties":{"Công ty":"Hộ kinh doanh Hiệp Ký","Địa chỉ":"Tổ 06, ấp An Trung, xã Trung Thành, tỉnh Vĩnh Long","Số điện thoại":"902394030","Năng lực sản xuất":"10 tấn/năm","Sản phẩm":"Lạp xưởng Hiệp Ký","Cấp khu vực":null,"Cấp quốc gia":null,"layer_id":349,"fid":17,"label":"Hộ kinh doanh Hiệp Ký"}},{"type":"Feature","id":18,"geometry":{"type":"Point","coordinates":[106.146331403,10.068883559]},"properties":{"Công ty":"HKD cơ sở sản xuất bánh kẹo Ngọc Bích","Địa chỉ":"Số 241 ấp Bình Thành, xã Trung Hiếu, tỉnh Vĩnh Long","Số điện thoại":"0908 630 379","Năng lực sản xuất":"18 tấn/năm","Sản phẩm":"Bộ sản phẩm: cốm gạo, cốm nếp, cốm mì Ngọc Bích","Cấp khu vực":null,"Cấp quốc gia":null,"layer_id":349,"fid":18,"label":"HKD cơ sở sản xuất bánh kẹo Ngọc Bích"}},{"type":"Feature","id":87,"geometry":{"type":"Point","coordinates":[105.838790912,10.031293711]},"properties":{"Công ty":"Công ty TNHH MTV nguyên liệu xanh Thủy Tùng","Địa chỉ":"tổ 21, ấp Đông Lợi, phường Đông Thành, tỉnh Vĩnh Long","Số điện thoại":null,"Năng lực sản xuất":"12.000 gói/năm","Sản phẩm":"Nhang sạch Thủy Tùng","Cấp khu vực":null,"Cấp quốc gia":null,"layer_id":349,"fid":87,"label":"Công ty TNHH MTV nguyên liệu xanh Thủy Tùng"}},{"type":"Feature","id":19,"geometry":{"type":"Point","coordinates":[106.184282711,10.095996267]},"properties":{"Công ty":"Hộ kinh doanh Foodo","Địa chỉ":"Số 367, khóm 1, xã Trung Thành, tỉnh Vĩnh Long","Số điện thoại":"0931 820 309","Năng lực sản xuất":"5.000 sản phẩm/năm","Sản phẩm":"Mứt xoài Cát Núm Foodo","Cấp khu vực":null,"Cấp quốc gia":null,"layer_id":349,"fid":19,"label":"Hộ kinh doanh Foodo"}},{"type":"Feature","id":88,"geometry":{"type":"Point","coordinates":[105.913030593,10.274870554]},"properties":{"Công ty":"Nhà máy phân bón Cửu Long","Địa chỉ":"Số 405, khóm Tân Thuận, phường Tân Ngãi, tỉnh Vĩnh Long","Số điện thoại":"02703 822910","Năng lực sản xuất":"540 tấn/năm","Sản phẩm":"Phân hữu cơ SFJCBio-Gold G.A.P","Cấp khu vực":"2024","Cấp quốc gia":null,"layer_id":349,"fid":88,"label":"Nhà máy phân bón Cửu Long"}},{"type":"Feature","id":20,"geometry":{"type":"Point","coordinates":[105.888333372,10.114495329]},"properties":{"Công ty":"Hộ kinh doanh Truyện Oanh","Địa chỉ":"Số 649, tổ 47, ấp Phú Thuận, xã Song Phú, tỉnh Vĩnh Long","Số điện thoại":"0932 737 81","Năng lực sản xuất":"Chả lụa: 2,2 tấn/năm; Chả cốm: 1,5 tấn/năm; Pate: 1,5 tấn/năm; Nem nướng: 26 tấn/năm","Sản phẩm":"- Bộ sản phẩm: Chả lụa, Chả cốm, Pate;\n- Nem nướng","Cấp khu vực":null,"Cấp quốc gia":null,"layer_id":349,"fid":20,"label":"Hộ kinh doanh Truyện Oanh"}},{"type":"Feature","id":89,"geometry":{"type":"Point","coordinates":[105.908300304,10.123436336]},"properties":{"Công ty":"Cơ sở sản xuất gạch Tâm Nha","Địa chỉ":"Số 219, Tổ 17, Ấp Phú Ninh, Xã Song Phú, Vĩnh Long","Số điện thoại":"02703 864 266","Năng lực sản xuất":"220.000 viên/năm","Sản phẩm":"Gạch bê tông tự chèn","Cấp khu vực":null,"Cấp quốc gia":null,"layer_id":349,"fid":89,"label":"Cơ sở sản xuất gạch Tâm Nha"}},{"type":"Feature","id":90,"geometry":{"type":"Point","coordinates":[105.864184314,10.046056186]},"properties":{"Công ty":"HKD Trần Thanh Gian","Địa chỉ":"Số 08, tổ 11, khóm Đông Bình B, phường Đông Thành, tỉnh Vĩnh Long","Số điện thoại":"907022349","Năng lực sản xuất":"1,5–2 tấn/năm","Sản phẩm":"Mứt mãng cầu Thanh Tùng","Cấp khu vực":null,"Cấp quốc gia":null,"layer_id":349,"fid":90,"label":"HKD Trần Thanh Gian"}},{"type":"Feature","id":21,"geometry":{"type":"Point","coordinates":[105.913130288,10.007087455]},"properties":{"Công ty":"Hộ kinh doanh Trương Nhựt Thạnh","Địa chỉ":"Số 51, ấp Nhứt, xã Ngãi Tứ, tỉnh Vĩnh Long","Số điện thoại":"2703720199","Năng lực sản xuất":"Bộ sản phẩm: 68 tấn/năm; Hủ tiếu khô: 100 tấn/năm","Sản phẩm":"- Hủ tiếu khô Sáu Thạnh\n- Bộ sản phẩm: Bánh canh bột xắt, bún bò huế, bánh gạo, phở tươi, bún tươi, bánh canh Sáu Thạnh","Cấp khu vực":"2024","Cấp quốc gia":null,"layer_id":349,"fid":21,"label":"Hộ kinh doanh Trương Nhựt Thạnh"}},{"type":"Feature","id":22,"geometry":{"type":"Point","coordinates":[106.400524059,10.20084621]},"properties":{"Công ty":"Hộ kinh doanh Nguyễn Thị Thuận","Địa chỉ":"Số 301B, ấp 2A, Phường Phú Khương, tỉnh Vĩnh Long","Số điện thoại":"947962252","Năng lực sản xuất":"400 sản phẩm/năm","Sản phẩm":"Túi xách lục bình","Cấp khu vực":null,"Cấp quốc gia":null,"layer_id":349,"fid":22,"label":"Hộ kinh doanh Nguyễn Thị Thuận"}},{"type":"Feature","id":91,"geometry":{"type":"Point","coordinates":[105.970927913,10.254706889]},"properties":{"Công ty":"HKD lò nem con Sáu Xệ Vĩnh Long","Địa chỉ":"Số 85, khóm Tân Xuân, phường Tân Ngãi, tỉnh Vĩnh Long","Số điện thoại":null,"Năng lực sản xuất":"950kg/năm (chả lụa tiêu), 3,1 tấn/năm (nem chua)","Sản phẩm":"Nem chua, Chả lụa tiêu","Cấp khu vực":null,"Cấp quốc gia":null,"layer_id":349,"fid":91,"label":"HKD lò nem con Sáu Xệ Vĩnh Long"}},{"type":"Feature","id":23,"geometry":{"type":"Point","coordinates":[105.962702355,10.254107108]},"properties":{"Công ty":"Hộ kinh doanh Trường Ngân","Địa chỉ":"Số 19, Nguyễn Huệ, phường An Hội, tỉnh Vĩnh Long","Số điện thoại":"0966 361 719","Năng lực sản xuất":"500 sản phẩm/năm","Sản phẩm":"Vỏ bình trà gỗ dừa","Cấp khu vực":"2024","Cấp quốc gia":null,"layer_id":349,"fid":23,"label":"Hộ kinh doanh Trường Ngân"}},{"type":"Feature","id":92,"geometry":{"type":"Point","coordinates":[105.902863562,10.267126694]},"properties":{"Công ty":"HKD CSSX lò bì Út nước đá","Địa chỉ":"Số 28B, khóm Tân Phú, phường Tân Ngãi, tỉnh Vĩnh Long","Số điện thoại":"0862 929 359","Năng lực sản xuất":"5 tấn sản phẩm/năm","Sản phẩm":"Nem bì","Cấp khu vực":null,"Cấp quốc gia":null,"layer_id":349,"fid":92,"label":"HKD CSSX lò bì Út nước đá"}},{"type":"Feature","id":24,"geometry":{"type":"Point","coordinates":[106.36855206,10.214334418]},"properties":{"Công ty":"Hộ kinh doanh Bánh phồng Xuân Thắm","Địa chỉ":"Số 6D, ấp 2, Phường An Hội, tỉnh Vĩnh Long","Số điện thoại":"0987 135 244","Năng lực sản xuất":"22.000 sản phẩm/năm","Sản phẩm":"Bộ sản phẩm: Bánh phồng nước cốt dừa sữa béo đặc biệt, sầu riêng đặc biệt, lá dứa đặc biệt","Cấp khu vực":null,"Cấp quốc gia":null,"layer_id":349,"fid":24,"label":"Hộ kinh doanh Bánh phồng Xuân Thắm"}},{"type":"Feature","id":93,"geometry":{"type":"Point","coordinates":[105.937070384,10.262110391]},"properties":{"Công ty":"HKD CSSX Ba Khánh","Địa chỉ":"Số 24D, Tân Quới Tây, phường Long Châu, tỉnh Vĩnh Long","Số điện thoại":"02703 815066","Năng lực sản xuất":"Bánh canh gạo: 615 tấn/năm, Bánh phở: 366 tấn/năm, Bún tươi: 800 tấn/năm","Sản phẩm":"Bánh canh gạo, Bánh phở, Bún tươi","Cấp khu vực":"2024","Cấp quốc gia":"2025","layer_id":349,"fid":93,"label":"HKD CSSX Ba Khánh"}},{"type":"Feature","id":25,"geometry":{"type":"Point","coordinates":[106.335003584,10.239786561]},"properties":{"Công ty":"Công ty TNHH MTV SX Thanh Mai","Địa chỉ":"348E, Khu phố Phú Lợi, Phường Bến Tre, tỉnh Vĩnh Long","Số điện thoại":"0908 475 458","Năng lực sản xuất":"50.000 sản phẩm/năm","Sản phẩm":"Bộ sản phẩm kẹo dừa dẻo Thanh Mai","Cấp khu vực":null,"Cấp quốc gia":null,"layer_id":349,"fid":25,"label":"Công ty TNHH MTV SX Thanh Mai"}},{"type":"Feature","id":26,"geometry":{"type":"Point","coordinates":[106.355884372,10.227674812]},"properties":{"Công ty":"Công ty TNHH sản xuất kinh doanh tổng hợp Đông Á","Địa chỉ":"379C, Nguyễn Văn Tư, Phường Bến Tre, tỉnh Vĩnh Long","Số điện thoại":"02753 822 391 – 0947 994 488","Năng lực sản xuất":"1.220 tấn sản phẩm/năm","Sản phẩm":"Kẹo dừa ca cao","Cấp khu vực":"2024","Cấp quốc gia":"2025","layer_id":349,"fid":26,"label":"Công ty TNHH sản xuất kinh doanh tổng hợp Đông Á"}},{"type":"Feature","id":94,"geometry":{"type":"Point","coordinates":[105.979230448,10.250264827]},"properties":{"Công ty":"Công ty TNHH MTV Vĩnh Nghiệp","Địa chỉ":"Số 79, Trần Phú, Phường Phước Hậu, tỉnh Vĩnh Long","Số điện thoại":"0907 597279","Năng lực sản xuất":"2.850.000 trứng/năm","Sản phẩm":"Trứng vịt muối","Cấp khu vực":null,"Cấp quốc gia":null,"layer_id":349,"fid":94,"label":"Công ty TNHH MTV Vĩnh Nghiệp"}},{"type":"Feature","id":95,"geometry":{"type":"Point","coordinates":[105.962691061,10.253865258]},"properties":{"Công ty":"HKD ngon nhất Bakery","Địa chỉ":"Số 34, Nguyễn Huệ, phường Long Châu, tỉnh Vĩnh Long","Số điện thoại":"0939 878717","Năng lực sản xuất":"54.750 sản phẩm/năm","Sản phẩm":"Bánh bông lan","Cấp khu vực":null,"Cấp quốc gia":null,"layer_id":349,"fid":95,"label":"HKD ngon nhất Bakery"}},{"type":"Feature","id":27,"geometry":{"type":"Point","coordinates":[106.365906285,10.234363739]},"properties":{"Công ty":"Hộ kinh doanh kẹo dừa Thái Hoà","Địa chỉ":"352D, Khu phố 4, Phường An Hội, tỉnh Vĩnh Long","Số điện thoại":"02753 810 846 – 0908 902 466","Năng lực sản xuất":"200 tấn sản phẩm/năm","Sản phẩm":"Kẹo dừa Huỳnh Yến","Cấp khu vực":"2024","Cấp quốc gia":null,"layer_id":349,"fid":27,"label":"Hộ kinh doanh kẹo dừa Thái Hoà"}},{"type":"Feature","id":28,"geometry":{"type":"Point","coordinates":[106.335738754,10.135444547]},"properties":{"Công ty":"Công ty TNHH Funny Fruit","Địa chỉ":"45B, Ấp 7, xã Mỏ Cày, tỉnh Vĩnh Long","Số điện thoại":"0975 283 750","Năng lực sản xuất":"400.000 sản phẩm/năm","Sản phẩm":"Bộ sản phẩm: Dừa sấy giòn vị sữa, gừng, tỏi ớt","Cấp khu vực":"2024","Cấp quốc gia":null,"layer_id":349,"fid":28,"label":"Công ty TNHH Funny Fruit"}},{"type":"Feature","id":96,"geometry":{"type":"Point","coordinates":[105.952547307,10.223792689]},"properties":{"Công ty":"Công ty TNHH bánh Nhật Ngọc","Địa chỉ":"Số 70B, Đinh Tiên Hoàng, phường Tân Hạnh, tỉnh Vĩnh Long","Số điện thoại":"906994349","Năng lực sản xuất":"12 tấn/năm","Sản phẩm":"Bộ sản phẩm: Các loại bánh làm từ khoai lang","Cấp khu vực":null,"Cấp quốc gia":null,"layer_id":349,"fid":96,"label":"Công ty TNHH bánh Nhật Ngọc"}},{"type":"Feature","id":29,"geometry":{"type":"Point","coordinates":[106.332337284,10.137887936]},"properties":{"Công ty":"Cty TNHH 1TV Tuyết Phụng","Địa chỉ":"56B, Quốc Lộ 60, ấp 7, Xã Mỏ Cày, tỉnh Vĩnh Long","Số điện thoại":"0909 734 299","Năng lực sản xuất":"40 tấn sản phẩm/năm","Sản phẩm":"Bộ sản phẩm: Kẹo dừa béo nước cốt dừa, đậu phộng sầu riêng","Cấp khu vực":"2024","Cấp quốc gia":null,"layer_id":349,"fid":29,"label":"Cty TNHH 1TV Tuyết Phụng"}},{"type":"Feature","id":97,"geometry":{"type":"Point","coordinates":[105.922799661,9.964203816]},"properties":{"Công ty":"HKD Võ Văn Dũng","Địa chỉ":"Số 25/6AB, đường Thống Chế Điều Bát, khu 2, xã Trà Ôn, tỉnh Vĩnh Long","Số điện thoại":"0907 737 309","Năng lực sản xuất":"20.000 hộp/năm","Sản phẩm":"Bộ sản phẩm: Trà hoa nhân sâm và trà gừng đen","Cấp khu vực":null,"Cấp quốc gia":null,"layer_id":349,"fid":97,"label":"HKD Võ Văn Dũng"}},{"type":"Feature","id":30,"geometry":{"type":"Point","coordinates":[106.274963021,10.232884601]},"properties":{"Công ty":"Công ty TNHH SX TM Nông sản Kim Long","Địa chỉ":"Ấp Phú Bình, xã Phước Mỹ Trung, tỉnh Vĩnh Long","Số điện thoại":"0275 659 6779 – 0917 737 909","Năng lực sản xuất":"35 tấn sản phẩm/năm","Sản phẩm":"Dầu dừa","Cấp khu vực":"2024","Cấp quốc gia":"2025","layer_id":349,"fid":30,"label":"Công ty TNHH SX TM Nông sản Kim Long"}},{"type":"Feature","id":98,"geometry":{"type":"Point","coordinates":[105.998230169,10.307800613]},"properties":{"Công ty":"HKD Nguyễn Trường Ái","Địa chỉ":"Số 70/8 ấp Phú Thạnh, xã Long Hồ, tỉnh Vĩnh Long","Số điện thoại":"0979 665 442","Năng lực sản xuất":"20.000 hộp/năm","Sản phẩm":"Trà bồ công anh","Cấp khu vực":null,"Cấp quốc gia":null,"layer_id":349,"fid":98,"label":"HKD Nguyễn Trường Ái"}},{"type":"Feature","id":31,"geometry":{"type":"Point","coordinates":[106.255420235,10.155356126]},"properties":{"Công ty":"Hộ kinh doanh mật Ong Miền Tây","Địa chỉ":"Ấp Hưng Nhơn, xã Hưng Khánh Trung, tỉnh Vĩnh Long","Số điện thoại":"0913 722 890","Năng lực sản xuất":"9.000 sản phẩm/năm","Sản phẩm":"Mật Ong Miền Tây","Cấp khu vực":null,"Cấp quốc gia":null,"layer_id":349,"fid":31,"label":"Hộ kinh doanh mật Ong Miền Tây"}},{"type":"Feature","id":32,"geometry":{"type":"Point","coordinates":[106.500008122,10.100521928]},"properties":{"Công ty":"HKD Cơ sở Sản xuất bánh phồng Sơn Đốc Dư Xuân","Địa chỉ":"Ấp Hưng Hòa Đông, xã Hưng Nhượng, tỉnh Vĩnh Long","Số điện thoại":"0399 962 106","Năng lực sản xuất":"6.000 sản phẩm/năm","Sản phẩm":"Bánh phồng mì nước cốt dừa","Cấp khu vực":null,"Cấp quốc gia":null,"layer_id":349,"fid":32,"label":"HKD Cơ sở Sản xuất bánh phồng Sơn Đốc Dư Xuân"}},{"type":"Feature","id":99,"geometry":{"type":"Point","coordinates":[106.098221205,10.176497265]},"properties":{"Công ty":"Công ty CP SOMO FARM Cửu Long","Địa chỉ":"Khóm 3, xã Cái Nhum, tỉnh Vĩnh Long","Số điện thoại":"0896 164 555","Năng lực sản xuất":"99.990 lít/năm","Sản phẩm":"Bộ sản phẩm: rượu Cửu Long mỹ tửu,\nBộ sản phẩm: Rượu truyền thống Cửu Long","Cấp khu vực":null,"Cấp quốc gia":null,"layer_id":349,"fid":99,"label":"Công ty CP SOMO FARM Cửu Long"}},{"type":"Feature","id":100,"geometry":{"type":"Point","coordinates":[0.0,0.0]},"properties":{"Công ty":"HTX sản xuất dịch vụ nông nghiệp Tấn Đạt","Địa chỉ":"Số 93, ấp Kinh, xã Trung Ngãi, tỉnh Vĩnh Long","Số điện thoại":"0972 773555","Năng lực sản xuất":"300 tấn/năm","Sản phẩm":"Gạo hữu cơ Tấn Đạt","Cấp khu vực":"2024","Cấp quốc gia":null,"layer_id":349,"fid":100,"label":"HTX sản xuất dịch vụ nông nghiệp Tấn Đạt"}},{"type":"Feature","id":33,"geometry":{"type":"Point","coordinates":[106.422420284,10.226427403]},"properties":{"Công ty":"HTX bánh tráng Mỹ Lồng","Địa chỉ":"Số nhà 850, ấp Nghĩa Huấn, xã Lương Phú, tỉnh Vĩnh Long","Số điện thoại":"0822 477 879","Năng lực sản xuất":"6.500 sản phẩm/năm","Sản phẩm":"Bánh tráng dừa","Cấp khu vực":null,"Cấp quốc gia":null,"layer_id":349,"fid":33,"label":"HTX bánh tráng Mỹ Lồng"}},{"type":"Feature","id":34,"geometry":{"type":"Point","coordinates":[106.428007757,10.217059014]},"properties":{"Công ty":"Cơ sở Ngọc Rí","Địa chỉ":"Xã Lương Phú, tỉnh Vĩnh Long","Số điện thoại":"0912 313 791","Năng lực sản xuất":"6.500 sản phẩm/năm","Sản phẩm":"Mứt mãng cầu xiêm","Cấp khu vực":null,"Cấp quốc gia":null,"layer_id":349,"fid":34,"label":"Cơ sở Ngọc Rí"}},{"type":"Feature","id":35,"geometry":{"type":"Point","coordinates":[106.390239991,10.184640753]},"properties":{"Công ty":"HKD Phạm Thị Thanh Phượng","Địa chỉ":"Phường An Hội, tỉnh Vĩnh Long","Số điện thoại":"0888 538 888","Năng lực sản xuất":"20.000 sản phẩm/năm","Sản phẩm":"Bộ sản phẩm: Chanh muối Hải Phượng, Chanh muối cam thảo Ngọc Ý","Cấp khu vực":"2024","Cấp quốc gia":null,"layer_id":349,"fid":35,"label":"HKD Phạm Thị Thanh Phượng"}},{"type":"Feature","id":36,"geometry":{"type":"Point","coordinates":[106.586776462,10.219100928]},"properties":{"Công ty":"Công ty TNHH TM & DV SEPLABEO","Địa chỉ":"Ấp Lộc Sơn, xã Lộc Thuận, tỉnh Vĩnh Long","Số điện thoại":"0753 855 125 – 0968 341 122","Năng lực sản xuất":"1.300 sản phẩm/năm","Sản phẩm":"Rượu Đông trùng hạ thảo Quang Vy tinh chất dừa","Cấp khu vực":null,"Cấp quốc gia":null,"layer_id":349,"fid":36,"label":"Công ty TNHH TM & DV SEPLABEO"}},{"type":"Feature","id":37,"geometry":{"type":"Point","coordinates":[106.48148992,10.252479514]},"properties":{"Công ty":"Công ty cổ phần mật ong Tín Phát","Địa chỉ":"Ấp Hưng Nhơn, xã Châu Hưng, tỉnh Vĩnh Long","Số điện thoại":"0275 374 6100 – 0907 414 678","Năng lực sản xuất":"13.000 sản phẩm/năm","Sản phẩm":"Bộ sản phẩm: Mật ong Hoa Nhãn, Hoa Dừa, Mật ong Ruồi","Cấp khu vực":"2024","Cấp quốc gia":null,"layer_id":349,"fid":37,"label":"Công ty cổ phần mật ong Tín Phát"}},{"type":"Feature","id":38,"geometry":{"type":"Point","coordinates":[106.522360055,9.951806761]},"properties":{"Công ty":"Hộ kinh doanh Loan Phát","Địa chỉ":"Xã Thạnh Phú, tỉnh Vĩnh Long","Số điện thoại":"0931 446 329","Năng lực sản xuất":"700.000 sản phẩm/năm","Sản phẩm":"Bánh bao Loan Phát","Cấp khu vực":"2024","Cấp quốc gia":null,"layer_id":349,"fid":38,"label":"Hộ kinh doanh Loan Phát"}},{"type":"Feature","id":39,"geometry":{"type":"Point","coordinates":[106.478310775,9.98227732]},"properties":{"Công ty":"Hộ kinh doanh tiệm Bánh Ngọc My","Địa chỉ":"Xã Quới Điền, tỉnh Vĩnh Long","Số điện thoại":"0977 474 526","Năng lực sản xuất":"5.500 sản phẩm/năm","Sản phẩm":"Bánh Pía Ngọc My","Cấp khu vực":null,"Cấp quốc gia":null,"layer_id":349,"fid":39,"label":"Hộ kinh doanh tiệm Bánh Ngọc My"}},{"type":"Feature","id":40,"geometry":{"type":"Point","coordinates":[106.229699871,10.305340285]},"properties":{"Công ty":"Hộ kinh doanh kẹo chuối Ngọc Kim Ngân","Địa chỉ":"Xã Tân Phú, tỉnh Vĩnh Long","Số điện thoại":"0333 372 007","Năng lực sản xuất":"4.500 sản phẩm/năm","Sản phẩm":"Kẹo chuối Ngọc Kim Ngân","Cấp khu vực":null,"Cấp quốc gia":null,"layer_id":349,"fid":40,"label":"Hộ kinh doanh kẹo chuối Ngọc Kim Ngân"}},{"type":"Feature","id":41,"geometry":{"type":"Point","coordinates":[106.367141104,10.061907593]},"properties":{"Công ty":"Công ty TNHH MTV XNK Dừa Hưng Long","Địa chỉ":"2B, khu phố 7, xã Mỏ Cày, tỉnh Vĩnh Long","Số điện thoại":"0977 425 272","Năng lực sản xuất":"120.000 cuộn sản phẩm/năm","Sản phẩm":"Lưới phủ đất","Cấp khu vực":"2024","Cấp quốc gia":"2025","layer_id":349,"fid":41,"label":"Công ty TNHH MTV XNK Dừa Hưng Long"}},{"type":"Feature","id":42,"geometry":{"type":"Point","coordinates":[106.200945116,9.8259632]},"properties":{"Công ty":"Công ty TNHH Trà Vinh Farm","Địa chỉ":"Ấp Cây Hẹ, xã Tiểu Cần, tỉnh Vĩnh Long","Số điện thoại":"0974 038 946","Năng lực sản xuất":"Đường hoa dừa: 5 tấn/tháng; Nước tương mật hoa dừa: 8 tấn/tháng","Sản phẩm":"Bộ sản phẩm: Nước tương mật hoa dừa; Đường hoa dừa Sokfarm","Cấp khu vực":"2024","Cấp quốc gia":null,"layer_id":349,"fid":42,"label":"Công ty TNHH Trà Vinh Farm"}},{"type":"Feature","id":46,"geometry":{"type":"Point","coordinates":[106.507209459,9.690142256]},"properties":{"Công ty":"Hộ kinh doanh tiệm bánh Ngọc Thu","Địa chỉ":"Khóm 1, phường Trường Long Hòa, tỉnh Vĩnh Long","Số điện thoại":"0393 172 919","Năng lực sản xuất":"Theo đơn hàng","Sản phẩm":"Bánh bao chỉ Ngọc Thu","Cấp khu vực":null,"Cấp quốc gia":null,"layer_id":349,"fid":46,"label":"Hộ kinh doanh tiệm bánh Ngọc Thu"}},{"type":"Feature","id":43,"geometry":{"type":"Point","coordinates":[106.341354243,9.932806845]},"properties":{"Công ty":"Công ty cổ phần Trà Bắc","Địa chỉ":"Số 216, Bạch Đằng, phường Long Đức, tỉnh Vĩnh Long","Số điện thoại":"(84.294) 2240495; 3852561","Năng lực sản xuất":"Cơm dừa sấy khô: 2.500–3.000 tấn/năm; Than Anthracite: 3.000–4.000 tấn/năm; Than hoạt tính sọ dừa & Than viên BBQ: 5.000–6.000 tấn/năm\nNước cốt dừa cấp đông: 1.000–1.500 tấn/năm","Sản phẩm":"- Cơm dừa sấy khô, Than Anthracite.\n- Bộ sản phẩm: Than hoạt tính sọ dừa; Than viên BBQ\n- Nước cốt dừa cấp đông","Cấp khu vực":"Năm 2024:\nCơm dừa sấy khô, than Anthracite.","Cấp quốc gia":"Năm 2025: Cơm dừa sấy khô, than Anthracite.\nNăm 2023: Nước cốt dừa cấp đông","layer_id":349,"fid":43,"label":"Công ty cổ phần Trà Bắc"}},{"type":"Feature","id":44,"geometry":{"type":"Point","coordinates":[106.104852656,9.945788441]},"properties":{"Công ty":"Công ty TNHH Chế biến dừa Sáp Cầu Kè","Địa chỉ":"Số 253/5, ấp 2, xã Tam Ngãi, tỉnh Vĩnh Long","Số điện thoại":"0947 862 133 – 0916 539 439","Năng lực sản xuất":"Kẹo: 2 tấn/tháng; Dừa sáp sợi: 10.000 lọ/tháng; Kẹo chuối gân: 10–20 tấn/tháng","Sản phẩm":"- Bộ sản phẩm: Kẹo dừa Sáp lá dứa, nguyên chất, cacao; Cơm dừa Sáp sợi.\n- Sữa chua dừa Sáp sấy khô giòn tan.\n- Bộ sản phẩm: Bánh Vicosap dừa Sáp và khoai lang, bí đỏ, chuối.\n-Kẹo chuối gân.\n- Dừa Sáp sấy khô giòn tan.","Cấp khu vực":"Năm 2024: Bộ sản phẩm: Kẹo dừa Sáp lá dứa, nguyên chất, cacao; Cơm dừa Sáp sợi.","Cấp quốc gia":"Năm 2025: Bộ sản phẩm: Kẹo dừa Sáp lá dứa, nguyên chất, cacao; Cơm dừa Sáp sợi.","layer_id":349,"fid":44,"label":"Công ty TNHH Chế biến dừa Sáp Cầu Kè"}},{"type":"Feature","id":45,"geometry":{"type":"Point","coordinates":[106.431985017,9.859786399]},"properties":{"Công ty":"Hộ kinh doanh Mai Hoàng Lý","Địa chỉ":"Ấp Trà Cuôn, xã Vinh Kim, tỉnh Vĩnh Long","Số điện thoại":"0913 826 002","Năng lực sản xuất":"1.800 đòn bánh/tháng và theo mùa vụ","Sản phẩm":"Bộ sản phẩm: Bánh tét ngót; Bánh tét ba màu; Bánh tét tứ quý","Cấp khu vực":"2024","Cấp quốc gia":null,"layer_id":349,"fid":45,"label":"Hộ kinh doanh Mai Hoàng Lý"}},{"type":"Feature","id":47,"geometry":{"type":"Point","coordinates":[106.341355717,9.931184196]},"properties":{"Công ty":"Hộ kinh doanh Cơ sở sản xuất Dầu dừa sạch Phương Huỳnh","Địa chỉ":"Số 129 Điện Biên Phủ, khóm 4, Phường Trà Vinh, tỉnh Vĩnh Long","Số điện thoại":"0383 596 769","Năng lực sản xuất":"5 tấn/tháng","Sản phẩm":"Dầu dừa KoKoFi","Cấp khu vực":"2024","Cấp quốc gia":null,"layer_id":349,"fid":47,"label":"Hộ kinh doanh Cơ sở sản xuất Dầu dừa sạch Phương Huỳnh"}},{"type":"Feature","id":48,"geometry":{"type":"Point","coordinates":[106.503548914,9.640679158]},"properties":{"Công ty":"Doanh nghiệp tư nhân Phong Vinh","Địa chỉ":"Khóm Long Thạnh, Phường Duyên Hải, tỉnh Vĩnh Long","Số điện thoại":"0974 288 781","Năng lực sản xuất":"1.000 lít/tháng","Sản phẩm":"Mắm sà rinh Long Vinh\nNước mắm rươi Long Vinh","Cấp khu vực":null,"Cấp quốc gia":null,"layer_id":349,"fid":48,"label":"Doanh nghiệp tư nhân Phong Vinh"}},{"type":"Feature","id":49,"geometry":{"type":"Point","coordinates":[106.339583494,9.933596471]},"properties":{"Công ty":"Công ty Lương thực Trà Vinh","Địa chỉ":"Số 102, đường Trần Phú, Phường Trà Vinh, tỉnh Vĩnh Long","Số điện thoại":"0294 3867 014","Năng lực sản xuất":"Theo đơn hàng","Sản phẩm":"Bánh tráng IMEXTRAVINH","Cấp khu vực":"2024","Cấp quốc gia":"2025","layer_id":349,"fid":49,"label":"Công ty Lương thực Trà Vinh"}},{"type":"Feature","id":50,"geometry":{"type":"Point","coordinates":[106.336985347,9.724726296]},"properties":{"Công ty":"Hợp tác xã Nông nghiệp Long Hiệp","Địa chỉ":"Ấp Chợ, xã Long Hiệp, tỉnh Vĩnh Long","Số điện thoại":"0979 923 292","Năng lực sản xuất":"200 tấn/năm","Sản phẩm":"Gạo Long Hiệp (Hạt ngọc Rồng)","Cấp khu vực":"2024","Cấp quốc gia":"2023","layer_id":349,"fid":50,"label":"Hợp tác xã Nông nghiệp Long Hiệp"}},{"type":"Feature","id":52,"geometry":{"type":"Point","coordinates":[106.246366803,9.880646496]},"properties":{"Công ty":"Công ty TNHH Cacao Mekong","Địa chỉ":"Quốc lộ 60, ấp Trà Nóc, xã Song Lộc, tỉnh Vĩnh Long","Số điện thoại":"0979 707 807","Năng lực sản xuất":"3 tấn/tháng","Sản phẩm":"Bột Cacao nguyên chất","Cấp khu vực":null,"Cấp quốc gia":null,"layer_id":349,"fid":52,"label":"Công ty TNHH Cacao Mekong"}},{"type":"Feature","id":51,"geometry":{"type":"Point","coordinates":[106.311598802,9.916613639]},"properties":{"Công ty":"Hộ kinh doanh Vĩnh Xương","Địa chỉ":"Số 118/7, Độc Lập, phường Trà Vinh, tỉnh Vĩnh Long","Số điện thoại":"0917 911 917","Năng lực sản xuất":"1 tấn/ngày","Sản phẩm":"Bánh bao chỉ nhân mứt\nBánh trung thu gà quay Jambon","Cấp khu vực":null,"Cấp quốc gia":null,"layer_id":349,"fid":51,"label":"Hộ kinh doanh Vĩnh Xương"}},{"type":"Feature","id":53,"geometry":{"type":"Point","coordinates":[106.175738802,10.007899273]},"properties":{"Công ty":"Công ty TNHH Đồng Phát DOPHACO","Địa chỉ":"Ấp số 2, xã Càng Long, tỉnh Vĩnh Long","Số điện thoại":"0977 801 444","Năng lực sản xuất":"1 tấn/năm","Sản phẩm":"Trà Gấc, Tinh dầu gấc","Cấp khu vực":null,"Cấp quốc gia":null,"layer_id":349,"fid":53,"label":"Công ty TNHH Đồng Phát DOPHACO"}},{"type":"Feature","id":54,"geometry":{"type":"Point","coordinates":[106.313040433,9.761305366]},"properties":{"Công ty":"Hộ kinh doanh Thái Trường Bình","Địa chỉ":"Ấp Chợ Trên, xã Tập Sơn, tỉnh Vĩnh Long","Số điện thoại":"0939 232 919","Năng lực sản xuất":"Theo đơn hàng","Sản phẩm":"Hủ tiếu Thái Dương","Cấp khu vực":null,"Cấp quốc gia":null,"layer_id":349,"fid":54,"label":"Hộ kinh doanh Thái Trường Bình"}},{"type":"Feature","id":55,"geometry":{"type":"Point","coordinates":[106.340755374,9.926895674]},"properties":{"Công ty":"Hộ kinh doanh Thái Phúc Thành","Địa chỉ":"Số 388, Điện Biên Phủ, phường Trà Vinh, tỉnh Vĩnh Long","Số điện thoại":"0913 790 742","Năng lực sản xuất":"1 tấn/tháng","Sản phẩm":"Lạp xưởng Vạn Thành","Cấp khu vực":null,"Cấp quốc gia":null,"layer_id":349,"fid":55,"label":"Hộ kinh doanh Thái Phúc Thành"}},{"type":"Feature","id":56,"geometry":{"type":"Point","coordinates":[106.497329921,9.635614448]},"properties":{"Công ty":"Công ty cổ phần thực phẩm Biển Xanh","Địa chỉ":"Khóm 1, phường Duyên Hải, tỉnh Vĩnh Long","Số điện thoại":"0913 807 453","Năng lực sản xuất":"2.300 bình/ngày","Sản phẩm":"Nước khoáng thiên nhiên đóng chai Sao Biển","Cấp khu vực":"2024","Cấp quốc gia":null,"layer_id":349,"fid":56,"label":"Công ty cổ phần thực phẩm Biển Xanh"}},{"type":"Feature","id":57,"geometry":{"type":"Point","coordinates":[106.337893842,9.936687559]},"properties":{"Công ty":"Hộ kinh doanh Thành Lợi","Địa chỉ":"Số 12/26, Lê Thánh Tôn, Phường Trà Vinh, tỉnh Vĩnh Long","Số điện thoại":"0919 66 33 89","Năng lực sản xuất":"500 kg/ngày","Sản phẩm":"Tương ớt Thành Lợi, Sa tế","Cấp khu vực":null,"Cấp quốc gia":null,"layer_id":349,"fid":57,"label":"Hộ kinh doanh Thành Lợi"}},{"type":"Feature","id":58,"geometry":{"type":"Point","coordinates":[106.342333285,9.937549089]},"properties":{"Công ty":"Hộ kinh doanh Bún Suông Hùi Yến","Địa chỉ":"Số 56/2 Hùng Vương, khóm 1, Phường Long Đức, tỉnh Vĩnh Long","Số điện thoại":"0903 427 427","Năng lực sản xuất":"20–100 kg/ngày","Sản phẩm":"Con Suông","Cấp khu vực":null,"Cấp quốc gia":null,"layer_id":349,"fid":58,"label":"Hộ kinh doanh Bún Suông Hùi Yến"}},{"type":"Feature","id":59,"geometry":{"type":"Point","coordinates":[106.28304271,9.8055452]},"properties":{"Công ty":"Công ty TNHH MTV Sản xuất Thương mại Dương Phát","Địa chỉ":"Ấp Ngã Tư 1, xã Ngãi Hùng, tỉnh Vĩnh Long","Số điện thoại":"0918 533 649","Năng lực sản xuất":"Theo đơn đặt hàng","Sản phẩm":"Nước màu dừa hữu cơ Dương Phát, Than nướng BBQ","Cấp khu vực":null,"Cấp quốc gia":null,"layer_id":349,"fid":59,"label":"Công ty TNHH MTV Sản xuất Thương mại Dương Phát"}},{"type":"Feature","id":60,"geometry":{"type":"Point","coordinates":[106.35554532,9.697282272]},"properties":{"Công ty":"DNTN Thuận Thiên Trà Vinh","Địa chỉ":"Ấp Sà Vần B, xã Long Hiệp, tỉnh Vĩnh Long","Số điện thoại":"0366 462 336","Năng lực sản xuất":"Theo đơn đặt hàng","Sản phẩm":"Gạo Quê Tôi","Cấp khu vực":"2024","Cấp quốc gia":null,"layer_id":349,"fid":60,"label":"DNTN Thuận Thiên Trà Vinh"}},{"type":"Feature","id":61,"geometry":{"type":"Point","coordinates":[106.262206543,9.925230563]},"properties":{"Công ty":"Hộ kinh doanh Cơ sở sản xuất Bánh ống Hạnh Thi","Địa chỉ":"Ấp Thiện Chánh, xã Bình Phú, tỉnh Vĩnh Long","Số điện thoại":"0393 862 872","Năng lực sản xuất":"5 tấn/tháng","Sản phẩm":"Bánh ống Hạnh Thi","Cấp khu vực":null,"Cấp quốc gia":null,"layer_id":349,"fid":61,"label":"Hộ kinh doanh Cơ sở sản xuất Bánh ống Hạnh Thi"}},{"type":"Feature","id":62,"geometry":{"type":"Point","coordinates":[106.342124049,9.940494418]},"properties":{"Công ty":"Công ty TNHH Hai Sang (Tư Nô)","Địa chỉ":"Ấp Vĩnh Trường, phường Hòa Thuận, tỉnh Vĩnh Long","Số điện thoại":"0984 586 829","Năng lực sản xuất":"48.000 lít/năm","Sản phẩm":"Rượu thủ công (rượu Lảo Tửu, rượu Quách, rượu Xuân Thạnh)","Cấp khu vực":null,"Cấp quốc gia":null,"layer_id":349,"fid":62,"label":"Công ty TNHH Hai Sang (Tư Nô)"}},{"type":"Feature","id":63,"geometry":{"type":"Point","coordinates":[106.228548145,9.964646518]},"properties":{"Công ty":"Hộ kinh doanh Đặng Văn Sơn","Địa chỉ":"Ấp Số 5, xã Càng Long, tỉnh Vĩnh Long","Số điện thoại":"0905 264 002","Năng lực sản xuất":"4.000–5.000 gói/ngày","Sản phẩm":"Bộ sản phẩm: Cốm gạo; Cốm ống","Cấp khu vực":null,"Cấp quốc gia":null,"layer_id":349,"fid":63,"label":"Hộ kinh doanh Đặng Văn Sơn"}},{"type":"Feature","id":64,"geometry":{"type":"Point","coordinates":[106.514612355,9.681806623]},"properties":{"Công ty":"Hộ kinh doanh Phạm Thị Phú Phúc","Địa chỉ":"Khóm 2, phường Trường Long Hòa, tỉnh Vĩnh Long","Số điện thoại":"0974 504 079","Năng lực sản xuất":"Theo đơn hàng","Sản phẩm":"Tinh bột nghệ Phú Phúc","Cấp khu vực":null,"Cấp quốc gia":null,"layer_id":349,"fid":64,"label":"Hộ kinh doanh Phạm Thị Phú Phúc"}},{"type":"Feature","id":65,"geometry":{"type":"Point","coordinates":[106.342524551,9.923750927]},"properties":{"Công ty":"Công ty TNHH MTV TM SX Phú Quới","Địa chỉ":"Số 37, Phan Đình Phùng, phường Nguyệt Hóa, tỉnh Vĩnh Long","Số điện thoại":"0989 093 579","Năng lực sản xuất":"Theo đơn đặt hàng","Sản phẩm":"Trà sâm Đinh Lăng hòa tan","Cấp khu vực":null,"Cấp quốc gia":null,"layer_id":349,"fid":65,"label":"Công ty TNHH MTV TM SX Phú Quới"}},{"type":"Feature","id":66,"geometry":{"type":"Point","coordinates":[106.35882124,9.843179502]},"properties":{"Công ty":"Hộ kinh doanh Nguyễn Thị Thu Cẩm","Địa chỉ":"Số 251, ấp Hương Phụ A, xã Châu Thành, tỉnh Vĩnh Long","Số điện thoại":"0369 341 134","Năng lực sản xuất":"1.000 đòn bánh/tháng","Sản phẩm":"Bánh Tét lá ngót","Cấp khu vực":null,"Cấp quốc gia":null,"layer_id":349,"fid":66,"label":"Hộ kinh doanh Nguyễn Thị Thu Cẩm"}},{"type":"Feature","id":67,"geometry":{"type":"Point","coordinates":[106.177560292,9.72293118]},"properties":{"Công ty":"Hộ kinh doanh Hứa Minh Hùng","Địa chỉ":"Ấp Vàm, xã Lưu Nghiệp Anh, tỉnh Vĩnh Long","Số điện thoại":"0932 808 390 – 0931 777 390","Năng lực sản xuất":"Theo mùa vụ","Sản phẩm":"Bột Nưa","Cấp khu vực":null,"Cấp quốc gia":null,"layer_id":349,"fid":67,"label":"Hộ kinh doanh Hứa Minh Hùng"}},{"type":"Feature","id":68,"geometry":{"type":"Point","coordinates":[106.343260578,9.934428008]},"properties":{"Công ty":"Công ty TNHH MTV rượu Xuân Thạnh Ba Liêu","Địa chỉ":"Số 76, Ấp Xuân Thạnh, Phường Hòa Thuận, Tỉnh Vĩnh Long","Số điện thoại":"0906 908 287","Năng lực sản xuất":"Theo đơn hàng","Sản phẩm":"Rượu thủ công (rượu Đế, rượu Chuối hột, rượu Lão tửu)","Cấp khu vực":null,"Cấp quốc gia":null,"layer_id":349,"fid":68,"label":"Công ty TNHH MTV rượu Xuân Thạnh Ba Liêu"}},{"type":"Feature","id":69,"geometry":{"type":"Point","coordinates":[106.061076629,9.870271939]},"properties":{"Công ty":"Hộ kinh doanh Cơ sở mứt dừa Sáp Cẩm Hằng","Địa chỉ":"Đường 30/4, Khóm 2, xã Cầu Kè, tỉnh Vĩnh Long","Số điện thoại":"0346 080 971","Năng lực sản xuất":"10 tấn/năm","Sản phẩm":"Mứt dừa Sáp","Cấp khu vực":null,"Cấp quốc gia":null,"layer_id":349,"fid":69,"label":"Hộ kinh doanh Cơ sở mứt dừa Sáp Cẩm Hằng"}},{"type":"Feature","id":70,"geometry":{"type":"Point","coordinates":[106.441960394,9.551671834]},"properties":{"Công ty":"Hộ kinh doanh Dương Tiến Hải","Địa chỉ":"Ấp Động Cao, xã Đông Hải, tỉnh Vĩnh Long","Số điện thoại":"0919 583 838","Năng lực sản xuất":"Khô cá dứa: 3 tấn/năm; Khô cá khoai: 1 tấn/năm; Tôm khô: 5 tấn/năm","Sản phẩm":"Khô cá dứa Tiến Hải, Khô cá khoai Tiến Hải, Tôm khô Tiến Hải","Cấp khu vực":null,"Cấp quốc gia":null,"layer_id":349,"fid":70,"label":"Hộ kinh doanh Dương Tiến Hải"}},{"type":"Feature","id":71,"geometry":{"type":"Point","coordinates":[106.348211167,9.941833056]},"properties":{"Công ty":"Hộ kinh doanh Tài Ký","Địa chỉ":"Đường Lò Hột, khóm 1, Phường Hòa Thuận, tỉnh Vĩnh Long","Số điện thoại":"0354 755 840","Năng lực sản xuất":"Theo đơn hàng","Sản phẩm":"Bánh cốm sữa","Cấp khu vực":null,"Cấp quốc gia":null,"layer_id":349,"fid":71,"label":"Hộ kinh doanh Tài Ký"}},{"type":"Feature","id":72,"geometry":{"type":"Point","coordinates":[106.300131979,9.925978362]},"properties":{"Công ty":"Hộ kinh doanh Phan Quang Đáng","Địa chỉ":"Ấp Bến Có, Phường Nguyệt Hóa, tỉnh Vĩnh Long","Số điện thoại":"0988 138 669","Năng lực sản xuất":"15.000 kg/tháng","Sản phẩm":"Bánh tráng cuốn","Cấp khu vực":null,"Cấp quốc gia":null,"layer_id":349,"fid":72,"label":"Hộ kinh doanh Phan Quang Đáng"}},{"type":"Feature","id":73,"geometry":{"type":"Point","coordinates":[105.973342505,10.25220609]},"properties":{"Công ty":"Hộ kinh doanh Trần Thủy Tiên","Địa chỉ":"Số 58 Nguyễn Thị Minh Khai, K4, Phường Nguyệt Hóa, tỉnh Vĩnh Long","Số điện thoại":"0845 451 919","Năng lực sản xuất":"300.000 hũ/năm","Sản phẩm":"Tương hột","Cấp khu vực":null,"Cấp quốc gia":null,"layer_id":349,"fid":73,"label":"Hộ kinh doanh Trần Thủy Tiên"}},{"type":"Feature","id":74,"geometry":{"type":"Point","coordinates":[106.396991295,9.879525476]},"properties":{"Công ty":"Hộ kinh doanh 9 Di","Địa chỉ":"Ấp Đa Hòa, xã Hưng Mỹ, tỉnh Vĩnh Long","Số điện thoại":"0385 439 893","Năng lực sản xuất":"9.000 đòn/tháng","Sản phẩm":"Bánh Tét","Cấp khu vực":null,"Cấp quốc gia":null,"layer_id":349,"fid":74,"label":"Hộ kinh doanh 9 Di"}},{"type":"Feature","id":75,"geometry":{"type":"Point","coordinates":[106.401702262,9.870157626]},"properties":{"Công ty":"Hộ kinh doanh Triệu Hương","Địa chỉ":"Ấp Hòa Hảo, xã Hưng Mỹ, tỉnh Vĩnh Long","Số điện thoại":"0379 057 696","Năng lực sản xuất":"1.000 đòn/tháng","Sản phẩm":"Bánh Tét","Cấp khu vực":null,"Cấp quốc gia":null,"layer_id":349,"fid":75,"label":"Hộ kinh doanh Triệu Hương"}},{"type":"Feature","id":76,"geometry":{"type":"Point","coordinates":[106.294828536,9.931452098]},"properties":{"Công ty":"Hộ kinh doanh Lê Thị Hạnh","Địa chỉ":"Ấp Bến Có, Phường Nguyệt Hóa, tỉnh Vĩnh Long","Số điện thoại":"0979 396 596","Năng lực sản xuất":"8.000 kg/tháng","Sản phẩm":"Bánh tráng cuốn","Cấp khu vực":null,"Cấp quốc gia":null,"layer_id":349,"fid":76,"label":"Hộ kinh doanh Lê Thị Hạnh"}},{"type":"Feature","id":77,"geometry":{"type":"Point","coordinates":[106.310571885,9.917373719]},"properties":{"Công ty":"DNTN SX và DV Xuân Thạnh","Địa chỉ":"Quốc lộ 60, Khóm 5, Phường Nguyệt Hóa, tỉnh Vĩnh Long","Số điện thoại":"0939 096 909","Năng lực sản xuất":"Theo đơn hàng","Sản phẩm":"Nước uống đóng chai Tân Việt Thành","Cấp khu vực":null,"Cấp quốc gia":null,"layer_id":349,"fid":77,"label":"DNTN SX và DV Xuân Thạnh"}},{"type":"Feature","id":78,"geometry":{"type":"Point","coordinates":[106.324871446,9.688579769]},"properties":{"Công ty":"Hộ kinh doanh Trì Cảnh","Địa chỉ":"Ấp Trà Tro B, xã Hàm Giang, tỉnh Vĩnh Long","Số điện thoại":"0338 875 379","Năng lực sản xuất":"30 bộ/tháng","Sản phẩm":"Bộ Salon tre","Cấp khu vực":"2024","Cấp quốc gia":null,"layer_id":349,"fid":78,"label":"Hộ kinh doanh Trì Cảnh"}},{"type":"Feature","id":79,"geometry":{"type":"Point","coordinates":[106.288357334,9.640214323]},"properties":{"Công ty":"Hộ kinh doanh Diệp Thị Trang","Địa chỉ":"Ấp Giồng Đình, xã Đại An, tỉnh Vĩnh Long","Số điện thoại":"0374 859 512","Năng lực sản xuất":"1.500 bộ/tháng","Sản phẩm":"Bộ đồ dùng sinh hoạt nông thôn thu nhỏ","Cấp khu vực":"2024","Cấp quốc gia":null,"layer_id":349,"fid":79,"label":"Hộ kinh doanh Diệp Thị Trang"}},{"type":"Feature","id":80,"geometry":{"type":"Point","coordinates":[106.297578076,9.631654966]},"properties":{"Công ty":"Hộ kinh doanh Cơ sở Thươne Bách Thắng","Địa chỉ":"Nguyễn Chí Thanh, khóm 6, phường Trà Vinh, tỉnh Vĩnh Long","Số điện thoại":"0392 825 496","Năng lực sản xuất":"60 cái/năm","Sản phẩm":"Bộ sản phẩm: Mặt nạ chằn Yeak Ream Borom Eyso và khỉ Hanuman; Mô hình ghe ngo; Mão múa Khmer","Cấp khu vực":null,"Cấp quốc gia":null,"layer_id":349,"fid":80,"label":"Hộ kinh doanh Cơ sở Thươne Bách Thắng"}},{"type":"Feature","id":81,"geometry":{"type":"Point","coordinates":[106.50404747,9.641537565]},"properties":{"Công ty":"Hộ kinh doanh Nguyễn Thanh Phong","Địa chỉ":"Khóm Long Thạnh, Phường Duyên Hải, tỉnh Vĩnh Long","Số điện thoại":"0946 350 226    ","Năng lực sản xuất":"2.000 sản phẩm/năm","Sản phẩm":"Tranh gỗ Phong - Mộc - Biểu tượng dự thi sáng tác logo thị xã Duyên Hải","Cấp khu vực":null,"Cấp quốc gia":null,"layer_id":349,"fid":81,"label":"Hộ kinh doanh Nguyễn Thanh Phong"}},{"type":"Feature","id":82,"geometry":{"type":"Point","coordinates":[106.431988832,9.898897499]},"properties":{"Công ty":"Doanh nghiệp tư nhân Văn Chất","Địa chỉ":"Ấp Đại Thôn, Xã Hưng Mỹ, Tỉnh Vĩnh Long","Số điện thoại":"0977 633 339","Năng lực sản xuất":"Theo hợp đồng gia công","Sản phẩm":"Chậu lồng đèn","Cấp khu vực":null,"Cấp quốc gia":null,"layer_id":349,"fid":82,"label":"Doanh nghiệp tư nhân Văn Chất"}},{"type":"Feature","id":83,"geometry":{"type":"Point","coordinates":[106.270918482,9.947024408]},"properties":{"Công ty":"Công ty TNHH MTV SX TM DV Thanh Đồng","Địa chỉ":"Ấp Mỹ Hiệp, xã Nhị Long, tỉnh Vĩnh Long","Số điện thoại":"0983.377413","Năng lực sản xuất":"2.000 sản phẩm/năm","Sản phẩm":"Thiết bị khí sinh học bằng vật liệu composite Thanh Đồng (Bể biogas bằng nhựa composite)","Cấp khu vực":null,"Cấp quốc gia":null,"layer_id":349,"fid":83,"label":"Công ty TNHH MTV SX TM DV Thanh Đồng"}},{"type":"Feature","id":84,"geometry":{"type":"Point","coordinates":[106.393572476,10.246682204]},"properties":{"Công ty":"Công ty TNHH MTV SX TM XD Ánh Dương","Địa chỉ":"Khóm Phước Trị, Phường Duyên Hải, Tỉnh Vĩnh Long","Số điện thoại":"0967 784 861","Năng lực sản xuất":"377.520/34.320 viên/m2","Sản phẩm":"Gạch lát vỉa hè (gạch Terrazzo)","Cấp khu vực":null,"Cấp quốc gia":null,"layer_id":349,"fid":84,"label":"Công ty TNHH MTV SX TM XD Ánh Dương"}},{"type":"Feature","id":85,"geometry":{"type":"Point","coordinates":[105.978712694,10.250936648]},"properties":{"Công ty":"Công ty TNHH chế biến thực phẩm Hòa Hiệp","Địa chỉ":"Số 47 đường Trần Phú, Phường Phước Hậu, Tỉnh Vĩnh Long","Số điện thoại":"0898 828 299","Năng lực sản xuất":null,"Sản phẩm":"Nước mắm nhĩ cá cơm Hòa Hiệp 60 độ đạm chai 500ml","Cấp khu vực":null,"Cấp quốc gia":"2023","layer_id":349,"fid":85,"label":"Công ty TNHH chế biến thực phẩm Hòa Hiệp"}}]}
