{"type":"FeatureCollection","name":"Bến phà","metadata":{"source":"https://hatang.vinhlong.gov.vn/","downloaded_at":"2026-07-20T01:18:19+00:00","layer_id":350,"layer_name":"Bến phà","catalog_endpoints":["/map/publicLayers2?inputs=sgtvt"],"requested_bbox":[104.0,8.0,108.0,12.0],"tile_size":0.0,"tile_count":1,"tile_errors":[],"feature_count":6,"coordinate_order":"x,y (thường là longitude,latitude theo cấu hình EPSG:4326 của WebGIS)"},"features":[{"type":"Feature","geometry":{"type":"Point","coordinates":[106.000288518,10.26007105]},"properties":{"Bến phà":"Đình Khao","Địa điểm":"PhườngThanh Đức và Xã An Bình vượt sông Cổ Chiên","Diện tích bến phà":null,"Năng lực (tấn)":"100","Năm xây dựng":null,"layer_id":350,"fid":1,"label":"Đình Khao","Tỉnh":"Vinh Long"}},{"type":"Feature","geometry":{"type":"Point","coordinates":[106.164739099,10.163857699]},"properties":{"Bến phà":"Mang Thít","Địa điểm":"Xã Cái Nhum và xã Quới An , vượt sông Mang Thít","Diện tích bến phà":"256","Năng lực (tấn)":"12","Năm xây dựng":"2000","layer_id":350,"fid":2,"label":"Mang Thít","Tỉnh":"Vinh Long"}},{"type":"Feature","geometry":{"type":"Point","coordinates":[106.21055246,10.101694805]},"properties":{"Bến phà":"Trung Thành Tây","Địa điểm":"Xã Quới An và Xã Quới Thiện, vượt sông Cổ.Chiên","Diện tích bến phà":"1050","Năng lực (tấn)":"10","Năm xây dựng":"2010","layer_id":350,"fid":3,"label":"Trung Thành Tây","Tỉnh":"Vinh Long"}},{"type":"Feature","geometry":{"type":"Point","coordinates":[105.918919067,9.964856164]},"properties":{"Bến phà":"Lục Sĩ Thành","Địa điểm":"Xã Trà Ôn và Xã Lục Sĩ Thành, vượt sông Hậu","Diện tích bến phà":"1500","Năng lực (tấn)":"10","Năm xây dựng":"2010","layer_id":350,"fid":4,"label":"Lục Sĩ Thành","Tỉnh":"Vinh Long"}},{"type":"Feature","geometry":{"type":"Point","coordinates":[105.997585555,10.043391476]},"properties":{"Bến phà":"Tam Bình","Địa điểm":"Xã Tam Bình, vượt sông Mang Thít","Diện tích bến phà":"90","Năng lực (tấn)":"5","Năm xây dựng":"2005","layer_id":350,"fid":5,"label":"Tam Bình","Tỉnh":"Vinh Long"}},{"type":"Feature","geometry":{"type":"Point","coordinates":[105.982225454,10.019083552]},"properties":{"Bến phà":"Tân Nguyên Phú","Địa điểm":"Xã Ngãi Tứ và Xã Trà Côn, vượt sông Mang Thít","Diện tích bến phà":"220","Năng lực (tấn)":"13","Năm xây dựng":"2012","layer_id":350,"fid":6,"label":"Tân Nguyên Phú","Tỉnh":"Vinh Long"}}]}
