{"type":"FeatureCollection","name":"Cơ sở kinh doanh VLXD","metadata":{"source":"https://hatang.vinhlong.gov.vn/","downloaded_at":"2026-07-20T01:18:25+00:00","layer_id":352,"layer_name":"Cơ sở kinh doanh VLXD","catalog_endpoints":["/map/publicLayers2?inputs=sgtvt"],"requested_bbox":[104.0,8.0,108.0,12.0],"tile_size":0.0,"tile_count":1,"tile_errors":[],"feature_count":62,"coordinate_order":"x,y (thường là longitude,latitude theo cấu hình EPSG:4326 của WebGIS)"},"features":[{"type":"Feature","geometry":{"type":"Point","coordinates":[106.010256,9.942988]},"properties":{"Cơ sở sản xuất kinh doanh VLXD":"Công ty TNHH MTV XD Lê Hợp","Địa chỉ":"Số 84 tổ 6, ấp Gò Tranh,Xã Vĩnh Xuân","Khu vực":"Khu vực 7","Số điện thoại":"0939234595","layer_id":352,"fid":1,"label":"Công ty TNHH MTV XD Lê Hợp"}},{"type":"Feature","geometry":{"type":"Point","coordinates":[105.9286,9.956797]},"properties":{"Cơ sở sản xuất kinh doanh VLXD":"Công ty TNHH Thành Nơi","Địa chỉ":"Thửa đất số 72, tờ bản đồ số 13, tổ 1, ấp Mỹ Lợi,Xã Trà Ôn","Khu vực":"Khu vực 7","Số điện thoại":"02703770022","layer_id":352,"fid":2,"label":"Công ty TNHH Thành Nơi"}},{"type":"Feature","geometry":{"type":"Point","coordinates":[106.0721574,9.968121651]},"properties":{"Cơ sở sản xuất kinh doanh VLXD":"VLXD Hoàng Tạo","Địa chỉ":"ĐT907,xã Vĩnh Xuân","Khu vực":"Khu vực 7","Số điện thoại":"0909829982","layer_id":352,"fid":3,"label":"VLXD Hoàng Tạo"}},{"type":"Feature","geometry":{"type":"Point","coordinates":[106.0169,10.006098]},"properties":{"Cơ sở sản xuất kinh doanh VLXD":"VLXD Thành Hiệp","Địa chỉ":"ấp Phạm Thị Mến, xã Trà Côn","Khu vực":"Khu vực 7","Số điện thoại":"0985626158","layer_id":352,"fid":4,"label":"VLXD Thành Hiệp"}},{"type":"Feature","geometry":{"type":"Point","coordinates":[106.1120831,10.22980565]},"properties":{"Cơ sở sản xuất kinh doanh VLXD":"Công ty TNHH XD Anh Thư","Địa chỉ":"xã Cái Nhum","Khu vực":"Khu vực 5","Số điện thoại":"02703849177","layer_id":352,"fid":5,"label":"Công ty TNHH XD Anh Thư"}},{"type":"Feature","geometry":{"type":"Point","coordinates":[106.112640797,10.079930315]},"properties":{"Cơ sở sản xuất kinh doanh VLXD":"VLXD Nguyễn Hiền","Địa chỉ":"14, QL53, xã Hiếu Phụng","Khu vực":"Khu vực 3","Số điện thoại":"02703874374","layer_id":352,"fid":8,"label":"VLXD Nguyễn Hiền"}},{"type":"Feature","geometry":{"type":"Point","coordinates":[106.045669,10.119862]},"properties":{"Cơ sở sản xuất kinh doanh VLXD":"Công ty TNHH MTV Thái Gia Phát","Địa chỉ":"ấp Phạm Thị Mến, xã Trà Côn","Khu vực":"Khu vực 7","Số điện thoại":"0985626158","layer_id":352,"fid":6,"label":"Công ty TNHH MTV Thái Gia Phát"}},{"type":"Feature","geometry":{"type":"Point","coordinates":[106.079462,10.103786]},"properties":{"Cơ sở sản xuất kinh doanh VLXD":"Chi nhánh DNTN TM Nguyễn Khiêm","Địa chỉ":"xã Trung Hiệp","Khu vực":"Khu vực 3","Số điện thoại":"0916822666","layer_id":352,"fid":7,"label":"Chi nhánh DNTN TM Nguyễn Khiêm"}},{"type":"Feature","geometry":{"type":"Point","coordinates":[106.1867057,10.10268854]},"properties":{"Cơ sở sản xuất kinh doanh VLXD":"VLXD Thành Đạt","Địa chỉ":"xã Quới An","Khu vực":"Khu vực 3","Số điện thoại":"02703870275","layer_id":352,"fid":9,"label":"VLXD Thành Đạt"}},{"type":"Feature","geometry":{"type":"Point","coordinates":[106.102644,10.17274091]},"properties":{"Cơ sở sản xuất kinh doanh VLXD":"VLXD Hoàng Năm","Địa chỉ":"xã Cái Nhum","Khu vực":"Khu vực 5","Số điện thoại":"02703840238","layer_id":352,"fid":10,"label":"VLXD Hoàng Năm"}},{"type":"Feature","geometry":{"type":"Point","coordinates":[106.1035812,10.23473846]},"properties":{"Cơ sở sản xuất kinh doanh VLXD":"VLXD Tư Nhân","Địa chỉ":"xã Cái Nhum","Khu vực":"Khu vực 5","Số điện thoại":"02703840616","layer_id":352,"fid":11,"label":"VLXD Tư Nhân"}},{"type":"Feature","geometry":{"type":"Point","coordinates":[105.9901722,10.22734016]},"properties":{"Cơ sở sản xuất kinh doanh VLXD":"Công ty TNHH TM-DV Minh Đức Phú","Địa chỉ":"số 201B, tổ 12, ấp Long Thuận A,xã Long Hồ","Khu vực":"Khu vực 6","Số điện thoại":"02706547676","layer_id":352,"fid":12,"label":"Công ty TNHH TM-DV Minh Đức Phú"}},{"type":"Feature","geometry":{"type":"Point","coordinates":[105.8864479,10.26534341]},"properties":{"Cơ sở sản xuất kinh doanh VLXD":"Công ty Cổ phần Bê Tông Mỹ Thuận","Địa chỉ":"Số 166A, tổ 11 Ấp Tân Thạnh, Phường Tân Ngãi","Khu vực":"Khu vực 1","Số điện thoại":"02706294969","layer_id":352,"fid":13,"label":"Công ty Cổ phần Bê Tông Mỹ Thuận"}},{"type":"Feature","geometry":{"type":"Point","coordinates":[105.9384729,10.2436886]},"properties":{"Cơ sở sản xuất kinh doanh VLXD":"Công ty TNHH MTV Long Vũ Bình","Địa chỉ":"phường Long Châu","Khu vực":"Khu vực 1","Số điện thoại":"0908171786","layer_id":352,"fid":14,"label":"Công ty TNHH MTV Long Vũ Bình"}},{"type":"Feature","geometry":{"type":"Point","coordinates":[105.8448676,10.0762073]},"properties":{"Cơ sở sản xuất kinh doanh VLXD":"Công ty TNHH MTV TM-DV XD Hoàng Bỉ","Địa chỉ":"tổ 14, khóm Đông Thuận, phường Đông Thành","Khu vực":"Khu vực 2","Số điện thoại":"02702472191","layer_id":352,"fid":15,"label":"Công ty TNHH MTV TM-DV XD Hoàng Bỉ"}},{"type":"Feature","geometry":{"type":"Point","coordinates":[105.7910948,10.0690633]},"properties":{"Cơ sở sản xuất kinh doanh VLXD":"DNTN Tân Phước Thuận","Địa chỉ":"xã Tân Quới","Khu vực":"Khu vực 8","Số điện thoại":"0772102167","layer_id":352,"fid":16,"label":"DNTN Tân Phước Thuận"}},{"type":"Feature","geometry":{"type":"Point","coordinates":[106.3286003,9.915421618]},"properties":{"Cơ sở sản xuất kinh doanh VLXD":"Công ty TNHH Vật liệu xây dựng Ba Vũ","Địa chỉ":"phường Trà Vinh","Khu vực":"Khu vực 9","Số điện thoại":"0939951717","layer_id":352,"fid":17,"label":"Công ty TNHH Vật liệu xây dựng Ba Vũ"}},{"type":"Feature","geometry":{"type":"Point","coordinates":[106.3375857,9.924328745]},"properties":{"Cơ sở sản xuất kinh doanh VLXD":"Doanh nghiệp tư nhân sản xuất - thương mại Nguyễn Trình","Địa chỉ":"phường Trà Vinh","Khu vực":"Khu vực 9","Số điện thoại":"02943840058","layer_id":352,"fid":18,"label":"Doanh nghiệp tư nhân sản xuất - thương mại Nguyễn Trình"}},{"type":"Feature","geometry":{"type":"Point","coordinates":[106.3407692,9.930301912]},"properties":{"Cơ sở sản xuất kinh doanh VLXD":"Công ty TNHH Hai Yến","Địa chỉ":"phường Trà Vinh","Khu vực":"Khu vực 9","Số điện thoại":"0948117711","layer_id":352,"fid":19,"label":"Công ty TNHH Hai Yến"}},{"type":"Feature","geometry":{"type":"Point","coordinates":[106.3433154,9.936952164]},"properties":{"Cơ sở sản xuất kinh doanh VLXD":"Công ty TNHH thương mại - dịch vụ - xây dựng - đầu tư Minh Đức","Địa chỉ":"phường Trà Vinh","Khu vực":"Khu vực 10","Số điện thoại":"02943852417","layer_id":352,"fid":20,"label":"Công ty TNHH thương mại - dịch vụ - xây dựng - đầu tư Minh Đức"}},{"type":"Feature","geometry":{"type":"Point","coordinates":[106.20538,10.00163726]},"properties":{"Cơ sở sản xuất kinh doanh VLXD":"Công ty TNHH MTV An Thông","Địa chỉ":"xã Càng Long","Khu vực":"Khu vực 11","Số điện thoại":"02943884884","layer_id":352,"fid":21,"label":"Công ty TNHH MTV An Thông"}},{"type":"Feature","geometry":{"type":"Point","coordinates":[106.2028747,9.984753923]},"properties":{"Cơ sở sản xuất kinh doanh VLXD":"Cửa hàng VLXD Hiệp Phát","Địa chỉ":"xã Càng Long","Khu vực":"Khu vực 11","Số điện thoại":"0907022323","layer_id":352,"fid":22,"label":"Cửa hàng VLXD Hiệp Phát"}},{"type":"Feature","geometry":{"type":"Point","coordinates":[106.2329201,10.02362479]},"properties":{"Cơ sở sản xuất kinh doanh VLXD":"Công ty TNHH xây Dựng Thương Mại Minh Thành","Địa chỉ":"xã Càng Long","Khu vực":"Khu vực 11","Số điện thoại":"02943883375","layer_id":352,"fid":23,"label":"Công ty TNHH xây Dựng Thương Mại Minh Thành"}},{"type":"Feature","geometry":{"type":"Point","coordinates":[106.0798293,9.797494289]},"properties":{"Cơ sở sản xuất kinh doanh VLXD":"Công ty TNHH MTV Thành Gấm","Địa chỉ":"xã Phong Thạnh","Khu vực":"Khu vực 12","Số điện thoại":"0989683118","layer_id":352,"fid":24,"label":"Công ty TNHH MTV Thành Gấm"}},{"type":"Feature","geometry":{"type":"Point","coordinates":[106.0633498,9.869028411]},"properties":{"Cơ sở sản xuất kinh doanh VLXD":"Cửa hàng VLXD Phúc An","Địa chỉ":"xã Tam Ngãi","Khu vực":"Khu vực 12","Số điện thoại":null,"layer_id":352,"fid":25,"label":"Cửa hàng VLXD Phúc An"}},{"type":"Feature","geometry":{"type":"Point","coordinates":[106.2591378,9.694793092]},"properties":{"Cơ sở sản xuất kinh doanh VLXD":"Công Ty Tnhh Xây Dựng Thương Mại Dịch Vụ Tân Hiệp Hưng","Địa chỉ":"xã Trà Cú","Khu vực":"Khu vực 16","Số điện thoại":"02943871236","layer_id":352,"fid":26,"label":"Công Ty Tnhh Xây Dựng Thương Mại Dịch Vụ Tân Hiệp Hưng"}},{"type":"Feature","geometry":{"type":"Point","coordinates":[106.4389456,9.607066036]},"properties":{"Cơ sở sản xuất kinh doanh VLXD":"Công ty TNHH MTV Học Lễ.","Địa chỉ":"xã Long Thành","Khu vực":"Khu vực 17","Số điện thoại":"02943738739","layer_id":352,"fid":27,"label":"Công ty TNHH MTV Học Lễ."}},{"type":"Feature","geometry":{"type":"Point","coordinates":[106.488829,9.637032341]},"properties":{"Cơ sở sản xuất kinh doanh VLXD":"Công ty TNHH MTV Nghĩa Phượng","Địa chỉ":"phường Duyên Hải","Khu vực":"Khu vực 10","Số điện thoại":"02943832099","layer_id":352,"fid":28,"label":"Công ty TNHH MTV Nghĩa Phượng"}},{"type":"Feature","geometry":{"type":"Point","coordinates":[106.4909374,9.622207938]},"properties":{"Cơ sở sản xuất kinh doanh VLXD":"Công ty TNHH MTV Út Tâm","Địa chỉ":"phường Duyên Hải","Khu vực":"Khu vực 10","Số điện thoại":"02943590000","layer_id":352,"fid":29,"label":"Công ty TNHH MTV Út Tâm"}},{"type":"Feature","geometry":{"type":"Point","coordinates":[106.497539,9.643910423]},"properties":{"Cơ sở sản xuất kinh doanh VLXD":"Công ty TNHH MTV VLXD Thành Được TV","Địa chỉ":"phường Duyên Hải","Khu vực":"Khu vực 10","Số điện thoại":"0388646979","layer_id":352,"fid":30,"label":"Công ty TNHH MTV VLXD Thành Được TV"}},{"type":"Feature","geometry":{"type":"Point","coordinates":[106.1256096,9.765214772]},"properties":{"Cơ sở sản xuất kinh doanh VLXD":"Công ty TNHH TM-XD-VT Quốc Việt","Địa chỉ":"xã Tân Hòa","Khu vực":"Khu vực 13","Số điện thoại":null,"layer_id":352,"fid":31,"label":"Công ty TNHH TM-XD-VT Quốc Việt"}},{"type":"Feature","geometry":{"type":"Point","coordinates":[106.1993889,9.803116557]},"properties":{"Cơ sở sản xuất kinh doanh VLXD":"Công ty TNHH MTV VLXD Trần Thanh Vân","Địa chỉ":"xã Tiểu Cần","Khu vực":"Khu vực 13","Số điện thoại":"02943822064","layer_id":352,"fid":32,"label":"Công ty TNHH MTV VLXD Trần Thanh Vân"}},{"type":"Feature","geometry":{"type":"Point","coordinates":[106.3567683,9.87331806]},"properties":{"Cơ sở sản xuất kinh doanh VLXD":"Cửa Hàng VLXD Trương Nguyễn","Địa chỉ":"xã Châu Thành","Khu vực":"Khu vực 14","Số điện thoại":"09071202023","layer_id":352,"fid":33,"label":"Cửa Hàng VLXD Trương Nguyễn"}},{"type":"Feature","geometry":{"type":"Point","coordinates":[106.330828357,10.126182325]},"properties":{"Cơ sở sản xuất kinh doanh VLXD":" Công ty TNHH MTV VT&XD Minh Thanh","Địa chỉ":"xã Mỏ Cày","Khu vực":"Khu vực 21","Số điện thoại":"02753.842737","layer_id":352,"fid":38,"label":" Công ty TNHH MTV VT&XD Minh Thanh"}},{"type":"Feature","geometry":{"type":"Point","coordinates":[106.3474021,9.872175599]},"properties":{"Cơ sở sản xuất kinh doanh VLXD":"Cửa Hàng VLXD Minh Khoa","Địa chỉ":"xã Châu Thành","Khu vực":"Khu vực 14","Số điện thoại":"02943872032","layer_id":352,"fid":34,"label":"Cửa Hàng VLXD Minh Khoa"}},{"type":"Feature","geometry":{"type":"Point","coordinates":[106.3526182,9.827330976]},"properties":{"Cơ sở sản xuất kinh doanh VLXD":"Cửa Hàng VLXD Tấn Phát 3","Địa chỉ":"xã Châu Thành","Khu vực":"Khu vực 14","Số điện thoại":"02943791269","layer_id":352,"fid":35,"label":"Cửa Hàng VLXD Tấn Phát 3"}},{"type":"Feature","geometry":{"type":"Point","coordinates":[106.4518916,9.799161686]},"properties":{"Cơ sở sản xuất kinh doanh VLXD":"Cửa Hàng VLXD &TTNT Sáu Sẹo","Địa chỉ":"xã Cầu Ngang","Khu vực":"Khu vực 15","Số điện thoại":"02943725345","layer_id":352,"fid":36,"label":"Cửa Hàng VLXD &TTNT Sáu Sẹo"}},{"type":"Feature","geometry":{"type":"Point","coordinates":[106.4450489,9.852377833]},"properties":{"Cơ sở sản xuất kinh doanh VLXD":" Cửa Hàng VLXD Thanh Tòng","Địa chỉ":"xã Vinh Kim","Khu vực":"Khu vực 15","Số điện thoại":"02943827008","layer_id":352,"fid":37,"label":" Cửa Hàng VLXD Thanh Tòng"}},{"type":"Feature","geometry":{"type":"Point","coordinates":[106.3191883,10.04158485]},"properties":{"Cơ sở sản xuất kinh doanh VLXD":"Cty TNHH Vật liệu xây dựng Thành Quý","Địa chỉ":"xã Thành Thới","Khu vực":"Khu vực 21","Số điện thoại":null,"layer_id":352,"fid":39,"label":"Cty TNHH Vật liệu xây dựng Thành Quý"}},{"type":"Feature","geometry":{"type":"Point","coordinates":[106.4109062,10.05380955]},"properties":{"Cơ sở sản xuất kinh doanh VLXD":"Cty TNHH Một Thành Viên Nam Việt Ân","Địa chỉ":"xã Hương Mỹ","Khu vực":"Khu vực 21","Số điện thoại":null,"layer_id":352,"fid":40,"label":"Cty TNHH Một Thành Viên Nam Việt Ân"}},{"type":"Feature","geometry":{"type":"Point","coordinates":[106.2416218,10.12659368]},"properties":{"Cơ sở sản xuất kinh doanh VLXD":"Công ty TNHH Vật liệu Xây dựng Hoàn Thành ","Địa chỉ":"xã Nhuận Phú Tân","Khu vực":"Khu vực 22","Số điện thoại":"0919.774999","layer_id":352,"fid":41,"label":"Công ty TNHH Vật liệu Xây dựng Hoàn Thành "}},{"type":"Feature","geometry":{"type":"Point","coordinates":[106.6017244,9.890255322]},"properties":{"Cơ sở sản xuất kinh doanh VLXD":"DNTN VLXD Kiều Lan","Địa chỉ":"xã Thạnh Phong","Khu vực":"Khu vực 26","Số điện thoại":"02753734345","layer_id":352,"fid":42,"label":"DNTN VLXD Kiều Lan"}},{"type":"Feature","geometry":{"type":"Point","coordinates":[106.4870467,10.01140179]},"properties":{"Cơ sở sản xuất kinh doanh VLXD":"DNTN VLXD Hoàng Trưởng","Địa chỉ":"xã An Qui","Khu vực":"Khu vực 26","Số điện thoại":"0947993904","layer_id":352,"fid":43,"label":"DNTN VLXD Hoàng Trưởng"}},{"type":"Feature","geometry":{"type":"Point","coordinates":[106.6859221,10.18002496]},"properties":{"Cơ sở sản xuất kinh doanh VLXD":"Công ty TNHH thương mại đầu tư và xây dựng Bảy Thống","Địa chỉ":"xã Thanh Phước","Khu vực":"Khu vực 24","Số điện thoại":"02753891876","layer_id":352,"fid":44,"label":"Công ty TNHH thương mại đầu tư và xây dựng Bảy Thống"}},{"type":"Feature","geometry":{"type":"Point","coordinates":[106.7364537,10.1740964]},"properties":{"Cơ sở sản xuất kinh doanh VLXD":"Cửa hàng VLXD và TTNT Phước Nguyên","Địa chỉ":"xã Bình Đại","Khu vực":"Khu vực 24","Số điện thoại":"0981179059","layer_id":352,"fid":45,"label":"Cửa hàng VLXD và TTNT Phước Nguyên"}},{"type":"Feature","geometry":{"type":"Point","coordinates":[106.6859151,10.18003581]},"properties":{"Cơ sở sản xuất kinh doanh VLXD":"Công ty TNHH Hoàng Thy","Địa chỉ":"phường Sơn Đông","Khu vực":"Khu vực 19","Số điện thoại":"02753860022","layer_id":352,"fid":46,"label":"Công ty TNHH Hoàng Thy"}},{"type":"Feature","geometry":{"type":"Point","coordinates":[106.3478805,10.32690729]},"properties":{"Cơ sở sản xuất kinh doanh VLXD":"Công ty TNHH TM XD-DV Hoàng Hải","Địa chỉ":"xã Tân Phú","Khu vực":"Khu vực 19","Số điện thoại":"02753895387","layer_id":352,"fid":47,"label":"Công ty TNHH TM XD-DV Hoàng Hải"}},{"type":"Feature","geometry":{"type":"Point","coordinates":[106.360316,10.22920138]},"properties":{"Cơ sở sản xuất kinh doanh VLXD":"Công ty TNHH MTV vật liệu xây dựng Tám Đặng","Địa chỉ":"phường Phú Khương","Khu vực":"Khu vực 18","Số điện thoại":"02753820707","layer_id":352,"fid":48,"label":"Công ty TNHH MTV vật liệu xây dựng Tám Đặng"}},{"type":"Feature","geometry":{"type":"Point","coordinates":[106.3242734,10.22369221]},"properties":{"Cơ sở sản xuất kinh doanh VLXD":"Công ty TNHH Bê Tông Kiều Lan","Địa chỉ":"phường Bến Tre","Khu vực":"Khu vực 18","Số điện thoại":"0944796611","layer_id":352,"fid":49,"label":"Công ty TNHH Bê Tông Kiều Lan"}},{"type":"Feature","geometry":{"type":"Point","coordinates":[106.4017343,10.23311803]},"properties":{"Cơ sở sản xuất kinh doanh VLXD":"Công ty TNHH một thành viên Phúc Thịnh","Địa chỉ":"phường Bến Tre","Khu vực":"Khu vực 18","Số điện thoại":"02753240895","layer_id":352,"fid":50,"label":"Công ty TNHH một thành viên Phúc Thịnh"}},{"type":"Feature","geometry":{"type":"Point","coordinates":[106.3390486,10.23482916]},"properties":{"Cơ sở sản xuất kinh doanh VLXD":"Công ty TNHH MTV TMVLXD Đại Lợi","Địa chỉ":"phường Phú Khương","Khu vực":"Khu vực 18","Số điện thoại":"02753812440","layer_id":352,"fid":51,"label":"Công ty TNHH MTV TMVLXD Đại Lợi"}},{"type":"Feature","geometry":{"type":"Point","coordinates":[106.3950365,10.23561383]},"properties":{"Cơ sở sản xuất kinh doanh VLXD":"Công ty TNHH MTV VLXD Việt Trung","Địa chỉ":"phường Phú Khương","Khu vực":"Khu vực 18","Số điện thoại":"02753.8376","layer_id":352,"fid":52,"label":"Công ty TNHH MTV VLXD Việt Trung"}},{"type":"Feature","geometry":{"type":"Point","coordinates":[106.2271439,10.18574803]},"properties":{"Cơ sở sản xuất kinh doanh VLXD":"Công ty TNHH VLXD Tư Thành","Địa chỉ":"xã Vĩnh Thành","Khu vực":"Khu vực 25","Số điện thoại":"0907788777","layer_id":352,"fid":53,"label":"Công ty TNHH VLXD Tư Thành"}},{"type":"Feature","geometry":{"type":"Point","coordinates":[106.1269042,10.27758663]},"properties":{"Cơ sở sản xuất kinh doanh VLXD":"Công ty TNHH MTV VLXD Lê Hoàng Minh","Địa chỉ":"xã Chợ Lách","Khu vực":"Khu vực 25","Số điện thoại":"02753713189","layer_id":352,"fid":54,"label":"Công ty TNHH MTV VLXD Lê Hoàng Minh"}},{"type":"Feature","geometry":{"type":"Point","coordinates":[106.1219717,10.25222346]},"properties":{"Cơ sở sản xuất kinh doanh VLXD":"Cửa hàng VLXD Hoàn Hảo","Địa chỉ":"xã Chợ Lách","Khu vực":"Khu vực 25","Số điện thoại":"02753871298","layer_id":352,"fid":55,"label":"Cửa hàng VLXD Hoàn Hảo"}},{"type":"Feature","geometry":{"type":"Point","coordinates":[106.1216526,10.25697201]},"properties":{"Cơ sở sản xuất kinh doanh VLXD":"Cửa hàng VLXD Lý Lan","Địa chỉ":"xã Chợ Lách","Khu vực":"Khu vực 25","Số điện thoại":"02753871238","layer_id":352,"fid":56,"label":"Cửa hàng VLXD Lý Lan"}},{"type":"Feature","geometry":{"type":"Point","coordinates":[106.1230972,10.24965342]},"properties":{"Cơ sở sản xuất kinh doanh VLXD":"Cửa hàng VLXD NHẬT NGUYÊN","Địa chỉ":"xã Chợ Lách","Khu vực":"Khu vực 25","Số điện thoại":"0937772345","layer_id":352,"fid":57,"label":"Cửa hàng VLXD NHẬT NGUYÊN"}},{"type":"Feature","geometry":{"type":"Point","coordinates":[106.1214509,10.25369831]},"properties":{"Cơ sở sản xuất kinh doanh VLXD":"Công ty TNHH Xây dựng Quang Vinh","Địa chỉ":"xã Chợ Lách","Khu vực":"Khu vực 25","Số điện thoại":"02753871222","layer_id":352,"fid":58,"label":"Công ty TNHH Xây dựng Quang Vinh"}},{"type":"Feature","geometry":{"type":"Point","coordinates":[106.5925528,10.04884453]},"properties":{"Cơ sở sản xuất kinh doanh VLXD":"Công ty TNHH Hương Lộc Thành","Địa chỉ":"xã Ba Tri","Khu vực":"Khu vực 23","Số điện thoại":"02756500004","layer_id":352,"fid":59,"label":"Công ty TNHH Hương Lộc Thành"}},{"type":"Feature","geometry":{"type":"Point","coordinates":[106.592456,10.042446]},"properties":{"Cơ sở sản xuất kinh doanh VLXD":"DNTN VLXD&TTNT Trọng Tín","Địa chỉ":"xã Ba Tri","Khu vực":"Khu vực 24","Số điện thoại":"02753762900","layer_id":352,"fid":60,"label":"DNTN VLXD&TTNT Trọng Tín"}},{"type":"Feature","geometry":{"type":"Point","coordinates":[106.4251885,10.22506962]},"properties":{"Cơ sở sản xuất kinh doanh VLXD":"Công ty TNHH VLXD Hải Sơn","Địa chỉ":"xã Lương Phú","Khu vực":"Khu vực 20","Số điện thoại":"02753862777","layer_id":352,"fid":61,"label":"Công ty TNHH VLXD Hải Sơn"}},{"type":"Feature","geometry":{"type":"Point","coordinates":[106.417474,10.164767]},"properties":{"Cơ sở sản xuất kinh doanh VLXD":"Công ty TNHH Tư vấn Thiết kế Xây dựng Đại Phúc","Địa chỉ":"xã Lương Phú","Khu vực":"Khu vực 20","Số điện thoại":"0938800669","layer_id":352,"fid":62,"label":"Công ty TNHH Tư vấn Thiết kế Xây dựng Đại Phúc"}}]}
