{"type":"FeatureCollection","name":"Bến xe","metadata":{"source":"https://hatang.vinhlong.gov.vn/","downloaded_at":"2026-07-20T01:18:40+00:00","layer_id":356,"layer_name":"Bến xe","catalog_endpoints":["/map/publicLayers2?inputs=sgtvt"],"requested_bbox":[104.0,8.0,108.0,12.0],"tile_size":0.0,"tile_count":1,"tile_errors":[],"feature_count":13,"coordinate_order":"x,y (thường là longitude,latitude theo cấu hình EPSG:4326 của WebGIS)"},"features":[{"type":"Feature","geometry":{"type":"Point","coordinates":[105.957520134,10.238627314]},"properties":{"Bến xe":"Bến xe Phương Trang","Vị trí":"1E Đinh Tiên Hoàng, phường Tân Hạnh","Diện tích bến xe":"13884","Kết cấu mặt bến xe":"Láng nhựa","Năm xây dựng":"1983","Số điện thoại":null,"layer_id":356,"fid":1,"label":"Bến xe Phương Trang"}},{"type":"Feature","geometry":{"type":"Point","coordinates":[105.972599717,10.255532384]},"properties":{"Bến xe":"Bến xe khách TP Vĩnh Long","Vị trí":"Đường Đoàn Thị Điểm, phường Long Châu","Diện tích bến xe":"1596","Kết cấu mặt bến xe":"Láng nhựa","Năm xây dựng":"2000","Số điện thoại":"1900996648","layer_id":356,"fid":2,"label":"Bến xe khách TP Vĩnh Long"}},{"type":"Feature","geometry":{"type":"Point","coordinates":[106.181810538,10.093872034]},"properties":{"Bến xe":"Bến xe khách Vũng Liêm","Vị trí":"Khóm 2, xã Trung Thành","Diện tích bến xe":"900","Kết cấu mặt bến xe":"Láng nhựa","Năm xây dựng":"2000","Số điện thoại":null,"layer_id":356,"fid":3,"label":"Bến xe khách Vũng Liêm"}},{"type":"Feature","geometry":{"type":"Point","coordinates":[105.999280865,10.048081754]},"properties":{"Bến xe":"Bến xe khách Tam Bình","Vị trí":"xã Tam Bình","Diện tích bến xe":"3300","Kết cấu mặt bến xe":"Láng nhựa","Năm xây dựng":"2012","Số điện thoại":null,"layer_id":356,"fid":4,"label":"Bến xe khách Tam Bình"}},{"type":"Feature","geometry":{"type":"Point","coordinates":[106.115331812,10.178907225]},"properties":{"Bến xe":"Bến xe khách Mang Thít","Vị trí":"Khóm 3, xã Cái Nhum","Diện tích bến xe":"5016","Kết cấu mặt bến xe":"Láng nhựa, đan, cát","Năm xây dựng":"2007","Số điện thoại":null,"layer_id":356,"fid":5,"label":"Bến xe khách Mang Thít"}},{"type":"Feature","geometry":{"type":"Point","coordinates":[106.115331812,10.178907225]},"properties":{"Bến xe":"Bến xe khách Trà Ôn","Vị trí":"Khu 4, xã Trà Ôn","Diện tích bến xe":"480","Kết cấu mặt bến xe":"Đá cấp phối","Năm xây dựng":"2010","Số điện thoại":null,"layer_id":356,"fid":6,"label":"Bến xe khách Trà Ôn"}},{"type":"Feature","geometry":{"type":"Point","coordinates":[105.970388105,9.921686766]},"properties":{"Bến xe":"Bến xe khách Tích Thiện","Vị trí":"Ấp Tích Lộc, xã Trà Ôn","Diện tích bến xe":"644","Kết cấu mặt bến xe":"Đá cấp phối","Năm xây dựng":"2007","Số điện thoại":null,"layer_id":356,"fid":7,"label":"Bến xe khách Tích Thiện"}},{"type":"Feature","geometry":{"type":"Point","coordinates":[106.344304615,9.89113953]},"properties":{"Bến xe":"Bến Xe Khách Trà Vinh","Vị trí":"559 QL54, Phường Trà Vinh","Diện tích bến xe":null,"Kết cấu mặt bến xe":null,"Năm xây dựng":null,"Số điện thoại":"0743840055","layer_id":356,"fid":11,"label":"Bến Xe Khách Trà Vinh"}},{"type":"Feature","geometry":{"type":"Point","coordinates":[106.012665398,10.192166483]},"properties":{"Bến xe":"Bến xe khách Long Hồ","Vị trí":"Khóm 1, xã Long Hồ","Diện tích bến xe":"2996","Kết cấu mặt bến xe":"Láng nhựa","Năm xây dựng":"2018","Số điện thoại":null,"layer_id":356,"fid":8,"label":"Bến xe khách Long Hồ"}},{"type":"Feature","geometry":{"type":"Point","coordinates":[106.359819819,10.266989085]},"properties":{"Bến xe":"Bến xe Bến Tre","Vị trí":"Số 303, Đoàn Hoàng Minh, Phường Phú Khương","Diện tích bến xe":null,"Kết cấu mặt bến xe":null,"Năm xây dựng":null,"Số điện thoại":"02753822298","layer_id":356,"fid":9,"label":"Bến xe Bến Tre"}},{"type":"Feature","geometry":{"type":"Point","coordinates":[106.515018867,9.946041265]},"properties":{"Bến xe":"Bến xe Thạnh Phú","Vị trí":"Quốc lộ 57, xã Thạnh Phú","Diện tích bến xe":null,"Kết cấu mặt bến xe":null,"Năm xây dựng":null,"Số điện thoại":null,"layer_id":356,"fid":10,"label":"Bến xe Thạnh Phú"}},{"type":"Feature","geometry":{"type":"Point","coordinates":[106.260497955,9.687744602]},"properties":{"Bến xe":"Bến xe Trà Cú","Vị trí":"ĐT914, xã Trà Cú","Diện tích bến xe":null,"Kết cấu mặt bến xe":null,"Năm xây dựng":null,"Số điện thoại":null,"layer_id":356,"fid":12,"label":"Bến xe Trà Cú"}},{"type":"Feature","geometry":{"type":"Point","coordinates":[106.192399785,9.817675158]},"properties":{"Bến xe":"Bến Xe Khách Thị xã Tiểu Cần","Vị trí":"QL60, xã Tiểu Cần","Diện tích bến xe":null,"Kết cấu mặt bến xe":null,"Năm xây dựng":null,"Số điện thoại":null,"layer_id":356,"fid":13,"label":"Bến Xe Khách Thị xã Tiểu Cần"}}]}
