{"type":"FeatureCollection","name":"Phật giáo Nam tông","metadata":{"source":"https://hatang.vinhlong.gov.vn/","downloaded_at":"2026-07-20T01:18:47+00:00","layer_id":358,"layer_name":"Phật giáo Nam tông","catalog_endpoints":["/map/publicLayers2?inputs=sodttg"],"requested_bbox":[104.0,8.0,108.0,12.0],"tile_size":0.0,"tile_count":1,"tile_errors":[],"feature_count":156,"coordinate_order":"x,y (thường là longitude,latitude theo cấu hình EPSG:4326 của WebGIS)"},"features":[{"type":"Feature","geometry":{"type":"Point","coordinates":[106.313516068,9.924185188]},"properties":{"Phật giáo Nam tông":"Chùa Kốt","Tôn Kính":"TT. Sơn Cang","Địa chỉ":"ấp Xóm Trãng, Phường Nguyệt Hóa","Tông phái":"PHẬT GIÁO NAM TÔNG KHMER","layer_id":358,"fid":313,"label":"Chùa Kốt"}},{"type":"Feature","geometry":{"type":"Point","coordinates":[106.312139619,9.895418982]},"properties":{"Phật giáo Nam tông":"Chùa Ruôm Mich","Tôn Kính":"ĐĐ. Thạch Đông","Địa chỉ":"ấp Hòa Lạc A, xã Song Lộc","Tông phái":"PHẬT GIÁO NAM TÔNG KHMER","layer_id":358,"fid":314,"label":"Chùa Ruôm Mich"}},{"type":"Feature","geometry":{"type":"Point","coordinates":[106.384111823,9.901718418]},"properties":{"Phật giáo Nam tông":"Chùa Knông Srók","Tôn Kính":"HT.Thạch Sô Phia","Địa chỉ":"ấp Qui Nông B, xã Hưng Mỹ","Tông phái":"PHẬT GIÁO NAM TÔNG KHMER","layer_id":358,"fid":315,"label":"Chùa Knông Srók"}},{"type":"Feature","geometry":{"type":"Point","coordinates":[106.362217652,9.92438241]},"properties":{"Phật giáo Nam tông":"Chùa Phnô Komput","Tôn Kính":"ĐĐ. Kim Chai Va Ri","Địa chỉ":"ấp Trì Phong, xã Hưng Mỹ","Tông phái":"PHẬT GIÁO NAM TÔNG KHMER","layer_id":358,"fid":316,"label":"Chùa Phnô Komput"}},{"type":"Feature","geometry":{"type":"Point","coordinates":[106.234022423,9.933686042]},"properties":{"Phật giáo Nam tông":"Chùa Ka Ep","Tôn Kính":"ĐĐ. Kim Lai","Địa chỉ":"ấp Lưu Tư, xã Tân An","Tông phái":"PHẬT GIÁO NAM TÔNG KHMER","layer_id":358,"fid":317,"label":"Chùa Ka Ep"}},{"type":"Feature","geometry":{"type":"Point","coordinates":[106.058893622,9.867013537]},"properties":{"Phật giáo Nam tông":"Chùa Kompong Spen","Tôn Kính":"ĐĐ. Thạch Dung","Địa chỉ":"Khóm 5, xã Cầu Kè","Tông phái":"PHẬT GIÁO NAM TÔNG KHMER","layer_id":358,"fid":318,"label":"Chùa Kompong Spen"}},{"type":"Feature","geometry":{"type":"Point","coordinates":[106.099526688,9.812764614]},"properties":{"Phật giáo Nam tông":"Chùa Rưsây Sróc","Tôn Kính":"TT. Thạch Lên","Địa chỉ":"ấp II, xã Phong Thạnh","Tông phái":"PHẬT GIÁO NAM TÔNG KHMER","layer_id":358,"fid":319,"label":"Chùa Rưsây Sróc"}},{"type":"Feature","geometry":{"type":"Point","coordinates":[106.03714434,9.860530608]},"properties":{"Phật giáo Nam tông":"Chùa Bodhisiri","Tôn Kính":"TT. Thạch Văn","Địa chỉ":"ấp Chông Nô III, xã An Phú Tân","Tông phái":"PHẬT GIÁO NAM TÔNG KHMER","layer_id":358,"fid":320,"label":"Chùa Bodhisiri"}},{"type":"Feature","geometry":{"type":"Point","coordinates":[106.188783594,9.858746565]},"properties":{"Phật giáo Nam tông":"Chùa Kompong Més","Tôn Kính":"ĐĐ. Kim Sô Ni","Địa chỉ":"ấp Tân Trung Giồng A, xã Tiểu Cần","Tông phái":"PHẬT GIÁO NAM TÔNG KHMER","layer_id":358,"fid":321,"label":"Chùa Kompong Més"}},{"type":"Feature","geometry":{"type":"Point","coordinates":[106.216142136,9.702648447]},"properties":{"Phật giáo Nam tông":"Chùa Svay Pôk","Tôn Kính":"HT. Thạch Cương","Địa chỉ":"ấp Mộc Anh, xã Lưu Nghiệp","Tông phái":"PHẬT GIÁO NAM TÔNG KHMER","layer_id":358,"fid":322,"label":"Chùa Svay Pôk"}},{"type":"Feature","geometry":{"type":"Point","coordinates":[106.342300103,9.707170068]},"properties":{"Phật giáo Nam tông":"Chùa Kbal Thuk","Tôn Kính":"ĐĐ. Kim Thái","Địa chỉ":"ấp Trà Sất C, xã Long Hiệp","Tông phái":"PHẬT GIÁO NAM TÔNG KHMER","layer_id":358,"fid":323,"label":"Chùa Kbal Thuk"}},{"type":"Feature","geometry":{"type":"Point","coordinates":[106.341433018,9.94019629]},"properties":{"Phật giáo Nam tông":"Chùa Kompong","Tôn Kính":"HT.Thạch Oai","Địa chỉ":"Khóm 4, Phường Trà Vinh","Tông phái":"PHẬT GIÁO NAM TÔNG KHMER","layer_id":358,"fid":324,"label":"Chùa Kompong"}},{"type":"Feature","geometry":{"type":"Point","coordinates":[106.34302981,9.927276358]},"properties":{"Phật giáo Nam tông":"Chùa Kompong Ksan","Tôn Kính":"TT. Lâm Tiên","Địa chỉ":"Khóm 8, Phường Trà Vinh","Tông phái":"PHẬT GIÁO NAM TÔNG KHMER","layer_id":358,"fid":325,"label":"Chùa Kompong Ksan"}},{"type":"Feature","geometry":{"type":"Point","coordinates":[106.325342761,9.90832893]},"properties":{"Phật giáo Nam tông":"Chùa Chom Ca","Tôn Kính":"TT. Dương Văn Na","Địa chỉ":"Khóm 8, Phường Trà Vinh","Tông phái":"PHẬT GIÁO NAM TÔNG KHMER","layer_id":358,"fid":326,"label":"Chùa Chom Ca"}},{"type":"Feature","geometry":{"type":"Point","coordinates":[106.341422823,9.903931935]},"properties":{"Phật giáo Nam tông":"Chùa Silatro","Tôn Kính":"ĐĐ. Thạch Kim Thái","Địa chỉ":"Khóm 6, Phường Trà Vinh","Tông phái":"PHẬT GIÁO NAM TÔNG KHMER","layer_id":358,"fid":327,"label":"Chùa Silatro"}},{"type":"Feature","geometry":{"type":"Point","coordinates":[106.333599815,9.925576965]},"properties":{"Phật giáo Nam tông":"Chùa Khươn","Tôn Kính":"TT.Thạch Tho","Địa chỉ":"Khóm 1, Phường Nguyệt Hóa","Tông phái":"PHẬT GIÁO NAM TÔNG KHMER","layer_id":358,"fid":328,"label":"Chùa Khươn"}},{"type":"Feature","geometry":{"type":"Point","coordinates":[106.320340752,9.926092427]},"properties":{"Phật giáo Nam tông":"Chùa Ktưng","Tôn Kính":"TT.Trần Dân","Địa chỉ":"Khóm 10, Phường Nguyệt Hóa","Tông phái":"PHẬT GIÁO NAM TÔNG KHMER","layer_id":358,"fid":329,"label":"Chùa Ktưng"}},{"type":"Feature","geometry":{"type":"Point","coordinates":[106.305397327,9.922165952]},"properties":{"Phật giáo Nam tông":"Chùa KosKeosiri","Tôn Kính":"ĐĐ.Thạch Phúc","Địa chỉ":"Khỏm 3, Phường Nguyệt Hóa","Tông phái":"PHẬT GIÁO NAM TÔNG KHMER","layer_id":358,"fid":330,"label":"Chùa KosKeosiri"}},{"type":"Feature","geometry":{"type":"Point","coordinates":[106.311622909,9.915785024]},"properties":{"Phật giáo Nam tông":"Chùa Samrong Ek","Tôn Kính":"HT. Thạch Kim Ngân","Địa chỉ":"Khóm 6, Phường Nguyệt Hóa","Tông phái":"PHẬT GIÁO NAM TÔNG KHMER","layer_id":358,"fid":331,"label":"Chùa Samrong Ek"}},{"type":"Feature","geometry":{"type":"Point","coordinates":[106.303528737,9.915861996]},"properties":{"Phật giáo Nam tông":"Chùa Âng","Tôn Kính":"HT.Thạch Sok Xane","Địa chỉ":"Khóm 4, Phường Nguyệt Hóa","Tông phái":"PHẬT GIÁO NAM TÔNG KHMER","layer_id":358,"fid":332,"label":"Chùa Âng"}},{"type":"Feature","geometry":{"type":"Point","coordinates":[106.316493959,9.906106559]},"properties":{"Phật giáo Nam tông":"Chùa Sras Nẹt","Tôn Kính":"ĐĐ.Thạch Sâm Bô","Địa chỉ":"Khóm 8, Phường Nguyệt Hóa","Tông phái":"PHẬT GIÁO NAM TÔNG KHMER","layer_id":358,"fid":333,"label":"Chùa Sras Nẹt"}},{"type":"Feature","geometry":{"type":"Point","coordinates":[106.31135373,9.908881175]},"properties":{"Phật giáo Nam tông":"Chùa Som Bua","Tôn Kính":"HT.Thạch Sóc (ChomRơne","Địa chỉ":"Khóm 7, Phường Nguyệt Hóa","Tông phái":"PHẬT GIÁO NAM TÔNG KHMER","layer_id":358,"fid":334,"label":"Chùa Som Bua"}},{"type":"Feature","geometry":{"type":"Point","coordinates":[106.363021825,9.932935687]},"properties":{"Phật giáo Nam tông":"Chùa Ksach Canđal","Tôn Kính":"TT. Thạch Song","Địa chỉ":"ấp Đa Cần, Phường Hòa Thuận","Tông phái":"PHẬT GIÁO NAM TÔNG KHMER","layer_id":358,"fid":335,"label":"Chùa Ksach Canđal"}},{"type":"Feature","geometry":{"type":"Point","coordinates":[106.359453623,9.944149337]},"properties":{"Phật giáo Nam tông":"Chùa Ko Ki","Tôn Kính":"ĐĐ. Thạch Ta Ra","Địa chỉ":"ấp Kỳ La, Phường Hòa Thuận","Tông phái":"PHẬT GIÁO NAM TÔNG KHMER","layer_id":358,"fid":336,"label":"Chùa Ko Ki"}},{"type":"Feature","geometry":{"type":"Point","coordinates":[106.357983983,9.857972621]},"properties":{"Phật giáo Nam tông":"Chùa Trốt Cớt","Tôn Kính":"HT. Kim Thone.","Địa chỉ":"ấp Hương Phụ B, xã Châu Thành","Tông phái":"PHẬT GIÁO NAM TÔNG KHMER","layer_id":358,"fid":337,"label":"Chùa Trốt Cớt"}},{"type":"Feature","geometry":{"type":"Point","coordinates":[106.351056736,9.817197988]},"properties":{"Phật giáo Nam tông":"Chùa Phnô Anđet","Tôn Kính":"ĐĐ. Trì Văn Chỉ","Địa chỉ":"ấp Giồng Lức, xã Châu Thành","Tông phái":"PHẬT GIÁO NAM TÔNG KHMER","layer_id":358,"fid":338,"label":"Chùa Phnô Anđet"}},{"type":"Feature","geometry":{"type":"Point","coordinates":[106.345105557,9.864688157]},"properties":{"Phật giáo Nam tông":"Chùa Trốt Lích","Tôn Kính":"TT. Sơn Mỹ","Địa chỉ":"Khóm 5, xã Châu Thành","Tông phái":"PHẬT GIÁO NAM TÔNG KHMER","layer_id":358,"fid":339,"label":"Chùa Trốt Lích"}},{"type":"Feature","geometry":{"type":"Point","coordinates":[106.345414317,9.890031178]},"properties":{"Phật giáo Nam tông":"Chùa Kompong Chrây","Tôn Kính":"TT. Thạch Xuông","Địa chỉ":"Khóm 4, xã Châu Thành","Tông phái":"PHẬT GIÁO NAM TÔNG KHMER","layer_id":358,"fid":340,"label":"Chùa Kompong Chrây"}},{"type":"Feature","geometry":{"type":"Point","coordinates":[106.370372087,9.876535264]},"properties":{"Phật giáo Nam tông":"Chùa Ô Ta Pậu","Tôn Kính":"ĐĐ. Thạch Sol.","Địa chỉ":"ấp Bào Sơn, xã Châu Thành","Tông phái":"PHẬT GIÁO NAM TÔNG KHMER","layer_id":358,"fid":341,"label":"Chùa Ô Ta Pậu"}},{"type":"Feature","geometry":{"type":"Point","coordinates":[106.336154781,9.8040061]},"properties":{"Phật giáo Nam tông":"Chùa Somrong Thum","Tôn Kính":"TT. Thạch Trần","Địa chỉ":"ấp Phú Mỹ, xã Châu Thành","Tông phái":"PHẬT GIÁO NAM TÔNG KHMER","layer_id":358,"fid":342,"label":"Chùa Somrong Thum"}},{"type":"Feature","geometry":{"type":"Point","coordinates":[106.241913169,9.876146427]},"properties":{"Phật giáo Nam tông":"Chùa Knok","Tôn Kính":"TT.Thạch Thương","Địa chỉ":"ấp Trà Nóc, xã Song Lộc","Tông phái":"PHẬT GIÁO NAM TÔNG KHMER","layer_id":358,"fid":343,"label":"Chùa Knok"}},{"type":"Feature","geometry":{"type":"Point","coordinates":[106.31040556,9.904012624]},"properties":{"Phật giáo Nam tông":"Chùa Banle Chây","Tôn Kính":"HT. Sơn Triều","Địa chỉ":"ấp Bình La, xã Song Lộc","Tông phái":"PHẬT GIÁO NAM TÔNG KHMER","layer_id":358,"fid":344,"label":"Chùa Banle Chây"}},{"type":"Feature","geometry":{"type":"Point","coordinates":[106.303022717,9.892045693]},"properties":{"Phật giáo Nam tông":"Chùa Kompong Thmo","Tôn Kính":"TT. Thạch Trinh","Địa chỉ":"ấp Ba Se A, xã Song Lộc","Tông phái":"PHẬT GIÁO NAM TÔNG KHMER","layer_id":358,"fid":345,"label":"Chùa Kompong Thmo"}},{"type":"Feature","geometry":{"type":"Point","coordinates":[106.302766942,9.891375435]},"properties":{"Phật giáo Nam tông":"Chùa Chông Tọp","Tôn Kính":"TT. Thạch Hùng","Địa chỉ":"ấp Hòa Lạc A, xã Song Lộc","Tông phái":"PHẬT GIÁO NAM TÔNG KHMER","layer_id":358,"fid":346,"label":"Chùa Chông Tọp"}},{"type":"Feature","geometry":{"type":"Point","coordinates":[106.385048133,9.854948044]},"properties":{"Phật giáo Nam tông":"Chùa Ô Kà Đa","Tôn Kính":"ĐĐ. Kiên Thái Hùng","Địa chỉ":"ấp Ô Kà Đa, xã Hưng Mỹ","Tông phái":"PHẬT GIÁO NAM TÔNG KHMER","layer_id":358,"fid":347,"label":"Chùa Ô Kà Đa"}},{"type":"Feature","geometry":{"type":"Point","coordinates":[106.211397008,9.907179969]},"properties":{"Phật giáo Nam tông":"Chùa Ích","Tôn Kính":"TT.Thạch PhươngThanh","Địa chỉ":"ấp Sóc, xã Tân An","Tông phái":"PHẬT GIÁO NAM TÔNG KHMER","layer_id":358,"fid":348,"label":"Chùa Ích"}},{"type":"Feature","geometry":{"type":"Point","coordinates":[106.23429029,9.934614706]},"properties":{"Phật giáo Nam tông":"Chùa Bi Sây","Tôn Kính":"TT. Thạch Thanh Huyền","Địa chỉ":"ấp Giồng Chùa, xã Bình Phú","Tông phái":"PHẬT GIÁO NAM TÔNG KHMER","layer_id":358,"fid":349,"label":"Chùa Bi Sây"}},{"type":"Feature","geometry":{"type":"Point","coordinates":[106.241823622,9.952236625]},"properties":{"Phật giáo Nam tông":"Chùa Konleng Sés","Tôn Kính":"TT. Thạch Thường","Địa chỉ":"ấp Nguyệt Lãng B, xã Bình Phú","Tông phái":"PHẬT GIÁO NAM TÔNG KHMER","layer_id":358,"fid":350,"label":"Chùa Konleng Sés"}},{"type":"Feature","geometry":{"type":"Point","coordinates":[106.068196109,9.830453031]},"properties":{"Phật giáo Nam tông":"Chùa Phi Rum Sóc","Tôn Kính":"ĐĐ. Sơn Chuôn Nát","Địa chỉ":"ấp Rùm Sóc, xã Cầu Kè","Tông phái":"PHẬT GIÁO NAM TÔNG KHMER","layer_id":358,"fid":351,"label":"Chùa Phi Rum Sóc"}},{"type":"Feature","geometry":{"type":"Point","coordinates":[106.087899363,9.860976345]},"properties":{"Phật giáo Nam tông":"Chùa Ô Tô Tưng","Tôn Kính":"ĐĐ Thạch Chane Tha","Địa chỉ":"ấp Ô Tưng, xã Cầu Kè","Tông phái":"PHẬT GIÁO NAM TÔNG KHMER","layer_id":358,"fid":352,"label":"Chùa Ô Tô Tưng"}},{"type":"Feature","geometry":{"type":"Point","coordinates":[106.11984325,9.902655532]},"properties":{"Phật giáo Nam tông":"Chùa Tà Ốt","Tôn Kính":"ĐĐ. Thạch Lệ","Địa chỉ":"ấp Xóm Lớn, xã Cầu Kè","Tông phái":"PHẬT GIÁO NAM TÔNG KHMER","layer_id":358,"fid":353,"label":"Chùa Tà Ốt"}},{"type":"Feature","geometry":{"type":"Point","coordinates":[106.113370763,9.876013659]},"properties":{"Phật giáo Nam tông":"Chùa Prơm","Tôn Kính":"ĐĐ. Thạch Sa Thanh","Địa chỉ":"ấp Ô Rờm, xã Cầu Kè","Tông phái":"PHẬT GIÁO NAM TÔNG KHMER","layer_id":358,"fid":354,"label":"Chùa Prơm"}},{"type":"Feature","geometry":{"type":"Point","coordinates":[106.064464579,9.850963221]},"properties":{"Phật giáo Nam tông":"Chùa Ô Mịch","Tôn Kính":"ĐĐ.Thạch Pane","Địa chỉ":"ấp Ô Mịch, xã Cầu Kè","Tông phái":"PHẬT GIÁO NAM TÔNG KHMER","layer_id":358,"fid":355,"label":"Chùa Ô Mịch"}},{"type":"Feature","geometry":{"type":"Point","coordinates":[106.078589448,9.840910558]},"properties":{"Phật giáo Nam tông":"Chùa Ô SomPâu","Tôn Kính":"ĐĐ. Thạch Sôl","Địa chỉ":"ấp Ô Mịch, xã Cầu Kè","Tông phái":"PHẬT GIÁO NAM TÔNG KHMER","layer_id":358,"fid":356,"label":"Chùa Ô SomPâu"}},{"type":"Feature","geometry":{"type":"Point","coordinates":[106.060203209,9.874646359]},"properties":{"Phật giáo Nam tông":"Chùa Tà Thiêu","Tôn Kính":"ĐĐ. Thạch Sách","Địa chỉ":"Khóm 2, xã Cầu Kè","Tông phái":"PHẬT GIÁO NAM TÔNG KHMER","layer_id":358,"fid":357,"label":"Chùa Tà Thiêu"}},{"type":"Feature","geometry":{"type":"Point","coordinates":[106.070553288,9.890371743]},"properties":{"Phật giáo Nam tông":"Chùa Sombua Răngsây","Tôn Kính":"ĐĐ. Thạch Dương","Địa chỉ":"ấp Trà Kháo, xã Cầu Kè","Tông phái":"PHẬT GIÁO NAM TÔNG KHMER","layer_id":358,"fid":358,"label":"Chùa Sombua Răngsây"}},{"type":"Feature","geometry":{"type":"Point","coordinates":[106.064115962,9.895105542]},"properties":{"Phật giáo Nam tông":"Chùa Kan Dal","Tôn Kính":"TT. Thạch Thảo","Địa chỉ":"ấp Trà Kháo, xã Cầu Kè","Tông phái":"PHẬT GIÁO NAM TÔNG KHMER","layer_id":358,"fid":359,"label":"Chùa Kan Dal"}},{"type":"Feature","geometry":{"type":"Point","coordinates":[106.076417267,9.900789811]},"properties":{"Phật giáo Nam tông":"Chùa PoPhirum","Tôn Kính":"ĐĐ. Thạch Sết","Địa chỉ":"ấp Thông Thảo, xã Cầu Kè","Tông phái":"PHẬT GIÁO NAM TÔNG KHMER","layer_id":358,"fid":360,"label":"Chùa PoPhirum"}},{"type":"Feature","geometry":{"type":"Point","coordinates":[106.067778675,9.882203837]},"properties":{"Phật giáo Nam tông":"Chùa Bô Thum","Tôn Kính":"ĐĐ. Kim Hoa","Địa chỉ":"ấp Giồng Lớn, xã Cầu Kè","Tông phái":"PHẬT GIÁO NAM TÔNG KHMER","layer_id":358,"fid":361,"label":"Chùa Bô Thum"}},{"type":"Feature","geometry":{"type":"Point","coordinates":[106.056680523,9.897009413]},"properties":{"Phật giáo Nam tông":"Chùa Somnâng Thum","Tôn Kính":"HT.Thạch Rot Tha","Địa chỉ":"ấp Bà My, xã Cầu Kè","Tông phái":"PHẬT GIÁO NAM TÔNG KHMER","layer_id":358,"fid":362,"label":"Chùa Somnâng Thum"}},{"type":"Feature","geometry":{"type":"Point","coordinates":[106.127187763,9.851580497]},"properties":{"Phật giáo Nam tông":"Chùa Chông Pro Lean","Tôn Kính":"ĐĐ. Kim Lên","Địa chỉ":"ấp 2, xã Phong Thạnh","Tông phái":"PHẬT GIÁO NAM TÔNG KHMER","layer_id":358,"fid":363,"label":"Chùa Chông Pro Lean"}},{"type":"Feature","geometry":{"type":"Point","coordinates":[106.121432665,9.841830525]},"properties":{"Phật giáo Nam tông":"Chùa Bat Kroma","Tôn Kính":"ĐĐ. Thạch Nhiên","Địa chỉ":"ấp 2, xã Phong Thạnh","Tông phái":"PHẬT GIÁO NAM TÔNG KHMER","layer_id":358,"fid":364,"label":"Chùa Bat Kroma"}},{"type":"Feature","geometry":{"type":"Point","coordinates":[106.095335308,9.848741693]},"properties":{"Phật giáo Nam tông":"Chùa Kinh Xáng","Tôn Kính":"TT. Thạch Mỹ","Địa chỉ":"ấp Kinh Xáng, xã Phong Thạnh","Tông phái":"PHẬT GIÁO NAM TÔNG KHMER","layer_id":358,"fid":365,"label":"Chùa Kinh Xáng"}},{"type":"Feature","geometry":{"type":"Point","coordinates":[106.069903694,9.820743309]},"properties":{"Phật giáo Nam tông":"Chùa Ta Đêu","Tôn Kính":"HT. Thạch On","Địa chỉ":"ấp III, xã Phong Thạnh","Tông phái":"PHẬT GIÁO NAM TÔNG KHMER","layer_id":358,"fid":366,"label":"Chùa Ta Đêu"}},{"type":"Feature","geometry":{"type":"Point","coordinates":[106.097024705,9.813393457]},"properties":{"Phật giáo Nam tông":"Chùa Mê Păng","Tôn Kính":"TT. Thạch Thanh","Địa chỉ":"ấp IV, xã Phong Thạnh","Tông phái":"PHẬT GIÁO NAM TÔNG KHMER","layer_id":358,"fid":367,"label":"Chùa Mê Păng"}},{"type":"Feature","geometry":{"type":"Point","coordinates":[106.020122269,9.888929654]},"properties":{"Phật giáo Nam tông":"Chùa Kombăng Bat","Tôn Kính":"ĐĐ. Thạch Sa Mone","Địa chỉ":"ấp Ngọc Hồ, xã Tam Ngãi","Tông phái":"PHẬT GIÁO NAM TÔNG KHMER","layer_id":358,"fid":368,"label":"Chùa Kombăng Bat"}},{"type":"Feature","geometry":{"type":"Point","coordinates":[106.026316767,9.902690525]},"properties":{"Phật giáo Nam tông":"Chùa Chông Ksach","Tôn Kính":"ĐĐ. Thạch Chinh Phót","Địa chỉ":"ấp Ngọc Hồ, xã Tam Ngãi","Tông phái":"PHẬT GIÁO NAM TÔNG KHMER","layer_id":358,"fid":369,"label":"Chùa Chông Ksach"}},{"type":"Feature","geometry":{"type":"Point","coordinates":[106.189404067,9.814539352]},"properties":{"Phật giáo Nam tông":"Chùa Phnom Pênh","Tôn Kính":"TT. Thạch Bon","Địa chỉ":"Khóm 2, xã Tiểu Cần","Tông phái":"PHẬT GIÁO NAM TÔNG KHMER","layer_id":358,"fid":370,"label":"Chùa Phnom Pênh"}},{"type":"Feature","geometry":{"type":"Point","coordinates":[106.159217655,9.817260471]},"properties":{"Phật giáo Nam tông":"Chùa Chac A Krôn","Tôn Kính":"TT. Thạch Thưa","Địa chỉ":"ấp Đại Trường, xã Tiểu Cần","Tông phái":"PHẬT GIÁO NAM TÔNG KHMER","layer_id":358,"fid":371,"label":"Chùa Chac A Krôn"}},{"type":"Feature","geometry":{"type":"Point","coordinates":[106.18463775,9.808625791]},"properties":{"Phật giáo Nam tông":"Chùa Kompong Leo","Tôn Kính":"ĐĐ. Thạch Xuyên","Địa chỉ":"ấp Đại Mong, xã Tiểu Cần","Tông phái":"PHẬT GIÁO NAM TÔNG KHMER","layer_id":358,"fid":372,"label":"Chùa Kompong Leo"}},{"type":"Feature","geometry":{"type":"Point","coordinates":[106.159031099,9.787550411]},"properties":{"Phật giáo Nam tông":"Chùa Phnô Pring","Tôn Kính":"TT. Thạch Công","Địa chỉ":"ấp Cầu Tre, xã Tân Hòa","Tông phái":"PHẬT GIÁO NAM TÔNG KHMER","layer_id":358,"fid":373,"label":"Chùa Phnô Pring"}},{"type":"Feature","geometry":{"type":"Point","coordinates":[106.16638862,9.743592978]},"properties":{"Phật giáo Nam tông":"Chùa Ô Veng Thmây","Tôn Kính":"ĐĐ. Thạch Sine","Địa chỉ":"ấp Sóc Dừa, xã Tân Hòa","Tông phái":"PHẬT GIÁO NAM TÔNG KHMER","layer_id":358,"fid":374,"label":"Chùa Ô Veng Thmây"}},{"type":"Feature","geometry":{"type":"Point","coordinates":[106.178916743,9.746335786]},"properties":{"Phật giáo Nam tông":"Chùa Ô Veng Chás","Tôn Kính":"ĐĐ. Thạch Út","Địa chỉ":"ấp Sóc Tràm, xã Hùng Hòa","Tông phái":"PHẬT GIÁO NAM TÔNG KHMER","layer_id":358,"fid":375,"label":"Chùa Ô Veng Chás"}},{"type":"Feature","geometry":{"type":"Point","coordinates":[106.236643263,9.80996493]},"properties":{"Phật giáo Nam tông":"Chùa Chrây Phê","Tôn Kính":"ĐĐ. Kim Som Ươne","Địa chỉ":"ấp Trung Tiến, xã Hùng Hòa","Tông phái":"PHẬT GIÁO NAM TÔNG KHMER","layer_id":358,"fid":376,"label":"Chùa Chrây Phê"}},{"type":"Feature","geometry":{"type":"Point","coordinates":[106.188883244,9.779977615]},"properties":{"Phật giáo Nam tông":"Chùa Prek Tung","Tôn Kính":"TT. Thạch Sâm Nang","Địa chỉ":"ấp 6, xã Hùng Hòa","Tông phái":"PHẬT GIÁO NAM TÔNG KHMER","layer_id":358,"fid":377,"label":"Chùa Prek Tung"}},{"type":"Feature","geometry":{"type":"Point","coordinates":[106.212409794,9.866120832]},"properties":{"Phật giáo Nam tông":"Chùa Kompong Đôn","Tôn Kính":"TT. Thạch Sơn","Địa chỉ":"ấp Ô Đùng, xã Tập Ngãi","Tông phái":"PHẬT GIÁO NAM TÔNG KHMER","layer_id":358,"fid":378,"label":"Chùa Kompong Đôn"}},{"type":"Feature","geometry":{"type":"Point","coordinates":[106.199394312,9.854607586]},"properties":{"Phật giáo Nam tông":"Chùa Kompong Răng","Tôn Kính":"TT. Thạch Vương","Địa chỉ":"ấp Tân Đại, xã Tập Ngãi","Tông phái":"PHẬT GIÁO NAM TÔNG KHMER","layer_id":358,"fid":379,"label":"Chùa Kompong Răng"}},{"type":"Feature","geometry":{"type":"Point","coordinates":[106.220708907,9.854438544]},"properties":{"Phật giáo Nam tông":"Chùa KompongChhuk","Tôn Kính":"ĐĐ. Thạch Vi Sách","Địa chỉ":"ấp Ô Trôm, xã Tập Ngãi","Tông phái":"PHẬT GIÁO NAM TÔNG KHMER","layer_id":358,"fid":380,"label":"Chùa KompongChhuk"}},{"type":"Feature","geometry":{"type":"Point","coordinates":[106.217600254,9.837765299]},"properties":{"Phật giáo Nam tông":"Chùa Ô Trao","Tôn Kính":"ĐĐ. Thạch Sĩ.","Địa chỉ":"ấp Ô Trao, xã Tập Ngãi","Tông phái":"PHẬT GIÁO NAM TÔNG KHMER","layer_id":358,"fid":381,"label":"Chùa Ô Trao"}},{"type":"Feature","geometry":{"type":"Point","coordinates":[106.088006315,9.861063465]},"properties":{"Phật giáo Nam tông":"Chùa Đai Tô Tưng","Tôn Kính":"ĐĐ. Thạch Sung","Địa chỉ":"ấp Giồng Tranh, xã Tập Ngãi","Tông phái":"PHẬT GIÁO NAM TÔNG KHMER","layer_id":358,"fid":382,"label":"Chùa Đai Tô Tưng"}},{"type":"Feature","geometry":{"type":"Point","coordinates":[106.239932263,9.809821838]},"properties":{"Phật giáo Nam tông":"Chùa Ô Chhuc","Tôn Kính":"TT. Thạch Út","Địa chỉ":"ấp Ngãi Hòa, xã Tập Ngãi","Tông phái":"PHẬT GIÁO NAM TÔNG KHMER","layer_id":358,"fid":383,"label":"Chùa Ô Chhuc"}},{"type":"Feature","geometry":{"type":"Point","coordinates":[106.449455534,9.792318883]},"properties":{"Phật giáo Nam tông":"Chùa Kos Som","Tôn Kính":"TT. Sơn Đức Thắng","Địa chỉ":"ấp Sóc Chùa, xã Cầu Ngang","Tông phái":"PHẬT GIÁO NAM TÔNG KHMER","layer_id":358,"fid":384,"label":"Chùa Kos Som"}},{"type":"Feature","geometry":{"type":"Point","coordinates":[106.427199839,9.768970582]},"properties":{"Phật giáo Nam tông":"Chùa Chông Phnô","Tôn Kính":"TT.Thạch Sóc Kha","Địa chỉ":"ấp Trà Kim, xã Cầu Ngang","Tông phái":"PHẬT GIÁO NAM TÔNG KHMER","layer_id":358,"fid":385,"label":"Chùa Chông Phnô"}},{"type":"Feature","geometry":{"type":"Point","coordinates":[106.467911384,9.806444602]},"properties":{"Phật giáo Nam tông":"Chùa Pro Hút","Tôn Kính":"ĐĐ. Thạch Thanh Hùng","Địa chỉ":"ấp Mỹ Cẩm B, xã Cầu Ngang","Tông phái":"PHẬT GIÁO NAM TÔNG KHMER","layer_id":358,"fid":386,"label":"Chùa Pro Hút"}},{"type":"Feature","geometry":{"type":"Point","coordinates":[106.467718234,9.807751064]},"properties":{"Phật giáo Nam tông":"Chùa Teo Thmây","Tôn Kính":"ĐĐ.Thạch Sê Rây","Địa chỉ":"ấp Cẩm Hương, xã Cầu Ngang","Tông phái":"PHẬT GIÁO NAM TÔNG KHMER","layer_id":358,"fid":387,"label":"Chùa Teo Thmây"}},{"type":"Feature","geometry":{"type":"Point","coordinates":[106.472729475,9.796574793]},"properties":{"Phật giáo Nam tông":"Chùa Teo Chás","Tôn Kính":"ĐĐ.Kiên Sa Ri","Địa chỉ":"ấp Bào Sen, xã Cầu Ngang","Tông phái":"PHẬT GIÁO NAM TÔNG KHMER","layer_id":358,"fid":388,"label":"Chùa Teo Chás"}},{"type":"Feature","geometry":{"type":"Point","coordinates":[106.409289849,9.844138944]},"properties":{"Phật giáo Nam tông":"Chùa Ret Mol","Tôn Kính":"TT.Kim Ngane","Địa chỉ":"ấp Kim Câu, xã Vinh Kim","Tông phái":"PHẬT GIÁO NAM TÔNG KHMER","layer_id":358,"fid":389,"label":"Chùa Ret Mol"}},{"type":"Feature","geometry":{"type":"Point","coordinates":[106.40944648,9.825488023]},"properties":{"Phật giáo Nam tông":"Chùa Chêt Chrum","Tôn Kính":"HT.Thạch Son","Địa chỉ":"ấp Giữa, xã Vinh Kim","Tông phái":"PHẬT GIÁO NAM TÔNG KHMER","layer_id":358,"fid":390,"label":"Chùa Chêt Chrum"}},{"type":"Feature","geometry":{"type":"Point","coordinates":[106.407035748,9.80376706]},"properties":{"Phật giáo Nam tông":"Chùa Thlốt","Tôn Kính":"ĐĐ.Thạch Đa Ra","Địa chỉ":"ấp Hòa Lục, xã Nhị Trường","Tông phái":"PHẬT GIÁO NAM TÔNG KHMER","layer_id":358,"fid":391,"label":"Chùa Thlốt"}},{"type":"Feature","geometry":{"type":"Point","coordinates":[106.388218922,9.799803724]},"properties":{"Phật giáo Nam tông":"Chùa Phiêu","Tôn Kính":"ĐĐ.Thạch Rên","Địa chỉ":"ấp Phiêu, xã Nhị Trường","Tông phái":"PHẬT GIÁO NAM TÔNG KHMER","layer_id":358,"fid":392,"label":"Chùa Phiêu"}},{"type":"Feature","geometry":{"type":"Point","coordinates":[106.410619281,9.789936156]},"properties":{"Phật giáo Nam tông":"Chùa Kompong Tuk","Tôn Kính":"TT.Thạch Siêne","Địa chỉ":"ấp Bình Tân, xã Nhị Trường","Tông phái":"PHẬT GIÁO NAM TÔNG KHMER","layer_id":358,"fid":393,"label":"Chùa Kompong Tuk"}},{"type":"Feature","geometry":{"type":"Point","coordinates":[106.411090793,9.785104997]},"properties":{"Phật giáo Nam tông":"Chùa Chông Mêso Chás","Tôn Kính":"ĐĐ. Thạch Mừng","Địa chỉ":"ấp Ba So, xã Nhị Trường","Tông phái":"PHẬT GIÁO NAM TÔNG KHMER","layer_id":358,"fid":394,"label":"Chùa Chông Mêso Chás"}},{"type":"Feature","geometry":{"type":"Point","coordinates":[106.401208762,9.756378244]},"properties":{"Phật giáo Nam tông":"C. Chông Mêso Thmây","Tôn Kính":"ĐĐ. Thạch Sine","Địa chỉ":"ấp Ba So, xã Nhị Trường","Tông phái":"PHẬT GIÁO NAM TÔNG KHMER","layer_id":358,"fid":395,"label":"C. Chông Mêso Thmây"}},{"type":"Feature","geometry":{"type":"Point","coordinates":[106.383233036,9.751439672]},"properties":{"Phật giáo Nam tông":"Chùa Đom Bốt Bi","Tôn Kính":"ĐĐ. Sơn Sa Mít","Địa chỉ":"ấp Nô Lựa A, xã Nhị Trường","Tông phái":"PHẬT GIÁO NAM TÔNG KHMER","layer_id":358,"fid":396,"label":"Chùa Đom Bốt Bi"}},{"type":"Feature","geometry":{"type":"Point","coordinates":[106.364261072,9.734445976]},"properties":{"Phật giáo Nam tông":"Chùa RaKa Chás","Tôn Kính":"TT.Thạch Tranh","Địa chỉ":"ấp Là Ca B, xã Nhị Trường","Tông phái":"PHẬT GIÁO NAM TÔNG KHMER","layer_id":358,"fid":397,"label":"Chùa RaKa Chás"}},{"type":"Feature","geometry":{"type":"Point","coordinates":[106.397160043,9.778570971]},"properties":{"Phật giáo Nam tông":"Chùa Tropăng Veng","Tôn Kính":"ĐĐ.Thạch Phi Rum","Địa chỉ":"ấp Bông Veng, xã Nhị Trường","Tông phái":"PHẬT GIÁO NAM TÔNG KHMER","layer_id":358,"fid":398,"label":"Chùa Tropăng Veng"}},{"type":"Feature","geometry":{"type":"Point","coordinates":[106.341477721,9.764711381]},"properties":{"Phật giáo Nam tông":"Chùa Cós Xoài","Tôn Kính":"ĐĐ.Thạch Giang","Địa chỉ":"ấp Cos Xoài, xã Nhị Trường","Tông phái":"PHẬT GIÁO NAM TÔNG KHMER","layer_id":358,"fid":399,"label":"Chùa Cós Xoài"}},{"type":"Feature","geometry":{"type":"Point","coordinates":[106.366541092,9.770153616]},"properties":{"Phật giáo Nam tông":"Chùa Ompăng San","Tôn Kính":"ĐĐ. Thạch So Phal","Địa chỉ":"ấp Sóc Cục, xã Nhị Trường","Tông phái":"PHẬT GIÁO NAM TÔNG KHMER","layer_id":358,"fid":400,"label":"Chùa Ompăng San"}},{"type":"Feature","geometry":{"type":"Point","coordinates":[106.382426526,9.785807322]},"properties":{"Phật giáo Nam tông":"Chùa Can Snom","Tôn Kính":"ĐĐ. Thạch Đức","Địa chỉ":"ấp Căn Nom, xã Nhị Trường","Tông phái":"PHẬT GIÁO NAM TÔNG KHMER","layer_id":358,"fid":401,"label":"Chùa Can Snom"}},{"type":"Feature","geometry":{"type":"Point","coordinates":[106.427433017,9.718710848]},"properties":{"Phật giáo Nam tông":"Chùa KompongTôTưng","Tôn Kính":"ĐĐ.Thạch Sa Rươne","Địa chỉ":"ấp Tân Lập, xã Hiệp Mỹ","Tông phái":"PHẬT GIÁO NAM TÔNG KHMER","layer_id":358,"fid":402,"label":"Chùa KompongTôTưng"}},{"type":"Feature","geometry":{"type":"Point","coordinates":[106.436677687,9.758202543]},"properties":{"Phật giáo Nam tông":"Chùa Phnô Răng","Tôn Kính":"ĐĐ.Thạch Tha","Địa chỉ":"ấp Ô Răng, xã Hiệp Mỹ","Tông phái":"PHẬT GIÁO NAM TÔNG KHMER","layer_id":358,"fid":403,"label":"Chùa Phnô Răng"}},{"type":"Feature","geometry":{"type":"Point","coordinates":[106.258477176,9.702418501]},"properties":{"Phật giáo Nam tông":"Chùa Svay Siem Chás","Tôn Kính":"ĐĐ. Thạch Thái Duyên","Địa chỉ":"ấp Xoài Thum, xã Trà Cú","Tông phái":"PHẬT GIÁO NAM TÔNG KHMER","layer_id":358,"fid":404,"label":"Chùa Svay Siem Chás"}},{"type":"Feature","geometry":{"type":"Point","coordinates":[106.258460122,9.702124713]},"properties":{"Phật giáo Nam tông":"Chùa Svay Siem Thmây","Tôn Kính":"ĐĐ. Thạch Nhứt","Địa chỉ":"ấp Xoài Xiêm, xã Trà Cú","Tông phái":"PHẬT GIÁO NAM TÔNG KHMER","layer_id":358,"fid":405,"label":"Chùa Svay Siem Thmây"}},{"type":"Feature","geometry":{"type":"Point","coordinates":[106.294641652,9.707662393]},"properties":{"Phật giáo Nam tông":"Chùa Tuôl Tà Thuk","Tôn Kính":"ĐĐ. Thạch Út","Địa chỉ":"ấp Giồng Tranh, xã Trà Cú","Tông phái":"PHẬT GIÁO NAM TÔNG KHMER","layer_id":358,"fid":406,"label":"Chùa Tuôl Tà Thuk"}},{"type":"Feature","geometry":{"type":"Point","coordinates":[106.288877285,9.687022302]},"properties":{"Phật giáo Nam tông":"Chùa Cha","Tôn Kính":"HT. Kim Ngọc Toàn","Địa chỉ":"ấp Sóc Chà B, xã Trà Cú","Tông phái":"PHẬT GIÁO NAM TÔNG KHMER","layer_id":358,"fid":407,"label":"Chùa Cha"}},{"type":"Feature","geometry":{"type":"Point","coordinates":[106.277605869,9.676093326]},"properties":{"Phật giáo Nam tông":"Chùa Kos Sla","Tôn Kính":"HT. Kim Cộng","Địa chỉ":"ấp Cos La, xã Trà Cú","Tông phái":"PHẬT GIÁO NAM TÔNG KHMER","layer_id":358,"fid":408,"label":"Chùa Kos Sla"}},{"type":"Feature","geometry":{"type":"Point","coordinates":[106.298260921,9.62127114]},"properties":{"Phật giáo Nam tông":"Chùa Phnô Săngke Thmây","Tôn Kính":"HT. Thạch Ngọc Viên","Địa chỉ":"Khóm 5, xã Đại An","Tông phái":"PHẬT GIÁO NAM TÔNG KHMER","layer_id":358,"fid":409,"label":"Chùa Phnô Săngke Thmây"}},{"type":"Feature","geometry":{"type":"Point","coordinates":[106.313507662,9.636986963]},"properties":{"Phật giáo Nam tông":"Chùa Phnô Săngke Chás","Tôn Kính":"HT. Lý Sạch","Địa chỉ":"ấp Trà Kha, xã Đại An","Tông phái":"PHẬT GIÁO NAM TÔNG KHMER","layer_id":358,"fid":410,"label":"Chùa Phnô Săngke Chás"}},{"type":"Feature","geometry":{"type":"Point","coordinates":[106.334823586,9.643820035]},"properties":{"Phật giáo Nam tông":"Chùa Phnô Đung","Tôn Kính":"TT.Trương Văn Biện","Địa chỉ":"ấp Giồng Lớn, xã Đại An","Tông phái":"PHẬT GIÁO NAM TÔNG KHMER","layer_id":358,"fid":411,"label":"Chùa Phnô Đung"}},{"type":"Feature","geometry":{"type":"Point","coordinates":[106.193918818,9.703965357]},"properties":{"Phật giáo Nam tông":"Chùa Kompong Luông","Tôn Kính":"ĐĐ. Thạch Minh Tinh","Địa chỉ":"ấp Chợ, xã Lưu Nghiệp Anh","Tông phái":"PHẬT GIÁO NAM TÔNG KHMER","layer_id":358,"fid":412,"label":"Chùa Kompong Luông"}},{"type":"Feature","geometry":{"type":"Point","coordinates":[106.179668158,9.717017429]},"properties":{"Phật giáo Nam tông":"Chùa Kro","Tôn Kính":"ĐĐ. Thạch Tư Đạt","Địa chỉ":"ấp Sóc Tro, xã Lưu Nghiệp Anh","Tông phái":"PHẬT GIÁO NAM TÔNG KHMER","layer_id":358,"fid":413,"label":"Chùa Kro"}},{"type":"Feature","geometry":{"type":"Point","coordinates":[106.193276694,9.702801767]},"properties":{"Phật giáo Nam tông":"Chùa Chum Nit","Tôn Kính":"ĐĐ. Thạch Hồng","Địa chỉ":"ấp Lưu Cừu 2, xã Lưu Nghiệp Anh","Tông phái":"PHẬT GIÁO NAM TÔNG KHMER","layer_id":358,"fid":414,"label":"Chùa Chum Nit"}},{"type":"Feature","geometry":{"type":"Point","coordinates":[106.237242238,9.673303793]},"properties":{"Phật giáo Nam tông":"Chùa Ba Chhau","Tôn Kính":"ĐĐ.Trần Mỹ","Địa chỉ":"ấp Bãi Sào Dơi A, xã Hàm Giang","Tông phái":"PHẬT GIÁO NAM TÔNG KHMER","layer_id":358,"fid":415,"label":"Chùa Ba Chhau"}},{"type":"Feature","geometry":{"type":"Point","coordinates":[106.25518892,9.676351834]},"properties":{"Phật giáo Nam tông":"Chùa ThCâu","Tôn Kính":"ĐĐ.Kim Rúte","Địa chỉ":"ấp Trà Cú A, xã Hàm Giang","Tông phái":"PHẬT GIÁO NAM TÔNG KHMER","layer_id":358,"fid":416,"label":"Chùa ThCâu"}},{"type":"Feature","geometry":{"type":"Point","coordinates":[106.394697476,9.714881667]},"properties":{"Phật giáo Nam tông":"Chùa Chrôi Tansa","Tôn Kính":"ĐĐ. Giang Thanh","Địa chỉ":"ấp Bãi Sào Giữa, xã Hàm Giang","Tông phái":"PHẬT GIÁO NAM TÔNG KHMER","layer_id":358,"fid":417,"label":"Chùa Chrôi Tansa"}},{"type":"Feature","geometry":{"type":"Point","coordinates":[106.286724564,9.660690807]},"properties":{"Phật giáo Nam tông":"Chùa Bantay Kro","Tôn Kính":"ĐĐ. Thạch Dinh","Địa chỉ":"ấp Trà Tro, xã Hàm Giang","Tông phái":"PHẬT GIÁO NAM TÔNG KHMER","layer_id":358,"fid":418,"label":"Chùa Bantay Kro"}},{"type":"Feature","geometry":{"type":"Point","coordinates":[106.296091559,9.659785884]},"properties":{"Phật giáo Nam tông":"Chùa Bangrai Thmây","Tôn Kính":"TT. Nhan Chanh","Địa chỉ":"ấp Cà Săng, xã Hàm Giang","Tông phái":"PHẬT GIÁO NAM TÔNG KHMER","layer_id":358,"fid":419,"label":"Chùa Bangrai Thmây"}},{"type":"Feature","geometry":{"type":"Point","coordinates":[106.27517431,9.656522816]},"properties":{"Phật giáo Nam tông":"Chùa Bangrai Chás","Tôn Kính":"TT. Thạch Ky","Địa chỉ":"ấp Vàm Rai, xã Hàm Giang","Tông phái":"PHẬT GIÁO NAM TÔNG KHMER","layer_id":358,"fid":420,"label":"Chùa Bangrai Chás"}},{"type":"Feature","geometry":{"type":"Point","coordinates":[106.235110759,9.653829012]},"properties":{"Phật giáo Nam tông":"Chùa Đây Kro Hom","Tôn Kính":"ĐĐ. Kim Hạnh","Địa chỉ":"ấp Cà Hom, xã Hàm Giang","Tông phái":"PHẬT GIÁO NAM TÔNG KHMER","layer_id":358,"fid":421,"label":"Chùa Đây Kro Hom"}},{"type":"Feature","geometry":{"type":"Point","coordinates":[106.342436019,9.707540779]},"properties":{"Phật giáo Nam tông":"Chùa Tà Sất","Tôn Kính":"ĐĐ. Lư Sa Míte","Địa chỉ":"ấp Chợ, xã Long Hiệp","Tông phái":"PHẬT GIÁO NAM TÔNG KHMER","layer_id":358,"fid":422,"label":"Chùa Tà Sất"}},{"type":"Feature","geometry":{"type":"Point","coordinates":[106.371942644,9.721663083]},"properties":{"Phật giáo Nam tông":"Chùa Phnô Phrel","Tôn Kính":"ĐĐ. Kim Thưa","Địa chỉ":"ấp Nô Rè A, xã Long Hiệp","Tông phái":"PHẬT GIÁO NAM TÔNG KHMER","layer_id":358,"fid":423,"label":"Chùa Phnô Phrel"}},{"type":"Feature","geometry":{"type":"Point","coordinates":[106.328660273,9.690376746]},"properties":{"Phật giáo Nam tông":"Chùa Ba Cụm","Tôn Kính":"TT. Kim Rune","Địa chỉ":"ấp Ba Cụm, xã Long Hiệp","Tông phái":"PHẬT GIÁO NAM TÔNG KHMER","layer_id":358,"fid":424,"label":"Chùa Ba Cụm"}},{"type":"Feature","geometry":{"type":"Point","coordinates":[106.366446805,9.702254499]},"properties":{"Phật giáo Nam tông":"Chùa Prey Vo","Tôn Kính":"ĐĐ. Thạch Trương","Địa chỉ":"ấp Sà Vần A, xã Long Hiệp","Tông phái":"PHẬT GIÁO NAM TÔNG KHMER","layer_id":358,"fid":425,"label":"Chùa Prey Vo"}},{"type":"Feature","geometry":{"type":"Point","coordinates":[106.371494991,9.704682753]},"properties":{"Phật giáo Nam tông":"Chùa Bras Prang","Tôn Kính":"ĐĐ. Thạch Thi Bạch","Địa chỉ":"ấp Giồng Cao, xã Long Hiệp","Tông phái":"PHẬT GIÁO NAM TÔNG KHMER","layer_id":358,"fid":426,"label":"Chùa Bras Prang"}},{"type":"Feature","geometry":{"type":"Point","coordinates":[106.397229853,9.718370089]},"properties":{"Phật giáo Nam tông":"Chùa Kompong SaLa","Tôn Kính":"HT. Thạch Ngọc Rô","Địa chỉ":"ấp Tha La, xã Long Hiệp","Tông phái":"PHẬT GIÁO NAM TÔNG KHMER","layer_id":358,"fid":427,"label":"Chùa Kompong SaLa"}},{"type":"Feature","geometry":{"type":"Point","coordinates":[106.345945838,9.730762861]},"properties":{"Phật giáo Nam tông":"Chùa Phnô Ompung","Tôn Kính":"ĐĐ. Thạch Sa Vane","Địa chỉ":"ấp Long Trường, xã Long Hiệp","Tông phái":"PHẬT GIÁO NAM TÔNG KHMER","layer_id":358,"fid":428,"label":"Chùa Phnô Ompung"}},{"type":"Feature","geometry":{"type":"Point","coordinates":[106.330813488,9.748501745]},"properties":{"Phật giáo Nam tông":"Chùa RongVel","Tôn Kính":"ĐĐ. Thạch Sa Miênl","Địa chỉ":"ấp Sóc Ruộng, xã Long Hiệp","Tông phái":"PHẬT GIÁO NAM TÔNG KHMER","layer_id":358,"fid":429,"label":"Chùa RongVel"}},{"type":"Feature","geometry":{"type":"Point","coordinates":[106.354072445,9.732759778]},"properties":{"Phật giáo Nam tông":"Chùa Trô Brás Bat","Tôn Kính":"ĐĐ. Thạch Kha Lê","Địa chỉ":"ấp Chông Bát, xã Long Hiệp","Tông phái":"PHẬT GIÁO NAM TÔNG KHMER","layer_id":358,"fid":430,"label":"Chùa Trô Brás Bat"}},{"type":"Feature","geometry":{"type":"Point","coordinates":[106.299239352,9.724525161]},"properties":{"Phật giáo Nam tông":"Chùa Cós Lọp","Tôn Kính":"ĐĐ. Kim Chất Ly","Địa chỉ":"ấp Ba Trạch B, xã Long Hiệp","Tông phái":"PHẬT GIÁO NAM TÔNG KHMER","layer_id":358,"fid":431,"label":"Chùa Cós Lọp"}},{"type":"Feature","geometry":{"type":"Point","coordinates":[106.354157924,9.733622275]},"properties":{"Phật giáo Nam tông":"Chùa Ba Trạch","Tôn Kính":"HT. Thạch Cang","Địa chỉ":"ấp Ba Trạch A, xã Long Hiệp","Tông phái":"PHẬT GIÁO NAM TÔNG KHMER","layer_id":358,"fid":432,"label":"Chùa Ba Trạch"}},{"type":"Feature","geometry":{"type":"Point","coordinates":[106.328742164,9.724226597]},"properties":{"Phật giáo Nam tông":"Chùa Phnô Anđung","Tôn Kính":"Đại đức Thạch Thanh Trường","Địa chỉ":"ấp Nô Đùng, xã Long Hiệp","Tông phái":"PHẬT GIÁO NAM TÔNG KHMER","layer_id":358,"fid":433,"label":"Chùa Phnô Anđung"}},{"type":"Feature","geometry":{"type":"Point","coordinates":[106.326360781,9.770587196]},"properties":{"Phật giáo Nam tông":"Chùa Chông Prây","Tôn Kính":"ĐĐ. Kim Hữu Nghị","Địa chỉ":"ấp Trạm, xã Tập Sơn","Tông phái":"PHẬT GIÁO NAM TÔNG KHMER","layer_id":358,"fid":434,"label":"Chùa Chông Prây"}},{"type":"Feature","geometry":{"type":"Point","coordinates":[106.281740005,9.746190499]},"properties":{"Phật giáo Nam tông":"Chùa Sleng Thmây","Tôn Kính":"TT. Kim Sâm Bô","Địa chỉ":"ấp Chòm Chuối, xã Tập Sơn","Tông phái":"PHẬT GIÁO NAM TÔNG KHMER","layer_id":358,"fid":435,"label":"Chùa Sleng Thmây"}},{"type":"Feature","geometry":{"type":"Point","coordinates":[106.218595369,9.733983905]},"properties":{"Phật giáo Nam tông":"Chùa Sleng Chás","Tôn Kính":"ĐĐ. Thạch SaVươne","Địa chỉ":"ấp Bến Chùa, xã Tập Sơn","Tông phái":"PHẬT GIÁO NAM TÔNG KHMER","layer_id":358,"fid":436,"label":"Chùa Sleng Chás"}},{"type":"Feature","geometry":{"type":"Point","coordinates":[106.243195833,9.735950656]},"properties":{"Phật giáo Nam tông":"Chùa Chê Đây","Tôn Kính":"HT.Kim Phone","Địa chỉ":"ấp Cây Da, xã Tập Sơn","Tông phái":"PHẬT GIÁO NAM TÔNG KHMER","layer_id":358,"fid":437,"label":"Chùa Chê Đây"}},{"type":"Feature","geometry":{"type":"Point","coordinates":[106.218532516,9.735504216]},"properties":{"Phật giáo Nam tông":"Chùa Bô Thi Bưng","Tôn Kính":"TT. Kim Sô Thi","Địa chỉ":"ấp Leng, xã Tập Sơn","Tông phái":"PHẬT GIÁO NAM TÔNG KHMER","layer_id":358,"fid":438,"label":"Chùa Bô Thi Bưng"}},{"type":"Feature","geometry":{"type":"Point","coordinates":[106.466471216,9.61662368]},"properties":{"Phật giáo Nam tông":"Chùa Tropăng Chhuc","Tôn Kính":"ĐĐ. Thạch Cường","Địa chỉ":"khóm 1, xã Long Thành","Tông phái":"PHẬT GIÁO NAM TÔNG KHMER","layer_id":358,"fid":439,"label":"Chùa Tropăng Chhuc"}},{"type":"Feature","geometry":{"type":"Point","coordinates":[106.326826923,9.595165693]},"properties":{"Phật giáo Nam tông":"Chùa Ta Lôn","Tôn Kính":"ĐĐ. Huỳnh Công Đợi","Địa chỉ":"ấp Cái Cối, xã Long Vĩnh","Tông phái":"PHẬT GIÁO NAM TÔNG KHMER","layer_id":358,"fid":440,"label":"Chùa Ta Lôn"}},{"type":"Feature","geometry":{"type":"Point","coordinates":[106.375855832,9.610058782]},"properties":{"Phật giáo Nam tông":"Chùa Âng Kôl","Tôn Kính":"ĐĐ. Kim Hải Toàn","Địa chỉ":"ấp Xóm Chùa, xã Long Vĩnh","Tông phái":"PHẬT GIÁO NAM TÔNG KHMER","layer_id":358,"fid":441,"label":"Chùa Âng Kôl"}},{"type":"Feature","geometry":{"type":"Point","coordinates":[106.360879375,9.67936069]},"properties":{"Phật giáo Nam tông":"Chùa Chrây Pra Sat","Tôn Kính":"ĐĐ. Sơn Thanh Si","Địa chỉ":"ấp Ba Sát, xã Đôn Châu","Tông phái":"PHẬT GIÁO NAM TÔNG KHMER","layer_id":358,"fid":442,"label":"Chùa Chrây Pra Sat"}},{"type":"Feature","geometry":{"type":"Point","coordinates":[106.334860052,9.64390158]},"properties":{"Phật giáo Nam tông":"Chùa Rum Đuôl","Tôn Kính":"HT. Thạch Sên","Địa chỉ":"ấp Lộ Sỏi, xã Đôn Châu","Tông phái":"PHẬT GIÁO NAM TÔNG KHMER","layer_id":358,"fid":443,"label":"Chùa Rum Đuôl"}},{"type":"Feature","geometry":{"type":"Point","coordinates":[106.331997036,9.656979166]},"properties":{"Phật giáo Nam tông":"Chùa Bà Giam","Tôn Kính":"ĐĐ. Tăng Tinh","Địa chỉ":"ấp Bà Giam B, xã Đôn Châu","Tông phái":"PHẬT GIÁO NAM TÔNG KHMER","layer_id":358,"fid":444,"label":"Chùa Bà Giam"}},{"type":"Feature","geometry":{"type":"Point","coordinates":[106.358051836,9.651077637]},"properties":{"Phật giáo Nam tông":"Chùa Chrây Kôk","Tôn Kính":"ĐĐ. Thạch Tám Sum","Địa chỉ":"ấp Bà Nhì, xã Đôn Châu","Tông phái":"PHẬT GIÁO NAM TÔNG KHMER","layer_id":358,"fid":445,"label":"Chùa Chrây Kôk"}},{"type":"Feature","geometry":{"type":"Point","coordinates":[106.403804614,9.663217208]},"properties":{"Phật giáo Nam tông":"Chùa Sla Pang","Tôn Kính":"TT. Thạch Lone","Địa chỉ":"ấp La Bang Chùa, xã Đôn Châu","Tông phái":"PHẬT GIÁO NAM TÔNG KHMER","layer_id":358,"fid":446,"label":"Chùa Sla Pang"}},{"type":"Feature","geometry":{"type":"Point","coordinates":[106.394621068,9.687863618]},"properties":{"Phật giáo Nam tông":"Chùa Đom Bon Bak","Tôn Kính":"ĐĐ. Kim Chanh Sô Phone","Địa chỉ":"ấp Bào Môn, xã Đôn Châu","Tông phái":"PHẬT GIÁO NAM TÔNG KHMER","layer_id":358,"fid":447,"label":"Chùa Đom Bon Bak"}},{"type":"Feature","geometry":{"type":"Point","coordinates":[106.385217904,9.666404716]},"properties":{"Phật giáo Nam tông":"Chùa Ta Rom","Tôn Kính":"ĐĐ. Thạch Nhỏ","Địa chỉ":"ấp Tà Rom, xã Đôn Châu","Tông phái":"PHẬT GIÁO NAM TÔNG KHMER","layer_id":358,"fid":448,"label":"Chùa Ta Rom"}},{"type":"Feature","geometry":{"type":"Point","coordinates":[106.41225584,9.686280077]},"properties":{"Phật giáo Nam tông":"Chùa Mêrong Thmây","Tôn Kính":"ĐD.Thạch Som","Địa chỉ":"ấp Lạc Sơn, xã Ngũ Lạc","Tông phái":"PHẬT GIÁO NAM TÔNG KHMER","layer_id":358,"fid":449,"label":"Chùa Mêrong Thmây"}},{"type":"Feature","geometry":{"type":"Point","coordinates":[106.441753406,9.701998454]},"properties":{"Phật giáo Nam tông":"Chùa Mêrong Chás","Tôn Kính":"ĐĐ.Thạch Si Nê","Địa chỉ":"ấp Lạc Thành A, xã Ngũ Lạc","Tông phái":"PHẬT GIÁO NAM TÔNG KHMER","layer_id":358,"fid":450,"label":"Chùa Mêrong Chás"}},{"type":"Feature","geometry":{"type":"Point","coordinates":[106.473913379,9.709947533]},"properties":{"Phật giáo Nam tông":"Chùa Vel Lac","Tôn Kính":"ĐĐ.Thạch Diệt","Địa chỉ":"ấp Lạc Hòa, xã Ngũ Lạc","Tông phái":"PHẬT GIÁO NAM TÔNG KHMER","layer_id":358,"fid":451,"label":"Chùa Vel Lac"}},{"type":"Feature","geometry":{"type":"Point","coordinates":[106.420601413,9.664828185]},"properties":{"Phật giáo Nam tông":"Chùa Thum","Tôn Kính":"TT.Thạch Pai","Địa chỉ":"ấp Thốt Lốt, xã Ngũ Lạc","Tông phái":"PHẬT GIÁO NAM TÔNG KHMER","layer_id":358,"fid":452,"label":"Chùa Thum"}},{"type":"Feature","geometry":{"type":"Point","coordinates":[106.423528361,9.677107179]},"properties":{"Phật giáo Nam tông":"Chùa Chrây Ta Sô","Tôn Kính":"ĐĐ. Thạch Sa Mây","Địa chỉ":"ấp Rọ Sai, xã Ngũ Lạc","Tông phái":"PHẬT GIÁO NAM TÔNG KHMER","layer_id":358,"fid":453,"label":"Chùa Chrây Ta Sô"}},{"type":"Feature","geometry":{"type":"Point","coordinates":[106.458250985,9.68527286]},"properties":{"Phật giáo Nam tông":"Chùa Pro Khúp","Tôn Kính":"TT. Thạch Rươne","Địa chỉ":"ấp Trà Khúp, xã Ngũ Lạc","Tông phái":"PHẬT GIÁO NAM TÔNG KHMER","layer_id":358,"fid":454,"label":"Chùa Pro Khúp"}},{"type":"Feature","geometry":{"type":"Point","coordinates":[106.465124708,9.688777428]},"properties":{"Phật giáo Nam tông":"Chùa Khnach Tô Tưng","Tôn Kính":"ĐĐ. Kiên Hạnh","Địa chỉ":"ấp Bổn Thanh, xã Ngũ Lạc","Tông phái":"PHẬT GIÁO NAM TÔNG KHMER","layer_id":358,"fid":455,"label":"Chùa Khnach Tô Tưng"}},{"type":"Feature","geometry":{"type":"Point","coordinates":[105.841769621,10.053598203]},"properties":{"Phật giáo Nam tông":"Chùa Phù Ly II","Tôn Kính":"HT. Kim Chát","Địa chỉ":"ấp Phù Ly II, Đông Bình","Tông phái":"PHẬT GIÁO NAM TÔNG KHMER","layer_id":358,"fid":456,"label":"Chùa Phù Ly II"}},{"type":"Feature","geometry":{"type":"Point","coordinates":[106.192749067,10.076224504]},"properties":{"Phật giáo Nam tông":"Chùa Hạnh Phúc Tăng","Tôn Kính":"TT. Sơn Ngọc Huynh","Địa chỉ":"ấp Trung Trạch, xã Trung Thành","Tông phái":"PHẬT GIÁO NAM TÔNG KHMER","layer_id":358,"fid":457,"label":"Chùa Hạnh Phúc Tăng"}},{"type":"Feature","geometry":{"type":"Point","coordinates":[105.890112857,10.012947179]},"properties":{"Phật giáo Nam tông":"Chùa Tòa Sen","Tôn Kính":"TT. Thạch Bước","Địa chỉ":"ấp Hóa Thành I, xã Đông Thành","Tông phái":"PHẬT GIÁO NAM TÔNG KHMER","layer_id":358,"fid":458,"label":"Chùa Tòa Sen"}},{"type":"Feature","geometry":{"type":"Point","coordinates":[105.850240246,10.045413442]},"properties":{"Phật giáo Nam tông":"Chùa Phù Ly I","Tôn Kính":"ĐĐ. Thạch Thanh Tùng","Địa chỉ":"ấp Phù Ly I, xã Đông Thành","Tông phái":"PHẬT GIÁO NAM TÔNG KHMER","layer_id":358,"fid":459,"label":"Chùa Phù Ly I"}},{"type":"Feature","geometry":{"type":"Point","coordinates":[105.952037209,9.988166284]},"properties":{"Phật giáo Nam tông":"Chùa Gò Xoài","Tôn Kính":"TT. Thạch Xa Rốt","Địa chỉ":"ấp Sóc Ruộng, xã Trà Côn","Tông phái":"PHẬT GIÁO NAM TÔNG KHMER","layer_id":358,"fid":460,"label":"Chùa Gò Xoài"}},{"type":"Feature","geometry":{"type":"Point","coordinates":[105.956674336,10.020281694]},"properties":{"Phật giáo Nam tông":"Chùa Kỳ Son","Tôn Kính":"TT. Thạch Phương Thanh (Q. Trụ trì)","Địa chỉ":"ấp Sóc Rừng, xã Ngãi Tứ","Tông phái":"PHẬT GIÁO NAM TÔNG KHMER","layer_id":358,"fid":461,"label":"Chùa Kỳ Son"}},{"type":"Feature","geometry":{"type":"Point","coordinates":[105.978787752,9.99071995]},"properties":{"Phật giáo Nam tông":"Chùa Cần Thay","Tôn Kính":"TT. Thạch Sắc","Địa chỉ":"ấp Cần Thay, xã Trà Côn","Tông phái":"PHẬT GIÁO NAM TÔNG KHMER","layer_id":358,"fid":462,"label":"Chùa Cần Thay"}},{"type":"Feature","geometry":{"type":"Point","coordinates":[105.818718694,10.075269477]},"properties":{"Phật giáo Nam tông":"Chùa Mỹ Bồn","Tôn Kính":"ĐĐ. Sơn Bal","Địa chỉ":"Khóm 5, Phường Cái Vồn","Tông phái":"PHẬT GIÁO NAM TÔNG KHMER","layer_id":358,"fid":463,"label":"Chùa Mỹ Bồn"}},{"type":"Feature","geometry":{"type":"Point","coordinates":[105.945821752,10.002245719]},"properties":{"Phật giáo Nam tông":"Chùa Đại Thọ","Tôn Kính":"ĐĐ. Thạch Xươln","Địa chỉ":"ấp Đại Thọ, xã Ngãi Tứ","Tông phái":"PHẬT GIÁO NAM TÔNG KHMER","layer_id":358,"fid":464,"label":"Chùa Đại Thọ"}},{"type":"Feature","geometry":{"type":"Point","coordinates":[105.982654825,9.985360582]},"properties":{"Phật giáo Nam tông":"Chùa Giữa","Tôn Kính":"ĐĐ. Thạch Tha Ni","Địa chỉ":"ấp Trà Mòn, xã Trà Côn","Tông phái":"PHẬT GIÁO NAM TÔNG KHMER","layer_id":358,"fid":465,"label":"Chùa Giữa"}},{"type":"Feature","geometry":{"type":"Point","coordinates":[106.014483683,10.015806312]},"properties":{"Phật giáo Nam tông":"Chùa Trà Sơn","Tôn Kính":"ĐĐ. Thạch Đom Ra","Địa chỉ":"ấp Trà Sơn, xã Vĩnh Xuân","Tông phái":"PHẬT GIÁO NAM TÔNG KHMER","layer_id":358,"fid":466,"label":"Chùa Trà Sơn"}},{"type":"Feature","geometry":{"type":"Point","coordinates":[106.018171169,10.005750602]},"properties":{"Phật giáo Nam tông":"Chùa Mới","Tôn Kính":"ĐĐ. Thạch Um Thi Rít (Q Trụ trì)","Địa chỉ":"ấp Thôn Rôn, xã Trà Côn","Tông phái":"PHẬT GIÁO NAM TÔNG KHMER","layer_id":358,"fid":467,"label":"Chùa Mới"}},{"type":"Feature","geometry":{"type":"Point","coordinates":[105.977811811,9.974345325]},"properties":{"Phật giáo Nam tông":"Chùa Gia Kiết","Tôn Kính":"ĐĐ. Sơn Công","Địa chỉ":"ấp Mỹ Thuận, xã Trà Côn","Tông phái":"PHẬT GIÁO NAM TÔNG KHMER","layer_id":358,"fid":468,"label":"Chùa Gia Kiết"}}]}
