{"type":"FeatureCollection","name":"Công giáo","metadata":{"source":"https://hatang.vinhlong.gov.vn/","downloaded_at":"2026-07-20T01:18:58+00:00","layer_id":360,"layer_name":"Công giáo","catalog_endpoints":["/map/publicLayers2?inputs=sodttg"],"requested_bbox":[104.0,8.0,108.0,12.0],"tile_size":0.0,"tile_count":1,"tile_errors":[],"feature_count":200,"coordinate_order":"x,y (thường là longitude,latitude theo cấu hình EPSG:4326 của WebGIS)"},"features":[{"type":"Feature","geometry":{"type":"Point","coordinates":[105.969783588,10.253273002]},"properties":{"Cơ sở Công giáo":"Tòa Giám mục giáo phận Vĩnh Long","Địa chỉ":"103 đường 3/2, khóm Nguyễn Du, Phường Phước Hậu","Người đứng đầu cơ sở Công giáo":null,"layer_id":360,"fid":1,"label":"Tòa Giám mục giáo phận Vĩnh Long"}},{"type":"Feature","geometry":{"type":"Point","coordinates":[105.962443306,10.253284339]},"properties":{"Cơ sở Công giáo":"Trung tâm mục vụ giáo phận Vĩnh Long","Địa chỉ":"71B đường Nguyễn Huệ, Phường Phước Hậu","Người đứng đầu cơ sở Công giáo":null,"layer_id":360,"fid":2,"label":"Trung tâm mục vụ giáo phận Vĩnh Long"}},{"type":"Feature","geometry":{"type":"Point","coordinates":[105.963606277,10.256901253]},"properties":{"Cơ sở Công giáo":"Nhà thờ Chánh Tòa","Địa chỉ":"141 đường Lê Thái Tổ, khóm 6, Phường Phước Hậu","Người đứng đầu cơ sở Công giáo":null,"layer_id":360,"fid":3,"label":"Nhà thờ Chánh Tòa"}},{"type":"Feature","geometry":{"type":"Point","coordinates":[105.968339494,10.238073202]},"properties":{"Cơ sở Công giáo":"Nhà thờ Cầu Vòng","Địa chỉ":"60/4 đường Mậu Thân, khóm 3, Phường Phước Hậu","Người đứng đầu cơ sở Công giáo":null,"layer_id":360,"fid":4,"label":"Nhà thờ Cầu Vòng"}},{"type":"Feature","geometry":{"type":"Point","coordinates":[105.93618225,10.262857247]},"properties":{"Cơ sở Công giáo":"Nhà thờ Fatima","Địa chỉ":"180B, khóm Tân Quới Đông, phường Long Châu","Người đứng đầu cơ sở Công giáo":null,"layer_id":360,"fid":5,"label":"Nhà thờ Fatima"}},{"type":"Feature","geometry":{"type":"Point","coordinates":[105.895284552,10.265916661]},"properties":{"Cơ sở Công giáo":"Nhà thờ Mỹ Thuận","Địa chỉ":"147 khóm Mỹ Thuận, phường Tân Ngại","Người đứng đầu cơ sở Công giáo":null,"layer_id":360,"fid":6,"label":"Nhà thờ Mỹ Thuận"}},{"type":"Feature","geometry":{"type":"Point","coordinates":[105.977444696,10.257359708]},"properties":{"Cơ sở Công giáo":"Nhà thờ Thiềng Đức","Địa chỉ":"192B đường Nguyễn Chí Thanh,  Phường Thanh Đức","Người đứng đầu cơ sở Công giáo":null,"layer_id":360,"fid":7,"label":"Nhà thờ Thiềng Đức"}},{"type":"Feature","geometry":{"type":"Point","coordinates":[105.971197779,10.252103565]},"properties":{"Cơ sở Công giáo":"Nhà thờ Chủng viện","Địa chỉ":"88 đường Trưng Nữ Vương, khóm Nguyễn Du, Phường Long Chậu","Người đứng đầu cơ sở Công giáo":null,"layer_id":360,"fid":8,"label":"Nhà thờ Chủng viện"}},{"type":"Feature","geometry":{"type":"Point","coordinates":[105.921852135,10.267319145]},"properties":{"Cơ sở Công giáo":"Nhà thờ Tân Ngãi","Địa chỉ":"271 ấp Vĩnh Hòa, PhườngTân Ngãi","Người đứng đầu cơ sở Công giáo":null,"layer_id":360,"fid":9,"label":"Nhà thờ Tân Ngãi"}},{"type":"Feature","geometry":{"type":"Point","coordinates":[105.975929323,10.247594428]},"properties":{"Cơ sở Công giáo":"Nhà thờ Phường 4","Địa chỉ":"88 Phạm Thái Bường, Phường Phước Hậu","Người đứng đầu cơ sở Công giáo":null,"layer_id":360,"fid":10,"label":"Nhà thờ Phường 4"}},{"type":"Feature","geometry":{"type":"Point","coordinates":[105.907145561,10.266160216]},"properties":{"Cơ sở Công giáo":"Nhà nguyện Cộng đoàn Đông Thuận - Tỉnh Dòng Sa-lê-diêng Việt Nam","Địa chỉ":"341, khóm Tân Phú, phường Tân Hòa","Người đứng đầu cơ sở Công giáo":null,"layer_id":360,"fid":11,"label":"Nhà nguyện Cộng đoàn Đông Thuận - Tỉnh Dòng Sa-lê-diêng Việt Nam"}},{"type":"Feature","geometry":{"type":"Point","coordinates":[105.996025316,10.257674407]},"properties":{"Cơ sở Công giáo":"Nhà thờ Đình Khao","Địa chỉ":"436 ấp Thanh Mỹ 1, xã Thanh Đức","Người đứng đầu cơ sở Công giáo":null,"layer_id":360,"fid":12,"label":"Nhà thờ Đình Khao"}},{"type":"Feature","geometry":{"type":"Point","coordinates":[105.996836532,10.308792043]},"properties":{"Cơ sở Công giáo":"Nhà thờ Đồng Phú","Địa chỉ":"ấp Thuận Long, xã An Bình","Người đứng đầu cơ sở Công giáo":null,"layer_id":360,"fid":13,"label":"Nhà thờ Đồng Phú"}},{"type":"Feature","geometry":{"type":"Point","coordinates":[106.011335452,10.295614863]},"properties":{"Cơ sở Công giáo":"Nhà thờ Thủ Thể","Địa chỉ":"ấp Phú Thanh A, xã An Bình","Người đứng đầu cơ sở Công giáo":null,"layer_id":360,"fid":14,"label":"Nhà thờ Thủ Thể"}},{"type":"Feature","geometry":{"type":"Point","coordinates":[105.991977881,10.286295529]},"properties":{"Cơ sở Công giáo":"Nhà thờ Cái Muối","Địa chỉ":"185 tổ 9, ấp Hòa Phú, xã Hòa Ninh","Người đứng đầu cơ sở Công giáo":null,"layer_id":360,"fid":15,"label":"Nhà thờ Cái Muối"}},{"type":"Feature","geometry":{"type":"Point","coordinates":[106.011378309,10.192998445]},"properties":{"Cơ sở Công giáo":"Nhà thờ An Đức","Địa chỉ":"337 tổ 12, xã Long Hồ","Người đứng đầu cơ sở Công giáo":null,"layer_id":360,"fid":16,"label":"Nhà thờ An Đức"}},{"type":"Feature","geometry":{"type":"Point","coordinates":[106.023639394,10.154385298]},"properties":{"Cơ sở Công giáo":"Nhà thờ Long Hiệp","Địa chỉ":"136 tổ 7, ấp Long Hiệp, xã Long hồ","Người đứng đầu cơ sở Công giáo":null,"layer_id":360,"fid":17,"label":"Nhà thờ Long Hiệp"}},{"type":"Feature","geometry":{"type":"Point","coordinates":[106.049660252,10.201054579]},"properties":{"Cơ sở Công giáo":"Nhà thờ Phước Hòa ","Địa chỉ":"ấp Phước Hòa, xã Phú Quới","Người đứng đầu cơ sở Công giáo":null,"layer_id":360,"fid":18,"label":"Nhà thờ Phước Hòa "}},{"type":"Feature","geometry":{"type":"Point","coordinates":[105.998026967,10.2712537]},"properties":{"Cơ sở Công giáo":"Nhà thờ Bình Thuận","Địa chỉ":"ấp Bình Thuận 2, xã Hòa Ninh, ","Người đứng đầu cơ sở Công giáo":null,"layer_id":360,"fid":19,"label":"Nhà thờ Bình Thuận"}},{"type":"Feature","geometry":{"type":"Point","coordinates":[105.921578309,10.163954795]},"properties":{"Cơ sở Công giáo":"Nhà thờ Phú Quới","Địa chỉ":"ấp Phước Yên, xã Phú Quới ","Người đứng đầu cơ sở Công giáo":null,"layer_id":360,"fid":20,"label":"Nhà thờ Phú Quới"}},{"type":"Feature","geometry":{"type":"Point","coordinates":[105.971367109,10.184139947]},"properties":{"Cơ sở Công giáo":"Nhà thờ Lộc Hòa (Bàu Kiến)","Địa chỉ":"ấp Phước Tân, xã Phú Quới","Người đứng đầu cơ sở Công giáo":null,"layer_id":360,"fid":21,"label":"Nhà thờ Lộc Hòa (Bàu Kiến)"}},{"type":"Feature","geometry":{"type":"Point","coordinates":[105.940685209,10.160400111]},"properties":{"Cơ sở Công giáo":"Nhà thờ Hàn Thẻ","Địa chỉ":"ấp Phước Lợi, xã Phú Quới","Người đứng đầu cơ sở Công giáo":null,"layer_id":360,"fid":22,"label":"Nhà thờ Hàn Thẻ"}},{"type":"Feature","geometry":{"type":"Point","coordinates":[106.012552065,10.269622932]},"properties":{"Cơ sở Công giáo":"Nhà thờ Phước Định","Địa chỉ":"ấp Phước Định 1, xã An Bình ","Người đứng đầu cơ sở Công giáo":null,"layer_id":360,"fid":23,"label":"Nhà thờ Phước Định"}},{"type":"Feature","geometry":{"type":"Point","coordinates":[105.973121594,10.269637489]},"properties":{"Cơ sở Công giáo":"Nhà thờ An Bình","Địa chỉ":"ấp An Thành, Xã An Bình","Người đứng đầu cơ sở Công giáo":null,"layer_id":360,"fid":24,"label":"Nhà thờ An Bình"}},{"type":"Feature","geometry":{"type":"Point","coordinates":[105.950905854,10.221576293]},"properties":{"Cơ sở Công giáo":"Nhà thờ Đường Chừa","Địa chỉ":"ấp Tân Hưng, xã Tân Hạnh","Người đứng đầu cơ sở Công giáo":null,"layer_id":360,"fid":25,"label":"Nhà thờ Đường Chừa"}},{"type":"Feature","geometry":{"type":"Point","coordinates":[105.936393152,10.19777534]},"properties":{"Cơ sở Công giáo":"Nhà thờ An Hiệp","Địa chỉ":"ấp Phước Bình, xã Phú Quới","Người đứng đầu cơ sở Công giáo":null,"layer_id":360,"fid":26,"label":"Nhà thờ An Hiệp"}},{"type":"Feature","geometry":{"type":"Point","coordinates":[106.136253894,10.205157617]},"properties":{"Cơ sở Công giáo":"Nhà thờ Thủy Thuận","Địa chỉ":"ấp Thanh Thủy, xã Giao Long","Người đứng đầu cơ sở Công giáo":null,"layer_id":360,"fid":27,"label":"Nhà thờ Thủy Thuận"}},{"type":"Feature","geometry":{"type":"Point","coordinates":[106.040007763,10.243049947]},"properties":{"Cơ sở Công giáo":"Nhà thờ Cái Lóc","Địa chỉ":"ấp An Hương II, xã Mỹ An,","Người đứng đầu cơ sở Công giáo":null,"layer_id":360,"fid":28,"label":"Nhà thờ Cái Lóc"}},{"type":"Feature","geometry":{"type":"Point","coordinates":[106.107395581,10.174770492]},"properties":{"Cơ sở Công giáo":"Nhà thờ Cái Nhum (Minh Đức)","Địa chỉ":"khóm 2,xã Cái Nhum","Người đứng đầu cơ sở Công giáo":null,"layer_id":360,"fid":29,"label":"Nhà thờ Cái Nhum (Minh Đức)"}},{"type":"Feature","geometry":{"type":"Point","coordinates":[106.078015752,10.106718714]},"properties":{"Cơ sở Công giáo":"Nhà thờ Cầu Mới","Địa chỉ":"ấp Gò Nhum, xã Tân Long Hội","Người đứng đầu cơ sở Công giáo":null,"layer_id":360,"fid":30,"label":"Nhà thờ Cầu Mới"}},{"type":"Feature","geometry":{"type":"Point","coordinates":[106.158760625,10.170813933]},"properties":{"Cơ sở Công giáo":"Nhà thờ Mỹ Chánh","Địa chỉ":"ấp Mỹ Chánh, xã Cái Nhum","Người đứng đầu cơ sở Công giáo":null,"layer_id":360,"fid":31,"label":"Nhà thờ Mỹ Chánh"}},{"type":"Feature","geometry":{"type":"Point","coordinates":[106.004897381,10.210645002]},"properties":{"Cơ sở Công giáo":"Nhà thờ Long Mỹ","Địa chỉ":"ấp Long Khánh, xã Bình Phước","Người đứng đầu cơ sở Công giáo":null,"layer_id":360,"fid":32,"label":"Nhà thờ Long Mỹ"}},{"type":"Feature","geometry":{"type":"Point","coordinates":[106.084220167,10.203003473]},"properties":{"Cơ sở Công giáo":"Nhà thờ Nhơn Phú","Địa chỉ":"ấp Phú Thạnh B, xã Nhơn Phú","Người đứng đầu cơ sở Công giáo":null,"layer_id":360,"fid":33,"label":"Nhà thờ Nhơn Phú"}},{"type":"Feature","geometry":{"type":"Point","coordinates":[106.105322194,10.229725656]},"properties":{"Cơ sở Công giáo":"Nhà thờ Cái Kè","Địa chỉ":"ấp Cái Kè, xã Nhơn Phú","Người đứng đầu cơ sở Công giáo":null,"layer_id":360,"fid":34,"label":"Nhà thờ Cái Kè"}},{"type":"Feature","geometry":{"type":"Point","coordinates":[106.049724625,10.201191849]},"properties":{"Cơ sở Công giáo":"Nhà thờ Phước Hòa (Miếu Trắng)","Địa chỉ":"ấp Phước Hòa, xã Bình Phước","Người đứng đầu cơ sở Công giáo":null,"layer_id":360,"fid":35,"label":"Nhà thờ Phước Hòa (Miếu Trắng)"}},{"type":"Feature","geometry":{"type":"Point","coordinates":[106.154800423,10.074546041]},"properties":{"Cơ sở Công giáo":"Nhà thờ Mai Phốp ","Địa chỉ":"ấp Bình Trung, xã Trung Thành","Người đứng đầu cơ sở Công giáo":null,"layer_id":360,"fid":36,"label":"Nhà thờ Mai Phốp "}},{"type":"Feature","geometry":{"type":"Point","coordinates":[106.133511736,10.125357757]},"properties":{"Cơ sở Công giáo":"Nhà thờ Quang Phong","Địa chỉ":"ấp Bà Đông, xã Trung Hiệp","Người đứng đầu cơ sở Công giáo":null,"layer_id":360,"fid":37,"label":"Nhà thờ Quang Phong"}},{"type":"Feature","geometry":{"type":"Point","coordinates":[106.110153665,10.036502195]},"properties":{"Cơ sở Công giáo":"Nhà thờ Hiếu Nhơn","Địa chỉ":"ấp Ngãi Thạnh, xã Hiếu Thuận, ","Người đứng đầu cơ sở Công giáo":null,"layer_id":360,"fid":38,"label":"Nhà thờ Hiếu Nhơn"}},{"type":"Feature","geometry":{"type":"Point","coordinates":[106.182804681,10.160304338]},"properties":{"Cơ sở Công giáo":"Nhà thờ Cù Lao Dài","Địa chỉ":"ấp Phước Lý Nhì, xã Quới Thiện, ","Người đứng đầu cơ sở Công giáo":null,"layer_id":360,"fid":39,"label":"Nhà thờ Cù Lao Dài"}},{"type":"Feature","geometry":{"type":"Point","coordinates":[106.240456065,10.105603989]},"properties":{"Cơ sở Công giáo":"Nhà thờ Cần Thư","Địa chỉ":"ấp Thái Bình, xã Thanh Bình","Người đứng đầu cơ sở Công giáo":null,"layer_id":360,"fid":40,"label":"Nhà thờ Cần Thư"}},{"type":"Feature","geometry":{"type":"Point","coordinates":[106.112091346,10.08297847]},"properties":{"Cơ sở Công giáo":"Nhà thờ Nhơn Ngãi","Địa chỉ":"ấp Nhơn Nghĩa, xã Hiếu Phụng","Người đứng đầu cơ sở Công giáo":null,"layer_id":360,"fid":41,"label":"Nhà thờ Nhơn Ngãi"}},{"type":"Feature","geometry":{"type":"Point","coordinates":[106.115730967,10.062115083]},"properties":{"Cơ sở Công giáo":"Nhà thờ Bưng Trường","Địa chỉ":"ấp Quang Trường, xã Hiếu Thuận","Người đứng đầu cơ sở Công giáo":null,"layer_id":360,"fid":42,"label":"Nhà thờ Bưng Trường"}},{"type":"Feature","geometry":{"type":"Point","coordinates":[106.11843576,10.084119777]},"properties":{"Cơ sở Công giáo":"Nhà thờ Cầu Vỹ","Địa chỉ":"ấp Quang Thạnh, xã Hiếu Phụng","Người đứng đầu cơ sở Công giáo":null,"layer_id":360,"fid":43,"label":"Nhà thờ Cầu Vỹ"}},{"type":"Feature","geometry":{"type":"Point","coordinates":[106.186496136,10.091487296]},"properties":{"Cơ sở Công giáo":"Nhà thờ Vũng Liêm","Địa chỉ":"khóm 2,xã Trung Thành","Người đứng đầu cơ sở Công giáo":null,"layer_id":360,"fid":44,"label":"Nhà thờ Vũng Liêm"}},{"type":"Feature","geometry":{"type":"Point","coordinates":[106.154826132,10.074504751]},"properties":{"Cơ sở Công giáo":"Nhà thờ Cầu Đá","Địa chỉ":"ấp An Thành Tây, xã Trung Thành","Người đứng đầu cơ sở Công giáo":null,"layer_id":360,"fid":45,"label":"Nhà thờ Cầu Đá"}},{"type":"Feature","geometry":{"type":"Point","coordinates":[106.160318063,10.129504183]},"properties":{"Cơ sở Công giáo":"Nhà thờ Cái Tôm","Địa chỉ":"ấp Quang Bình, xã Quới An","Người đứng đầu cơ sở Công giáo":null,"layer_id":360,"fid":46,"label":"Nhà thờ Cái Tôm"}},{"type":"Feature","geometry":{"type":"Point","coordinates":[106.118895663,10.154190702]},"properties":{"Cơ sở Công giáo":"Nhà thờ Quang Diệu","Địa chỉ":"ấp Quang Hiệp, xã Quới An","Người đứng đầu cơ sở Công giáo":null,"layer_id":360,"fid":47,"label":"Nhà thờ Quang Diệu"}},{"type":"Feature","geometry":{"type":"Point","coordinates":[106.16449925,10.163982698]},"properties":{"Cơ sở Công giáo":"Nhà thờ Tân An Đông","Địa chỉ":"ấp Tân Đông, xã Quới An","Người đứng đầu cơ sở Công giáo":null,"layer_id":360,"fid":48,"label":"Nhà thờ Tân An Đông"}},{"type":"Feature","geometry":{"type":"Point","coordinates":[106.212671358,10.07582456]},"properties":{"Cơ sở Công giáo":"Nhà Thờ Đức Hòa","Địa chỉ":"ấp Hòa Thuận, xã Trung Ngãi","Người đứng đầu cơ sở Công giáo":null,"layer_id":360,"fid":49,"label":"Nhà Thờ Đức Hòa"}},{"type":"Feature","geometry":{"type":"Point","coordinates":[105.958453247,9.991893367]},"properties":{"Cơ sở Công giáo":"Nhà thờ Tân Mỹ","Địa chỉ":"ấp Mỹ Định, xã Trà Côn","Người đứng đầu cơ sở Công giáo":null,"layer_id":360,"fid":50,"label":"Nhà thờ Tân Mỹ"}},{"type":"Feature","geometry":{"type":"Point","coordinates":[106.000285206,9.952815211]},"properties":{"Cơ sở Công giáo":"Nhà thờ Vĩnh Xuân","Địa chỉ":"ấp Vĩnh Tắc, xã Vĩnh Xuân","Người đứng đầu cơ sở Công giáo":null,"layer_id":360,"fid":51,"label":"Nhà thờ Vĩnh Xuân"}},{"type":"Feature","geometry":{"type":"Point","coordinates":[106.001079652,9.909668628]},"properties":{"Cơ sở Công giáo":"Nhà thờ Tân Dinh ","Địa chỉ":"ấp Tích Phú, xã Trà Ôn","Người đứng đầu cơ sở Công giáo":null,"layer_id":360,"fid":52,"label":"Nhà thờ Tân Dinh "}},{"type":"Feature","geometry":{"type":"Point","coordinates":[105.924596786,9.968501902]},"properties":{"Cơ sở Công giáo":"Nhà thờ Trà Ôn","Địa chỉ":"53/6 đường Đốc Phủ Yên, khóm 6, xã Ngãi Tứ","Người đứng đầu cơ sở Công giáo":null,"layer_id":360,"fid":53,"label":"Nhà thờ Trà Ôn"}},{"type":"Feature","geometry":{"type":"Point","coordinates":[106.049318579,10.080371102]},"properties":{"Cơ sở Công giáo":"Nhà thờ Xuân Hiệp","Địa chỉ":"ấp Hồi Thạnh, xã Hòa Bình","Người đứng đầu cơ sở Công giáo":null,"layer_id":360,"fid":54,"label":"Nhà thờ Xuân Hiệp"}},{"type":"Feature","geometry":{"type":"Point","coordinates":[106.068937125,9.97088084]},"properties":{"Cơ sở Công giáo":"Nhà thờ Hựu Thành","Địa chỉ":"tổ 16, ấp Vĩnh Thiện, xã Vĩnh Xuân","Người đứng đầu cơ sở Công giáo":null,"layer_id":360,"fid":55,"label":"Nhà thờ Hựu Thành"}},{"type":"Feature","geometry":{"type":"Point","coordinates":[106.080547594,10.067175945]},"properties":{"Cơ sở Công giáo":"Nhà thờ Thới Hiệp","Địa chỉ":"ấp Hồi Phước, xã Hòa Bình","Người đứng đầu cơ sở Công giáo":null,"layer_id":360,"fid":56,"label":"Nhà thờ Thới Hiệp"}},{"type":"Feature","geometry":{"type":"Point","coordinates":[105.979383023,9.915564707]},"properties":{"Cơ sở Công giáo":"Nhà thờ Rạch Chiếc","Địa chỉ":"ấp Tích Lợi, xã Trà Ôn","Người đứng đầu cơ sở Công giáo":null,"layer_id":360,"fid":57,"label":"Nhà thờ Rạch Chiếc"}},{"type":"Feature","geometry":{"type":"Point","coordinates":[105.892366694,10.111342736]},"properties":{"Cơ sở Công giáo":"Nhà thờ Ba Càng","Địa chỉ":"ấp Phú Hòa Yên, xã Song Phú","Người đứng đầu cơ sở Công giáo":null,"layer_id":360,"fid":58,"label":"Nhà thờ Ba Càng"}},{"type":"Feature","geometry":{"type":"Point","coordinates":[105.914726336,10.077548076]},"properties":{"Cơ sở Công giáo":"Nhà thờ Cái Sơn","Địa chỉ":"ấp 6B, xã Song Phú","Người đứng đầu cơ sở Công giáo":null,"layer_id":360,"fid":59,"label":"Nhà thờ Cái Sơn"}},{"type":"Feature","geometry":{"type":"Point","coordinates":[106.008145567,10.08582171]},"properties":{"Cơ sở Công giáo":"Nhà thờ Ba Kè","Địa chỉ":"ấp Cái Cui, xã Thạnh Phước","Người đứng đầu cơ sở Công giáo":null,"layer_id":360,"fid":60,"label":"Nhà thờ Ba Kè"}},{"type":"Feature","geometry":{"type":"Point","coordinates":[105.909415179,10.132707028]},"properties":{"Cơ sở Công giáo":"Nhà thờ Tân Phú","Địa chỉ":"ấp Phú An, xã Song Phú ","Người đứng đầu cơ sở Công giáo":null,"layer_id":360,"fid":61,"label":"Nhà thờ Tân Phú"}},{"type":"Feature","geometry":{"type":"Point","coordinates":[105.999030067,10.105735389]},"properties":{"Cơ sở Công giáo":"Nhà thờ Cai Quá","Địa chỉ":"ấp 3, xã Hậu Lộc, ","Người đứng đầu cơ sở Công giáo":null,"layer_id":360,"fid":62,"label":"Nhà thờ Cai Quá"}},{"type":"Feature","geometry":{"type":"Point","coordinates":[105.949052027,10.132058997]},"properties":{"Cơ sở Công giáo":"Nhà thờ Ngã Cạy","Địa chỉ":"ấp 3B, xã Cái Ngang","Người đứng đầu cơ sở Công giáo":null,"layer_id":360,"fid":63,"label":"Nhà thờ Ngã Cạy"}},{"type":"Feature","geometry":{"type":"Point","coordinates":[106.005453736,10.049058068]},"properties":{"Cơ sở Công giáo":"Nhà thờ Tam Bình (Môi Khôi)","Địa chỉ":"xã Tường Lộc.","Người đứng đầu cơ sở Công giáo":null,"layer_id":360,"fid":64,"label":"Nhà thờ Tam Bình (Môi Khôi)"}},{"type":"Feature","geometry":{"type":"Point","coordinates":[105.817222577,10.08954389]},"properties":{"Cơ sở Công giáo":"Nhà thờ Bình Minh","Địa chỉ":"32/13 đường Phan Văn Năm, khóm 1, phường Bình Minh","Người đứng đầu cơ sở Công giáo":null,"layer_id":360,"fid":65,"label":"Nhà thờ Bình Minh"}},{"type":"Feature","geometry":{"type":"Point","coordinates":[105.779306848,10.082410011]},"properties":{"Cơ sở Công giáo":"Nhà thờ Thành Lợi","Địa chỉ":"3768, tổ 9, khóm 1, phường Bình Minh","Người đứng đầu cơ sở Công giáo":null,"layer_id":360,"fid":66,"label":"Nhà thờ Thành Lợi"}},{"type":"Feature","geometry":{"type":"Point","coordinates":[105.878874513,10.041057226]},"properties":{"Cơ sở Công giáo":"Nhà thờ Giáo Mẹo","Địa chỉ":"ấp Thạnh Hòa, xã Đông Thành","Người đứng đầu cơ sở Công giáo":null,"layer_id":360,"fid":67,"label":"Nhà thờ Giáo Mẹo"}},{"type":"Feature","geometry":{"type":"Point","coordinates":[105.754250336,10.10324599]},"properties":{"Cơ sở Công giáo":"Nhà thờ Tân Quới","Địa chỉ":"ấp Tân Thuận, xã Tân Quới","Người đứng đầu cơ sở Công giáo":null,"layer_id":360,"fid":68,"label":"Nhà thờ Tân Quới"}},{"type":"Feature","geometry":{"type":"Point","coordinates":[105.754956955,10.10460598]},"properties":{"Cơ sở Công giáo":"Nhà thờ Tân Lược","Địa chỉ":"tổ 3 ấp Tân Vĩnh, xã Tân Lược","Người đứng đầu cơ sở Công giáo":null,"layer_id":360,"fid":69,"label":"Nhà thờ Tân Lược"}},{"type":"Feature","geometry":{"type":"Point","coordinates":[105.740042692,10.132590828]},"properties":{"Cơ sở Công giáo":"Nhà thờ Thông Lưu","Địa chỉ":"ấp Tân Biên, xã Tân Thành","Người đứng đầu cơ sở Công giáo":null,"layer_id":360,"fid":70,"label":"Nhà thờ Thông Lưu"}},{"type":"Feature","geometry":{"type":"Point","coordinates":[105.826031609,10.109386075]},"properties":{"Cơ sở Công giáo":"Nhà thờ Trà Kiết","Địa chỉ":"ấp Mỹ Thạnh B, xã Mỹ Thuận ","Người đứng đầu cơ sở Công giáo":null,"layer_id":360,"fid":71,"label":"Nhà thờ Trà Kiết"}},{"type":"Feature","geometry":{"type":"Point","coordinates":[106.318065469,10.238077651]},"properties":{"Cơ sở Công giáo":"Nhà thờ Thanh Sơn","Địa chỉ":"ấp Thanh Sơn 4, phường Bến Tre","Người đứng đầu cơ sở Công giáo":null,"layer_id":360,"fid":72,"label":"Nhà thờ Thanh Sơn"}},{"type":"Feature","geometry":{"type":"Point","coordinates":[106.341318725,10.215304483]},"properties":{"Cơ sở Công giáo":"Nhà thờ Hàm Luông","Địa chỉ":"ấp Thanh Sơn 2, phường Bến Tre","Người đứng đầu cơ sở Công giáo":null,"layer_id":360,"fid":73,"label":"Nhà thờ Hàm Luông"}},{"type":"Feature","geometry":{"type":"Point","coordinates":[106.297555879,10.219481304]},"properties":{"Cơ sở Công giáo":"Nhà thờ Tân Phó","Địa chỉ":"ấp Tân Thuận Trong, xã Nhuận Phú Tân","Người đứng đầu cơ sở Công giáo":null,"layer_id":360,"fid":74,"label":"Nhà thờ Tân Phó"}},{"type":"Feature","geometry":{"type":"Point","coordinates":[106.274865236,10.183229767]},"properties":{"Cơ sở Công giáo":"Nhà thờ Ba Vát","Địa chỉ":"ấp Phước Khánh, xã Phước Mỹ Trung","Người đứng đầu cơ sở Công giáo":null,"layer_id":360,"fid":75,"label":"Nhà thờ Ba Vát"}},{"type":"Feature","geometry":{"type":"Point","coordinates":[106.280618594,10.132844358]},"properties":{"Cơ sở Công giáo":"Nhà thờ Giồng Dầu","Địa chỉ":"ấp Tân Hòa, xã Tân Bình","Người đứng đầu cơ sở Công giáo":null,"layer_id":360,"fid":76,"label":"Nhà thờ Giồng Dầu"}},{"type":"Feature","geometry":{"type":"Point","coordinates":[106.282133723,10.167705993]},"properties":{"Cơ sở Công giáo":"Nhà thờ Giồng keo","Địa chỉ":"ấp Thanh Bắc, xã Tân Thanh Tây","Người đứng đầu cơ sở Công giáo":null,"layer_id":360,"fid":77,"label":"Nhà thờ Giồng keo"}},{"type":"Feature","geometry":{"type":"Point","coordinates":[106.237689052,10.150588596]},"properties":{"Cơ sở Công giáo":"Nhà thờ Cái Hàng","Địa chỉ":"ấp Phú Xuân, xã Hưng Khánh Trung ","Người đứng đầu cơ sở Công giáo":null,"layer_id":360,"fid":78,"label":"Nhà thờ Cái Hàng"}},{"type":"Feature","geometry":{"type":"Point","coordinates":[106.252212809,10.245312983]},"properties":{"Cơ sở Công giáo":"Nhà thờ Mỹ Sơn","Địa chỉ":"ấp Mỹ Sơn Đông, Phường Phước Mỹ Trung","Người đứng đầu cơ sở Công giáo":null,"layer_id":360,"fid":79,"label":"Nhà thờ Mỹ Sơn"}},{"type":"Feature","geometry":{"type":"Point","coordinates":[106.270403121,10.08905656]},"properties":{"Cơ sở Công giáo":"Nhà thờ Rạch Dầu","Địa chỉ":"ấp Tân Hưng, xã Khánh Thạnh Tân","Người đứng đầu cơ sở Công giáo":null,"layer_id":360,"fid":80,"label":"Nhà thờ Rạch Dầu"}},{"type":"Feature","geometry":{"type":"Point","coordinates":[106.25729844,10.115842331]},"properties":{"Cơ sở Công giáo":"Nhà thờ Bến Xoài","Địa chỉ":"ấp Bến Xoài, xã Nhuận Phú Tân","Người đứng đầu cơ sở Công giáo":null,"layer_id":360,"fid":81,"label":"Nhà thờ Bến Xoài"}},{"type":"Feature","geometry":{"type":"Point","coordinates":[106.257255525,10.115726149]},"properties":{"Cơ sở Công giáo":"Nhà thờ Giồng Kiến","Địa chỉ":"ấp Giồng Kiến,  xã Phú Long","Người đứng đầu cơ sở Công giáo":null,"layer_id":360,"fid":82,"label":"Nhà thờ Giồng Kiến"}},{"type":"Feature","geometry":{"type":"Point","coordinates":[106.607800061,10.212638655]},"properties":{"Cơ sở Công giáo":"Nhà thờ Giồng Tre","Địa chỉ":"ấp Giồng Tre, xã Phú Long","Người đứng đầu cơ sở Công giáo":null,"layer_id":360,"fid":83,"label":"Nhà thờ Giồng Tre"}},{"type":"Feature","geometry":{"type":"Point","coordinates":[106.618437385,10.177535675]},"properties":{"Cơ sở Công giáo":"Nhà thờ Rạch Gừa","Địa chỉ":"ấp Rạch Gừa, xã Phú Long","Người đứng đầu cơ sở Công giáo":null,"layer_id":360,"fid":84,"label":"Nhà thờ Rạch Gừa"}},{"type":"Feature","geometry":{"type":"Point","coordinates":[106.686407138,10.201189156]},"properties":{"Cơ sở Công giáo":"Nhà thờ Bình Đại","Địa chỉ":"ấp Bình Thới 3, xã Bình Đại","Người đứng đầu cơ sở Công giáo":null,"layer_id":360,"fid":85,"label":"Nhà thờ Bình Đại"}},{"type":"Feature","geometry":{"type":"Point","coordinates":[106.700173726,10.131063218]},"properties":{"Cơ sở Công giáo":"Nhà thờ Thạnh Phước","Địa chỉ":"ấp Tân Bình, xã Thạnh Phước","Người đứng đầu cơ sở Công giáo":null,"layer_id":360,"fid":86,"label":"Nhà thờ Thạnh Phước"}},{"type":"Feature","geometry":{"type":"Point","coordinates":[106.502932636,10.248409216]},"properties":{"Cơ sở Công giáo":"Nhà thờ Giồng Quéo","Địa chỉ":"ấp Hưng Chánh, xã Châu Hưng","Người đứng đầu cơ sở Công giáo":null,"layer_id":360,"fid":87,"label":"Nhà thờ Giồng Quéo"}},{"type":"Feature","geometry":{"type":"Point","coordinates":[106.696800549,10.195581276]},"properties":{"Cơ sở Công giáo":"Nhà thờ Bình Châu","Địa chỉ":"ấp 1, xã Bình Đại","Người đứng đầu cơ sở Công giáo":null,"layer_id":360,"fid":88,"label":"Nhà thờ Bình Châu"}},{"type":"Feature","geometry":{"type":"Point","coordinates":[106.492456938,10.273773099]},"properties":{"Cơ sở Công giáo":"Nhà thờ Phú Thuận","Địa chỉ":"ấp Phú Thạnh, xã Phú Thuận","Người đứng đầu cơ sở Công giáo":null,"layer_id":360,"fid":89,"label":"Nhà thờ Phú Thuận"}},{"type":"Feature","geometry":{"type":"Point","coordinates":[106.545334921,10.258516464]},"properties":{"Cơ sở Công giáo":"Nhà thờ Vang Quới","Địa chỉ":"ấp Vinh Huê, xã Lộc Thuận","Người đứng đầu cơ sở Công giáo":null,"layer_id":360,"fid":90,"label":"Nhà thờ Vang Quới"}},{"type":"Feature","geometry":{"type":"Point","coordinates":[106.590888075,10.226122326]},"properties":{"Cơ sở Công giáo":"Nhà thờ Lộc Thuận","Địa chỉ":"ấp Lộc Thới, xã Lộc Thuận","Người đứng đầu cơ sở Công giáo":null,"layer_id":360,"fid":91,"label":"Nhà thờ Lộc Thuận"}},{"type":"Feature","geometry":{"type":"Point","coordinates":[106.682222121,10.17790565]},"properties":{"Cơ sở Công giáo":"Nhà thờ Bình Huề","Địa chỉ":"ấp Bình Huề 1, xã Thạnh Phước","Người đứng đầu cơ sở Công giáo":null,"layer_id":360,"fid":92,"label":"Nhà thờ Bình Huề"}},{"type":"Feature","geometry":{"type":"Point","coordinates":[106.287490492,10.279976935]},"properties":{"Cơ sở Công giáo":"Nhà thờ An Hiệp","Địa chỉ":"Ấp An Bình, xã An Hiệp","Người đứng đầu cơ sở Công giáo":null,"layer_id":360,"fid":93,"label":"Nhà thờ An Hiệp"}},{"type":"Feature","geometry":{"type":"Point","coordinates":[106.230240736,10.290752227]},"properties":{"Cơ sở Công giáo":"Nhà Thờ Quới Thành","Địa chỉ":"Ấp Phú Thuận, xã Tiên Thủy","Người đứng đầu cơ sở Công giáo":null,"layer_id":360,"fid":94,"label":"Nhà Thờ Quới Thành"}},{"type":"Feature","geometry":{"type":"Point","coordinates":[106.36139046,10.3132093]},"properties":{"Cơ sở Công giáo":"Nhà Thờ Tân Thạch","Địa chỉ":"Ấp Tân An Thượng, xã Phú Túc","Người đứng đầu cơ sở Công giáo":null,"layer_id":360,"fid":95,"label":"Nhà Thờ Tân Thạch"}},{"type":"Feature","geometry":{"type":"Point","coordinates":[106.258366109,10.293627476]},"properties":{"Cơ sở Công giáo":"Nhà Thờ Thành Triệu","Địa chỉ":"Ấp Chợ, xã Tiên Thủy","Người đứng đầu cơ sở Công giáo":null,"layer_id":360,"fid":96,"label":"Nhà Thờ Thành Triệu"}},{"type":"Feature","geometry":{"type":"Point","coordinates":[106.211773452,10.295628224]},"properties":{"Cơ sở Công giáo":"Nhà thờ Phú Đức","Địa chỉ":"Ấp Phú Long, xã Tân Phú","Người đứng đầu cơ sở Công giáo":null,"layer_id":360,"fid":97,"label":"Nhà thờ Phú Đức"}},{"type":"Feature","geometry":{"type":"Point","coordinates":[106.195895721,10.286964779]},"properties":{"Cơ sở Công giáo":"Nhà thờ Tân Phú","Địa chỉ":"Ấp Tân Nam, xã Tân Phú","Người đứng đầu cơ sở Công giáo":null,"layer_id":360,"fid":98,"label":"Nhà thờ Tân Phú"}},{"type":"Feature","geometry":{"type":"Point","coordinates":[106.264904779,10.304736782]},"properties":{"Cơ sở Công giáo":"Nhà Thờ Phú Túc","Địa chỉ":"Phú Khương, xã Phú Túc","Người đứng đầu cơ sở Công giáo":null,"layer_id":360,"fid":99,"label":"Nhà Thờ Phú Túc"}},{"type":"Feature","geometry":{"type":"Point","coordinates":[106.355116581,10.292774689]},"properties":{"Cơ sở Công giáo":"Nhà thờ Ba Lai","Địa chỉ":"Ấp Thạnh Hựu, phường Sởn Đông","Người đứng đầu cơ sở Công giáo":null,"layer_id":360,"fid":100,"label":"Nhà thờ Ba Lai"}},{"type":"Feature","geometry":{"type":"Point","coordinates":[106.240535121,10.265710389]},"properties":{"Cơ sở Công giáo":"Nhà thờ Tiên Thủy","Địa chỉ":"Ấp Chánh, xã Tiên Thủy","Người đứng đầu cơ sở Công giáo":null,"layer_id":360,"fid":101,"label":"Nhà thờ Tiên Thủy"}},{"type":"Feature","geometry":{"type":"Point","coordinates":[106.320748977,10.310747179]},"properties":{"Cơ sở Công giáo":"Nhà thờ Kinh Điều","Địa chỉ":"Ấp Phước Thạnh, xã An Khánh","Người đứng đầu cơ sở Công giáo":null,"layer_id":360,"fid":102,"label":"Nhà thờ Kinh Điều"}},{"type":"Feature","geometry":{"type":"Point","coordinates":[106.403816367,10.315476087]},"properties":{"Cơ sở Công giáo":"Nhà thờ Quới Sơn","Địa chỉ":"Xã Quới Sơn","Người đứng đầu cơ sở Công giáo":null,"layer_id":360,"fid":103,"label":"Nhà thờ Quới Sơn"}},{"type":"Feature","geometry":{"type":"Point","coordinates":[106.331111263,10.133021137]},"properties":{"Cơ sở Công giáo":"Nhà thờ Mỏ Cày","Địa chỉ":"Khu phố 5, xã Mỏ Cày","Người đứng đầu cơ sở Công giáo":null,"layer_id":360,"fid":104,"label":"Nhà thờ Mỏ Cày"}},{"type":"Feature","geometry":{"type":"Point","coordinates":[106.345673808,10.032775167]},"properties":{"Cơ sở Công giáo":"Nhà thờ Tú San","Địa chỉ":"ấp Bình Sơn, xã Hương Mỹ","Người đứng đầu cơ sở Công giáo":null,"layer_id":360,"fid":105,"label":"Nhà thờ Tú San"}},{"type":"Feature","geometry":{"type":"Point","coordinates":[106.318550594,10.072241333]},"properties":{"Cơ sở Công giáo":"Nhà thờ Thành\n Thới","Địa chỉ":"ấp Thới Hòa, xã Thành Thới A","Người đứng đầu cơ sở Công giáo":null,"layer_id":360,"fid":106,"label":"Nhà thờ Thành\n Thới"}},{"type":"Feature","geometry":{"type":"Point","coordinates":[106.289642394,10.099464566]},"properties":{"Cơ sở Công giáo":"Nhà thờ Thom","Địa chỉ":"ấp An Lộc Thị, xã Mỏ Cày","Người đứng đầu cơ sở Công giáo":null,"layer_id":360,"fid":107,"label":"Nhà thờ Thom"}},{"type":"Feature","geometry":{"type":"Point","coordinates":[106.373156123,10.077842213]},"properties":{"Cơ sở Công giáo":"Nhà thờ An Định","Địa chỉ":"ấp Phú Đông 1, xã An Định","Người đứng đầu cơ sở Công giáo":null,"layer_id":360,"fid":108,"label":"Nhà thờ An Định"}},{"type":"Feature","geometry":{"type":"Point","coordinates":[106.482977109,10.203022459]},"properties":{"Cơ sở Công giáo":"Nhà thờ Ba Châu","Địa chỉ":"Ấp Phú Tân, xã Châu Hòa","Người đứng đầu cơ sở Công giáo":null,"layer_id":360,"fid":109,"label":"Nhà thờ Ba Châu"}},{"type":"Feature","geometry":{"type":"Point","coordinates":[106.408013023,10.166663096]},"properties":{"Cơ sở Công giáo":"Nhà thờ Giồng Quýt","Địa chỉ":"Ấp Long Điền, xã Phước Long ","Người đứng đầu cơ sở Công giáo":null,"layer_id":360,"fid":110,"label":"Nhà thờ Giồng Quýt"}},{"type":"Feature","geometry":{"type":"Point","coordinates":[106.496059809,10.13259962]},"properties":{"Cơ sở Công giáo":"Nhà thờ Tân Thanh","Địa chỉ":"Ấp Bình Thuận, xã phường Bến Tre","Người đứng đầu cơ sở Công giáo":null,"layer_id":360,"fid":111,"label":"Nhà thờ Tân Thanh"}},{"type":"Feature","geometry":{"type":"Point","coordinates":[106.385107021,10.175690071]},"properties":{"Cơ sở Công giáo":"Nhà thờ Giồng Ổi","Địa chỉ":"Ấp Sơn Thuận, phường An Hội","Người đứng đầu cơ sở Công giáo":null,"layer_id":360,"fid":112,"label":"Nhà thờ Giồng Ổi"}},{"type":"Feature","geometry":{"type":"Point","coordinates":[106.433278436,10.181210588]},"properties":{"Cơ sở Công giáo":"Nhà thờ Lương Phú","Địa chỉ":"Ấp Xẻo Sâu, xã Lương Phú","Người đứng đầu cơ sở Công giáo":null,"layer_id":360,"fid":113,"label":"Nhà thờ Lương Phú"}},{"type":"Feature","geometry":{"type":"Point","coordinates":[106.578721167,10.108697162]},"properties":{"Cơ sở Công giáo":"Nhà thờ Mỹ Thạnh","Địa chỉ":"Ấp Chợ, xã Lương Phú","Người đứng đầu cơ sở Công giáo":null,"layer_id":360,"fid":114,"label":"Nhà thờ Mỹ Thạnh"}},{"type":"Feature","geometry":{"type":"Point","coordinates":[106.477404925,10.099166742]},"properties":{"Cơ sở Công giáo":"Nhà thờ La Mã","Địa chỉ":"Ấp Bàu Dơi, xã Hưng Nhượng","Người đứng đầu cơ sở Công giáo":null,"layer_id":360,"fid":115,"label":"Nhà thờ La Mã"}},{"type":"Feature","geometry":{"type":"Point","coordinates":[106.459000723,10.153921784]},"properties":{"Cơ sở Công giáo":"Long Mỹ","Địa chỉ":"xã Phước Long","Người đứng đầu cơ sở Công giáo":null,"layer_id":360,"fid":116,"label":"Long Mỹ"}},{"type":"Feature","geometry":{"type":"Point","coordinates":[106.506909738,10.146386316]},"properties":{"Cơ sở Công giáo":"Nhà thờ Giồng Trôm","Địa chỉ":"Ấp Bình An, xã Thạnh Phú","Người đứng đầu cơ sở Công giáo":null,"layer_id":360,"fid":117,"label":"Nhà thờ Giồng Trôm"}},{"type":"Feature","geometry":{"type":"Point","coordinates":[106.446475479,10.021271723]},"properties":{"Cơ sở Công giáo":"Nhà thờ Giồng Luông","Địa chỉ":"ấp Khu Phố, xã Đại Điền","Người đứng đầu cơ sở Công giáo":null,"layer_id":360,"fid":118,"label":"Nhà thờ Giồng Luông"}},{"type":"Feature","geometry":{"type":"Point","coordinates":[106.430716265,9.961276698]},"properties":{"Cơ sở Công giáo":"Nhà thờ Bến Luông","Địa chỉ":"ấp Xương Hòa II, xã Đại Điền.","Người đứng đầu cơ sở Công giáo":null,"layer_id":360,"fid":119,"label":"Nhà thờ Bến Luông"}},{"type":"Feature","geometry":{"type":"Point","coordinates":[106.474852936,10.004685004]},"properties":{"Cơ sở Công giáo":"Nhà thờ Cái Cá","Địa chỉ":"ấp Quí Thế, xã Quới Điền","Người đứng đầu cơ sở Công giáo":null,"layer_id":360,"fid":120,"label":"Nhà thờ Cái Cá"}},{"type":"Feature","geometry":{"type":"Point","coordinates":[106.478841731,9.982373184]},"properties":{"Cơ sở Công giáo":"Nhà thờ Cầu Đúc","Địa chỉ":"ấp Quí Đức B, xã Quới Điền","Người đứng đầu cơ sở Công giáo":null,"layer_id":360,"fid":121,"label":"Nhà thờ Cầu Đúc"}},{"type":"Feature","geometry":{"type":"Point","coordinates":[106.494202423,9.995840982]},"properties":{"Cơ sở Công giáo":"Nhà thờ Thạnh Hưng","Địa chỉ":"ấp Thạnh Hưng, xã Quới Điền","Người đứng đầu cơ sở Công giáo":null,"layer_id":360,"fid":122,"label":"Nhà thờ Thạnh Hưng"}},{"type":"Feature","geometry":{"type":"Point","coordinates":[106.517504765,9.951306306]},"properties":{"Cơ sở Công giáo":"Nhà thờ Thạnh Phú","Địa chỉ":"Khu phố 1,xã Thạnh Phú","Người đứng đầu cơ sở Công giáo":null,"layer_id":360,"fid":123,"label":"Nhà thờ Thạnh Phú"}},{"type":"Feature","geometry":{"type":"Point","coordinates":[106.514508094,9.912903457]},"properties":{"Cơ sở Công giáo":"Nhà thờ Bến Vông","Địa chỉ":"ấp Thạnh An, xã Thạnh Phú","Người đứng đầu cơ sở Công giáo":null,"layer_id":360,"fid":124,"label":"Nhà thờ Bến Vông"}},{"type":"Feature","geometry":{"type":"Point","coordinates":[106.543331109,9.950377335]},"properties":{"Cơ sở Công giáo":"Nhà thờ Bến Vinh","Địa chỉ":"ấp An Ngãi A, xã Thạnh Phú","Người đứng đầu cơ sở Công giáo":null,"layer_id":360,"fid":125,"label":"Nhà thờ Bến Vinh"}},{"type":"Feature","geometry":{"type":"Point","coordinates":[106.616996089,9.841345472]},"properties":{"Cơ sở Công giáo":"Nhà thờ Khâu Băng","Địa chỉ":"ấp Thạnh Hòa, xã Thạnh Phong","Người đứng đầu cơ sở Công giáo":null,"layer_id":360,"fid":126,"label":"Nhà thờ Khâu Băng"}},{"type":"Feature","geometry":{"type":"Point","coordinates":[106.372247105,10.238475742]},"properties":{"Cơ sở Công giáo":"Nhà thờ Bến Tre (Họ đạo Bến Tre)","Địa chỉ":"Số 175, đường Hùng Vương, Khu phố 5, phường An Hội","Người đứng đầu cơ sở Công giáo":null,"layer_id":360,"fid":127,"label":"Nhà thờ Bến Tre (Họ đạo Bến Tre)"}},{"type":"Feature","geometry":{"type":"Point","coordinates":[106.320318708,10.260583249]},"properties":{"Cơ sở Công giáo":" Nhà thờ Họ đạo Cái Nứa","Địa chỉ":"Ấp 2, Phường Sơn Đông","Người đứng đầu cơ sở Công giáo":null,"layer_id":360,"fid":128,"label":" Nhà thờ Họ đạo Cái Nứa"}},{"type":"Feature","geometry":{"type":"Point","coordinates":[106.348697597,10.224889648]},"properties":{"Cơ sở Công giáo":" Nhà thờ Họ đạo Mỹ Hóa","Địa chỉ":"Ấp Bình Công, Phường Bến Tre","Người đứng đầu cơ sở Công giáo":null,"layer_id":360,"fid":129,"label":" Nhà thờ Họ đạo Mỹ Hóa"}},{"type":"Feature","geometry":{"type":"Point","coordinates":[106.544541163,10.084095973]},"properties":{"Cơ sở Công giáo":"Nhà thờ Cái Bông","Địa chỉ":"Ấp An Nhơn, xã An Ngãi Trung","Người đứng đầu cơ sở Công giáo":null,"layer_id":360,"fid":130,"label":"Nhà thờ Cái Bông"}},{"type":"Feature","geometry":{"type":"Point","coordinates":[106.657399526,10.095982074]},"properties":{"Cơ sở Công giáo":"Nhà thờ Bảo Thạnh","Địa chỉ":"Ấp Thạnh Thọ, xã Bảo Thạnh","Người đứng đầu cơ sở Công giáo":null,"layer_id":360,"fid":131,"label":"Nhà thờ Bảo Thạnh"}},{"type":"Feature","geometry":{"type":"Point","coordinates":[106.617876252,10.126089424]},"properties":{"Cơ sở Công giáo":"Nhà thờ Tân Xuân","Địa chỉ":"Ấp Tân Hoà, xã Tân Xuân","Người đứng đầu cơ sở Công giáo":null,"layer_id":360,"fid":132,"label":"Nhà thờ Tân Xuân"}},{"type":"Feature","geometry":{"type":"Point","coordinates":[106.597433809,10.17789299]},"properties":{"Cơ sở Công giáo":"Họ đạo Cù Lao Lá","Địa chỉ":"Ấp Tân Phú, xã Tân Mỹ","Người đứng đầu cơ sở Công giáo":null,"layer_id":360,"fid":133,"label":"Họ đạo Cù Lao Lá"}},{"type":"Feature","geometry":{"type":"Point","coordinates":[106.578678252,10.108728849]},"properties":{"Cơ sở Công giáo":"Nhà thờ Mỹ Thạnh","Địa chỉ":"Ấp Mỹ Trung,Phường An Hội","Người đứng đầu cơ sở Công giáo":null,"layer_id":360,"fid":134,"label":"Nhà thờ Mỹ Thạnh"}},{"type":"Feature","geometry":{"type":"Point","coordinates":[106.496635196,10.055097959]},"properties":{"Cơ sở Công giáo":"Nhà thờ Tân Hưng","Địa chỉ":"Ấp Hưng Nhơn, xã An Hiệp","Người đứng đầu cơ sở Công giáo":null,"layer_id":360,"fid":135,"label":"Nhà thờ Tân Hưng"}},{"type":"Feature","geometry":{"type":"Point","coordinates":[106.622708306,10.032981638]},"properties":{"Cơ sở Công giáo":"Nhà thờ Giồng Giá","Địa chỉ":"Ấp Vĩnh Đức Đông, xã Ba Tri","Người đứng đầu cơ sở Công giáo":null,"layer_id":360,"fid":136,"label":"Nhà thờ Giồng Giá"}},{"type":"Feature","geometry":{"type":"Point","coordinates":[106.607948296,10.006319256]},"properties":{"Cơ sở Công giáo":"Nhà thờ Gảnh","Địa chỉ":"Ấp An Bình 1, xã tân Thủy","Người đứng đầu cơ sở Công giáo":null,"layer_id":360,"fid":137,"label":"Nhà thờ Gảnh"}},{"type":"Feature","geometry":{"type":"Point","coordinates":[106.595496052,10.043282457]},"properties":{"Cơ sở Công giáo":"Nhà thờ Ba Tri","Địa chỉ":"KP 1, xã Ba Tri","Người đứng đầu cơ sở Công giáo":null,"layer_id":360,"fid":138,"label":"Nhà thờ Ba Tri"}},{"type":"Feature","geometry":{"type":"Point","coordinates":[106.630645594,9.993255879]},"properties":{"Cơ sở Công giáo":"Nhà thờ Bãi Ngao","Địa chỉ":"Ấp An Thạnh, xã Tân Thuỷ","Người đứng đầu cơ sở Công giáo":null,"layer_id":360,"fid":139,"label":"Nhà thờ Bãi Ngao"}},{"type":"Feature","geometry":{"type":"Point","coordinates":[106.562261679,10.050696574]},"properties":{"Cơ sở Công giáo":"Nhà thờ An Điền","Địa chỉ":"Ấp An Thuận, xã An Bình Tây","Người đứng đầu cơ sở Công giáo":null,"layer_id":360,"fid":140,"label":"Nhà thờ An Điền"}},{"type":"Feature","geometry":{"type":"Point","coordinates":[106.586436223,10.093174832]},"properties":{"Cơ sở Công giáo":"Nhà thờ Mỹ Nhơn","Địa chỉ":"Ấp Nhơn Thuận, xã Mỹ Chánh Hòa","Người đứng đầu cơ sở Công giáo":null,"layer_id":360,"fid":141,"label":"Nhà thờ Mỹ Nhơn"}},{"type":"Feature","geometry":{"type":"Point","coordinates":[106.218673936,10.208791516]},"properties":{"Cơ sở Công giáo":"Nhà thờ Cái Mơn (khung chính)","Địa chỉ":"xã Vĩnh Thành","Người đứng đầu cơ sở Công giáo":null,"layer_id":360,"fid":142,"label":"Nhà thờ Cái Mơn (khung chính)"}},{"type":"Feature","geometry":{"type":"Point","coordinates":[106.22765185,10.200157616]},"properties":{"Cơ sở Công giáo":"Nhà thờ Bà Dung","Địa chỉ":"xã Chợ  Lách","Người đứng đầu cơ sở Công giáo":null,"layer_id":360,"fid":143,"label":"Nhà thờ Bà Dung"}},{"type":"Feature","geometry":{"type":"Point","coordinates":[106.237536323,10.206982217]},"properties":{"Cơ sở Công giáo":"Nhà thờ Quãng Ngãi","Địa chỉ":"xã Chợ  Lách","Người đứng đầu cơ sở Công giáo":null,"layer_id":360,"fid":144,"label":"Nhà thờ Quãng Ngãi"}},{"type":"Feature","geometry":{"type":"Point","coordinates":[106.229267106,10.214990713]},"properties":{"Cơ sở Công giáo":"Nhà thờ Vĩnh Bình","Địa chỉ":"xã Chợ  Lách","Người đứng đầu cơ sở Công giáo":null,"layer_id":360,"fid":145,"label":"Nhà thờ Vĩnh Bình"}},{"type":"Feature","geometry":{"type":"Point","coordinates":[106.218001609,10.208322062]},"properties":{"Cơ sở Công giáo":"Hội Dòng mến Thánh giá Cái Mơn","Địa chỉ":"Xã Vĩnh Thành","Người đứng đầu cơ sở Công giáo":null,"layer_id":360,"fid":146,"label":"Hội Dòng mến Thánh giá Cái Mơn"}},{"type":"Feature","geometry":{"type":"Point","coordinates":[106.169055279,10.24306112]},"properties":{"Cơ sở Công giáo":"Dòng Kitô Vua","Địa chỉ":"xã Chợ Lách","Người đứng đầu cơ sở Công giáo":null,"layer_id":360,"fid":147,"label":"Dòng Kitô Vua"}},{"type":"Feature","geometry":{"type":"Point","coordinates":[106.169257881,10.246745144]},"properties":{"Cơ sở Công giáo":"Nhà thờ Cái Nhum","Địa chỉ":"xã Chợ Lách","Người đứng đầu cơ sở Công giáo":null,"layer_id":360,"fid":148,"label":"Nhà thờ Cái Nhum"}},{"type":"Feature","geometry":{"type":"Point","coordinates":[106.169780838,10.246618175]},"properties":{"Cơ sở Công giáo":"Hội Dòng mến Thánh giá Cái Nhum","Địa chỉ":"xã Chợ Lách","Người đứng đầu cơ sở Công giáo":null,"layer_id":360,"fid":149,"label":"Hội Dòng mến Thánh giá Cái Nhum"}},{"type":"Feature","geometry":{"type":"Point","coordinates":[106.231375736,10.181892048]},"properties":{"Cơ sở Công giáo":"Nhà thờ Cái Tắc","Địa chỉ":"xã Hưng Khánh Trung","Người đứng đầu cơ sở Công giáo":null,"layer_id":360,"fid":150,"label":"Nhà thờ Cái Tắc"}},{"type":"Feature","geometry":{"type":"Point","coordinates":[106.139945994,10.261757648]},"properties":{"Cơ sở Công giáo":"Nhà thờ Nhân Nghĩa","Địa chỉ":"xã Chợ Lách","Người đứng đầu cơ sở Công giáo":null,"layer_id":360,"fid":151,"label":"Nhà thờ Nhân Nghĩa"}},{"type":"Feature","geometry":{"type":"Point","coordinates":[106.118573787,10.263129425]},"properties":{"Cơ sở Công giáo":"Nhà thờ thị trấn Chợ Lách","Địa chỉ":"xã Chợ Lách","Người đứng đầu cơ sở Công giáo":null,"layer_id":360,"fid":152,"label":"Nhà thờ thị trấn Chợ Lách"}},{"type":"Feature","geometry":{"type":"Point","coordinates":[106.252592894,10.207692352]},"properties":{"Cơ sở Công giáo":"Nhà thờ Bà Chủ","Địa chỉ":"xã Phước Long","Người đứng đầu cơ sở Công giáo":null,"layer_id":360,"fid":153,"label":"Nhà thờ Bà Chủ"}},{"type":"Feature","geometry":{"type":"Point","coordinates":[106.236730777,10.196274922]},"properties":{"Cơ sở Công giáo":"Nhà thờ Vĩnh Chính","Địa chỉ":"xã Hưng Khánh Trung","Người đứng đầu cơ sở Công giáo":null,"layer_id":360,"fid":154,"label":"Nhà thờ Vĩnh Chính"}},{"type":"Feature","geometry":{"type":"Point","coordinates":[106.194297938,10.206806194]},"properties":{"Cơ sở Công giáo":"Nhà thờ Đìa Cừ","Địa chỉ":"Xã Vĩnh Thành","Người đứng đầu cơ sở Công giáo":null,"layer_id":360,"fid":155,"label":"Nhà thờ Đìa Cừ"}},{"type":"Feature","geometry":{"type":"Point","coordinates":[106.200840194,10.177106151]},"properties":{"Cơ sở Công giáo":"Nhà thờ Giồng Thủ Bá","Địa chỉ":"Xã Vĩnh Thành","Người đứng đầu cơ sở Công giáo":null,"layer_id":360,"fid":156,"label":"Nhà thờ Giồng Thủ Bá"}},{"type":"Feature","geometry":{"type":"Point","coordinates":[106.111842081,10.281611808]},"properties":{"Cơ sở Công giáo":"Nhà thờ Thới Lộc","Địa chỉ":"xã Phú Phụng","Người đứng đầu cơ sở Công giáo":null,"layer_id":360,"fid":157,"label":"Nhà thờ Thới Lộc"}},{"type":"Feature","geometry":{"type":"Point","coordinates":[106.229267106,10.21501183]},"properties":{"Cơ sở Công giáo":"Nhà thờ Vĩnh Bình","Địa chỉ":"Vĩnh Bình","Người đứng đầu cơ sở Công giáo":null,"layer_id":360,"fid":158,"label":"Nhà thờ Vĩnh Bình"}},{"type":"Feature","geometry":{"type":"Point","coordinates":[106.053691506,10.253409371]},"properties":{"Cơ sở Công giáo":"Nhà thờ Phú Bình","Địa chỉ":"Vĩnh Bình","Người đứng đầu cơ sở Công giáo":null,"layer_id":360,"fid":159,"label":"Nhà thờ Phú Bình"}},{"type":"Feature","geometry":{"type":"Point","coordinates":[106.046512594,10.276594468]},"properties":{"Cơ sở Công giáo":"Nhà thờ Phú Phụng","Địa chỉ":"Phú Phụng","Người đứng đầu cơ sở Công giáo":null,"layer_id":360,"fid":160,"label":"Nhà thờ Phú Phụng"}},{"type":"Feature","geometry":{"type":"Point","coordinates":[106.235282221,10.228939456]},"properties":{"Cơ sở Công giáo":"Nhà thờ Phú Hiệp","Địa chỉ":"xã Vĩnh Thành","Người đứng đầu cơ sở Công giáo":null,"layer_id":360,"fid":161,"label":"Nhà thờ Phú Hiệp"}},{"type":"Feature","geometry":{"type":"Point","coordinates":[106.340539667,9.940410697]},"properties":{"Cơ sở Công giáo":"Công đoàn nữ tu Mến Thánh giá","Địa chỉ":"Khóm 3,  Phường Trà Vinh","Người đứng đầu cơ sở Công giáo":"Nữ tu Phạm Thị Kỷ - Trưởng cộng đoàn","layer_id":360,"fid":162,"label":"Công đoàn nữ tu Mến Thánh giá"}},{"type":"Feature","geometry":{"type":"Point","coordinates":[106.340539667,9.940410697]},"properties":{"Cơ sở Công giáo":"Công đoàn nữ tu Thánh Phao lô","Địa chỉ":"Khóm 2, Phường Trà Vinh","Người đứng đầu cơ sở Công giáo":"Nữ tu Đào Thị Ngọc Liên – Trưởng Cộng đoàn.","layer_id":360,"fid":163,"label":"Công đoàn nữ tu Thánh Phao lô"}},{"type":"Feature","geometry":{"type":"Point","coordinates":[106.341596498,9.940397468]},"properties":{"Cơ sở Công giáo":"Nhà thờ Trà Vinh","Địa chỉ":"Khóm 2, Phường Trà Vinh","Người đứng đầu cơ sở Công giáo":" Linh mục Nguyễn Thanh Phong; LM. Nguyễn Văn Quân","layer_id":360,"fid":164,"label":"Nhà thờ Trà Vinh"}},{"type":"Feature","geometry":{"type":"Point","coordinates":[106.335979052,9.991164148]},"properties":{"Cơ sở Công giáo":"Nhà thờ Cam Son","Địa chỉ":"ấp Vĩnh Hội, Phường Long Đức","Người đứng đầu cơ sở Công giáo":"Linh mục Nguyễn Thanh Phong; LM. Nguyễn Văn Quân","layer_id":360,"fid":165,"label":"Nhà thờ Cam Son"}},{"type":"Feature","geometry":{"type":"Point","coordinates":[106.245522627,10.060921594]},"properties":{"Cơ sở Công giáo":"Nhà thờ Cái Hô","Địa chỉ":"Mỹ Hiệp A, xã Nhị Long","Người đứng đầu cơ sở Công giáo":"Linh mục Trương Anh Hào; Linh mục Nguyễn Bảo Ngọc ","layer_id":360,"fid":166,"label":"Nhà thờ Cái Hô"}},{"type":"Feature","geometry":{"type":"Point","coordinates":[106.28394545,10.040248246]},"properties":{"Cơ sở Công giáo":"Nhà thờ Đức Mỹ","Địa chỉ":"Đức Mỹ A, xã Nhị Long","Người đứng đầu cơ sở Công giáo":"Linh mục Trương Anh Hào","layer_id":360,"fid":167,"label":"Nhà thờ Đức Mỹ"}},{"type":"Feature","geometry":{"type":"Point","coordinates":[106.291368094,10.024099942]},"properties":{"Cơ sở Công giáo":"Nhà thờ Bãi Xan","Địa chỉ":"ấp Trung, xã Nhị Long","Người đứng đầu cơ sở Công giáo":"Linh mục Trần Văn Kích; Linh mục Lê Duy","layer_id":360,"fid":168,"label":"Nhà thờ Bãi Xan"}},{"type":"Feature","geometry":{"type":"Point","coordinates":[106.274510094,10.022906992]},"properties":{"Cơ sở Công giáo":"Nhà thờ Lá (Nhị Long)","Địa chỉ":"ấp Đỏ 3, xã Càng Long","Người đứng đầu cơ sở Công giáo":"Linh mục Trần Văn Kích","layer_id":360,"fid":169,"label":"Nhà thờ Lá (Nhị Long)"}},{"type":"Feature","geometry":{"type":"Point","coordinates":[106.205006452,9.99637448]},"properties":{"Cơ sở Công giáo":"Nhà thờ Càng Long","Địa chỉ":"K6, xã Càng Long","Người đứng đầu cơ sở Công giáo":"Linh mục Trần Xuân Hà","layer_id":360,"fid":170,"label":"Nhà thờ Càng Long"}},{"type":"Feature","geometry":{"type":"Point","coordinates":[106.162705459,9.884434057]},"properties":{"Cơ sở Công giáo":"Nhà thờ Kinh Long Hội","Địa chỉ":"ấp Nhà Thờ, xã Tân An","Người đứng đầu cơ sở Công giáo":"Linh mục Nguyễn Thái Dương","layer_id":360,"fid":171,"label":"Nhà thờ Kinh Long Hội"}},{"type":"Feature","geometry":{"type":"Point","coordinates":[106.192997663,9.967422494]},"properties":{"Cơ sở Công giáo":"Nhà thờ An Trường","Địa chỉ":"ấp 4A, xã An Trường","Người đứng đầu cơ sở Công giáo":"Linh mục Trần Xuân Hà","layer_id":360,"fid":172,"label":"Nhà thờ An Trường"}},{"type":"Feature","geometry":{"type":"Point","coordinates":[106.152469508,9.762754713]},"properties":{"Cơ sở Công giáo":"Nhà thờ Rạch Vồn","Địa chỉ":"ấp Định Bình, xã Tân Hòa","Người đứng đầu cơ sở Công giáo":"Linh mục Lâm Quang Thi ","layer_id":360,"fid":173,"label":"Nhà thờ Rạch Vồn"}},{"type":"Feature","geometry":{"type":"Point","coordinates":[106.142767009,9.764911065]},"properties":{"Cơ sở Công giáo":"Nhà thờ Tân Thành","Địa chỉ":"ấp Tân Thành Đông, xã Tân Hòa","Người đứng đầu cơ sở Công giáo":"Linh mục Bùi Thành Phát","layer_id":360,"fid":174,"label":"Nhà thờ Tân Thành"}},{"type":"Feature","geometry":{"type":"Point","coordinates":[106.128118109,9.760493341]},"properties":{"Cơ sở Công giáo":"Nhà nguyện Bác Ái","Địa chỉ":"Tân Thành Tây, xã Tân Hòa","Người đứng đầu cơ sở Công giáo":"Linh mục Lê Đình Khôi","layer_id":360,"fid":175,"label":"Nhà nguyện Bác Ái"}},{"type":"Feature","geometry":{"type":"Point","coordinates":[106.181843367,9.803270101]},"properties":{"Cơ sở Công giáo":"Nhà thờ Tiểu Cần","Địa chỉ":"ấp Đại Mong, xã Tiểu Cần","Người đứng đầu cơ sở Công giáo":"Linh mục Nguyễn Thành Nhân ","layer_id":360,"fid":176,"label":"Nhà thờ Tiểu Cần"}},{"type":"Feature","geometry":{"type":"Point","coordinates":[106.268113321,9.810071573]},"properties":{"Cơ sở Công giáo":"Nhà thờ Rạch Lợp","Địa chỉ":"ấp Lê Văn Quới, xã Tập Ngãi","Người đứng đầu cơ sở Công giáo":"Linh mục Lê Công Rạng","layer_id":360,"fid":177,"label":"Nhà thờ Rạch Lợp"}},{"type":"Feature","geometry":{"type":"Point","coordinates":[106.130600672,9.773095262]},"properties":{"Cơ sở Công giáo":"Nhà thờ Ngọn","Địa chỉ":"Khóm 3, xã Tân Hòa","Người đứng đầu cơ sở Công giáo":"Linh mục Nguyễn Thành Hoan ","layer_id":360,"fid":178,"label":"Nhà thờ Ngọn"}},{"type":"Feature","geometry":{"type":"Point","coordinates":[106.139741172,9.776851285]},"properties":{"Cơ sở Công giáo":"Nhà thờ Lộ Mới","Địa chỉ":"Định Phú B , xã Tân Hòa","Người đứng đầu cơ sở Công giáo":"Linh mục Nguyễn Thành Nhân","layer_id":360,"fid":179,"label":"Nhà thờ Lộ Mới"}},{"type":"Feature","geometry":{"type":"Point","coordinates":[106.135198523,9.776615013]},"properties":{"Cơ sở Công giáo":"Nhà thờ Ba Giồng","Địa chỉ":"ấp Định Phú A, xã Tân Hòa","Người đứng đầu cơ sở Công giáo":"Linh mục Nguyễn Duy Đăng","layer_id":360,"fid":180,"label":"Nhà thờ Ba Giồng"}},{"type":"Feature","geometry":{"type":"Point","coordinates":[106.129937557,9.773279161]},"properties":{"Cơ sở Công giáo":"Nhà thờ Mặc Bắc","Địa chỉ":"khóm 1, xã Tân Hòa","Người đứng đầu cơ sở Công giáo":"Linh mục Nguyễn Văn Thành","layer_id":360,"fid":181,"label":"Nhà thờ Mặc Bắc"}},{"type":"Feature","geometry":{"type":"Point","coordinates":[106.178968232,9.849159469]},"properties":{"Cơ sở Công giáo":"Nhà Nguyện Phú Thọ II","Địa chỉ":"ấp Phú Thọ II, xã Tiểu Cần","Người đứng đầu cơ sở Công giáo":"Linh mục Bùi Văn Đảm","layer_id":360,"fid":182,"label":"Nhà Nguyện Phú Thọ II"}},{"type":"Feature","geometry":{"type":"Point","coordinates":[106.126573782,9.765770118]},"properties":{"Cơ sở Công giáo":"Nhà thờ Định Thuận","Địa chỉ":"Khóm Định Thuận, xã Tân Hòa","Người đứng đầu cơ sở Công giáo":"Linh mục Trần Quang Khải","layer_id":360,"fid":183,"label":"Nhà thờ Định Thuận"}},{"type":"Feature","geometry":{"type":"Point","coordinates":[106.161834821,9.833857345]},"properties":{"Cơ sở Công giáo":"Nhà nguyện Cây Gòn","Địa chỉ":"ấp Cây Gòn, xã Tiểu Cần","Người đứng đầu cơ sở Công giáo":"Linh mục Bùi Văn Đảm","layer_id":360,"fid":184,"label":"Nhà nguyện Cây Gòn"}},{"type":"Feature","geometry":{"type":"Point","coordinates":[106.129367708,9.790147124]},"properties":{"Cơ sở Công giáo":"Nhà thờ Bàu Hoang","Địa chỉ":"ấp Định Phú A, xã Tân Hòa","Người đứng đầu cơ sở Công giáo":"Linh mục Nguyễn Trung Lâm","layer_id":360,"fid":185,"label":"Nhà thờ Bàu Hoang"}},{"type":"Feature","geometry":{"type":"Point","coordinates":[106.073486098,9.940833218]},"properties":{"Cơ sở Công giáo":"Nhà Nguyện Trà Mẹt","Địa chỉ":"ấp Trà Mẹt, xã Thông Hòa","Người đứng đầu cơ sở Công giáo":null,"layer_id":360,"fid":186,"label":"Nhà Nguyện Trà Mẹt"}},{"type":"Feature","geometry":{"type":"Point","coordinates":[106.049907632,9.870563694]},"properties":{"Cơ sở Công giáo":"Nhà Nguyện Hòa Tân","Địa chỉ":"ấp Chông Nô 1, xã An Phú Tân","Người đứng đầu cơ sở Công giáo":null,"layer_id":360,"fid":187,"label":"Nhà Nguyện Hòa Tân"}},{"type":"Feature","geometry":{"type":"Point","coordinates":[106.049728779,9.898408673]},"properties":{"Cơ sở Công giáo":"Nhà thờ Bà Mi (Bông Bót)","Địa chỉ":"ấp Bà Mi, xã Tam Ngãi","Người đứng đầu cơ sở Công giáo":null,"layer_id":360,"fid":188,"label":"Nhà thờ Bà Mi (Bông Bót)"}},{"type":"Feature","geometry":{"type":"Point","coordinates":[106.332782379,9.777612558]},"properties":{"Cơ sở Công giáo":"Nhà thờ Phước Hưng","Địa chỉ":"ấp Đầu Giồng A, xã Tập Sơn","Người đứng đầu cơ sở Công giáo":"Linh mục Lê Công Rạng","layer_id":360,"fid":189,"label":"Nhà thờ Phước Hưng"}},{"type":"Feature","geometry":{"type":"Point","coordinates":[106.291485552,9.689947824]},"properties":{"Cơ sở Công giáo":"Nhà thờ Tân Long","Địa chỉ":"ấp Ba Tục, xã Trà Cú","Người đứng đầu cơ sở Công giáo":"Linh mục Dương Minh","layer_id":360,"fid":190,"label":"Nhà thờ Tân Long"}},{"type":"Feature","geometry":{"type":"Point","coordinates":[106.503780236,9.687910028]},"properties":{"Cơ sở Công giáo":"Nhà thờ Phú Long","Địa chỉ":"Khóm 1, Phường Duyên Hải","Người đứng đầu cơ sở Công giáo":"Linh mục Lương Phước Trung","layer_id":360,"fid":191,"label":"Nhà thờ Phú Long"}},{"type":"Feature","geometry":{"type":"Point","coordinates":[106.44670486,9.550815425]},"properties":{"Cơ sở Công giáo":"Nhà thờ Động Cao","Địa chỉ":"ấp Định An,  xã Đông Hải","Người đứng đầu cơ sở Công giáo":"Linh mục Lương Phước Trung","layer_id":360,"fid":192,"label":"Nhà thờ Động Cao"}},{"type":"Feature","geometry":{"type":"Point","coordinates":[106.44155502,9.617167469]},"properties":{"Cơ sở Công giáo":"Nhà thờ Cái Đôi","Địa chỉ":"Khóm 5, xã Long Thành","Người đứng đầu cơ sở Công giáo":"Linh mục Lương Phước Trung","layer_id":360,"fid":193,"label":"Nhà thờ Cái Đôi"}},{"type":"Feature","geometry":{"type":"Point","coordinates":[106.472557292,9.90748046]},"properties":{"Cơ sở Công giáo":"Nhà thờ Cổ Chiên","Địa chỉ":"ấp Đại Thôn A, xã Hòa Minh","Người đứng đầu cơ sở Công giáo":"Linh mục Nguyễn Trung Kiên ","layer_id":360,"fid":194,"label":"Nhà thờ Cổ Chiên"}},{"type":"Feature","geometry":{"type":"Point","coordinates":[106.520907136,9.862191896]},"properties":{"Cơ sở Công giáo":"Nhà thờ Rạch Giồng","Địa chỉ":"ấp Rạch Giồng, xã Long Hòa","Người đứng đầu cơ sở Công giáo":"Linh mục Nguyễn Trung Kiên","layer_id":360,"fid":195,"label":"Nhà thờ Rạch Giồng"}},{"type":"Feature","geometry":{"type":"Point","coordinates":[106.457393035,9.926541955]},"properties":{"Cơ sở Công giáo":"Nhà thờ Bà Tùng","Địa chỉ":"Bà Liêm, xã Hòa Minh","Người đứng đầu cơ sở Công giáo":"Linh mục Nguyễn Trung Kiên","layer_id":360,"fid":196,"label":"Nhà thờ Bà Tùng"}},{"type":"Feature","geometry":{"type":"Point","coordinates":[106.402763952,9.867868591]},"properties":{"Cơ sở Công giáo":"Nhà thờ Phước Hảo","Địa chỉ":"Hòa Hảo, xã Hưng Mỹ","Người đứng đầu cơ sở Công giáo":"Linh mục Huỳnh Văn Quang","layer_id":360,"fid":197,"label":"Nhà thờ Phước Hảo"}},{"type":"Feature","geometry":{"type":"Point","coordinates":[106.433881624,9.896735495]},"properties":{"Cơ sở Công giáo":"Nhà thờ Bãi Vàng","Địa chỉ":"Đại Thôn, xã Hưng  Mỹ","Người đứng đầu cơ sở Công giáo":"Linh mục Huỳnh Văn Quang","layer_id":360,"fid":198,"label":"Nhà thờ Bãi Vàng"}},{"type":"Feature","geometry":{"type":"Point","coordinates":[106.388395836,9.864049446]},"properties":{"Cơ sở Công giáo":"Nhà thờ Xóm Chòi","Địa chỉ":"ấp Hòa Hảo, xã Hưng Mỹ","Người đứng đầu cơ sở Công giáo":"Linh mục Huỳnh Văn Quang","layer_id":360,"fid":199,"label":"Nhà thờ Xóm Chòi"}},{"type":"Feature","geometry":{"type":"Point","coordinates":[106.301030225,9.884795264]},"properties":{"Cơ sở Công giáo":"Nhà thờ Hòa Lạc","Địa chỉ":"ấp Hòa Lạc A, xã Song Lộc","Người đứng đầu cơ sở Công giáo":"Linh mục Nguyễn Quốc Vinh ","layer_id":360,"fid":200,"label":"Nhà thờ Hòa Lạc"}}]}
