{"type":"FeatureCollection","name":"Xã phường An toàn khu","metadata":{"source":"https://hatang.vinhlong.gov.vn/","downloaded_at":"2026-07-20T01:19:05+00:00","layer_id":361,"layer_name":"Xã phường An toàn khu","catalog_endpoints":["/map/publicLayers2?inputs=sonoivu"],"requested_bbox":[104.0,8.0,108.0,12.0],"tile_size":0.0,"tile_count":1,"tile_errors":[],"feature_count":74,"coordinate_order":"x,y (thường là longitude,latitude theo cấu hình EPSG:4326 của WebGIS)"},"features":[{"type":"Feature","geometry":{"type":"Point","coordinates":[105.929998507,9.996654591]},"properties":{"An toàn khu":"An toàn khu xã Ngãi Tứ","Địa chỉ":"Ấp An Phú Tân, xã Ngãi Tứ, tỉnh Vĩnh Long","Điện thoại":"02703 719 888 - 0986 202 852","layer_id":361,"fid":1,"label":"An toàn khu xã Ngãi Tứ"}},{"type":"Feature","geometry":{"type":"Point","coordinates":[106.332352171,9.98209316]},"properties":{"An toàn khu":"An toàn khu phường Long Đức","Địa chỉ":"Phường 4 (thành phố Trà Vinh), Long Đức","Điện thoại":null,"layer_id":361,"fid":59,"label":"An toàn khu phường Long Đức"}},{"type":"Feature","geometry":{"type":"Point","coordinates":[105.902725907,10.109695207]},"properties":{"An toàn khu":"An toàn khu xã Song Phú","Địa chỉ":"Ấp Phú Trường Yên, xã Song Phú, tỉnh Vĩnh Long","Điện thoại":"02703 864 228","layer_id":361,"fid":2,"label":"An toàn khu xã Song Phú"}},{"type":"Feature","geometry":{"type":"Point","coordinates":[106.229671568,10.111557804]},"properties":{"An toàn khu":"An toàn khu xã Quới Thiện","Địa chỉ":"Ấp Thái Bình, xã Quới Thiện, tỉnh Vĩnh Long","Điện thoại":"02703 980 632","layer_id":361,"fid":3,"label":"An toàn khu xã Quới Thiện"}},{"type":"Feature","geometry":{"type":"Point","coordinates":[106.331956297,9.922284423]},"properties":{"An toàn khu":"An toàn khu phường Nguyệt Hóa","Địa chỉ":"Phường 7, Phường 8(thành phố Trà Vinh), Nguyệt Hóa","Điện thoại":null,"layer_id":361,"fid":60,"label":"An toàn khu phường Nguyệt Hóa"}},{"type":"Feature","geometry":{"type":"Point","coordinates":[106.190331264,10.084550631]},"properties":{"An toàn khu":"An toàn khu xã Trung Thành","Địa chỉ":"Khóm 2, xã Trung Thành, tỉnh Vĩnh Long","Điện thoại":"02703 871 274","layer_id":361,"fid":4,"label":"An toàn khu xã Trung Thành"}},{"type":"Feature","geometry":{"type":"Point","coordinates":[106.199171282,10.056102513]},"properties":{"An toàn khu":"An toàn khu xã Trung Ngãi","Địa chỉ":"Ấp Giồng Ké, xã Trung Ngãi, tỉnh Vĩnh Long","Điện thoại":"02703 870 403 - 0982 875 489","layer_id":361,"fid":5,"label":"An toàn khu xã Trung Ngãi"}},{"type":"Feature","geometry":{"type":"Point","coordinates":[106.492619867,9.6350458]},"properties":{"An toàn khu":"An toàn khu phường Duyên Hải","Địa chỉ":"Phường 1(thị xã Duyên Hải), Long Toàn, Dân Thành","Điện thoại":null,"layer_id":361,"fid":61,"label":"An toàn khu phường Duyên Hải"}},{"type":"Feature","geometry":{"type":"Point","coordinates":[106.228715119,9.925667646]},"properties":{"An toàn khu":"An toàn khu xã Tân An ","Địa chỉ":"Huyền Hội, Tân An","Điện thoại":null,"layer_id":361,"fid":62,"label":"An toàn khu xã Tân An "}},{"type":"Feature","geometry":{"type":"Point","coordinates":[106.28463131,9.865413002]},"properties":{"An toàn khu":"An toàn khu xã Song Lộc","Địa chỉ":"Lương Hòa (huyện Châu Thành), Lương Hòa A, Song Lộc","Điện thoại":null,"layer_id":361,"fid":63,"label":"An toàn khu xã Song Lộc"}},{"type":"Feature","geometry":{"type":"Point","coordinates":[106.132612393,10.111742469]},"properties":{"An toàn khu":"An toàn khu xã Trung Hiệp","Địa chỉ":"Ấp Rạch Ngay, xã Trung Hiệp, tỉnh Vĩnh Long","Điện thoại":"0354 485 098","layer_id":361,"fid":6,"label":"An toàn khu xã Trung Hiệp"}},{"type":"Feature","geometry":{"type":"Point","coordinates":[106.095227892,9.984156278]},"properties":{"An toàn khu":"An toàn khu xã Hiếu Thành","Địa chỉ":"Ấp Hiếu Xuân Tây , xã Hiếu Thành, tỉnh Vĩnh Long","Điện thoại":"02703 874 078","layer_id":361,"fid":7,"label":"An toàn khu xã Hiếu Thành"}},{"type":"Feature","geometry":{"type":"Point","coordinates":[106.344909167,9.879423815]},"properties":{"An toàn khu":"An toàn khu xã Châu Thành","Địa chỉ":"Châu Thành (thị trấn), Mỹ Chánh, Thanh Mỹ, Đa Lộc","Điện thoại":null,"layer_id":361,"fid":64,"label":"An toàn khu xã Châu Thành"}},{"type":"Feature","geometry":{"type":"Point","coordinates":[105.990214484,10.016760626]},"properties":{"An toàn khu":"An toàn khu xã Trà Côn","Địa chỉ":"Ấp Trà Ngoa, xã Trà Côn, tỉnh Vĩnh Long","Điện thoại":"0918 639 833 - 0961 170 961","layer_id":361,"fid":8,"label":"An toàn khu xã Trà Côn"}},{"type":"Feature","geometry":{"type":"Point","coordinates":[106.010089416,9.950695597]},"properties":{"An toàn khu":"An toàn khu xã Vĩnh Xuân","Địa chỉ":"Ấp Vĩnh Trinh, xã Vĩnh Xuân, tỉnh Vĩnh Long","Điện thoại":"02703 884 237 - 0977 129 317","layer_id":361,"fid":9,"label":"An toàn khu xã Vĩnh Xuân"}},{"type":"Feature","geometry":{"type":"Point","coordinates":[106.423353373,9.903986306]},"properties":{"An toàn khu":"An toàn khu xã Hưng Mỹ","Địa chỉ":"Hòa Lợi (huyện Châu Thành), Phước Hảo, Hưng Mỹ","Điện thoại":null,"layer_id":361,"fid":65,"label":"An toàn khu xã Hưng Mỹ"}},{"type":"Feature","geometry":{"type":"Point","coordinates":[106.0459965,10.043274003]},"properties":{"An toàn khu":"An toàn khu xã Hòa Bình","Địa chỉ":"Ấp Ngãi Hòa, xã Hòa Bình, tỉnh Vĩnh Long","Điện thoại":"02703 722 228","layer_id":361,"fid":10,"label":"An toàn khu xã Hòa Bình"}},{"type":"Feature","geometry":{"type":"Point","coordinates":[106.056254294,9.869241638]},"properties":{"An toàn khu":"An toàn khu xã Cầu Kè","Địa chỉ":"Cầu Kè (thị trấn ), Hòa Ân, Châu Điền","Điện thoại":null,"layer_id":361,"fid":66,"label":"An toàn khu xã Cầu Kè"}},{"type":"Feature","geometry":{"type":"Point","coordinates":[106.196946444,9.821824423]},"properties":{"An toàn khu":"An toàn khu xã Tiểu Cần","Địa chỉ":"Tiểu Cần (thị trấn), Phú Cần, Hiếu Trung","Điện thoại":null,"layer_id":361,"fid":67,"label":"An toàn khu xã Tiểu Cần"}},{"type":"Feature","geometry":{"type":"Point","coordinates":[105.983833568,10.117205745]},"properties":{"An toàn khu":"An toàn khu xã Cái Ngang","Địa chỉ":"Ấp 5B, xã Hậu Lộc, tỉnh Vĩnh Long","Điện thoại":"02703 718 021","layer_id":361,"fid":11,"label":"An toàn khu xã Cái Ngang"}},{"type":"Feature","geometry":{"type":"Point","coordinates":[106.388462898,10.270566659]},"properties":{"An toàn khu":"An toàn khu Phường Phú Tân","Địa chỉ":"Ấp Hữu Thành, Phường Phú Tân","Điện thoại":"02753.860.831","layer_id":361,"fid":12,"label":"An toàn khu Phường Phú Tân"}},{"type":"Feature","geometry":{"type":"Point","coordinates":[106.45044988,9.796559609]},"properties":{"An toàn khu":"An toàn khu xã Cầu Ngang","Địa chỉ":"Mỹ Hòa (huyện Cầu Ngang), Thuận Hòa, Cầu Ngang (thị trấn)","Điện thoại":null,"layer_id":361,"fid":68,"label":"An toàn khu xã Cầu Ngang"}},{"type":"Feature","geometry":{"type":"Point","coordinates":[106.357137993,10.301099915]},"properties":{"An toàn khu":"An toàn khu Xã Phú Túc","Địa chỉ":"Khu phố 3, xã Phú Túc","Điện thoại":"02753.860.227","layer_id":361,"fid":13,"label":"An toàn khu Xã Phú Túc"}},{"type":"Feature","geometry":{"type":"Point","coordinates":[106.400817708,10.304825373]},"properties":{"An toàn khu":"An toàn khu Xã Giao Long","Địa chỉ":"Ấp Quới Thạnh Đông, xã Giao Long","Điện thoại":"02753.611.112","layer_id":361,"fid":14,"label":"An toàn khu Xã Giao Long"}},{"type":"Feature","geometry":{"type":"Point","coordinates":[106.477132022,9.731754242]},"properties":{"An toàn khu":"An toàn khu xã Hiệp Mỹ","Địa chỉ":"Long Sơn, Hiệp Mỹ Đông, Hiệp Mỹ Tây","Điện thoại":null,"layer_id":361,"fid":69,"label":"An toàn khu xã Hiệp Mỹ"}},{"type":"Feature","geometry":{"type":"Point","coordinates":[106.243326764,10.272297353]},"properties":{"An toàn khu":"An toàn khu Xã Tiên Thủy","Địa chỉ":"Khu phố Chánh, xã Tiên Thuỷ","Điện thoại":"02753.868.118","layer_id":361,"fid":15,"label":"An toàn khu Xã Tiên Thủy"}},{"type":"Feature","geometry":{"type":"Point","coordinates":[106.182829462,10.289803824]},"properties":{"An toàn khu":"An toàn khu Xã Tân Phú","Địa chỉ":"Ấp Tân Bắc, xã Tân Phú","Điện thoại":"0275.867.108","layer_id":361,"fid":16,"label":"An toàn khu Xã Tân Phú"}},{"type":"Feature","geometry":{"type":"Point","coordinates":[106.340549458,9.709011265]},"properties":{"An toàn khu":"An toàn khu xã Long Hiệp","Địa chỉ":"Ngọc Biên, Tân Hiệp, Long Hiệp","Điện thoại":null,"layer_id":361,"fid":70,"label":"An toàn khu xã Long Hiệp"}},{"type":"Feature","geometry":{"type":"Point","coordinates":[106.434308278,9.553336352]},"properties":{"An toàn khu":"An toàn khu xã Đông Hải","Địa chỉ":"Đông Hải","Điện thoại":null,"layer_id":361,"fid":71,"label":"An toàn khu xã Đông Hải"}},{"type":"Feature","geometry":{"type":"Point","coordinates":[106.346322563,9.644946641]},"properties":{"An toàn khu":"An toàn khu xã Đôn Châu","Địa chỉ":"Đôn Xuân, Đôn Châu","Điện thoại":null,"layer_id":361,"fid":72,"label":"An toàn khu xã Đôn Châu"}},{"type":"Feature","geometry":{"type":"Point","coordinates":[106.274673221,10.185526813]},"properties":{"An toàn khu":"An toàn khu Xã Phước Mỹ Trung","Địa chỉ":"Ấp Phước Hậu, xã Phước Mỹ Trung ","Điện thoại":"02753.669.952","layer_id":361,"fid":17,"label":"An toàn khu Xã Phước Mỹ Trung"}},{"type":"Feature","geometry":{"type":"Point","coordinates":[106.307671711,10.185535815]},"properties":{"An toàn khu":"An toàn khu Xã Tân Thành Bình","Địa chỉ":"Ấp Đông Thạnh, xã Tân Thành Bình","Điện thoại":"02753.840.144","layer_id":361,"fid":18,"label":"An toàn khu Xã Tân Thành Bình"}},{"type":"Feature","geometry":{"type":"Point","coordinates":[106.164529419,10.161298581]},"properties":{"An toàn khu":"An toàn khu xã Quới An","Địa chỉ":"Trung Thành Tây, Tân Quới Trung, Quới An","Điện thoại":null,"layer_id":361,"fid":73,"label":"An toàn khu xã Quới An"}},{"type":"Feature","geometry":{"type":"Point","coordinates":[106.287576345,10.114927226]},"properties":{"An toàn khu":"An toàn khu Xã Nhuận Phú Tân","Địa chỉ":"Ấp Tân Nhuận, xã Nhuận Phú Tân","Điện thoại":"02753.846.102","layer_id":361,"fid":19,"label":"An toàn khu Xã Nhuận Phú Tân"}},{"type":"Feature","geometry":{"type":"Point","coordinates":[106.389153882,10.103284872]},"properties":{"An toàn khu":"An toàn khu Xã Đồng Khởi","Địa chỉ":"Ấp Phước Lý, xã Đồng Khởi","Điện thoại":"02753.847.153","layer_id":361,"fid":20,"label":"An toàn khu Xã Đồng Khởi"}},{"type":"Feature","geometry":{"type":"Point","coordinates":[105.826782285,10.133588532]},"properties":{"An toàn khu":"An toàn khu xã Mỹ Thuận","Địa chỉ":"Thành Trung, Nguyễn Văn Thảnh, Mỹ Thuận","Điện thoại":null,"layer_id":361,"fid":74,"label":"An toàn khu xã Mỹ Thuận"}},{"type":"Feature","geometry":{"type":"Point","coordinates":[106.324578609,10.049718315]},"properties":{"An toàn khu":"An toàn khu Xã Thành Thới","Địa chỉ":"Ấp An Lợi, xã Thành Thới","Điện thoại":"02753.847.131","layer_id":361,"fid":21,"label":"An toàn khu Xã Thành Thới"}},{"type":"Feature","geometry":{"type":"Point","coordinates":[106.374520416,10.078684285]},"properties":{"An toàn khu":"An toàn khu Xã An Định","Địa chỉ":"Ấp Phú Đông 1, xã An Định","Điện thoại":"02753.847.103","layer_id":361,"fid":22,"label":"An toàn khu Xã An Định"}},{"type":"Feature","geometry":{"type":"Point","coordinates":[106.400875313,10.01570122]},"properties":{"An toàn khu":"An toàn khu Xã Hương Mỹ","Địa chỉ":" Ấp Thị, xã Hương Mỹ","Điện thoại":"0275.3.849.111","layer_id":361,"fid":23,"label":"An toàn khu Xã Hương Mỹ"}},{"type":"Feature","geometry":{"type":"Point","coordinates":[106.447215578,10.002735082]},"properties":{"An toàn khu":"An toàn khu Xã Đại Điền","Địa chỉ":"Ấp Thạnh A, xã Đại Điền","Điện thoại":"02753.877.101","layer_id":361,"fid":24,"label":"An toàn khu Xã Đại Điền"}},{"type":"Feature","geometry":{"type":"Point","coordinates":[106.475918652,9.982548383]},"properties":{"An toàn khu":"An toàn khu Xã Quới Điền","Địa chỉ":"Ấp Quí Đức B, xã Quới Điền","Điện thoại":"02753.877.145","layer_id":361,"fid":25,"label":"An toàn khu Xã Quới Điền"}},{"type":"Feature","geometry":{"type":"Point","coordinates":[106.516399404,9.948208515]},"properties":{"An toàn khu":"An toàn khu Xã Thạnh Phú","Địa chỉ":"Khu phố 3, xã Thạnh Phú","Điện thoại":"02753.870.943","layer_id":361,"fid":26,"label":"An toàn khu Xã Thạnh Phú"}},{"type":"Feature","geometry":{"type":"Point","coordinates":[106.595217621,9.890079481]},"properties":{"An toàn khu":"An toàn khu Xã An Qui","Địa chỉ":"Ấp An Hòa, xã An Qui","Điện thoại":"02753.822.215","layer_id":361,"fid":27,"label":"An toàn khu Xã An Qui"}},{"type":"Feature","geometry":{"type":"Point","coordinates":[106.653591101,9.877513217]},"properties":{"An toàn khu":"An toàn khu Xã Thạnh Hải","Địa chỉ":"Ấp Thạnh Hưng B, xã Thạnh Hải ","Điện thoại":"02753.886.015","layer_id":361,"fid":28,"label":"An toàn khu Xã Thạnh Hải"}},{"type":"Feature","geometry":{"type":"Point","coordinates":[106.610762307,9.879916493]},"properties":{"An toàn khu":"An toàn khu Xã Thạnh Phong","Địa chỉ":"Ấp Giao Hòa A, xã Thạnh Phong","Điện thoại":"0275.876.107","layer_id":361,"fid":29,"label":"An toàn khu Xã Thạnh Phong"}},{"type":"Feature","geometry":{"type":"Point","coordinates":[106.627060959,10.085692677]},"properties":{"An toàn khu":"An toàn khu Xã Tân Xuân","Địa chỉ":"Ấp Phú Thuận, xã Tân Xuân","Điện thoại":"02753.858.813","layer_id":361,"fid":30,"label":"An toàn khu Xã Tân Xuân"}},{"type":"Feature","geometry":{"type":"Point","coordinates":[106.492615893,10.097334275]},"properties":{"An toàn khu":"An toàn khu Xã Hưng Nhượng","Địa chỉ":"Ấp Hưng Hòa Tây, xã Hưng Nhượng","Điện thoại":"02753.864.102","layer_id":361,"fid":31,"label":"An toàn khu Xã Hưng Nhượng"}},{"type":"Feature","geometry":{"type":"Point","coordinates":[106.465339117,10.1402369]},"properties":{"An toàn khu":"An toàn khu Xã Tân Hào","Địa chỉ":"Ấp Tân Thị, xã Tân Hào","Điện thoại":"02753.863.501","layer_id":361,"fid":32,"label":"An toàn khu Xã Tân Hào"}},{"type":"Feature","geometry":{"type":"Point","coordinates":[106.395002976,10.152842045]},"properties":{"An toàn khu":"An toàn khu Xã Phước Long","Địa chỉ":"Ấp Long Thị, xã Phước Long","Điện thoại":"02753.863.102","layer_id":361,"fid":33,"label":"An toàn khu Xã Phước Long"}},{"type":"Feature","geometry":{"type":"Point","coordinates":[106.434390173,10.221900847]},"properties":{"An toàn khu":"An toàn khu Xã Lương Phú","Địa chỉ":"Ấp Căn Cứ, xã Lương Phú","Điện thoại":"02753.862.209","layer_id":361,"fid":34,"label":"An toàn khu Xã Lương Phú"}},{"type":"Feature","geometry":{"type":"Point","coordinates":[106.491013077,10.218598035]},"properties":{"An toàn khu":"An toàn khu Xã Châu Hòa","Địa chỉ":"Ấp Phú Hòa, xã Châu Hòa","Điện thoại":"02753.882.003","layer_id":361,"fid":35,"label":"An toàn khu Xã Châu Hòa"}},{"type":"Feature","geometry":{"type":"Point","coordinates":[106.451440901,10.240317966]},"properties":{"An toàn khu":"An toàn khu Xã Lương Hòa","Địa chỉ":"Ấp Giồng Sậy, xã Lương Hòa","Điện thoại":"02753.862.276","layer_id":361,"fid":36,"label":"An toàn khu Xã Lương Hòa"}},{"type":"Feature","geometry":{"type":"Point","coordinates":[106.589791213,10.225242723]},"properties":{"An toàn khu":"An toàn khu Xã Lộc Thuận","Địa chỉ":"Ấp Lộc Hòa, xã Lộc Thuận","Điện thoại":"02753.855.109","layer_id":361,"fid":37,"label":"An toàn khu Xã Lộc Thuận"}},{"type":"Feature","geometry":{"type":"Point","coordinates":[106.530814495,10.233382581]},"properties":{"An toàn khu":"An toàn khu Xã Châu Hưng","Địa chỉ":"Ấp Giồng Bông, xã Châu Hưng","Điện thoại":"02753.854.102","layer_id":361,"fid":38,"label":"An toàn khu Xã Châu Hưng"}},{"type":"Feature","geometry":{"type":"Point","coordinates":[106.596647172,10.183992175]},"properties":{"An toàn khu":"An toàn khu Xã Thạnh Trị","Địa chỉ":"Ấp Ao Vuông, xã Thạnh Trị","Điện thoại":"02753.855.147","layer_id":361,"fid":39,"label":"An toàn khu Xã Thạnh Trị"}},{"type":"Feature","geometry":{"type":"Point","coordinates":[106.691827056,10.117872099]},"properties":{"An toàn khu":"An toàn khu Xã Thạnh Phước","Địa chỉ":"Ấp Tân Long, xã Thạnh Phước","Điện thoại":"02753.884.002","layer_id":361,"fid":40,"label":"An toàn khu Xã Thạnh Phước"}},{"type":"Feature","geometry":{"type":"Point","coordinates":[106.722553543,10.056842323]},"properties":{"An toàn khu":"An toàn khu Xã Thới Thuận","Địa chỉ":"Ấp Thới Lợi 1, xã Thới Thuận","Điện thoại":"02753.852.763","layer_id":361,"fid":41,"label":"An toàn khu Xã Thới Thuận"}},{"type":"Feature","geometry":{"type":"Point","coordinates":[106.509491524,9.686039092]},"properties":{"An toàn khu":"An toàn khu phường Trường Long Hòa","Địa chỉ":"Khóm 1, Phường Trường Long Hòa, tỉnh Vĩnh Long","Điện thoại":"","layer_id":361,"fid":42,"label":"An toàn khu phường Trường Long Hòa"}},{"type":"Feature","geometry":{"type":"Point","coordinates":[106.204940934,9.998032333]},"properties":{"An toàn khu":"An toàn khu xã Càng Long","Địa chỉ":"Khóm 3, xã Càng Long, tỉnh Vĩnh Long","Điện thoại":"","layer_id":361,"fid":43,"label":"An toàn khu xã Càng Long"}},{"type":"Feature","geometry":{"type":"Point","coordinates":[106.174529105,9.94772907]},"properties":{"An toàn khu":"An toàn khu xã An Trường","Địa chỉ":"Ấp 7A, xã An Trường, tỉnh Vĩnh Long","Điện thoại":"","layer_id":361,"fid":44,"label":"An toàn khu xã An Trường"}},{"type":"Feature","geometry":{"type":"Point","coordinates":[106.26884532,10.009194628]},"properties":{"An toàn khu":"An toàn khu xã Nhị Long","Địa chỉ":"Ấp Đon, xã Nhị Long, tỉnh Vĩnh Long","Điện thoại":"","layer_id":361,"fid":45,"label":"An toàn khu xã Nhị Long"}},{"type":"Feature","geometry":{"type":"Point","coordinates":[106.243843817,9.961263257]},"properties":{"An toàn khu":"An toàn khu xã Bình Phú","Địa chỉ":"Ấp Nguyệt Lãng A, xã Bình Phú, tỉnh Vĩnh Long","Điện thoại":"","layer_id":361,"fid":46,"label":"An toàn khu xã Bình Phú"}},{"type":"Feature","geometry":{"type":"Point","coordinates":[106.122547185,9.840440424]},"properties":{"An toàn khu":"An toàn khu xã Phong Thạnh","Địa chỉ":"Ấp 1, xã Phong Thạnh,  tỉnh Vĩnh Long","Điện thoại":"","layer_id":361,"fid":47,"label":"An toàn khu xã Phong Thạnh"}},{"type":"Feature","geometry":{"type":"Point","coordinates":[106.016255334,9.87802266]},"properties":{"An toàn khu":"An toàn khu xã An Phú Tân","Địa chỉ":"Ấp An Trại, xã An Phú Tân, tỉnh Vĩnh Long","Điện thoại":"","layer_id":361,"fid":48,"label":"An toàn khu xã An Phú Tân"}},{"type":"Feature","geometry":{"type":"Point","coordinates":[106.076388749,9.920930773]},"properties":{"An toàn khu":"An toàn khu xã Tam Ngãi","Địa chỉ":"Ấp Ô Chích, xã Thông Hòa, tỉnh Vĩnh Long","Điện thoại":"","layer_id":361,"fid":49,"label":"An toàn khu xã Tam Ngãi"}},{"type":"Feature","geometry":{"type":"Point","coordinates":[106.160062914,9.763313674]},"properties":{"An toàn khu":"An toàn khu xã Tân Hòa","Địa chỉ":"Ấp Tân Thành Đông, xã Tân Hòa, tỉnh Vĩnh Long","Điện thoại":"","layer_id":361,"fid":50,"label":"An toàn khu xã Tân Hòa"}},{"type":"Feature","geometry":{"type":"Point","coordinates":[106.203658174,9.79487762]},"properties":{"An toàn khu":"An toàn khu xã Hùng Hòa","Địa chỉ":"Ấp Chợ, xã Hùng Hòa, tỉnh Vĩnh Long","Điện thoại":"","layer_id":361,"fid":51,"label":"An toàn khu xã Hùng Hòa"}},{"type":"Feature","geometry":{"type":"Point","coordinates":[106.264750259,9.811899803]},"properties":{"An toàn khu":"An toàn khu xã Tập Ngãi","Địa chỉ":"Ấp Ngãi Trung, xã Tập Ngãi, tỉnh Vĩnh long","Điện thoại":"","layer_id":361,"fid":52,"label":"An toàn khu xã Tập Ngãi"}},{"type":"Feature","geometry":{"type":"Point","coordinates":[106.507280541,9.809587648]},"properties":{"An toàn khu":"An toàn khu xã Mỹ Long","Địa chỉ":"Khóm II, xã Mỹ Long (thị trấn Mỹ Long cũ), tỉnh Vĩnh Long","Điện thoại":"","layer_id":361,"fid":53,"label":"An toàn khu xã Mỹ Long"}},{"type":"Feature","geometry":{"type":"Point","coordinates":[106.302636761,9.638987746]},"properties":{"An toàn khu":"An toàn khu xã Đại An","Địa chỉ":"Ấp Chợ, xã Đại An, tỉnh Vĩnh Long","Điện thoại":"","layer_id":361,"fid":54,"label":"An toàn khu xã Đại An"}},{"type":"Feature","geometry":{"type":"Point","coordinates":[106.220082883,9.698952102]},"properties":{"An toàn khu":"An toàn khu xã Lưu Nghiệp Anh","Địa chỉ":"Ấp Chợ, xã Lưu Nghiệp Anh, tỉnh Vĩnh Long","Điện thoại":"","layer_id":361,"fid":55,"label":"An toàn khu xã Lưu Nghiệp Anh"}},{"type":"Feature","geometry":{"type":"Point","coordinates":[106.266934885,9.655196387]},"properties":{"An toàn khu":"An toàn khu xã Hàm Giang","Địa chỉ":"Ấp Vàm Ray A, xã Hàm Tân, tỉnh Vĩnh Long","Điện thoại":"","layer_id":361,"fid":56,"label":"An toàn khu xã Hàm Giang"}},{"type":"Feature","geometry":{"type":"Point","coordinates":[106.261504676,9.738472832]},"properties":{"An toàn khu":"An toàn khu xã Tập Sơn","Địa chỉ":"Ấp Đông Sơn, xã Tập Sơn, tỉnh Vĩnh Long","Điện thoại":"","layer_id":361,"fid":57,"label":"An toàn khu xã Tập Sơn"}},{"type":"Feature","geometry":{"type":"Point","coordinates":[106.353825378,9.604210609]},"properties":{"An toàn khu":"An toàn khu xã Long Vĩnh","Địa chỉ":"Ấp Kinh Đào, xã Long Vĩnh, tỉnh Vĩnh Long","Điện thoại":"","layer_id":361,"fid":58,"label":"An toàn khu xã Long Vĩnh"}}]}
