{"type":"FeatureCollection","name":"Cao đài bản chỉnh","metadata":{"source":"https://hatang.vinhlong.gov.vn/","downloaded_at":"2026-07-20T01:19:10+00:00","layer_id":362,"layer_name":"Cao đài bản chỉnh","catalog_endpoints":["/map/publicLayers2?inputs=sodttg"],"requested_bbox":[104.0,8.0,108.0,12.0],"tile_size":0.0,"tile_count":1,"tile_errors":[],"feature_count":100,"coordinate_order":"x,y (thường là longitude,latitude theo cấu hình EPSG:4326 của WebGIS)"},"features":[{"type":"Feature","geometry":{"type":"Point","coordinates":[106.162878836,9.765771777]},"properties":{"Thánh thất":"Thánh thất Tân Hòa","Địa chỉ":"Khóm 2, ấp Mỹ Thuận, phường Tân Ngãi","Người đại diện":null,"layer_id":362,"fid":1,"label":"Thánh thất Tân Hòa"}},{"type":"Feature","geometry":{"type":"Point","coordinates":[105.924455523,10.253960927]},"properties":{"Thánh thất":"Thánh thất Trường An","Địa chỉ":"Số 87, Khóm Tân Qưới Tây, phường Long Châu","Người đại diện":null,"layer_id":362,"fid":2,"label":"Thánh thất Trường An"}},{"type":"Feature","geometry":{"type":"Point","coordinates":[106.118866621,10.031820386]},"properties":{"Thánh thất":"Thánh thất Hiếu Thuận","Địa chỉ":"ấp Phú Cường, xã Hiếu Thuận","Người đại diện":null,"layer_id":362,"fid":3,"label":"Thánh thất Hiếu Thuận"}},{"type":"Feature","geometry":{"type":"Point","coordinates":[106.230460094,10.041361816]},"properties":{"Thánh thất":"Thánh thất Trung Nghĩa","Địa chỉ":"ấp Phú Ân, xã Trung Ngãi","Người đại diện":null,"layer_id":362,"fid":4,"label":"Thánh thất Trung Nghĩa"}},{"type":"Feature","geometry":{"type":"Point","coordinates":[106.243425636,10.097220393]},"properties":{"Thánh thất":"Thánh thất Thanh Bình","Địa chỉ":"ấp Thanh Khê, xã Thanh Bình","Người đại diện":null,"layer_id":362,"fid":5,"label":"Thánh thất Thanh Bình"}},{"type":"Feature","geometry":{"type":"Point","coordinates":[106.34159462,9.927404783]},"properties":{"Thánh thất":"VP Ban Đại Diện","Địa chỉ":"Khóm 4, Phường Trà Vinh","Người đại diện":"Giáo sư Thái Đức Thanh, Trưởng ban Đại diện","layer_id":362,"fid":6,"label":"VP Ban Đại Diện"}},{"type":"Feature","geometry":{"type":"Point","coordinates":[106.352449595,9.97031028]},"properties":{"Thánh thất":"Thánh thất Long Đức","Địa chỉ":"Ấp Vĩnh Yên, Phường Long Đức","Người đại diện":"Lễ sanh Ngọc Năng Thanh","layer_id":362,"fid":7,"label":"Thánh thất Long Đức"}},{"type":"Feature","geometry":{"type":"Point","coordinates":[106.341307473,9.923805089]},"properties":{"Thánh thất":"Thánh thất Phường 6","Địa chỉ":"Khóm 4, Phường Trà Vinh","Người đại diện":"Lễ sanh Ngọc Nghiệm Thanh","layer_id":362,"fid":8,"label":"Thánh thất Phường 6"}},{"type":"Feature","geometry":{"type":"Point","coordinates":[106.135213167,10.01879966]},"properties":{"Thánh thất":"Thánh thất  Mỹ Cẩm","Địa chỉ":"Số 5, xã Càng Long","Người đại diện":"  Giáo hữu Thái Sau Thanh","layer_id":362,"fid":9,"label":"Thánh thất  Mỹ Cẩm"}},{"type":"Feature","geometry":{"type":"Point","coordinates":[106.178669452,10.022445402]},"properties":{"Thánh thất":"Thánh thất Mỹ Cẩm","Địa chỉ":"Số 3, xã Càng Long","Người đại diện":" Giáo sư Thái Tươi Sanh","layer_id":362,"fid":10,"label":"Thánh thất Mỹ Cẩm"}},{"type":"Feature","geometry":{"type":"Point","coordinates":[106.245535608,10.061076867]},"properties":{"Thánh thất":"Thánh thất Đức Mỹ","Địa chỉ":"ấp Nhuận Điền, xã Nhị Long","Người đại diện":"Lễ sanh Thượng Thắng Thánh","layer_id":362,"fid":11,"label":"Thánh thất Đức Mỹ"}},{"type":"Feature","geometry":{"type":"Point","coordinates":[106.311435136,9.999733812]},"properties":{"Thánh thất":"Thánh thất Đại Phước","Địa chỉ":"ấp Nhị Hòa xã Nhị Long","Người đại diện":" Lễ sanh Thượng Định Thanh","layer_id":362,"fid":12,"label":"Thánh thất Đại Phước"}},{"type":"Feature","geometry":{"type":"Point","coordinates":[106.284001709,9.942339906]},"properties":{"Thánh thất":"Thánh thất Phương Thạnh","Địa chỉ":"ấp Giồng chùa, xã Bình Phú","Người đại diện":" Lễ sanh Ngọc Năm Thanh","layer_id":362,"fid":13,"label":"Thánh thất Phương Thạnh"}},{"type":"Feature","geometry":{"type":"Point","coordinates":[106.198189279,9.976463689]},"properties":{"Thánh thất":"Thánh thất An Trường","Địa chỉ":"ấp 3, xã An Trường","Người đại diện":" Lễ sanh Ngọc Kiến Thanh","layer_id":362,"fid":14,"label":"Thánh thất An Trường"}},{"type":"Feature","geometry":{"type":"Point","coordinates":[106.206942191,9.803401438]},"properties":{"Thánh thất":"Thánh thất TT Tiểu Cần","Địa chỉ":"Khóm 6, xã Tiểu Cần","Người đại diện":" Lễ sanh Ngọc Chọn Thanh","layer_id":362,"fid":15,"label":"Thánh thất TT Tiểu Cần"}},{"type":"Feature","geometry":{"type":"Point","coordinates":[106.205053508,9.764092145]},"properties":{"Thánh thất":"Thánh thất Hùng Hòa","Địa chỉ":"ấp Từ Ô, xã Hùng Hòa","Người đại diện":"Lễ sanh Ngọc Sắc Thanh","layer_id":362,"fid":16,"label":"Thánh thất Hùng Hòa"}},{"type":"Feature","geometry":{"type":"Point","coordinates":[106.162900294,9.765729484]},"properties":{"Thánh thất":"Thánh thất Tân Hòa","Địa chỉ":"ấp Nhơn Hòa, xã Tân Hòa","Người đại diện":"Lễ sanh Ngọc Tấn  Thanh","layer_id":362,"fid":17,"label":"Thánh thất Tân Hòa"}},{"type":"Feature","geometry":{"type":"Point","coordinates":[106.062577794,9.826045705]},"properties":{"Thánh thất":"Thánh thất Châu Điền","Địa chỉ":"Rùm Sóc xã Cầu Kè","Người đại diện":" Lễ sanh Thái Dũng Thanh","layer_id":362,"fid":18,"label":"Thánh thất Châu Điền"}},{"type":"Feature","geometry":{"type":"Point","coordinates":[106.127770854,9.852289073]},"properties":{"Thánh thất":"Thánh thất Phong Thạnh","Địa chỉ":"ấp 3, xã Phong Thạnh","Người đại diện":"Giáo hữu Thượng Tính Thanh","layer_id":362,"fid":19,"label":"Thánh thất Phong Thạnh"}},{"type":"Feature","geometry":{"type":"Point","coordinates":[106.061887008,9.822961264]},"properties":{"Thánh thất":"Thánh thất Ninh Thới","Địa chỉ":"ấp Trà Điêu, xã Phòng Thạnh","Người đại diện":"Giáo hữu Thượng Tảng Thanh","layer_id":362,"fid":20,"label":"Thánh thất Ninh Thới"}},{"type":"Feature","geometry":{"type":"Point","coordinates":[106.308314579,9.635411143]},"properties":{"Thánh thất":"Thánh thất Đại An","Địa chỉ":"ấp Trà Kha, xã Đại An","Người đại diện":"Lễ sanh Thái Phát Thanh","layer_id":362,"fid":21,"label":"Thánh thất Đại An"}},{"type":"Feature","geometry":{"type":"Point","coordinates":[106.574440408,9.677791704]},"properties":{"Thánh thất":"Thánh thất Trường Long Hòa","Địa chỉ":"Nhà Mát,  Phường Trường Long Hòa","Người đại diện":" Lễ sanh Ngọc Khón Thanh","layer_id":362,"fid":22,"label":"Thánh thất Trường Long Hòa"}},{"type":"Feature","geometry":{"type":"Point","coordinates":[106.503469652,9.694291974]},"properties":{"Thánh thất":"Thánh thất Long Hữu","Địa chỉ":"Khóm  1, Phường Trường Long Hòa","Người đại diện":" Lễ sanh Hương Liêm","layer_id":362,"fid":23,"label":"Thánh thất Long Hữu"}},{"type":"Feature","geometry":{"type":"Point","coordinates":[106.495084081,9.647682624]},"properties":{"Thánh thất":"Thánh thất Long Toàn","Địa chỉ":"Khóm 4, Phường Duyên hải","Người đại diện":"Giáo hữu Ngọc Các Thanh","layer_id":362,"fid":24,"label":"Thánh thất Long Toàn"}},{"type":"Feature","geometry":{"type":"Point","coordinates":[106.423947009,9.665500498]},"properties":{"Thánh thất":"Thánh thất Ngũ Lạc","Địa chỉ":"ấp Rọ Xây, xã Ngũ Lạc","Người đại diện":"Lễ sanh Ngọc Nghĩa Thanh","layer_id":362,"fid":25,"label":"Thánh thất Ngũ Lạc"}},{"type":"Feature","geometry":{"type":"Point","coordinates":[106.463940725,9.811970581]},"properties":{"Thánh thất":"Thánh thất Mỹ Hòa","Địa chỉ":"ấp Cẩm Hương, xã Cầu Ngang","Người đại diện":"Lễ sanh Hương Nương","layer_id":362,"fid":26,"label":"Thánh thất Mỹ Hòa"}},{"type":"Feature","geometry":{"type":"Point","coordinates":[106.506286121,9.808509642]},"properties":{"Thánh thất":"Thánh thất TT Mỹ Long","Địa chỉ":"Khóm2, xã Mỹ Long","Người đại diện":" Lễ sanh Thượng Ngộ Thanh","layer_id":362,"fid":27,"label":"Thánh thất TT Mỹ Long"}},{"type":"Feature","geometry":{"type":"Point","coordinates":[106.472918773,9.912637556]},"properties":{"Thánh thất":"Thánh thất Long Hòa","Địa chỉ":"Giồng Giá, xã Hòa Minh","Người đại diện":"Lễ sanh Thái Tư Thanh","layer_id":362,"fid":28,"label":"Thánh thất Long Hòa"}},{"type":"Feature","geometry":{"type":"Point","coordinates":[106.427134423,9.902576008]},"properties":{"Thánh thất":"Thánh thất Hưng Mỹ","Địa chỉ":"Bãi Vàng, xã Hưng Mỹ","Người đại diện":"Lễ sanhThái Lành Thanh","layer_id":362,"fid":29,"label":"Thánh thất Hưng Mỹ"}},{"type":"Feature","geometry":{"type":"Point","coordinates":[106.402563408,9.876621227]},"properties":{"Thánh thất":"Thánh thất Phước Hảo","Địa chỉ":"ấp Đa Hậu, xã Hưng Mỹ","Người đại diện":"Lễ sanh Thái  Hùng Thanh","layer_id":362,"fid":30,"label":"Thánh thất Phước Hảo"}},{"type":"Feature","geometry":{"type":"Point","coordinates":[106.348817309,9.866487813]},"properties":{"Thánh thất":"Thánh thất Đa Lộc","Địa chỉ":"Khóm 2, xã Châu Thành","Người đại diện":"Lễ sanh Thượng Nguyệt Thanh","layer_id":362,"fid":31,"label":"Thánh thất Đa Lộc"}},{"type":"Feature","geometry":{"type":"Point","coordinates":[106.286296735,10.241201985]},"properties":{"Thánh thất":"Thánh thất \nThạnh Ngãi","Địa chỉ":"ấp Ông Thung,  xã Phước Mỹ Trung","Người đại diện":"Lễ sanh\nThái Muôn Thanh","layer_id":362,"fid":32,"label":"Thánh thất \nThạnh Ngãi"}},{"type":"Feature","geometry":{"type":"Point","coordinates":[106.270189436,10.195792697]},"properties":{"Thánh thất":"Thánh thất\nPhước Mỹ Trung","Địa chỉ":"ấp Phước Hậu, xã Phước Mỹ Trung","Người đại diện":"Nguyễn Văn Tốt","layer_id":362,"fid":33,"label":"Thánh thất\nPhước Mỹ Trung"}},{"type":"Feature","geometry":{"type":"Point","coordinates":[106.330041579,10.204172781]},"properties":{"Thánh thất":"Thánh thất \nTân Thành Bình","Địa chỉ":"ấp Chợ Xếp, xã Tân Thành Bình","Người đại diện":"Lễ sanh\nThái Lạc Thanh","layer_id":362,"fid":34,"label":"Thánh thất \nTân Thành Bình"}},{"type":"Feature","geometry":{"type":"Point","coordinates":[106.252644536,10.133554774]},"properties":{"Thánh thất":"Thánh thất \nNhuận Phú Tân","Địa chỉ":"ấp Giồng Nâu, xã Nhuận Phú Tân","Người đại diện":"Lễ sanh\nThượng Lâm Thanh","layer_id":362,"fid":35,"label":"Thánh thất \nNhuận Phú Tân"}},{"type":"Feature","geometry":{"type":"Point","coordinates":[106.443219023,10.268369246]},"properties":{"Thánh thất":"Thánh thất Cai đài Ban Chỉnh Long Hòa","Địa chỉ":"Ấp Long Thạnh, xã Châu Hưng","Người đại diện":"Lễ sanh Ngọc Nhàn Thanh","layer_id":362,"fid":36,"label":"Thánh thất Cai đài Ban Chỉnh Long Hòa"}},{"type":"Feature","geometry":{"type":"Point","coordinates":[106.699321106,10.134393966]},"properties":{"Thánh thất":"Thánh thất Cai đài Ban Chỉnh Thạnh Phước","Địa chỉ":"ấp Tân Bình, xã Thạnh Phước","Người đại diện":"Lễ sanh Thượng Phục Thanh","layer_id":362,"fid":37,"label":"Thánh thất Cai đài Ban Chỉnh Thạnh Phước"}},{"type":"Feature","geometry":{"type":"Point","coordinates":[106.544952236,10.03481902]},"properties":{"Thánh thất":"Thánh thất CĐBC xã An Hiệp","Địa chỉ":"Ấp An Hòa, xã An Hiệp","Người đại diện":"Võ Văn Tiến","layer_id":362,"fid":38,"label":"Thánh thất CĐBC xã An Hiệp"}},{"type":"Feature","geometry":{"type":"Point","coordinates":[106.367780809,10.310441346]},"properties":{"Thánh thất":"Thánh thất CĐBC xã Tân Thạch","Địa chỉ":"Ấp Tân Quới Nội, xã Phú Túc","Người đại diện":"Giáo hữu \nThái Cẩm Thanh","layer_id":362,"fid":39,"label":"Thánh thất CĐBC xã Tân Thạch"}},{"type":"Feature","geometry":{"type":"Point","coordinates":[106.211190654,10.273116966]},"properties":{"Thánh thất":"Thánh thất CĐBC xã Tiên Long","Địa chỉ":"Ấp Tiên Hưng, xã Tân Phú","Người đại diện":"Lễ sanh Nguyễn Văn Lâm","layer_id":362,"fid":40,"label":"Thánh thất CĐBC xã Tiên Long"}},{"type":"Feature","geometry":{"type":"Point","coordinates":[106.186405465,10.267970262]},"properties":{"Thánh thất":"Thánh thất CĐBC Tân Phú I ","Địa chỉ":"Ấp Tân Nam, xã Tân Phú","Người đại diện":"Nguyễn Văn Lách ","layer_id":362,"fid":41,"label":"Thánh thất CĐBC Tân Phú I "}},{"type":"Feature","geometry":{"type":"Point","coordinates":[106.190545116,10.262820684]},"properties":{"Thánh thất":"Thánh thất CĐBC Tân Phú II ","Địa chỉ":"Ấp Mỹ Phú, xã Tân Phú","Người đại diện":"Đầu họ đạo Nguyễn Văn Hai ","layer_id":362,"fid":42,"label":"Thánh thất CĐBC Tân Phú II "}},{"type":"Feature","geometry":{"type":"Point","coordinates":[106.425031921,10.258455721]},"properties":{"Thánh thất":"Thánh thất  CĐBC Hữu Định I\n","Địa chỉ":"Ấp Phú Hữu, xã Hữu Định","Người đại diện":"Lễ sanh Thái Hồng Thanh","layer_id":362,"fid":43,"label":"Thánh thất  CĐBC Hữu Định I\n"}},{"type":"Feature","geometry":{"type":"Point","coordinates":[106.359074949,10.274520044]},"properties":{"Thánh thất":"Thánh thất CĐBC Hữu Định 4","Địa chỉ":"Ấp Đại Định, xã Hữu Định","Người đại diện":"Lễ sanh Thượng Muôn Thanh\n","layer_id":362,"fid":44,"label":"Thánh thất CĐBC Hữu Định 4"}},{"type":"Feature","geometry":{"type":"Point","coordinates":[106.241058053,10.264657708]},"properties":{"Thánh thất":"Thánh thất CĐBC xã Tiên Thủy\n","Địa chỉ":"Ấp Tiên Đông Thượng, xã Tiên Thủy","Người đại diện":"Giáo hữu Thượng Ri Thanh","layer_id":362,"fid":45,"label":"Thánh thất CĐBC xã Tiên Thủy\n"}},{"type":"Feature","geometry":{"type":"Point","coordinates":[106.310295165,10.079077449]},"properties":{"Thánh thất":"TT CĐBC  Tâm Thành","Địa chỉ":"ấp Thới Hòa, xã Thành Thới A","Người đại diện":"Võ Văn Thưởng","layer_id":362,"fid":46,"label":"TT CĐBC  Tâm Thành"}},{"type":"Feature","geometry":{"type":"Point","coordinates":[106.324452843,10.068311649]},"properties":{"Thánh thất":"TT CĐBC Thành Thới","Địa chỉ":"ấp Thới Hòa, xã Thành Thới A","Người đại diện":"Trần Tấn Đời","layer_id":362,"fid":47,"label":"TT CĐBC Thành Thới"}},{"type":"Feature","geometry":{"type":"Point","coordinates":[106.360977252,10.154473127]},"properties":{"Thánh thất":"TT CĐBC Thanh Hưng","Địa chỉ":"ấp Thanh Hưng, xã Đồng Khởi","Người đại diện":"LS\n Thượng Đèo Thanh","layer_id":362,"fid":48,"label":"TT CĐBC Thanh Hưng"}},{"type":"Feature","geometry":{"type":"Point","coordinates":[106.381294029,10.088204518]},"properties":{"Thánh thất":"TT CĐBC An Định","Địa chỉ":" Phú Lợi Thượng, xã An Định","Người đại diện":"Giáo hữu \nThái Năng Thanh","layer_id":362,"fid":49,"label":"TT CĐBC An Định"}},{"type":"Feature","geometry":{"type":"Point","coordinates":[106.397623109,10.018869473]},"properties":{"Thánh thất":"TT CĐBC Hương \nMỹ","Địa chỉ":"Xã Quới An","Người đại diện":"Nguyễn Công Chính","layer_id":362,"fid":50,"label":"TT CĐBC Hương \nMỹ"}},{"type":"Feature","geometry":{"type":"Point","coordinates":[106.362070923,10.018861138]},"properties":{"Thánh thất":"TT CĐBC Cẩm Sơn","Địa chỉ":"ấp Nhuận Trạch, xã Hương Mỹ","Người đại diện":"LS. Võ Phúc Thanh","layer_id":362,"fid":51,"label":"TT CĐBC Cẩm Sơn"}},{"type":"Feature","geometry":{"type":"Point","coordinates":[106.398245379,10.13541795]},"properties":{"Thánh thất":"Thánh thất Hưng Phong","Địa chỉ":"Ấp 3, xã Phước Long","Người đại diện":"Lễ sanh Thượng Mót Thanh","layer_id":362,"fid":52,"label":"Thánh thất Hưng Phong"}},{"type":"Feature","geometry":{"type":"Point","coordinates":[106.505813421,10.206094308]},"properties":{"Thánh thất":"Thánh thất Châu Hòa","Địa chỉ":"Ấp Thới Hòa, xã Châu Hòa","Người đại diện":"Lễ sanh Thái Nhân Thanh","layer_id":362,"fid":53,"label":"Thánh thất Châu Hòa"}},{"type":"Feature","geometry":{"type":"Point","coordinates":[106.52923659,10.199525522]},"properties":{"Thánh thất":"Thánh thất Châu Bình","Địa chỉ":"Ấp Bình Phú, xã Châu Hòa","Người đại diện":"Lễ sanh Ngọc Dứt Thanh","layer_id":362,"fid":54,"label":"Thánh thất Châu Bình"}},{"type":"Feature","geometry":{"type":"Point","coordinates":[106.491453467,10.117869696]},"properties":{"Thánh thất":"Thánh thất Tân Thanh","Địa chỉ":"Ấp An Thuận, xã Nhuận Phú Tân","Người đại diện":"Phan Văn Rừng","layer_id":362,"fid":55,"label":"Thánh thất Tân Thanh"}},{"type":"Feature","geometry":{"type":"Point","coordinates":[106.442018963,10.188941906]},"properties":{"Thánh thất":"Thánh thất Lương Phú","Địa chỉ":"Ấp Phụng Ngoại, xã Lương Phú","Người đại diện":"Lễ sanh Ngọc Tây Thanh","layer_id":362,"fid":56,"label":"Thánh thất Lương Phú"}},{"type":"Feature","geometry":{"type":"Point","coordinates":[106.517976521,10.152764624]},"properties":{"Thánh thất":"Thánh thất Bình Hòa","Địa chỉ":"Khu phố 3, xã Giồng Trôm","Người đại diện":"khuyết","layer_id":362,"fid":57,"label":"Thánh thất Bình Hòa"}},{"type":"Feature","geometry":{"type":"Point","coordinates":[106.435120835,10.224667107]},"properties":{"Thánh thất":"Thánh Thất Mỹ Thạnh","Địa chỉ":"Ấp Căn Cứ, xã Mỹ Thạnh","Người đại diện":"Giáo hữu Thượng Lộc Thanh","layer_id":362,"fid":58,"label":"Thánh Thất Mỹ Thạnh"}},{"type":"Feature","geometry":{"type":"Point","coordinates":[106.466095938,10.241117548]},"properties":{"Thánh thất":"Thánh thất Phong Mỹ","Địa chỉ":"Ấp Phong Quới, xã Phong Nẫm","Người đại diện":"Giáo sư Ngọc Phát Thanh","layer_id":362,"fid":59,"label":"Thánh thất Phong Mỹ"}},{"type":"Feature","geometry":{"type":"Point","coordinates":[106.446877865,10.246862287]},"properties":{"Thánh thất":"Thánh Thất Phong Nẫm","Địa chỉ":"Ấp Kinh Cũ, xã Phong Nẫm","Người đại diện":"Lễ sanh Thượng Thiện Thanh","layer_id":362,"fid":60,"label":"Thánh Thất Phong Nẫm"}},{"type":"Feature","geometry":{"type":"Point","coordinates":[106.490557954,10.088250946]},"properties":{"Thánh thất":"Thánh thất Hưng Nhượng","Địa chỉ":"Ấp Hưng Hòa Đông, xã Hưng Nhượng","Người đại diện":"Quản đầu họ đạo Ngọc Lượng Thanh","layer_id":362,"fid":61,"label":"Thánh thất Hưng Nhượng"}},{"type":"Feature","geometry":{"type":"Point","coordinates":[106.391040809,10.213571902]},"properties":{"Thánh thất":"Ban Nghi lễ Cao đài Ban chỉnh đạo xã Sơn Phú","Địa chỉ":"Ấp Tân Điền II, xã Phường An Hội","Người đại diện":"Lễ sanh Thượng Thanh Thanh","layer_id":362,"fid":62,"label":"Ban Nghi lễ Cao đài Ban chỉnh đạo xã Sơn Phú"}},{"type":"Feature","geometry":{"type":"Point","coordinates":[106.430826192,9.985926181]},"properties":{"Thánh thất":"Thánh thất CĐ \nxã Thới Thạnh","Địa chỉ":"ấp Xương Thạnh A, xã Đại Điền","Người đại diện":"Lễ sanh \nThượng Khoa Thanh","layer_id":362,"fid":63,"label":"Thánh thất CĐ \nxã Thới Thạnh"}},{"type":"Feature","geometry":{"type":"Point","coordinates":[106.518417055,9.941576423]},"properties":{"Thánh thất":"Thánh thất CĐ \nxã Bình Thạnh","Địa chỉ":"ấp Thạnh Lợi, xã Thạnh Phú","Người đại diện":"Lễ sanh \nThái Thuấn Thanh","layer_id":362,"fid":64,"label":"Thánh thất CĐ \nxã Bình Thạnh"}},{"type":"Feature","geometry":{"type":"Point","coordinates":[106.540648594,9.9581356]},"properties":{"Thánh thất":"Thánh thất CĐ \nxã An Thạnh","Địa chỉ":"ấp An Thạnh, xã Mỏ Cày","Người đại diện":"Lễ sanh \nThái Đức Thanh","layer_id":362,"fid":65,"label":"Thánh thất CĐ \nxã An Thạnh"}},{"type":"Feature","geometry":{"type":"Point","coordinates":[106.609039361,9.982228112]},"properties":{"Thánh thất":"Thánh thất CĐ \nxã An Thuận","Địa chỉ":"ấp An Khương, xã Mỏ Cày","Người đại diện":"Lễ sanh \nThái Tát Thanh","layer_id":362,"fid":66,"label":"Thánh thất CĐ \nxã An Thuận"}},{"type":"Feature","geometry":{"type":"Point","coordinates":[106.560787223,9.913499375]},"properties":{"Thánh thất":"Thánh thất CĐ \nxã An Qui","Địa chỉ":"ấp An Bình, xã An Qui","Người đại diện":"Chức việc\nBùi Văn Vinh","layer_id":362,"fid":67,"label":"Thánh thất CĐ \nxã An Qui"}},{"type":"Feature","geometry":{"type":"Point","coordinates":[106.582193567,9.893587199]},"properties":{"Thánh thất":"Thánh thất CĐ \nxã An Nhơn","Địa chỉ":"ấp An Hòa, xã An Nhơn","Người đại diện":"Lễ sanh \nThái Phổ Thanh","layer_id":362,"fid":68,"label":"Thánh thất CĐ \nxã An Nhơn"}},{"type":"Feature","geometry":{"type":"Point","coordinates":[106.611306625,9.878281425]},"properties":{"Thánh thất":"Thánh thất CĐ \nxã Giao Thạnh","Địa chỉ":"ấp Giao Hòa A, xã Giao Thạnh","Người đại diện":"Giáo hữu \nThái Ích Thanh","layer_id":362,"fid":69,"label":"Thánh thất CĐ \nxã Giao Thạnh"}},{"type":"Feature","geometry":{"type":"Point","coordinates":[106.615858809,9.842428925]},"properties":{"Thánh thất":"Thánh thất CĐ \nxã Thạnh Phong","Địa chỉ":"ấp Thạnh Phước, xã Thạnh Phong","Người đại diện":"Giáo hữu \nNgọc Sách Thanh","layer_id":362,"fid":70,"label":"Thánh thất CĐ \nxã Thạnh Phong"}},{"type":"Feature","geometry":{"type":"Point","coordinates":[106.36868675,10.24138248]},"properties":{"Thánh thất":"Tòa thánh Bến Tre","Địa chỉ":"Đường Trương Định , Khu phố Bình Thắng, Phường Bến Tre","Người đại diện":"Chánh phối sư Ngọc Phụ Thanh","layer_id":362,"fid":71,"label":"Tòa thánh Bến Tre"}},{"type":"Feature","geometry":{"type":"Point","coordinates":[106.367840879,10.241408274]},"properties":{"Thánh thất":"Dưỡng đường","Địa chỉ":"Đường Trương Định, Khu phố Bình Thắng, Phường Bến Tre","Người đại diện":"Giáo sư Ngọc Phát Thanh","layer_id":362,"fid":72,"label":"Dưỡng đường"}},{"type":"Feature","geometry":{"type":"Point","coordinates":[106.367081765,10.242685447]},"properties":{"Thánh thất":"Nhà tu Trung thừa nữ","Địa chỉ":"Đường Trương Định, Khu phố Bình Nghĩa, Phường Bến Tre","Người đại diện":"Giáo sư Hương Diệu","layer_id":362,"fid":73,"label":"Nhà tu Trung thừa nữ"}},{"type":"Feature","geometry":{"type":"Point","coordinates":[106.367976854,10.242768358]},"properties":{"Thánh thất":"Thảo xá Hiền cung","Địa chỉ":"Đường Trương Định, Khu phố, phường Bến Tre","Người đại diện":"Phối sư","layer_id":362,"fid":74,"label":"Thảo xá Hiền cung"}},{"type":"Feature","geometry":{"type":"Point","coordinates":[106.366649996,10.246385571]},"properties":{"Thánh thất":"Nhà tu Trung thừa nam","Địa chỉ":"Đường Trương Định, Khu phố Bình Nghĩa, Phường Bến Tre","Người đại diện":"Giáo sư Ngọc Thới Thanh","layer_id":362,"fid":75,"label":"Nhà tu Trung thừa nam"}},{"type":"Feature","geometry":{"type":"Point","coordinates":[106.366628538,10.246375014]},"properties":{"Thánh thất":"Nhà tu Thượng thừa nam","Địa chỉ":"Đường Trương Định, Khu phố Bình Nghĩa, Phường Bến Tre","Người đại diện":"Phối sư Thái Thới Thanh","layer_id":362,"fid":76,"label":"Nhà tu Thượng thừa nam"}},{"type":"Feature","geometry":{"type":"Point","coordinates":[106.365860696,10.245959014]},"properties":{"Thánh thất":"Tịnh xá Đầu sư đường","Địa chỉ":"Đường Trương Định, Khu phố Bình Nghĩa, Phường Bến Tre","Người đại diện":"Chánh phối sư Thái Phèn Thanh","layer_id":362,"fid":77,"label":"Tịnh xá Đầu sư đường"}},{"type":"Feature","geometry":{"type":"Point","coordinates":[106.368792852,10.24111879]},"properties":{"Thánh thất":" Từ đường Đức Giáo Tông Nguyễn Ngọc Tương","Địa chỉ":"Đường Hùng Vương, Phường Bến Tre","Người đại diện":"Gia đình ông Nguyễn Ngọc Tâm","layer_id":362,"fid":78,"label":" Từ đường Đức Giáo Tông Nguyễn Ngọc Tương"}},{"type":"Feature","geometry":{"type":"Point","coordinates":[106.362621679,10.25882448]},"properties":{"Thánh thất":" Nhà tu Trung thừa Phú Khương","Địa chỉ":"Số 197A2,  khu phố 3, Phường Phú Tân","Người đại diện":"Lễ sanh Thượng Hà Thanh","layer_id":362,"fid":79,"label":" Nhà tu Trung thừa Phú Khương"}},{"type":"Feature","geometry":{"type":"Point","coordinates":[106.349097025,10.237043544]},"properties":{"Thánh thất":"Thánh thất Bình Phú (Họ đạo Bình Phú)","Địa chỉ":"Ấp Bình Thành, phường Bến Tre","Người đại diện":"Lễ sanh Hương A","layer_id":362,"fid":80,"label":"Thánh thất Bình Phú (Họ đạo Bình Phú)"}},{"type":"Feature","geometry":{"type":"Point","coordinates":[106.355871685,10.224405513]},"properties":{"Thánh thất":"Thánh thất Mỹ An (Họ đạo Mỹ An)","Địa chỉ":"Ấp Mỹ An B, Phường An Hội","Người đại diện":"Lễ sanh\nHương Tiếng","layer_id":362,"fid":81,"label":"Thánh thất Mỹ An (Họ đạo Mỹ An)"}},{"type":"Feature","geometry":{"type":"Point","coordinates":[106.390976436,10.213402961]},"properties":{"Thánh thất":"Ban Nghi lễ Nhơn Thạnh","Địa chỉ":"Ấp Nhơn Nghĩa, phường Phú Khương","Người đại diện":"Lễ sanh Trần Văn Xê","layer_id":362,"fid":82,"label":"Ban Nghi lễ Nhơn Thạnh"}},{"type":"Feature","geometry":{"type":"Point","coordinates":[106.62128815,10.008314639]},"properties":{"Thánh thất":"Thánh Thất CĐ Tân Thuỷ","Địa chỉ":"Ấp Tân Bình, xã Tân Thuỷ","Người đại diện":"Bùi Văn Hoà","layer_id":362,"fid":83,"label":"Thánh Thất CĐ Tân Thuỷ"}},{"type":"Feature","geometry":{"type":"Point","coordinates":[106.544930779,10.034787325]},"properties":{"Thánh thất":"Thánh thất An Hiệp","Địa chỉ":"Ấp Giồng Lớn,  xã An Hiệp","Người đại diện":"Ngọc Chính Thanh","layer_id":362,"fid":84,"label":"Thánh thất An Hiệp"}},{"type":"Feature","geometry":{"type":"Point","coordinates":[106.657255852,10.062311939]},"properties":{"Thánh thất":"Thánh thất CĐ Bảo Thuận","Địa chỉ":"Ấp Thạnh Lễ, xã Bảo Thạnh","Người đại diện":"Nguyễn Văn Dưỡng","layer_id":362,"fid":85,"label":"Thánh thất CĐ Bảo Thuận"}},{"type":"Feature","geometry":{"type":"Point","coordinates":[106.619500779,10.1269688]},"properties":{"Thánh thất":"Thánh thất CĐ Tân Xuân","Địa chỉ":"Ấp Tân Hoà, xã Tân Xuân","Người đại diện":"Nguyễn Văn Nhiễm","layer_id":362,"fid":86,"label":"Thánh thất CĐ Tân Xuân"}},{"type":"Feature","geometry":{"type":"Point","coordinates":[106.604110065,10.061058103]},"properties":{"Thánh thất":"Thánh thất CĐBC Phú Lễ","Địa chỉ":"Ấp Phú Khương, xã Tân Xuân","Người đại diện":"(chưa hoàn nguyên)","layer_id":362,"fid":87,"label":"Thánh thất CĐBC Phú Lễ"}},{"type":"Feature","geometry":{"type":"Point","coordinates":[106.568711292,10.093048446]},"properties":{"Thánh thất":"Thánh thất CĐBC Mỹ Thạnh","Địa chỉ":"Ấp Mỹ Thuận, xã An Ngãi trung","Người đại diện":"Thượng Kiệt Thanh","layer_id":362,"fid":88,"label":"Thánh thất CĐBC Mỹ Thạnh"}},{"type":"Feature","geometry":{"type":"Point","coordinates":[106.541460567,10.073165705]},"properties":{"Thánh thất":"Thánh thất CĐ An Ngãi Trung","Địa chỉ":"Ấp An Định 2, xã An Ngãi Trung","Người đại diện":"Bùi Thị Bạch Mai","layer_id":362,"fid":89,"label":"Thánh thất CĐ An Ngãi Trung"}},{"type":"Feature","geometry":{"type":"Point","coordinates":[106.626763981,10.041679557]},"properties":{"Thánh thất":"Thánh thất Vĩnh Hoà","Địa chỉ":"Ấp Bảo Hoà, xã Hưng Khánh Trung","Người đại diện":"Nguyễn Văn Nghiệp","layer_id":362,"fid":90,"label":"Thánh thất Vĩnh Hoà"}},{"type":"Feature","geometry":{"type":"Point","coordinates":[106.627318223,10.094104206]},"properties":{"Thánh thất":"Thánh thất Phước Tuy","Địa chỉ":"Ấp Phước Thới, xã Phước Ngãi","Người đại diện":null,"layer_id":362,"fid":91,"label":"Thánh thất Phước Tuy"}},{"type":"Feature","geometry":{"type":"Point","coordinates":[106.628744523,10.084054173]},"properties":{"Thánh thất":"Thánh thất Phú Ngãi","Địa chỉ":"Ấp Phú Thuận, xã Phước Ngãi","Người đại diện":"(chưa hoàn nguyên)","layer_id":362,"fid":92,"label":"Thánh thất Phú Ngãi"}},{"type":"Feature","geometry":{"type":"Point","coordinates":[106.587855308,10.044756656]},"properties":{"Thánh thất":"Thánh thất An Đức","Địa chỉ":"xã Ba Tri","Người đại diện":"Phạm Văn Hiệp","layer_id":362,"fid":93,"label":"Thánh thất An Đức"}},{"type":"Feature","geometry":{"type":"Point","coordinates":[106.610201989,9.985102113]},"properties":{"Thánh thất":"Thánh thất CĐ An Thuỷ","Địa chỉ":"Ấp An Thuận, xã Ba Tri","Người đại diện":"Trần Công Huấn","layer_id":362,"fid":94,"label":"Thánh thất CĐ An Thuỷ"}},{"type":"Feature","geometry":{"type":"Point","coordinates":[106.590597494,10.05088286]},"properties":{"Thánh thất":"Thánh thất CĐBC An Bình Tây","Địa chỉ":"Ấp An Lợi, xã Ba Tri","Người đại diện":"Thái Thanh Thanh","layer_id":362,"fid":95,"label":"Thánh thất CĐBC An Bình Tây"}},{"type":"Feature","geometry":{"type":"Point","coordinates":[106.594006016,10.122745555]},"properties":{"Thánh thất":"Cao đài BC Mỹ Nhơn","Địa chỉ":"Ấp Nhơn Quới, xã Mỹ Chánh Hòa","Người đại diện":"Trà Văn Lực","layer_id":362,"fid":96,"label":"Cao đài BC Mỹ Nhơn"}},{"type":"Feature","geometry":{"type":"Point","coordinates":[106.148074725,10.253850674]},"properties":{"Thánh thất":"Thánh thất Cao đài Ban chỉnh Hòa Nghĩa","Địa chỉ":"xã Chợ Lách","Người đại diện":"Đặng Thanh Phong GH Thái Phong Thanh","layer_id":362,"fid":97,"label":"Thánh thất Cao đài Ban chỉnh Hòa Nghĩa"}},{"type":"Feature","geometry":{"type":"Point","coordinates":[106.204750383,10.218322566]},"properties":{"Thánh thất":"Thánh thất thất Cao đài Ban Chỉnh Long Thới","Địa chỉ":"xã Chợ Lách","Người đại diện":"Nguyễn Hoàng Thọ (Lễ sanh Thái Thọ Thanh)","layer_id":362,"fid":98,"label":"Thánh thất thất Cao đài Ban Chỉnh Long Thới"}},{"type":"Feature","geometry":{"type":"Point","coordinates":[106.122835549,10.255891577]},"properties":{"Thánh thất":"Thánh thất thất Cao đài Ban Chỉnh thị trấn Chợ Lách","Địa chỉ":"xã Chợ Lách","Người đại diện":"Nguyễn Văn Ba (Lễ sanh Thượng Ba Thanh)","layer_id":362,"fid":99,"label":"Thánh thất thất Cao đài Ban Chỉnh thị trấn Chợ Lách"}},{"type":"Feature","geometry":{"type":"Point","coordinates":[106.215510102,10.166814952]},"properties":{"Thánh thất":"Thánh thất Cao đài Ban Chỉnh Hưng Khánh Trung B","Địa chỉ":"xã Hưng Khánh Trung ","Người đại diện":"Nguyễn Văn Thái (Lễ sanh Ngọc Thái Thanh)","layer_id":362,"fid":100,"label":"Thánh thất Cao đài Ban Chỉnh Hưng Khánh Trung B"}}]}
