{"type":"FeatureCollection","name":"Tin lành","metadata":{"source":"https://hatang.vinhlong.gov.vn/","downloaded_at":"2026-07-20T01:19:15+00:00","layer_id":363,"layer_name":"Tin lành","catalog_endpoints":["/map/publicLayers2?inputs=sodttg"],"requested_bbox":[104.0,8.0,108.0,12.0],"tile_size":0.0,"tile_count":1,"tile_errors":[],"feature_count":36,"coordinate_order":"x,y (thường là longitude,latitude theo cấu hình EPSG:4326 của WebGIS)"},"features":[{"type":"Feature","geometry":{"type":"Point","coordinates":[105.960892479,10.256741449]},"properties":{"Nhà thờ":"Nhà thờ - Chi hội Vĩnh Long","Địa chỉ":"276 Phạm Hùng, Phường Phước Hậu","Người đại diện đơn vị":null,"layer_id":363,"fid":1,"label":"Nhà thờ - Chi hội Vĩnh Long"}},{"type":"Feature","geometry":{"type":"Point","coordinates":[106.007326562,10.200370591]},"properties":{"Nhà thờ":"Nhà thờ - Chi hội Long Hồ","Địa chỉ":"khóm 4, xã Long Hồ","Người đại diện đơn vị":null,"layer_id":363,"fid":2,"label":"Nhà thờ - Chi hội Long Hồ"}},{"type":"Feature","geometry":{"type":"Point","coordinates":[105.996979225,10.307898558]},"properties":{"Nhà thờ":"Nhà thờ - Chi hội Đồng Phú","Địa chỉ":"ấp Thuận Long, xã An Bình","Người đại diện đơn vị":null,"layer_id":363,"fid":3,"label":"Nhà thờ - Chi hội Đồng Phú"}},{"type":"Feature","geometry":{"type":"Point","coordinates":[105.968606436,10.29690915]},"properties":{"Nhà thờ":"Nhà thờ - Chi hội Hòa Ninh","Địa chỉ":"71/3, Âấp Hòa Lợi, xã An Bình","Người đại diện đơn vị":null,"layer_id":363,"fid":4,"label":"Nhà thờ - Chi hội Hòa Ninh"}},{"type":"Feature","geometry":{"type":"Point","coordinates":[105.921471021,10.163986476]},"properties":{"Nhà thờ":"Nhà thờ - Chi hội Phú Quới","Địa chỉ":"ấp Phú Long, xã Phú Quới","Người đại diện đơn vị":null,"layer_id":363,"fid":5,"label":"Nhà thờ - Chi hội Phú Quới"}},{"type":"Feature","geometry":{"type":"Point","coordinates":[105.924580696,9.968475459]},"properties":{"Nhà thờ":"Nhà thờ - Chi hội Trà Ôn","Địa chỉ":"ấp Mỹ Phó, xã Trà Ôn","Người đại diện đơn vị":null,"layer_id":363,"fid":6,"label":"Nhà thờ - Chi hội Trà Ôn"}},{"type":"Feature","geometry":{"type":"Point","coordinates":[105.898761309,10.116005883]},"properties":{"Nhà thờ":"Nhà thờ - Chi hội Song Phú","Địa chỉ":"âp Phú Trường, xã Song Phú","Người đại diện đơn vị":null,"layer_id":363,"fid":7,"label":"Nhà thờ - Chi hội Song Phú"}},{"type":"Feature","geometry":{"type":"Point","coordinates":[105.973096536,10.111219288]},"properties":{"Nhà thờ":"Nhà thờ - Chi hội Mỹ Lộc","Địa chỉ":"âp 8, xã Cái Nhum","Người đại diện đơn vị":null,"layer_id":363,"fid":8,"label":"Nhà thờ - Chi hội Mỹ Lộc"}},{"type":"Feature","geometry":{"type":"Point","coordinates":[105.822552665,10.068609299]},"properties":{"Nhà thờ":"Nhà thờ - Chi hội Bình Minh","Địa chỉ":"khóm 2, phường Cái Vồn","Người đại diện đơn vị":null,"layer_id":363,"fid":9,"label":"Nhà thờ - Chi hội Bình Minh"}},{"type":"Feature","geometry":{"type":"Point","coordinates":[105.778716234,10.085039616]},"properties":{"Nhà thờ":"Nhà thờ - Chi hội Thành Lợi","Địa chỉ":"ấp Thành Tâm, xã Tân Quới","Người đại diện đơn vị":null,"layer_id":363,"fid":10,"label":"Nhà thờ - Chi hội Thành Lợi"}},{"type":"Feature","geometry":{"type":"Point","coordinates":[105.783804418,10.170343432]},"properties":{"Nhà thờ":"Nhà thờ - Chi hội Thành Trung","Địa chỉ":"xã Thành Trung, xã Mỹ Thuận","Người đại diện đơn vị":null,"layer_id":363,"fid":11,"label":"Nhà thờ - Chi hội Thành Trung"}},{"type":"Feature","geometry":{"type":"Point","coordinates":[106.334563115,9.931921293]},"properties":{"Nhà thờ":"Nhà thờ Tin lành Trà Vinh","Địa chỉ":"Khóm 6, Phường Nguyệt Hóa","Người đại diện đơn vị":"Mục sư Tô Văn Minh (Quản nhiệm Chi hội Tin Lành phường 7)","layer_id":363,"fid":12,"label":"Nhà thờ Tin lành Trà Vinh"}},{"type":"Feature","geometry":{"type":"Point","coordinates":[106.260991281,9.701969011]},"properties":{"Nhà thờ":"Nhà thờ Tin lành Trà Cú","Địa chỉ":"Khóm 5, xã Trà Cú","Người đại diện đơn vị":"Mục sư Nhiệm chức Liêu Thanh Bình","layer_id":363,"fid":13,"label":"Nhà thờ Tin lành Trà Cú"}},{"type":"Feature","geometry":{"type":"Point","coordinates":[106.374237623,9.654618621]},"properties":{"Nhà thờ":"Chi Hội Tin lành Đôn Châu","Địa chỉ":"ấp Bà Nhì, xã Đôn Châu","Người đại diện đơn vị":"Mục sư Nguyễn Văn Điện","layer_id":363,"fid":14,"label":"Chi Hội Tin lành Đôn Châu"}},{"type":"Feature","geometry":{"type":"Point","coordinates":[106.300986614,10.248037366]},"properties":{"Nhà thờ":"Điểm nhóm Tin lành Thanh Tân/Việt Nam (Miền Nam)","Địa chỉ":"ấp Thanh Xuân 1, xã Thanh Tân","Người đại diện đơn vị":"Truyền đạo. Nguyễn Thế Hiển","layer_id":363,"fid":15,"label":"Điểm nhóm Tin lành Thanh Tân/Việt Nam (Miền Nam)"}},{"type":"Feature","geometry":{"type":"Point","coordinates":[106.686214993,10.201647543]},"properties":{"Nhà thờ":"Chi hội Tin lành Thị trấn Bình Đại","Địa chỉ":"ấp Bình Chiến, xã Bình Đại","Người đại diện đơn vị":"Mục sư Đỗ Văn Ba","layer_id":363,"fid":16,"label":"Chi hội Tin lành Thị trấn Bình Đại"}},{"type":"Feature","geometry":{"type":"Point","coordinates":[106.600407896,10.233841904]},"properties":{"Nhà thờ":"Chi hội Tin lành Lộc Thuận","Địa chỉ":"ấp Lộc Thành, xã Lộc Thuận","Người đại diện đơn vị":"Mục sư Phạm Thanh Quang Vinh","layer_id":363,"fid":17,"label":"Chi hội Tin lành Lộc Thuận"}},{"type":"Feature","geometry":{"type":"Point","coordinates":[106.543365701,10.255608585]},"properties":{"Nhà thờ":"Điểm nhóm Tin lành xã Vang Quới Tây","Địa chỉ":"ấp Vinh Thái, xã Vang Quới Tây","Người đại diện đơn vị":"Truyền đạo K' Chanh","layer_id":363,"fid":18,"label":"Điểm nhóm Tin lành xã Vang Quới Tây"}},{"type":"Feature","geometry":{"type":"Point","coordinates":[106.600290685,10.233979007]},"properties":{"Nhà thờ":"Điểm nhóm Tin lành Liê n hữu cơ đốc xã Phú Vang ","Địa chỉ":"ấp Phú Thành, xã Phú Vang","Người đại diện đơn vị":"Mục sư Nguyễn Văn Tranh","layer_id":363,"fid":19,"label":"Điểm nhóm Tin lành Liê n hữu cơ đốc xã Phú Vang "}},{"type":"Feature","geometry":{"type":"Point","coordinates":[106.330650971,10.136566042]},"properties":{"Nhà thờ":"Chi hội Tin lành  Mỏ Cày","Địa chỉ":"Khu phố 7, xã Mỏ Cày","Người đại diện đơn vị":"MS\n Nguyễn Long Huấn","layer_id":363,"fid":20,"label":"Chi hội Tin lành  Mỏ Cày"}},{"type":"Feature","geometry":{"type":"Point","coordinates":[106.318735602,10.072521162]},"properties":{"Nhà thờ":"Điểm nhóm Giêrusalem Thành Thới A","Địa chỉ":"ấp Thới Khương, xã Thành Thời A","Người đại diện đơn vị":"Trần Anh Tuấn","layer_id":363,"fid":21,"label":"Điểm nhóm Giêrusalem Thành Thới A"}},{"type":"Feature","geometry":{"type":"Point","coordinates":[106.434699896,10.070276554]},"properties":{"Nhà thờ":"Điểm nhóm Báp tít Minh Đức\n","Địa chỉ":"Minh Đức - xã Mỏ Cày","Người đại diện đơn vị":"MSNC \nLê Công Hậu","layer_id":363,"fid":22,"label":"Điểm nhóm Báp tít Minh Đức\n"}},{"type":"Feature","geometry":{"type":"Point","coordinates":[106.492673563,10.096715032]},"properties":{"Nhà thờ":"Nhà thờ Tin Lành","Địa chỉ":"Ấp Hưng Hòa Tây, xã Hưng Nhượng","Người đại diện đơn vị":"Mục sư NC Nguyễn Thanh Hài","layer_id":363,"fid":23,"label":"Nhà thờ Tin Lành"}},{"type":"Feature","geometry":{"type":"Point","coordinates":[106.457364948,10.198752902]},"properties":{"Nhà thờ":"Điểm nhóm Tin lành Lương Hòa","Địa chỉ":"Ấp Hòa Bình, xã Lương Hòa","Người đại diện đơn vị":"Mục sư Phan Thế Lữ","layer_id":363,"fid":24,"label":"Điểm nhóm Tin lành Lương Hòa"}},{"type":"Feature","geometry":{"type":"Point","coordinates":[106.414888146,10.134704311]},"properties":{"Nhà thờ":"Điểm nhóm Tin Lành ","Địa chỉ":"Ấp Mỹ Chánh 1, xã Phước Long","Người đại diện đơn vị":"Mục sư Võ Ái Nhật ","layer_id":363,"fid":25,"label":"Điểm nhóm Tin Lành "}},{"type":"Feature","geometry":{"type":"Point","coordinates":[106.482944923,10.203075255]},"properties":{"Nhà thờ":"Điểm nhóm BapTit","Địa chỉ":"Ấp Thới Hòa, xã Châu Hòa","Người đại diện đơn vị":"Mục sư Nguyễn Thanh Liêm","layer_id":363,"fid":26,"label":"Điểm nhóm BapTit"}},{"type":"Feature","geometry":{"type":"Point","coordinates":[106.357001795,10.250427692]},"properties":{"Nhà thờ":"Điểm nhóm Tin lành Sơn Phú","Địa chỉ":"Ấp Long Thành, xã Sơn Phú","Người đại diện đơn vị":"Mục sư Phan Thế Lữ","layer_id":363,"fid":27,"label":"Điểm nhóm Tin lành Sơn Phú"}},{"type":"Feature","geometry":{"type":"Point","coordinates":[106.356929731,10.215722891]},"properties":{"Nhà thờ":"Điểm nhóm Tin lành liên hiệp truyền giáo","Địa chỉ":"ấp An Hòa, xã Mỹ An","Người đại diện đơn vị":"Nguyễn Văn Rơ \n(Trưởng điểm nhóm)","layer_id":363,"fid":32,"label":"Điểm nhóm Tin lành liên hiệp truyền giáo"}},{"type":"Feature","geometry":{"type":"Point","coordinates":[106.393055086,10.141502319]},"properties":{"Nhà thờ":"Nhóm Tin lành Cồn Ốc\nViệt Nam Truyền giáo","Địa chỉ":"Ấp 1, xã Hưng Phong","Người đại diện đơn vị":"Nguyễn Văn Liêm-\nNgười Chăn (quản nhiệm Hội thánh)","layer_id":363,"fid":28,"label":"Nhóm Tin lành Cồn Ốc\nViệt Nam Truyền giáo"}},{"type":"Feature","geometry":{"type":"Point","coordinates":[106.538407608,9.920287322]},"properties":{"Nhà thờ":"Chi hội Tin lành Thạnh Phú","Địa chỉ":"ấp An Hòa B, xã An Thuận","Người đại diện đơn vị":"Mục sư nhiệm chức \nPhạm Tấn","layer_id":363,"fid":29,"label":"Chi hội Tin lành Thạnh Phú"}},{"type":"Feature","geometry":{"type":"Point","coordinates":[106.430277005,10.04472461]},"properties":{"Nhà thờ":"Điểm nhóm Tin lành Báp-tít Đức tin \n","Địa chỉ":"ấp Bình Khánh, xã Phú Khánh","Người đại diện đơn vị":"Mục sư nhiệm chức Lê Công Hoàng ","layer_id":363,"fid":30,"label":"Điểm nhóm Tin lành Báp-tít Đức tin \n"}},{"type":"Feature","geometry":{"type":"Point","coordinates":[106.653111354,9.877578525]},"properties":{"Nhà thờ":"Điểm nhóm Emmanuen PATV","Địa chỉ":"ấp Thạnh Thới A, xã Thạnh Hải","Người đại diện đơn vị":"Nguyễn Văn Lấn \n(Trưởng điểm nhóm)","layer_id":363,"fid":31,"label":"Điểm nhóm Emmanuen PATV"}},{"type":"Feature","geometry":{"type":"Point","coordinates":[106.380959767,10.235990509]},"properties":{"Nhà thờ":"- Hội thánh Tin lành Miền Nam Việt Nam - Chi hội Bến Tre (Nhà thờ Tin lành Bến Tre)","Địa chỉ":"Số 33-35, Nguyễn Đình Chiểu, Phường An Hội","Người đại diện đơn vị":"Mục sư \nPhan Thế Lữ","layer_id":363,"fid":33,"label":"- Hội thánh Tin lành Miền Nam Việt Nam - Chi hội Bến Tre (Nhà thờ Tin lành Bến Tre)"}},{"type":"Feature","geometry":{"type":"Point","coordinates":[106.591777461,10.042882392]},"properties":{"Nhà thờ":"Chi hội Tin lành Ba Tri","Địa chỉ":"KP 6, xã Ba Tri","Người đại diện đơn vị":"Nguyễn Thanh Lạc","layer_id":363,"fid":34,"label":"Chi hội Tin lành Ba Tri"}},{"type":"Feature","geometry":{"type":"Point","coordinates":[106.121128892,10.255015909]},"properties":{"Nhà thờ":"nhà thờ Tin lành","Địa chỉ":"xã Chợ Lách","Người đại diện đơn vị":"Mục sư Nguyễn Vũ","layer_id":363,"fid":35,"label":"nhà thờ Tin lành"}},{"type":"Feature","geometry":{"type":"Point","coordinates":[106.044760394,10.280542282]},"properties":{"Nhà thờ":"Dđiểm nhóm Tin lành Việt Nam (MN)","Địa chỉ":"65/1 ấp Chợ, xã Phú Phụng","Người đại diện đơn vị":"Mục sư Trần Duy Khang","layer_id":363,"fid":36,"label":"Dđiểm nhóm Tin lành Việt Nam (MN)"}}]}
