{"type":"FeatureCollection","name":"Giáo hội tịnh độ","metadata":{"source":"https://hatang.vinhlong.gov.vn/","downloaded_at":"2026-07-20T01:19:22+00:00","layer_id":364,"layer_name":"Giáo hội tịnh độ","catalog_endpoints":["/map/publicLayers2?inputs=sodttg"],"requested_bbox":[104.0,8.0,108.0,12.0],"tile_size":0.0,"tile_count":1,"tile_errors":[],"feature_count":39,"coordinate_order":"x,y (thường là longitude,latitude theo cấu hình EPSG:4326 của WebGIS)"},"features":[{"type":"Feature","geometry":{"type":"Point","coordinates":[105.975138609,10.251023111]},"properties":{"Giáo hội tịnh độ":"Hưng An Tự","Địa chỉ":"75 đường 2/9, phường Long Châu","Tên khác":"Hội quán\n hoặc Chùa","Tôn giáo":"Tịnh độ cư sĩ\n Phật hội Việt Nam","Người đứng đầu":"Huỳnh Kim Quang","Điện thoại":null,"layer_id":364,"fid":1,"label":"Hưng An Tự"}},{"type":"Feature","geometry":{"type":"Point","coordinates":[105.911716292,10.268671944]},"properties":{"Giáo hội tịnh độ":"Hưng Hòa Tự","Địa chỉ":"ấp Tân Qưới, xã Tân Ngãi","Tên khác":"Hội quán\n hoặc Chùa","Tôn giáo":"Tịnh độ cư sĩ\n Phật hội Việt Nam","Người đứng đầu":"Huỳnh Minh Hiếu","Điện thoại":null,"layer_id":364,"fid":2,"label":"Hưng Hòa Tự"}},{"type":"Feature","geometry":{"type":"Point","coordinates":[105.92238165,10.166729977]},"properties":{"Giáo hội tịnh độ":"Hưng Quới Tự","Địa chỉ":"ấp Phước Yên A, xã Phú Qưới","Tên khác":"Hội quán\n hoặc Chùa","Tôn giáo":"Tịnh độ cư sĩ\n Phật hội Việt Nam","Người đứng đầu":"Đặng Văn Triều","Điện thoại":null,"layer_id":364,"fid":3,"label":"Hưng Quới Tự"}},{"type":"Feature","geometry":{"type":"Point","coordinates":[105.953235364,10.278905765]},"properties":{"Giáo hội tịnh độ":"Hưng Vạn Tự","Địa chỉ":"ấp An Hòa, xã An Bình","Tên khác":"Hội quán\n hoặc Chùa","Tôn giáo":"Tịnh độ cư sĩ\n Phật hội Việt Nam","Người đứng đầu":"Nguyễn Thành Công","Điện thoại":null,"layer_id":364,"fid":4,"label":"Hưng Vạn Tự"}},{"type":"Feature","geometry":{"type":"Point","coordinates":[106.011850722,10.198555484]},"properties":{"Giáo hội tịnh độ":"Hưng Phước Tự","Địa chỉ":"ấp Bình Tịnh, xã Bình Phước","Tên khác":"Hội quán\n hoặc Chùa","Tôn giáo":"Tịnh độ cư sĩ\n Phật hội Việt Nam","Người đứng đầu":"Đinh Văn Sanh","Điện thoại":null,"layer_id":364,"fid":5,"label":"Hưng Phước Tự"}},{"type":"Feature","geometry":{"type":"Point","coordinates":[106.186624679,10.09390304]},"properties":{"Giáo hội tịnh độ":"Hưng Liêm Tự","Địa chỉ":"Khóm 2, xã Trung Thành","Tên khác":"Hội quán\n hoặc Chùa","Tôn giáo":"Tịnh độ cư sĩ\n Phật hội Việt Nam","Người đứng đầu":"Nguyễn Văn Sử","Điện thoại":null,"layer_id":364,"fid":6,"label":"Hưng Liêm Tự"}},{"type":"Feature","geometry":{"type":"Point","coordinates":[106.111242065,10.039149907]},"properties":{"Giáo hội tịnh độ":"Hưng Hiếu Tự","Địa chỉ":"ấp Hiếu Minh, xã Hiếu Thành","Tên khác":"Hội quán\n hoặc Chùa","Tôn giáo":"Tịnh độ cư sĩ\n Phật hội Việt Nam","Người đứng đầu":"Nguyễn Văn Xe","Điện thoại":null,"layer_id":364,"fid":7,"label":"Hưng Hiếu Tự"}},{"type":"Feature","geometry":{"type":"Point","coordinates":[106.172351899,10.112081831]},"properties":{"Giáo hội tịnh độ":"Hưng Chánh Tự","Địa chỉ":"ấp Rạch Nưng, xã Trung Hiệp","Tên khác":"Hội quán\n hoặc Chùa","Tôn giáo":"Tịnh độ cư sĩ\n Phật hội Việt Nam","Người đứng đầu":"Lê Thị Phượng","Điện thoại":null,"layer_id":364,"fid":8,"label":"Hưng Chánh Tự"}},{"type":"Feature","geometry":{"type":"Point","coordinates":[106.090639475,9.979480554]},"properties":{"Giáo hội tịnh độ":"Hưng Nam Tự","Địa chỉ":"ấp Hiếu Văn, xã Hiếu Thành","Tên khác":"Hội quán\n hoặc Chùa","Tôn giáo":"Tịnh độ cư sĩ\n Phật hội Việt Nam","Người đứng đầu":"Phạm Văn Dũng","Điện thoại":null,"layer_id":364,"fid":9,"label":"Hưng Nam Tự"}},{"type":"Feature","geometry":{"type":"Point","coordinates":[105.921036425,9.970608031]},"properties":{"Giáo hội tịnh độ":"Hưng Thiện Tự","Địa chỉ":"160/1A, Lê Lợi, khu 4, xã Trà Ôn","Tên khác":"Hội quán\n hoặc Chùa","Tôn giáo":"Tịnh độ cư sĩ\n Phật hội Việt Nam","Người đứng đầu":"Lê Văn Tân","Điện thoại":null,"layer_id":364,"fid":10,"label":"Hưng Thiện Tự"}},{"type":"Feature","geometry":{"type":"Point","coordinates":[105.983521164,10.025381685]},"properties":{"Giáo hội tịnh độ":"Hưng Tân Tự","Địa chỉ":"ấp Mỹ Phú, xã Trà Côn","Tên khác":"Hội quán\n hoặc Chùa","Tôn giáo":"Tịnh độ cư sĩ\n Phật hội Việt Nam","Người đứng đầu":"Võ Văn Hơn","Điện thoại":null,"layer_id":364,"fid":11,"label":"Hưng Tân Tự"}},{"type":"Feature","geometry":{"type":"Point","coordinates":[106.048556552,10.0389069]},"properties":{"Giáo hội tịnh độ":"Hưng Giác Tự","Địa chỉ":"ấp Tân Thuận, xã Hòa Bình","Tên khác":"Hội quán\n hoặc Chùa","Tôn giáo":"Tịnh độ cư sĩ\n Phật hội Việt Nam","Người đứng đầu":"Nguyễn Thị Tam","Điện thoại":null,"layer_id":364,"fid":12,"label":"Hưng Giác Tự"}},{"type":"Feature","geometry":{"type":"Point","coordinates":[105.928145259,10.182851295]},"properties":{"Giáo hội tịnh độ":"Hưng Quới Tự","Địa chỉ":"ấp Tân Vinh, xã Tân Qưới","Tên khác":"Hội quán\n hoặc Chùa","Tôn giáo":"Tịnh độ cư sĩ\n Phật hội Việt Nam","Người đứng đầu":"Nguyễn Thanh Hải","Điện thoại":null,"layer_id":364,"fid":13,"label":"Hưng Quới Tự"}},{"type":"Feature","geometry":{"type":"Point","coordinates":[105.723518443,10.155486361]},"properties":{"Giáo hội tịnh độ":"Hưng Minh Tự","Địa chỉ":"ấp Tân Lộc, xã Tân Lược","Tên khác":"Hội quán\n hoặc Chùa","Tôn giáo":"Tịnh độ cư sĩ\n Phật hội Việt Nam","Người đứng đầu":"Lê Văn Lẹ","Điện thoại":null,"layer_id":364,"fid":14,"label":"Hưng Minh Tự"}},{"type":"Feature","geometry":{"type":"Point","coordinates":[105.992026836,10.059814857]},"properties":{"Giáo hội tịnh độ":"Hưng Thạnh Tự","Địa chỉ":"ấp Mỹ Thạnh Trung 1, xã Tam Bình","Tên khác":"Hội quán\n hoặc Chùa","Tôn giáo":"Tịnh độ cư sĩ\n Phật hội Việt Nam","Người đứng đầu":"Nguyễn Khắc Tuân","Điện thoại":null,"layer_id":364,"fid":15,"label":"Hưng Thạnh Tự"}},{"type":"Feature","geometry":{"type":"Point","coordinates":[105.898884678,10.119390547]},"properties":{"Giáo hội tịnh độ":"Hưng Phú Tự","Địa chỉ":"ấp Phú Trường, xã Song Phú","Tên khác":"Hội quán\n hoặc Chùa","Tôn giáo":"Tịnh độ cư sĩ\n Phật hội Việt Nam","Người đứng đầu":"Bùi Văn Nam","Điện thoại":null,"layer_id":364,"fid":16,"label":"Hưng Phú Tự"}},{"type":"Feature","geometry":{"type":"Point","coordinates":[106.379952046,10.238133638]},"properties":{"Giáo hội tịnh độ":" Hưng Quang tự","Địa chỉ":"Phường An hội","Tên khác":"Hội quán\n hoặc Chùa","Tôn giáo":"Tịnh độ cư sĩ\n Phật hội Việt Nam","Người đứng đầu":"Châu Thị Thu","Điện thoại":null,"layer_id":364,"fid":17,"label":" Hưng Quang tự"}},{"type":"Feature","geometry":{"type":"Point","coordinates":[106.01337156,10.201262974]},"properties":{"Giáo hội tịnh độ":"Hưng Phước tự","Địa chỉ":"Khu phố 2, xã Mỏ Cày","Tên khác":"Hội quán\n hoặc Chùa","Tôn giáo":"Tịnh độ cư sĩ\n Phật hội Việt Nam","Người đứng đầu":"Nguyễn Hồng Vân","Điện thoại":null,"layer_id":364,"fid":18,"label":"Hưng Phước tự"}},{"type":"Feature","geometry":{"type":"Point","coordinates":[106.472368065,10.200569794]},"properties":{"Giáo hội tịnh độ":"Hưng Quới tự","Địa chỉ":"Xã Châu Hòa","Tên khác":"Hội quán\n hoặc Chùa","Tôn giáo":"Tịnh độ cư sĩ\n Phật hội Việt Nam","Người đứng đầu":"Nguyễn Thị Mến Em","Điện thoại":null,"layer_id":364,"fid":19,"label":"Hưng Quới tự"}},{"type":"Feature","geometry":{"type":"Point","coordinates":[106.622870646,10.029992912]},"properties":{"Giáo hội tịnh độ":"Hưng Bảo tự","Địa chỉ":"Xã Tân Thủy","Tên khác":"Hội quán\n hoặc Chùa","Tôn giáo":"Tịnh độ cư sĩ\n Phật hội Việt Nam","Người đứng đầu":"Phạm Công Tồn","Điện thoại":null,"layer_id":364,"fid":20,"label":"Hưng Bảo tự"}},{"type":"Feature","geometry":{"type":"Point","coordinates":[106.591636153,10.042904465]},"properties":{"Giáo hội tịnh độ":"Hưng An tự","Địa chỉ":"Khu phố 3, xã  Ba Tri","Tên khác":"Hội quán\n hoặc Chùa","Tôn giáo":"Tịnh độ cư sĩ\n Phật hội Việt Nam","Người đứng đầu":"Nguyễn Văn Hưng","Điện thoại":null,"layer_id":364,"fid":21,"label":"Hưng An tự"}},{"type":"Feature","geometry":{"type":"Point","coordinates":[106.278962646,10.193790867]},"properties":{"Giáo hội tịnh độ":"Hưng Mỹ tự","Địa chỉ":"Phước Mỹ Trung","Tên khác":"Hội quán\n hoặc Chùa","Tôn giáo":"Tịnh độ cư sĩ\n Phật hội Việt Nam","Người đứng đầu":"Đang tranh chấp","Điện thoại":null,"layer_id":364,"fid":22,"label":"Hưng Mỹ tự"}},{"type":"Feature","geometry":{"type":"Point","coordinates":[106.339000481,9.93358765]},"properties":{"Giáo hội tịnh độ":"Hưng Vinh Tự","Địa chỉ":"614, Trần Phú, Khóm 4, \nphường Trà Vinh","Tên khác":"Hội quán\n hoặc Chùa","Tôn giáo":"Tịnh độ cư sĩ\n Phật hội Việt Nam","Người đứng đầu":"Huỳnh Chí Tường","Điện thoại":null,"layer_id":364,"fid":23,"label":"Hưng Vinh Tự"}},{"type":"Feature","geometry":{"type":"Point","coordinates":[106.203059652,9.981518987]},"properties":{"Giáo hội tịnh độ":"Hưng Huê Tự ","Địa chỉ":"Khóm 5, xã Càng Long","Tên khác":"Hội quán\n hoặc Chùa","Tôn giáo":"Tịnh độ cư sĩ\n Phật hội Việt Nam","Người đứng đầu":"Nguyễn Thị Tuyết","Điện thoại":null,"layer_id":364,"fid":24,"label":"Hưng Huê Tự "}},{"type":"Feature","geometry":{"type":"Point","coordinates":[106.1928386,9.842634953]},"properties":{"Giáo hội tịnh độ":"Hưng Phú Tự","Địa chỉ":"Ấp Phú Thọ 1, xã Tiểu Cần ","Tên khác":"Hội quán\n hoặc Chùa","Tôn giáo":"Tịnh độ cư sĩ\n Phật hội Việt Nam","Người đứng đầu":"Nguyễn Hoàng Tuấn","Điện thoại":null,"layer_id":364,"fid":26,"label":"Hưng Phú Tự"}},{"type":"Feature","geometry":{"type":"Point","coordinates":[106.189570428,9.815837554]},"properties":{"Giáo hội tịnh độ":"Hưng Cần Tự","Địa chỉ":"Số 133, đường Võ Thị Sáu, \nKhóm 1, xã Tiểu Cần ","Tên khác":"Hội quán\n hoặc Chùa","Tôn giáo":"Tịnh độ cư sĩ\n Phật hội Việt Nam","Người đứng đầu":"Hồ Văn Khang","Điện thoại":null,"layer_id":364,"fid":25,"label":"Hưng Cần Tự"}},{"type":"Feature","geometry":{"type":"Point","coordinates":[106.222326561,9.884325795]},"properties":{"Giáo hội tịnh độ":"Hưng Hiếu Tự","Địa chỉ":"Ấp Kinh Xáng, xã Tập Ngãi","Tên khác":"Hội quán\n hoặc Chùa","Tôn giáo":"Tịnh độ cư sĩ\n Phật hội Việt Nam","Người đứng đầu":"Nguyễn Văn Triệu","Điện thoại":null,"layer_id":364,"fid":27,"label":"Hưng Hiếu Tự"}},{"type":"Feature","geometry":{"type":"Point","coordinates":[106.063849192,9.881866211]},"properties":{"Giáo hội tịnh độ":"Hưng Ân Tự","Địa chỉ":"Đường Lê Lợi, Khóm 2, xã Cầu Kè ","Tên khác":"Hội quán\n hoặc Chùa","Tôn giáo":"Tịnh độ cư sĩ\n Phật hội Việt Nam","Người đứng đầu":"Trịnh Văn Hậu","Điện thoại":null,"layer_id":364,"fid":28,"label":"Hưng Ân Tự"}},{"type":"Feature","geometry":{"type":"Point","coordinates":[106.007929623,9.868542621]},"properties":{"Giáo hội tịnh độ":"Hưng Giáo Tự","Địa chỉ":"Ấp An Hòa, xã An Phú Tân","Tên khác":"Hội quán\n hoặc Chùa","Tôn giáo":"Tịnh độ cư sĩ\n Phật hội Việt Nam","Người đứng đầu":"Nguyễn Văn Lòng","Điện thoại":null,"layer_id":364,"fid":29,"label":"Hưng Giáo Tự"}},{"type":"Feature","geometry":{"type":"Point","coordinates":[106.077169607,9.937180888]},"properties":{"Giáo hội tịnh độ":"Hưng Hòa Tự","Địa chỉ":"Ấp Trà Mẹt, xã Tam Ngãi","Tên khác":"Hội quán\n hoặc Chùa","Tôn giáo":"Tịnh độ cư sĩ\n Phật hội Việt Nam","Người đứng đầu":"Nguyễn Văn Thành","Điện thoại":null,"layer_id":364,"fid":30,"label":"Hưng Hòa Tự"}},{"type":"Feature","geometry":{"type":"Point","coordinates":[106.265368965,9.679249713]},"properties":{"Giáo hội tịnh độ":"Hưng Thanh Tự","Địa chỉ":"Khóm 1, xã Trà Cú ","Tên khác":"Hội quán\n hoặc Chùa","Tôn giáo":"Tịnh độ cư sĩ\n Phật hội Việt Nam","Người đứng đầu":"Trần Văn Phước","Điện thoại":null,"layer_id":364,"fid":31,"label":"Hưng Thanh Tự"}},{"type":"Feature","geometry":{"type":"Point","coordinates":[106.334388436,9.781298021]},"properties":{"Giáo hội tịnh độ":"Hưng Phước Tự","Địa chỉ":"Ấp Đầu Giồng, xã Tập Sơn","Tên khác":"Hội quán\n hoặc Chùa","Tôn giáo":"Tịnh độ cư sĩ\n Phật hội Việt Nam","Người đứng đầu":"Chung Văn Tái","Điện thoại":null,"layer_id":364,"fid":32,"label":"Hưng Phước Tự"}},{"type":"Feature","geometry":{"type":"Point","coordinates":[106.301091109,9.631945632]},"properties":{"Giáo hội tịnh độ":"Hưng An Tự","Địa chỉ":"Ấp Giồng Đình, xã Đại An ","Tên khác":"Hội quán\n hoặc Chùa","Tôn giáo":"Tịnh độ cư sĩ\n Phật hội Việt Nam","Người đứng đầu":"Tô Thị Tuyết Mai","Điện thoại":null,"layer_id":364,"fid":33,"label":"Hưng An Tự"}},{"type":"Feature","geometry":{"type":"Point","coordinates":[106.158641694,9.71553149]},"properties":{"Giáo hội tịnh độ":"Hưng Quảng Tự","Địa chỉ":"Ấp Vàm, xã Lưu Nghiệp Anh","Tên khác":"Hội quán\n hoặc Chùa","Tôn giáo":"Tịnh độ cư sĩ\n Phật hội Việt Nam","Người đứng đầu":"Nguyễn Thị Hoàng","Điện thoại":null,"layer_id":364,"fid":34,"label":"Hưng Quảng Tự"}},{"type":"Feature","geometry":{"type":"Point","coordinates":[106.342207237,9.671325867]},"properties":{"Giáo hội tịnh độ":"Hưng Xuân Tự","Địa chỉ":"Ấp Bà Giam, xã Đôn Châu","Tên khác":"Hội quán\n hoặc Chùa","Tôn giáo":"Tịnh độ cư sĩ\n Phật hội Việt Nam","Người đứng đầu":"Trần Văn Suông","Điện thoại":null,"layer_id":364,"fid":35,"label":"Hưng Xuân Tự"}},{"type":"Feature","geometry":{"type":"Point","coordinates":[106.397180236,9.603013032]},"properties":{"Giáo hội tịnh độ":"Hưng Vĩnh Tự","Địa chỉ":"Ấp Cái Đôi, xã Long Thành","Tên khác":"Hội quán\n hoặc Chùa","Tôn giáo":"Tịnh độ cư sĩ\n Phật hội Việt Nam","Người đứng đầu":"Lê Văn Năng","Điện thoại":null,"layer_id":364,"fid":36,"label":"Hưng Vĩnh Tự"}},{"type":"Feature","geometry":{"type":"Point","coordinates":[106.452154742,9.804471327]},"properties":{"Giáo hội tịnh độ":"Hưng Thuận Tự","Địa chỉ":"Khóm Minh Thuận B, xã Cầu Ngang ","Tên khác":"Hội quán\n hoặc Chùa","Tôn giáo":"Tịnh độ cư sĩ\n Phật hội Việt Nam","Người đứng đầu":"Phan Văn Tranh","Điện thoại":null,"layer_id":364,"fid":37,"label":"Hưng Thuận Tự"}},{"type":"Feature","geometry":{"type":"Point","coordinates":[106.434610402,9.74567667]},"properties":{"Giáo hội tịnh độ":"Hưng Lập Tự","Địa chỉ":"Ấp Tân Lập, xã Hiệp Mỹ","Tên khác":"Hội quán\n hoặc Chùa","Tôn giáo":"Tịnh độ cư sĩ\n Phật hội Việt Nam","Người đứng đầu":"Lê Tấn Phát","Điện thoại":null,"layer_id":364,"fid":38,"label":"Hưng Lập Tự"}},{"type":"Feature","geometry":{"type":"Point","coordinates":[106.475185977,9.748910122]},"properties":{"Giáo hội tịnh độ":"Hưng Hiệp Tự","Địa chỉ":"ấp Chợ, xã Hiệp Mỹ ","Tên khác":"Hội quán\n hoặc Chùa","Tôn giáo":"Tịnh độ cư sĩ\n Phật hội Việt Nam","Người đứng đầu":"Nguyễn Thị Bé Chính","Điện thoại":null,"layer_id":364,"fid":39,"label":"Hưng Hiệp Tự"}}]}
