{"type":"FeatureCollection","name":"Cao đài tiên thiên","metadata":{"source":"https://hatang.vinhlong.gov.vn/","downloaded_at":"2026-07-20T01:19:27+00:00","layer_id":366,"layer_name":"Cao đài tiên thiên","catalog_endpoints":["/map/publicLayers2?inputs=sodttg"],"requested_bbox":[104.0,8.0,108.0,12.0],"tile_size":0.0,"tile_count":1,"tile_errors":[],"feature_count":53,"coordinate_order":"x,y (thường là longitude,latitude theo cấu hình EPSG:4326 của WebGIS)"},"features":[{"type":"Feature","geometry":{"type":"Point","coordinates":[106.24747044,10.275253882]},"properties":{"Cao đài tiên thiên":"Tòa Thánh Châu Minh","Địa chỉ":"xã Tiên Thủy","Tôn giáo":"Cao Đài ","Người đại diện":"Chánh Phối sư Thượng Phonhg Thanh","Điện thoại":null,"layer_id":366,"fid":1,"label":"Tòa Thánh Châu Minh"}},{"type":"Feature","geometry":{"type":"Point","coordinates":[106.223318355,10.312942459]},"properties":{"Cao đài tiên thiên":"Họ đạo Diêu Trì Cung","Địa chỉ":"xã Tiên Thủy","Tôn giáo":"Cao Đài ","Người đại diện":"Hội trưởng, Giáo hữu Thái Hoàng Thanh","Điện thoại":null,"layer_id":366,"fid":2,"label":"Họ đạo Diêu Trì Cung"}},{"type":"Feature","geometry":{"type":"Point","coordinates":[106.195003636,10.250813566]},"properties":{"Cao đài tiên thiên":"Họ đạo An Long Hóa Tự","Địa chỉ":"xã Tân Phú","Tôn giáo":"Cao Đài ","Người đại diện":"Hội trưởng, Giáo hữu Thượng Tươi Thanh","Điện thoại":null,"layer_id":366,"fid":3,"label":"Họ đạo An Long Hóa Tự"}},{"type":"Feature","geometry":{"type":"Point","coordinates":[106.30412248,10.287547846]},"properties":{"Cao đài tiên thiên":"Họ đạo Thất Linh Đài","Địa chỉ":"xã Phú Túc","Tôn giáo":"Cao Đài ","Người đại diện":"Hội trưởng, Giáo hữu Thái Thành Thanh","Điện thoại":null,"layer_id":366,"fid":4,"label":"Họ đạo Thất Linh Đài"}},{"type":"Feature","geometry":{"type":"Point","coordinates":[106.356853014,10.315000529]},"properties":{"Cao đài tiên thiên":"Họ đạo Tứ Long Châu","Địa chỉ":"xã Phú Túc","Tôn giáo":"Cao Đài ","Người đại diện":"Hội trưởng, Giáo hữu Thái Liêm Thanh","Điện thoại":null,"layer_id":366,"fid":5,"label":"Họ đạo Tứ Long Châu"}},{"type":"Feature","geometry":{"type":"Point","coordinates":[106.395955733,10.321567662]},"properties":{"Cao đài tiên thiên":"Họ đạo Lục Diện Đồ Thơ","Địa chỉ":"xã Giao Long","Tôn giáo":"Cao Đài ","Người đại diện":"Hội trưởng, Giáo hữu Thái Đấu Thanh","Điện thoại":null,"layer_id":366,"fid":6,"label":"Họ đạo Lục Diện Đồ Thơ"}},{"type":"Feature","geometry":{"type":"Point","coordinates":[106.412940402,10.229786397]},"properties":{"Cao đài tiên thiên":"Họ đạo Tây Tông Vô Cực Cung","Địa chỉ":"Phường Phú Khương","Tôn giáo":"Cao Đài ","Người đại diện":"Hội trưởng, Giáo hữu Thượng Hòa Thanh","Điện thoại":null,"layer_id":366,"fid":7,"label":"Họ đạo Tây Tông Vô Cực Cung"}},{"type":"Feature","geometry":{"type":"Point","coordinates":[106.341464209,10.216774315]},"properties":{"Cao đài tiên thiên":"Họ đạo Hà Long Điện","Địa chỉ":"xã Lộc Thuận","Tôn giáo":"Cao Đài ","Người đại diện":"Hội trưởng, Giáo hữu Thái Lớn Thanh","Điện thoại":null,"layer_id":366,"fid":8,"label":"Họ đạo Hà Long Điện"}},{"type":"Feature","geometry":{"type":"Point","coordinates":[106.650932555,10.205530487]},"properties":{"Cao đài tiên thiên":"Họ đạo Ngũ Long Môn","Địa chỉ":"xã Bình Đại","Tôn giáo":"Cao Đài ","Người đại diện":"Hội trưởng, Lễ sanh Ngọc Minh Thanh","Điện thoại":null,"layer_id":366,"fid":9,"label":"Họ đạo Ngũ Long Môn"}},{"type":"Feature","geometry":{"type":"Point","coordinates":[106.616273508,10.17706087]},"properties":{"Cao đài tiên thiên":"Họ đạo Ngọc Huệ Quang","Địa chỉ":"xã Thạnh Trị","Tôn giáo":"Cao Đài ","Người đại diện":"Hội trưởng, Lễ sanh Thượng Được Thanh","Điện thoại":null,"layer_id":366,"fid":10,"label":"Họ đạo Ngọc Huệ Quang"}},{"type":"Feature","geometry":{"type":"Point","coordinates":[106.652804098,10.176699052]},"properties":{"Cao đài tiên thiên":"Họ đạo Thiên Môn Tịnh Thánh","Địa chỉ":"xã Thạnh Trị","Tôn giáo":"Cao Đài ","Người đại diện":"Hội trưởng, Giáo hữu Thượng Liêm Thanh","Điện thoại":null,"layer_id":366,"fid":11,"label":"Họ đạo Thiên Môn Tịnh Thánh"}},{"type":"Feature","geometry":{"type":"Point","coordinates":[106.489746609,10.156193301]},"properties":{"Cao đài tiên thiên":"Họ đạo Huyền Ưng Tịnh","Địa chỉ":"xã Giồng Trôm","Tôn giáo":"Cao Đài ","Người đại diện":"Hội trưởng, Giáo hữu Thượng Hiển Thanh","Điện thoại":null,"layer_id":366,"fid":12,"label":"Họ đạo Huyền Ưng Tịnh"}},{"type":"Feature","geometry":{"type":"Point","coordinates":[106.514096866,10.166315039]},"properties":{"Cao đài tiên thiên":"Họ đạo Bát Bửu Điện","Địa chỉ":"xã Giồng Trôm","Tôn giáo":"Cao Đài ","Người đại diện":"Hội trưởng, Giáo hữu Ngọc Hiếu Thanh","Điện thoại":null,"layer_id":366,"fid":13,"label":"Họ đạo Bát Bửu Điện"}},{"type":"Feature","geometry":{"type":"Point","coordinates":[106.575893346,10.143928803]},"properties":{"Cao đài tiên thiên":"Họ đạo Tây Cung Hắc hổ","Địa chỉ":"xã Mỹ Chánh Hòa","Tôn giáo":"Cao Đài ","Người đại diện":"Hội trưởng, Giáo hữu Ngọc Em Thanh","Điện thoại":null,"layer_id":366,"fid":14,"label":"Họ đạo Tây Cung Hắc hổ"}},{"type":"Feature","geometry":{"type":"Point","coordinates":[106.626703498,10.075572475]},"properties":{"Cao đài tiên thiên":"Họ đạo Linh Tiêu Điện","Địa chỉ":"xã Tân Xuân","Tôn giáo":"Cao Đài ","Người đại diện":"Hội trưởng, Lễ sanh Hương Lý","Điện thoại":null,"layer_id":366,"fid":15,"label":"Họ đạo Linh Tiêu Điện"}},{"type":"Feature","geometry":{"type":"Point","coordinates":[106.655084038,10.104315802]},"properties":{"Cao đài tiên thiên":"Họ đạo Huỳnh Long Cung Điện","Địa chỉ":"xã Bảo Thạnh","Tôn giáo":"Cao Đài ","Người đại diện":"Hội trưởng, Giáo hữu Hương Ren","Điện thoại":null,"layer_id":366,"fid":16,"label":"Họ đạo Huỳnh Long Cung Điện"}},{"type":"Feature","geometry":{"type":"Point","coordinates":[106.619621572,10.007903033]},"properties":{"Cao đài tiên thiên":"Họ đạo Đông Cung Bạch Long","Địa chỉ":"xã Tân Thủy","Tôn giáo":"Cao Đài ","Người đại diện":"Hội trưởng, Giáo hữu Ngọc Tường Thanh","Điện thoại":null,"layer_id":366,"fid":17,"label":"Họ đạo Đông Cung Bạch Long"}},{"type":"Feature","geometry":{"type":"Point","coordinates":[106.626351565,9.99949941]},"properties":{"Cao đài tiên thiên":"Họ đạo Qui Thiện","Địa chỉ":"xã Tân Thủy","Tôn giáo":"Cao Đài ","Người đại diện":"Hội trưởng, Giáo hữu Thái Quốc Thanh","Điện thoại":null,"layer_id":366,"fid":18,"label":"Họ đạo Qui Thiện"}},{"type":"Feature","geometry":{"type":"Point","coordinates":[106.527812676,10.269370368]},"properties":{"Cao đài tiên thiên":"Họ đạo Thanh Long Điện","Địa chỉ":"xã Thạnh Phong","Tôn giáo":"Cao Đài ","Người đại diện":"Hội trưởng, Giáo hữu Ngọc Trà Thanh","Điện thoại":null,"layer_id":366,"fid":19,"label":"Họ đạo Thanh Long Điện"}},{"type":"Feature","geometry":{"type":"Point","coordinates":[106.519811098,9.923888173]},"properties":{"Cao đài tiên thiên":"Họ đạo Thập Ngũ Đài Quang","Địa chỉ":"xã Thạnh Phú","Tôn giáo":"Cao Đài ","Người đại diện":"Hội trưởng, Giáo hữu Ngọc Thành Thanh","Điện thoại":null,"layer_id":366,"fid":20,"label":"Họ đạo Thập Ngũ Đài Quang"}},{"type":"Feature","geometry":{"type":"Point","coordinates":[106.387768146,10.047737201]},"properties":{"Cao đài tiên thiên":"Họ đạo Cửu Huê Đài","Địa chỉ":"xã An Định","Tôn giáo":"Cao Đài ","Người đại diện":"Hội trưởng, Giáo hữu Thượng Tài Thanh","Điện thoại":null,"layer_id":366,"fid":21,"label":"Họ đạo Cửu Huê Đài"}},{"type":"Feature","geometry":{"type":"Point","coordinates":[106.299568809,10.150986443]},"properties":{"Cao đài tiên thiên":"Họ đạo Minh Hữu Huyền Quang","Địa chỉ":"xã Tân Thành Bình","Tôn giáo":"Cao Đài ","Người đại diện":"Hội trưởng, Giáo hữu Hương Cúc","Điện thoại":null,"layer_id":366,"fid":22,"label":"Họ đạo Minh Hữu Huyền Quang"}},{"type":"Feature","geometry":{"type":"Point","coordinates":[106.300917038,10.20458814]},"properties":{"Cao đài tiên thiên":"Họ đạo Bồng Hải Đảo","Địa chỉ":"xã Phước Mỹ Trung","Tôn giáo":"Cao Đài ","Người đại diện":"Phó Hội trưởng, Lễ sanh Thái Hùng Thanh","Điện thoại":null,"layer_id":366,"fid":23,"label":"Họ đạo Bồng Hải Đảo"}},{"type":"Feature","geometry":{"type":"Point","coordinates":[106.283249736,10.237327286]},"properties":{"Cao đài tiên thiên":"Họ đạo Châu Linh Bát Bửu","Địa chỉ":"xã Phước Mỹ Trung","Tôn giáo":"Cao Đài ","Người đại diện":"Hội trưởng, Giáo hữu Hương Mười","Điện thoại":null,"layer_id":366,"fid":24,"label":"Họ đạo Châu Linh Bát Bửu"}},{"type":"Feature","geometry":{"type":"Point","coordinates":[106.331754725,10.207740916]},"properties":{"Cao đài tiên thiên":"Họ đạo Ngọc Kim Thánh Điện","Địa chỉ":"xã Tân Thành Bình","Tôn giáo":"Cao Đài ","Người đại diện":"Hội trưởng, Giáo hữu Hương Vân","Điện thoại":null,"layer_id":366,"fid":25,"label":"Họ đạo Ngọc Kim Thánh Điện"}},{"type":"Feature","geometry":{"type":"Point","coordinates":[106.377084096,10.0829156]},"properties":{"Cao đài tiên thiên":"Họ đạo Huê Cảnh Đài","Địa chỉ":"xã An Định","Tôn giáo":"Cao Đài ","Người đại diện":"Hội trưởng, Giáo hữu Hương Thanh","Điện thoại":null,"layer_id":366,"fid":26,"label":"Họ đạo Huê Cảnh Đài"}},{"type":"Feature","geometry":{"type":"Point","coordinates":[106.122425123,10.269944302]},"properties":{"Cao đài tiên thiên":"Họ đạo An Tiên","Địa chỉ":"xã Chợ Lách","Tôn giáo":"Cao Đài ","Người đại diện":"Hội trưởng, Giáo hữu Hương Huệ","Điện thoại":null,"layer_id":366,"fid":27,"label":"Họ đạo An Tiên"}},{"type":"Feature","geometry":{"type":"Point","coordinates":[106.039677029,10.288045134]},"properties":{"Cao đài tiên thiên":"Họ đạo An Phước","Địa chỉ":"xã Phú Phụng","Tôn giáo":"Cao Đài ","Người đại diện":"Hội trưởng, Giáo hữu Thái Hùng Thanh","Điện thoại":null,"layer_id":366,"fid":28,"label":"Họ đạo An Phước"}},{"type":"Feature","geometry":{"type":"Point","coordinates":[106.653276804,9.917097279]},"properties":{"Cao đài tiên thiên":"Họ đạo Bạch Hổ Thiên Quang (Ly khai)","Địa chỉ":"xã Thạnh Hải","Tôn giáo":"Cao Đài ","Người đại diện":"Nguyễn Hải Âu","Điện thoại":null,"layer_id":366,"fid":29,"label":"Họ đạo Bạch Hổ Thiên Quang (Ly khai)"}},{"type":"Feature","geometry":{"type":"Point","coordinates":[106.446657418,10.024353081]},"properties":{"Cao đài tiên thiên":"Họ đạo Bạch Long Cung Hoàng (ly khai)","Địa chỉ":"xã Đại Điền","Tôn giáo":"Cao Đài ","Người đại diện":"Lê Văn Tấn","Điện thoại":null,"layer_id":366,"fid":30,"label":"Họ đạo Bạch Long Cung Hoàng (ly khai)"}},{"type":"Feature","geometry":{"type":"Point","coordinates":[106.236659396,10.265792989]},"properties":{"Cao đài tiên thiên":"Điện thờ Phật Mẫu","Địa chỉ":"xã Tiên Thủy","Tôn giáo":"Cao Đài ","Người đại diện":"Chánh Phối sư Hương Hương","Điện thoại":null,"layer_id":366,"fid":31,"label":"Điện thờ Phật Mẫu"}},{"type":"Feature","geometry":{"type":"Point","coordinates":[106.094341777,10.159130047]},"properties":{"Cao đài tiên thiên":"Họ đạo Ngọc Sơn Quang","Địa chỉ":"xã Tân Long Hội","Tôn giáo":"Cao Đài ","Người đại diện":"Giáo hữu Ngọc Như Thanh","Điện thoại":null,"layer_id":366,"fid":32,"label":"Họ đạo Ngọc Sơn Quang"}},{"type":"Feature","geometry":{"type":"Point","coordinates":[106.10293925,10.191779194]},"properties":{"Cao đài tiên thiên":"Họ đạo Bửu Quang Cảnh","Địa chỉ":"xã Cái Nhum","Tôn giáo":"Cao Đài ","Người đại diện":"Giáo hữu Thái Phúc Thanh","Điện thoại":null,"layer_id":366,"fid":33,"label":"Họ đạo Bửu Quang Cảnh"}},{"type":"Feature","geometry":{"type":"Point","coordinates":[106.017451551,10.198072783]},"properties":{"Cao đài tiên thiên":"Họ đạo Linh Quang Thiền Môn","Địa chỉ":"xã Bình Phước","Tôn giáo":"Cao Đài ","Người đại diện":"Giáo hữu Hương Sang","Điện thoại":null,"layer_id":366,"fid":34,"label":"Họ đạo Linh Quang Thiền Môn"}},{"type":"Feature","geometry":{"type":"Point","coordinates":[106.074034173,9.971997668]},"properties":{"Cao đài tiên thiên":"Họ đạo Huỳnh Long Phủ Tự","Địa chỉ":"xã Hiếu Thành","Tôn giáo":"Cao Đài ","Người đại diện":"Giáo hữu Thượng An Thanh","Điện thoại":null,"layer_id":366,"fid":35,"label":"Họ đạo Huỳnh Long Phủ Tự"}},{"type":"Feature","geometry":{"type":"Point","coordinates":[106.084204465,10.11819393]},"properties":{"Cao đài tiên thiên":"Họ đạo Thanh Long Cung","Địa chỉ":"xã Trung Hiệp","Tôn giáo":"Cao Đài ","Người đại diện":"Giáo sư Thanh Trí","Điện thoại":null,"layer_id":366,"fid":36,"label":"Họ đạo Thanh Long Cung"}},{"type":"Feature","geometry":{"type":"Point","coordinates":[106.128552582,10.124514953]},"properties":{"Cao đài tiên thiên":"Họ đạo Bửu Linh Đài","Địa chỉ":"xã Trung Hiệp","Tôn giáo":"Cao Đài ","Người đại diện":"Lễ sanh Thượng Tăng Thanh","Điện thoại":null,"layer_id":366,"fid":37,"label":"Họ đạo Bửu Linh Đài"}},{"type":"Feature","geometry":{"type":"Point","coordinates":[106.180176893,10.105090736]},"properties":{"Cao đài tiên thiên":"Họ đạo Ngọc Thanh Quang","Địa chỉ":"xã Quới An","Tôn giáo":"Cao Đài ","Người đại diện":"Giáo hữu Thượng Nước Thanh","Điện thoại":null,"layer_id":366,"fid":38,"label":"Họ đạo Ngọc Thanh Quang"}},{"type":"Feature","geometry":{"type":"Point","coordinates":[106.013668909,9.936197405]},"properties":{"Cao đài tiên thiên":"Họ đạo Vĩnh Ca Phủ Tự","Địa chỉ":"xã Vĩnh Xuân","Tôn giáo":"Cao Đài ","Người đại diện":"Lễ sanh Ngọc Thanh Thanh","Điện thoại":null,"layer_id":366,"fid":39,"label":"Họ đạo Vĩnh Ca Phủ Tự"}},{"type":"Feature","geometry":{"type":"Point","coordinates":[106.046022923,10.078957002]},"properties":{"Cao đài tiên thiên":"Họ đạo Bạch Quang Đàn","Địa chỉ":"xã Hòa Bình","Tôn giáo":"Cao Đài ","Người đại diện":"Giáo hữu Ngọc Tâm Thanh","Điện thoại":null,"layer_id":366,"fid":40,"label":"Họ đạo Bạch Quang Đàn"}},{"type":"Feature","geometry":{"type":"Point","coordinates":[106.025985145,10.044540942]},"properties":{"Cao đài tiên thiên":"Họ đạo Cửu Khúc Tòa","Địa chỉ":"xã Trà Côn","Tôn giáo":"Cao Đài ","Người đại diện":"Giáo hữu Thái Quốc Thanh","Điện thoại":null,"layer_id":366,"fid":41,"label":"Họ đạo Cửu Khúc Tòa"}},{"type":"Feature","geometry":{"type":"Point","coordinates":[105.993494196,9.925281382]},"properties":{"Cao đài tiên thiên":"Họ đạo Ngọc Đài Long Tự","Địa chỉ":"xã Trà Ôn","Tôn giáo":"Cao Đài ","Người đại diện":"Lễ sanh Ngọc Nhu Thanh","Điện thoại":null,"layer_id":366,"fid":42,"label":"Họ đạo Ngọc Đài Long Tự"}},{"type":"Feature","geometry":{"type":"Point","coordinates":[106.080703463,9.963183761]},"properties":{"Cao đài tiên thiên":"Họ đạo An Hòa","Địa chỉ":"xã Vĩnh Xuân","Tôn giáo":"Cao Đài ","Người đại diện":"Lễ sanh Hương Điệp","Điện thoại":null,"layer_id":366,"fid":43,"label":"Họ đạo An Hòa"}},{"type":"Feature","geometry":{"type":"Point","coordinates":[105.951575137,9.986649131]},"properties":{"Cao đài tiên thiên":"Họ đạo Bạch Hổ Quang","Địa chỉ":"xã Trà Côn","Tôn giáo":"Cao Đài ","Người đại diện":"Lễ sanh Ngọc Nghiệp Thanh","Điện thoại":null,"layer_id":366,"fid":44,"label":"Họ đạo Bạch Hổ Quang"}},{"type":"Feature","geometry":{"type":"Point","coordinates":[106.064482038,10.016040909]},"properties":{"Cao đài tiên thiên":"Họ đạo Ngọc Quang Đài","Địa chỉ":"xã Hòa Bình","Tôn giáo":"Cao Đài ","Người đại diện":"Giáo hữu Thái Giàu Thanh","Điện thoại":null,"layer_id":366,"fid":45,"label":"Họ đạo Ngọc Quang Đài"}},{"type":"Feature","geometry":{"type":"Point","coordinates":[106.070085208,10.108223825]},"properties":{"Cao đài tiên thiên":"Họ đạo Ngọc Long Bửu Tự","Địa chỉ":"xã Hòa Hiệp","Tôn giáo":"Cao Đài ","Người đại diện":"Lễ sanh Thượng Lộc Thanh","Điện thoại":null,"layer_id":366,"fid":46,"label":"Họ đạo Ngọc Long Bửu Tự"}},{"type":"Feature","geometry":{"type":"Point","coordinates":[105.991154494,10.114932183]},"properties":{"Cao đài tiên thiên":"Họ đạo Long Hoàng Am Tự","Địa chỉ":"xã Cái Ngang","Tôn giáo":"Cao Đài ","Người đại diện":"Trương Tấn Hưng","Điện thoại":null,"layer_id":366,"fid":47,"label":"Họ đạo Long Hoàng Am Tự"}},{"type":"Feature","geometry":{"type":"Point","coordinates":[106.002140952,10.050742904]},"properties":{"Cao đài tiên thiên":"Họ đạo Linh Châu Kim Đức","Địa chỉ":"xã Tam Bình","Tôn giáo":"Cao Đài ","Người đại diện":"Giáo sư Thượng Tế Thanh","Điện thoại":null,"layer_id":366,"fid":48,"label":"Họ đạo Linh Châu Kim Đức"}},{"type":"Feature","geometry":{"type":"Point","coordinates":[105.911125587,10.016129316]},"properties":{"Cao đài tiên thiên":"Họ đạo Tam Hòa Linh","Địa chỉ":"xã Ngãi Tứ","Tôn giáo":"Cao Đài ","Người đại diện":"Giáo hữu Hương Sa","Điện thoại":null,"layer_id":366,"fid":49,"label":"Họ đạo Tam Hòa Linh"}},{"type":"Feature","geometry":{"type":"Point","coordinates":[106.019351636,10.288732847]},"properties":{"Cao đài tiên thiên":"Họ đạo An Thiên","Địa chỉ":"xã An Bình","Tôn giáo":"Cao Đài ","Người đại diện":"Hội trưởng, Giáo hữu Ngọc Chánh Thanh","Điện thoại":null,"layer_id":366,"fid":50,"label":"Họ đạo An Thiên"}},{"type":"Feature","geometry":{"type":"Point","coordinates":[106.037347618,9.861284382]},"properties":{"Cao đài tiên thiên":"Họ đạo Bát Cảnh Cung","Địa chỉ":"xã An Phú Tân","Tôn giáo":"Cao Đài ","Người đại diện":"GH Hương Hoàng","Điện thoại":null,"layer_id":366,"fid":51,"label":"Họ đạo Bát Cảnh Cung"}},{"type":"Feature","geometry":{"type":"Point","coordinates":[106.180396989,9.734505003]},"properties":{"Cao đài tiên thiên":"Họ đạo Ngọc Hương Đài","Địa chỉ":"xã Lưu Nghiệp Anh","Tôn giáo":"Cao Đài ","Người đại diện":"GH Hương Ba","Điện thoại":null,"layer_id":366,"fid":52,"label":"Họ đạo Ngọc Hương Đài"}},{"type":"Feature","geometry":{"type":"Point","coordinates":[106.037864988,9.898657927]},"properties":{"Cao đài tiên thiên":"Họ đạo Thanh Long Tràng Võ","Địa chỉ":"xã Tam Ngãi","Tôn giáo":"Cao Đài ","Người đại diện":"Nguyễn Bích Phượng","Điện thoại":null,"layer_id":366,"fid":53,"label":"Họ đạo Thanh Long Tràng Võ"}}]}
