{"type":"FeatureCollection","name":"DN Chuyển đổi số","metadata":{"source":"https://hatang.vinhlong.gov.vn/","downloaded_at":"2026-07-20T01:19:40+00:00","layer_id":369,"layer_name":"DN Chuyển đổi số","catalog_endpoints":["/map/publicLayers2?inputs=sokhdt"],"requested_bbox":[104.0,8.0,108.0,12.0],"tile_size":0.0,"tile_count":1,"tile_errors":[],"feature_count":100,"coordinate_order":"x,y (thường là longitude,latitude theo cấu hình EPSG:4326 của WebGIS)"},"features":[{"type":"Feature","geometry":{"type":"Point","coordinates":[106.062223118,10.240033654]},"properties":{"Mã số DN Chuyển đổi số":"1301163673","Tên DN Chuyển đổi số":"CÔNG TY TNHH HIỆP PHÁT TTC","Địa chỉ trụ sở chính":"Thửa đất số 98, tờ bản đồ số 3, tổ 1, ấp Phú Hòa, Xã Nhơn Phú, Tỉnh Vĩnh Long, Việt Nam","Điện thoại":"0914389138","Ngành nghề kinh doanh chính":"4312:Chuẩn bị mặt bằng","Loại hình doanh nghiệp":"Cty 1TV","Ghi chú":"DN thanh lap moi tu 1-1-2026 den 28-2-2026","layer_id":369,"fid":1,"label":"CÔNG TY TNHH HIỆP PHÁT TTC"}},{"type":"Feature","geometry":{"type":"Point","coordinates":[106.227440443,10.013386546]},"properties":{"Mã số DN Chuyển đổi số":"2100711882","Tên DN Chuyển đổi số":"CÔNG TY TNHH PHÁT TRIỂN GIÁO DỤC BRAIN UP","Địa chỉ trụ sở chính":"Số 32, đường ĐT 913, ấp Mỹ Trường, Xã Càng Long, Tỉnh Vĩnh Long, Việt Nam","Điện thoại":"0939819519","Ngành nghề kinh doanh chính":"8559:Giáo dục khác chưa được phân vào đâu","Loại hình doanh nghiệp":"Cty 1TV","Ghi chú":"DN thanh lap moi tu 1-1-2026 den 28-2-2026","layer_id":369,"fid":2,"label":"CÔNG TY TNHH PHÁT TRIỂN GIÁO DỤC BRAIN UP"}},{"type":"Feature","geometry":{"type":"Point","coordinates":[106.390703881,10.237716694]},"properties":{"Mã số DN Chuyển đổi số":"1301164204","Tên DN Chuyển đổi số":"CÔNG TY TRÁCH NHIỆM HỮU HẠN  MỘT THÀNH VIÊN NGÂN TÚ BT","Địa chỉ trụ sở chính":"Số 575e Lộ Thầy Cai, Khu phố Phú Thành, Phường Phú Khương, Tỉnh Vĩnh Long, Việt Nam","Điện thoại":"0829024304","Ngành nghề kinh doanh chính":"4711:Bán lẻ tổng hợp với lương thực, thực phẩm, đồ uống, thuốc lá, thuốc lào chiếm tỷ trọng lớn","Loại hình doanh nghiệp":"Cty 1TV","Ghi chú":"DN thanh lap moi tu 1-1-2026 den 28-2-2026","layer_id":369,"fid":3,"label":"CÔNG TY TRÁCH NHIỆM HỮU HẠN  MỘT THÀNH VIÊN NGÂN TÚ BT"}},{"type":"Feature","geometry":{"type":"Point","coordinates":[106.510097471,9.807374802]},"properties":{"Mã số DN Chuyển đổi số":"2100711191","Tên DN Chuyển đổi số":"CÔNG TY TNHH MTV THỨC ĂN THỦY SẢN MINH NHỰT","Địa chỉ trụ sở chính":"Số 103, Ấp Nhứt B, Xã Mỹ Long, Tỉnh Vĩnh Long, Việt Nam","Điện thoại":"0385499498","Ngành nghề kinh doanh chính":"4620:Bán buôn nông, lâm sản nguyên liệu (trừ gỗ, tre, nứa) và động vật sống","Loại hình doanh nghiệp":"Cty 1TV","Ghi chú":"DN thanh lap moi tu 1-1-2026 den 28-2-2026","layer_id":369,"fid":4,"label":"CÔNG TY TNHH MTV THỨC ĂN THỦY SẢN MINH NHỰT"}},{"type":"Feature","geometry":{"type":"Point","coordinates":[105.894154793,10.267598454]},"properties":{"Mã số DN Chuyển đổi số":"1501165318","Tên DN Chuyển đổi số":"CÔNG TY TNHH MTV MỸ THÀNH GIANG VĨNH LONG","Địa chỉ trụ sở chính":"Số 340, Khóm Tân Vĩnh Thuận, Phường Tân Ngãi, Tỉnh Vĩnh Long, Việt Nam","Điện thoại":"0907712317","Ngành nghề kinh doanh chính":"4759:Bán lẻ đồ điện gia dụng, giường, tủ, bàn, ghế và đồ nội thất tương tự, đèn và bộ đèn điện, đồ dùng gia đình khác chưa được phân vào đâu","Loại hình doanh nghiệp":"Cty 1TV","Ghi chú":"DN thanh lap moi tu 1-1-2026 den 28-2-2026","layer_id":369,"fid":5,"label":"CÔNG TY TNHH MTV MỸ THÀNH GIANG VĨNH LONG"}},{"type":"Feature","geometry":{"type":"Point","coordinates":[106.281498369,9.788119484]},"properties":{"Mã số DN Chuyển đổi số":"2100710825","Tên DN Chuyển đổi số":"CÔNG TY TNHH MTV THƯƠNG MẠI DỊCH VỤ TÔN - SẮT - THÉP TÂN ĐỨC ĐỊNH - TIỂU CẦN","Địa chỉ trụ sở chính":"Thửa đất số 23, Tờ bản đồ số 15, Ấp Ô Đùng, Xã Tập Ngãi, Tỉnh Vĩnh Long, Việt Nam","Điện thoại":"0333257235","Ngành nghề kinh doanh chính":"4672:Bán buôn kim loại và quặng kim loại","Loại hình doanh nghiệp":"Cty 1TV","Ghi chú":"DN thanh lap moi tu 1-1-2026 den 28-2-2026","layer_id":369,"fid":6,"label":"CÔNG TY TNHH MTV THƯƠNG MẠI DỊCH VỤ TÔN - SẮT - THÉP TÂN ĐỨC ĐỊNH - TIỂU CẦN"}},{"type":"Feature","geometry":{"type":"Point","coordinates":[106.334285756,10.128817298]},"properties":{"Mã số DN Chuyển đổi số":"1301163257","Tên DN Chuyển đổi số":"CÔNG TY TNHH CÀ PHÊ - TRÀ PHI LONG","Địa chỉ trụ sở chính":"Thửa đất số 923, tờ bản đồ số 11, Ấp An Lộc Giồng, Xã Mỏ Cày, Tỉnh Vĩnh Long, Việt Nam","Điện thoại":"0349978468","Ngành nghề kinh doanh chính":"4632:Bán buôn thực phẩm","Loại hình doanh nghiệp":"Cty 1TV","Ghi chú":"DN thanh lap moi tu 1-1-2026 den 28-2-2026","layer_id":369,"fid":7,"label":"CÔNG TY TNHH CÀ PHÊ - TRÀ PHI LONG"}},{"type":"Feature","geometry":{"type":"Point","coordinates":[106.169584073,10.084832867]},"properties":{"Mã số DN Chuyển đổi số":"1501166431","Tên DN Chuyển đổi số":"CÔNG TY TNHH TM DV PT LAN HƯƠNG","Địa chỉ trụ sở chính":"166 Tổ 2B, Ấp Trung Tín, Xã Trung Thành, Tỉnh Vĩnh Long, Việt Nam","Điện thoại":"0776763461","Ngành nghề kinh doanh chính":"4672:Bán buôn kim loại và quặng kim loại","Loại hình doanh nghiệp":"Cty 1TV","Ghi chú":"DN thanh lap moi tu 1-1-2026 den 28-2-2026","layer_id":369,"fid":78,"label":"CÔNG TY TNHH TM DV PT LAN HƯƠNG"}},{"type":"Feature","geometry":{"type":"Point","coordinates":[106.116661641,10.180507022]},"properties":{"Mã số DN Chuyển đổi số":"1501165653","Tên DN Chuyển đổi số":"CÔNG TY TNHH DV-TM-XNK LỢI NÔNG","Địa chỉ trụ sở chính":"Thửa đất số 488, tờ bản đồ số 18, tổ 21, ấp Tân Mỹ, Xã Cái Nhum, Tỉnh Vĩnh Long, Việt Nam","Điện thoại":"0949713171","Ngành nghề kinh doanh chính":"4679:Bán buôn chuyên doanh khác chưa được phân vào đâu","Loại hình doanh nghiệp":"Cty 1TV","Ghi chú":"DN thanh lap moi tu 1-1-2026 den 28-2-2026","layer_id":369,"fid":8,"label":"CÔNG TY TNHH DV-TM-XNK LỢI NÔNG"}},{"type":"Feature","geometry":{"type":"Point","coordinates":[105.899025581,10.109535065]},"properties":{"Mã số DN Chuyển đổi số":"1501166939","Tên DN Chuyển đổi số":"CÔNG TY TNHH LAB TÂM VIỆT","Địa chỉ trụ sở chính":"Số 14 Đường Quốc Lộ 1A, Tổ 13, Ấp Phú An, Xã Song Phú, Tỉnh Vĩnh Long, Việt Nam","Điện thoại":"0932 699 150","Ngành nghề kinh doanh chính":"3250:Sản xuất thiết bị, dụng cụ y tế, nha khoa, chỉnh hình và phục hồi chức năng","Loại hình doanh nghiệp":"Cty 1TV","Ghi chú":"DN thanh lap moi tu 1-1-2026 den 28-2-2026","layer_id":369,"fid":9,"label":"CÔNG TY TNHH LAB TÂM VIỆT"}},{"type":"Feature","geometry":{"type":"Point","coordinates":[105.950080052,10.241577905]},"properties":{"Mã số DN Chuyển đổi số":"1501165678","Tên DN Chuyển đổi số":"CÔNG TY TNHH THƯƠNG MẠI TIỀN ĐÔ","Địa chỉ trụ sở chính":"Số nhà 11a, Tổ 5, ấp Tân An, Phường Tân Hạnh, Tỉnh Vĩnh Long, Việt Nam","Điện thoại":"0979818383","Ngành nghề kinh doanh chính":"4632:Bán buôn thực phẩm","Loại hình doanh nghiệp":"Cty 1TV","Ghi chú":"DN thanh lap moi tu 1-1-2026 den 28-2-2026","layer_id":369,"fid":10,"label":"CÔNG TY TNHH THƯƠNG MẠI TIỀN ĐÔ"}},{"type":"Feature","geometry":{"type":"Point","coordinates":[106.400191509,10.143820947]},"properties":{"Mã số DN Chuyển đổi số":"1301163497","Tên DN Chuyển đổi số":"CÔNG TY TNHH MỘT THÀNH VIÊN CƠ KHÍ CHẾ TẠO HOÀNG TÂN ","Địa chỉ trụ sở chính":"Số 289, Ấp Long Thị , Xã Phước Long, Tỉnh Vĩnh Long, Việt Nam","Điện thoại":"0918813377","Ngành nghề kinh doanh chính":"2599:Sản xuất sản phẩm khác bằng kim loại chưa được phân vào đâu","Loại hình doanh nghiệp":"Cty 1TV","Ghi chú":"DN thanh lap moi tu 1-1-2026 den 28-2-2026","layer_id":369,"fid":11,"label":"CÔNG TY TNHH MỘT THÀNH VIÊN CƠ KHÍ CHẾ TẠO HOÀNG TÂN "}},{"type":"Feature","geometry":{"type":"Point","coordinates":[106.267901631,10.018838577]},"properties":{"Mã số DN Chuyển đổi số":"2100711057","Tên DN Chuyển đổi số":"CÔNG TY TNHH MỘT THÀNH VIÊN SẢN XUẤT VẠN THANH TÂN","Địa chỉ trụ sở chính":"Ấp Đại Đức, Xã Nhị Long, Tỉnh Vĩnh Long, Việt Nam","Điện thoại":"0768696469","Ngành nghề kinh doanh chính":"4631:Bán buôn gạo, lúa mỳ, sản phẩm từ ngũ cốc khác, bột mỳ","Loại hình doanh nghiệp":"Cty 1TV","Ghi chú":"DN thanh lap moi tu 1-1-2026 den 28-2-2026","layer_id":369,"fid":12,"label":"CÔNG TY TNHH MỘT THÀNH VIÊN SẢN XUẤT VẠN THANH TÂN"}},{"type":"Feature","geometry":{"type":"Point","coordinates":[105.950690988,10.241706133]},"properties":{"Mã số DN Chuyển đổi số":"1501165766","Tên DN Chuyển đổi số":"CÔNG TY TNHH MTV TM DV PHONG VINH VĨNH LONG","Địa chỉ trụ sở chính":"Số 7A/13, Khóm Tân An, Phường Tân Hạnh, Tỉnh Vĩnh Long, Việt Nam","Điện thoại":"0389544741","Ngành nghề kinh doanh chính":"3830:Tái chế phế liệu","Loại hình doanh nghiệp":"Cty 1TV","Ghi chú":"DN thanh lap moi tu 1-1-2026 den 28-2-2026","layer_id":369,"fid":13,"label":"CÔNG TY TNHH MTV TM DV PHONG VINH VĨNH LONG"}},{"type":"Feature","geometry":{"type":"Point","coordinates":[105.977872373,10.239190713]},"properties":{"Mã số DN Chuyển đổi số":"1501166350","Tên DN Chuyển đổi số":"CÔNG TY TNHH MTV SX TM THỦY SẢN VẠN KIM","Địa chỉ trụ sở chính":"Số 121E đường Lò Rèn, khóm 1, Phường Phước Hậu, Tỉnh Vĩnh Long, Việt Nam","Điện thoại":"0909572269","Ngành nghề kinh doanh chính":"1020:Chế biến, bảo quản thủy sản và các sản phẩm từ thủy sản","Loại hình doanh nghiệp":"Cty 1TV","Ghi chú":"DN thanh lap moi tu 1-1-2026 den 28-2-2026","layer_id":369,"fid":14,"label":"CÔNG TY TNHH MTV SX TM THỦY SẢN VẠN KIM"}},{"type":"Feature","geometry":{"type":"Point","coordinates":[105.996344847,10.049954791]},"properties":{"Mã số DN Chuyển đổi số":"1501166248","Tên DN Chuyển đổi số":"CÔNG TY TNHH KINH DOANH THƯƠNG MẠI DỊCH VỤ SẢN XUẤT HƯNG THỊNH","Địa chỉ trụ sở chính":"Số 100, đường Võ Tấn Đức, ấp 2, Xã Tam Bình, Tỉnh Vĩnh Long, Việt Nam","Điện thoại":"0939259134","Ngành nghề kinh doanh chính":"4679:Bán buôn chuyên doanh khác chưa được phân vào đâu","Loại hình doanh nghiệp":"Cty 1TV","Ghi chú":"DN thanh lap moi tu 1-1-2026 den 28-2-2026","layer_id":369,"fid":15,"label":"CÔNG TY TNHH KINH DOANH THƯƠNG MẠI DỊCH VỤ SẢN XUẤT HƯNG THỊNH"}},{"type":"Feature","geometry":{"type":"Point","coordinates":[106.360703501,9.698802485]},"properties":{"Mã số DN Chuyển đổi số":"2100712131","Tên DN Chuyển đổi số":"CÔNG TY TNHH MTV HƯƠNG QUÊ TCTV","Địa chỉ trụ sở chính":"Tỉnh lộ 914, ấp Bà Nhì, Xã Đôn Châu, Tỉnh Vĩnh Long, Việt Nam","Điện thoại":"0919628787","Ngành nghề kinh doanh chính":"4633:Bán buôn đồ uống","Loại hình doanh nghiệp":"Cty 1TV","Ghi chú":"DN thanh lap moi tu 1-1-2026 den 28-2-2026","layer_id":369,"fid":16,"label":"CÔNG TY TNHH MTV HƯƠNG QUÊ TCTV"}},{"type":"Feature","geometry":{"type":"Point","coordinates":[106.546642296,10.057243469]},"properties":{"Mã số DN Chuyển đổi số":"1301163176","Tên DN Chuyển đổi số":"CÔNG TY TNHH MTV TRỌNG MINH VN","Địa chỉ trụ sở chính":"Số 262/HN, Ấp Hưng Nhơn, Xã An Hiệp, Tỉnh Vĩnh Long, Việt Nam","Điện thoại":"0392124979","Ngành nghề kinh doanh chính":"4620:Bán buôn nông, lâm sản nguyên liệu (trừ gỗ, tre, nứa) và động vật sống","Loại hình doanh nghiệp":"Cty 1TV","Ghi chú":"DN thanh lap moi tu 1-1-2026 den 28-2-2026","layer_id":369,"fid":17,"label":"CÔNG TY TNHH MTV TRỌNG MINH VN"}},{"type":"Feature","geometry":{"type":"Point","coordinates":[105.966289837,10.253410629]},"properties":{"Mã số DN Chuyển đổi số":"1501164970","Tên DN Chuyển đổi số":"CÔNG TY TNHH MỘT THÀNH VIÊN THƯƠNG MẠI VÀ ĐẠI LÝ TÀU BIỂN AN TÂM","Địa chỉ trụ sở chính":"Số 127 đường Hoàng Hoa Thám, Phường Long Châu, Tỉnh Vĩnh Long, Việt Nam","Điện thoại":"0903978004","Ngành nghề kinh doanh chính":"5229:Hoạt động dịch vụ hỗ trợ khác liên quan đến vận tải","Loại hình doanh nghiệp":"Cty 1TV","Ghi chú":"DN thanh lap moi tu 1-1-2026 den 28-2-2026","layer_id":369,"fid":18,"label":"CÔNG TY TNHH MỘT THÀNH VIÊN THƯƠNG MẠI VÀ ĐẠI LÝ TÀU BIỂN AN TÂM"}},{"type":"Feature","geometry":{"type":"Point","coordinates":[106.260774553,10.015301454]},"properties":{"Mã số DN Chuyển đổi số":"2100710705","Tên DN Chuyển đổi số":"CÔNG TY TNHH QUỲNH TIÊN","Địa chỉ trụ sở chính":"Ấp Đon, Xã Nhị Long, Tỉnh Vĩnh Long, Việt Nam","Điện thoại":"0914091198","Ngành nghề kinh doanh chính":"4620:Bán buôn nông, lâm sản nguyên liệu (trừ gỗ, tre, nứa) và động vật sống","Loại hình doanh nghiệp":"Cty 1TV","Ghi chú":"DN thanh lap moi tu 1-1-2026 den 28-2-2026","layer_id":369,"fid":19,"label":"CÔNG TY TNHH QUỲNH TIÊN"}},{"type":"Feature","geometry":{"type":"Point","coordinates":[106.518822899,9.689773574]},"properties":{"Mã số DN Chuyển đổi số":"2100712011","Tên DN Chuyển đổi số":"CÔNG TY TNHH THU MUA THUỶ HẢI SẢN TẤN PHÁT NGUYÊN","Địa chỉ trụ sở chính":"Số 272 Quốc lộ 53, Khóm 30/4, Phường Trường Long Hòa, Tỉnh Vĩnh Long, Việt Nam","Điện thoại":"0946523457","Ngành nghề kinh doanh chính":"4632:Bán buôn thực phẩm","Loại hình doanh nghiệp":"Cty 1TV","Ghi chú":"DN thanh lap moi tu 1-1-2026 den 28-2-2026","layer_id":369,"fid":20,"label":"CÔNG TY TNHH THU MUA THUỶ HẢI SẢN TẤN PHÁT NGUYÊN"}},{"type":"Feature","geometry":{"type":"Point","coordinates":[105.922537063,10.172785424]},"properties":{"Mã số DN Chuyển đổi số":"1501166706","Tên DN Chuyển đổi số":"CÔNG TY TNHH TM DV MTV MINH TRÍ (TDT)","Địa chỉ trụ sở chính":"126 Tổ 9, Ấp Phước Tân, Xã Phú Quới, Tỉnh Vĩnh Long, Việt Nam","Điện thoại":"0939 057 899 - 0979195958","Ngành nghề kinh doanh chính":"4632:Bán buôn thực phẩm","Loại hình doanh nghiệp":"Cty 1TV","Ghi chú":"DN thanh lap moi tu 1-1-2026 den 28-2-2026","layer_id":369,"fid":21,"label":"CÔNG TY TNHH TM DV MTV MINH TRÍ (TDT)"}},{"type":"Feature","geometry":{"type":"Point","coordinates":[106.169676491,10.082685468]},"properties":{"Mã số DN Chuyển đổi số":"1501167019","Tên DN Chuyển đổi số":"CÔNG TY TNHH MTV THỦ CÔNG MỸ NGHỆ TÂN THÀNH","Địa chỉ trụ sở chính":"Số 52, Tổ 13, Ấp Bình Thành, Xã Trung Thành, Tỉnh Vĩnh Long, Việt Nam","Điện thoại":"039.3231709","Ngành nghề kinh doanh chính":"1629:Sản xuất sản phẩm khác từ gỗ; sản xuất sản phẩm từ tre, nứa, rơm, rạ và vật liệu tết bện","Loại hình doanh nghiệp":"Cty 1TV","Ghi chú":"DN thanh lap moi tu 1-1-2026 den 28-2-2026","layer_id":369,"fid":22,"label":"CÔNG TY TNHH MTV THỦ CÔNG MỸ NGHỆ TÂN THÀNH"}},{"type":"Feature","geometry":{"type":"Point","coordinates":[106.356340658,9.960363971]},"properties":{"Mã số DN Chuyển đổi số":"2100712332","Tên DN Chuyển đổi số":"CÔNG TY TNHH BLANC PERFUME","Địa chỉ trụ sở chính":"Thửa đất số 301, Tờ bản đồ số 11, Khóm 4, Phường Hòa Thuận, Tỉnh Vĩnh Long, Việt Nam","Điện thoại":"0784700007","Ngành nghề kinh doanh chính":"4649:Bán buôn đồ dùng khác cho gia đình","Loại hình doanh nghiệp":"Cty 1TV","Ghi chú":"DN thanh lap moi tu 1-1-2026 den 28-2-2026","layer_id":369,"fid":23,"label":"CÔNG TY TNHH BLANC PERFUME"}},{"type":"Feature","geometry":{"type":"Point","coordinates":[105.923726909,10.160751536]},"properties":{"Mã số DN Chuyển đổi số":"1501165283","Tên DN Chuyển đổi số":"CÔNG TY TNHH THẾ GIỚI SỮA QUỐC CƯỜNG VĨNH LONG","Địa chỉ trụ sở chính":" Số nhà 9/8 Ấp Thạnh Hưng, Xã Phú Quới, Tỉnh Vĩnh Long, Việt Nam","Điện thoại":"0939179868 - 0939179868","Ngành nghề kinh doanh chính":"4620:Bán buôn nông, lâm sản nguyên liệu (trừ gỗ, tre, nứa) và động vật sống","Loại hình doanh nghiệp":"Cty 1TV","Ghi chú":"DN thanh lap moi tu 1-1-2026 den 28-2-2026","layer_id":369,"fid":24,"label":"CÔNG TY TNHH THẾ GIỚI SỮA QUỐC CƯỜNG VĨNH LONG"}},{"type":"Feature","geometry":{"type":"Point","coordinates":[106.698120756,10.123905586]},"properties":{"Mã số DN Chuyển đổi số":"1301165871","Tên DN Chuyển đổi số":"CÔNG TY TNHH THỦY SẢN NGỌC HUỆ BẾN TRE","Địa chỉ trụ sở chính":"Thửa đất số 463, tờ bản đồ số 8, Ấp Bình Huề 1, Xã Thạnh Phước, Tỉnh Vĩnh Long, Việt Nam","Điện thoại":"0916412179","Ngành nghề kinh doanh chính":"4620:Bán buôn nông, lâm sản nguyên liệu (trừ gỗ, tre, nứa) và động vật sống","Loại hình doanh nghiệp":"Cty 1TV","Ghi chú":"DN thanh lap moi tu 1-1-2026 den 28-2-2026","layer_id":369,"fid":25,"label":"CÔNG TY TNHH THỦY SẢN NGỌC HUỆ BẾN TRE"}},{"type":"Feature","geometry":{"type":"Point","coordinates":[106.326415882,10.122631755]},"properties":{"Mã số DN Chuyển đổi số":"1301165462","Tên DN Chuyển đổi số":"CÔNG TY TNHH TƯ VẤN XÂY DỰNG TNT GROUP","Địa chỉ trụ sở chính":"Thửa đất 566, tờ bản đồ số 17, ấp An Bình, Xã Mỏ Cày, Tỉnh Vĩnh Long, Việt Nam","Điện thoại":"0913 818145","Ngành nghề kinh doanh chính":"7120:Kiểm tra và phân tích kỹ thuật","Loại hình doanh nghiệp":"Cty 1TV","Ghi chú":"DN thanh lap moi tu 1-1-2026 den 28-2-2026","layer_id":369,"fid":26,"label":"CÔNG TY TNHH TƯ VẤN XÂY DỰNG TNT GROUP"}},{"type":"Feature","geometry":{"type":"Point","coordinates":[106.339564463,9.986663043]},"properties":{"Mã số DN Chuyển đổi số":"2100711459","Tên DN Chuyển đổi số":"CÔNG TY TNHH TM - DV QUẢNG CÁO TRUYỀN THÔNG CỬU LONG","Địa chỉ trụ sở chính":"A2 - 33, Đường Hoa Hồng, Khu Dân Cư Hoàng Quân, Khóm Sa Bình, Phường Long Đức, Tỉnh Vĩnh Long, Việt Nam","Điện thoại":"0939684567","Ngành nghề kinh doanh chính":"3512:Sản xuất điện từ nguồn năng lượng tái tạo","Loại hình doanh nghiệp":"Cty 1TV","Ghi chú":"DN thanh lap moi tu 1-1-2026 den 28-2-2026","layer_id":369,"fid":27,"label":"CÔNG TY TNHH TM - DV QUẢNG CÁO TRUYỀN THÔNG CỬU LONG"}},{"type":"Feature","geometry":{"type":"Point","coordinates":[106.379133374,10.253810899]},"properties":{"Mã số DN Chuyển đổi số":"1301165021","Tên DN Chuyển đổi số":"CÔNG TY TNHH CƠ KHÍ AN GIA PHÁT","Địa chỉ trụ sở chính":"Thửa Đất Số 365 366, Tờ Bản Đồ Số 39 Khu Phố Phú Tự , Phường Phú Khương, Tỉnh Vĩnh Long, Việt Nam","Điện thoại":"0362084124","Ngành nghề kinh doanh chính":"2592:Gia công cơ khí; xử lý và tráng phủ kim loại","Loại hình doanh nghiệp":"Cty 1TV","Ghi chú":"DN thanh lap moi tu 1-1-2026 den 28-2-2026","layer_id":369,"fid":28,"label":"CÔNG TY TNHH CƠ KHÍ AN GIA PHÁT"}},{"type":"Feature","geometry":{"type":"Point","coordinates":[106.217535672,9.930042872]},"properties":{"Mã số DN Chuyển đổi số":"2100712396","Tên DN Chuyển đổi số":"CÔNG TY TNHH  MỘT THÀNH VIÊN LƯƠNG THỰC THUẬN PHƯỚC THỊNH ","Địa chỉ trụ sở chính":"Số 1052 Hương Lộ 2, ấp Tân Trung, Xã Tân An, Tỉnh Vĩnh Long, Việt Nam","Điện thoại":"0969227711","Ngành nghề kinh doanh chính":"4631:Bán buôn gạo, lúa mỳ, sản phẩm từ ngũ cốc khác, bột mỳ","Loại hình doanh nghiệp":"Cty 1TV","Ghi chú":"DN thanh lap moi tu 1-1-2026 den 28-2-2026","layer_id":369,"fid":29,"label":"CÔNG TY TNHH  MỘT THÀNH VIÊN LƯƠNG THỰC THUẬN PHƯỚC THỊNH "}},{"type":"Feature","geometry":{"type":"Point","coordinates":[106.339153458,9.943683971]},"properties":{"Mã số DN Chuyển đổi số":"2100711716","Tên DN Chuyển đổi số":"CÔNG TY TNHH ANH QUÂN FOOD","Địa chỉ trụ sở chính":"300C, Phạm Ngũ Lão, Khóm 4, Phường Trà Vinh, Tỉnh Vĩnh Long, Việt Nam","Điện thoại":"0968 238 777","Ngành nghề kinh doanh chính":"4632:Bán buôn thực phẩm","Loại hình doanh nghiệp":"Cty 1TV","Ghi chú":"DN thanh lap moi tu 1-1-2026 den 28-2-2026","layer_id":369,"fid":30,"label":"CÔNG TY TNHH ANH QUÂN FOOD"}},{"type":"Feature","geometry":{"type":"Point","coordinates":[106.508345035,9.690371044]},"properties":{"Mã số DN Chuyển đổi số":"2100712607","Tên DN Chuyển đổi số":"CÔNG TY TNHH MTV BA HÙNG 2","Địa chỉ trụ sở chính":"Số 62 Quốc lộ 53, Khóm 1, Phường Trường Long Hòa, Tỉnh Vĩnh Long, Việt Nam","Điện thoại":"0979 837 277","Ngành nghề kinh doanh chính":"4679:Bán buôn chuyên doanh khác chưa được phân vào đâu","Loại hình doanh nghiệp":"Cty 1TV","Ghi chú":"DN thanh lap moi tu 1-1-2026 den 28-2-2026","layer_id":369,"fid":77,"label":"CÔNG TY TNHH MTV BA HÙNG 2"}},{"type":"Feature","geometry":{"type":"Point","coordinates":[106.113216335,10.176780484]},"properties":{"Mã số DN Chuyển đổi số":"1501165967","Tên DN Chuyển đổi số":"CÔNG TY TNHH MTV NGỌC VỊ MANG THÍT","Địa chỉ trụ sở chính":"Số 25/8, tổ 16, đường 3/2, khóm 1, Xã Cái Nhum, Tỉnh Vĩnh Long, Việt Nam","Điện thoại":"0932818279","Ngành nghề kinh doanh chính":"4620:Bán buôn nông, lâm sản nguyên liệu (trừ gỗ, tre, nứa) và động vật sống","Loại hình doanh nghiệp":"Cty 1TV","Ghi chú":"DN thanh lap moi tu 1-1-2026 den 28-2-2026","layer_id":369,"fid":31,"label":"CÔNG TY TNHH MTV NGỌC VỊ MANG THÍT"}},{"type":"Feature","geometry":{"type":"Point","coordinates":[105.973297539,10.255819369]},"properties":{"Mã số DN Chuyển đổi số":"1501165815","Tên DN Chuyển đổi số":"CÔNG TY TNHH VÀNG BẠC ĐÁ QUÝ KIM PHÚ HƯNG","Địa chỉ trụ sở chính":"Số 09, khu Thương mại và nhà ở liên kế, đường Hùng Vương, khóm Hùng Vương, Phường Long Châu, Tỉnh Vĩnh Long, Việt Nam","Điện thoại":"0962796464","Ngành nghề kinh doanh chính":"4773:Bán lẻ hàng hóa khác mới (trừ ô tô, mô tô, xe máy và các bộ phận phụ trợ)","Loại hình doanh nghiệp":"Cty 1TV","Ghi chú":"DN thanh lap moi tu 1-1-2026 den 28-2-2026","layer_id":369,"fid":32,"label":"CÔNG TY TNHH VÀNG BẠC ĐÁ QUÝ KIM PHÚ HƯNG"}},{"type":"Feature","geometry":{"type":"Point","coordinates":[106.252503829,9.664905898]},"properties":{"Mã số DN Chuyển đổi số":"2100712420","Tên DN Chuyển đổi số":"CÔNG TY TNHH GIÀY DA CÁT TƯỜNG","Địa chỉ trụ sở chính":"Thửa đất số 1640, tờ bản đồ số 5, Ấp Kosla, Xã Hàm Giang, Tỉnh Vĩnh Long, Việt Nam","Điện thoại":"036.428.5192","Ngành nghề kinh doanh chính":"1520:Sản xuất giày, dép","Loại hình doanh nghiệp":"Cty 1TV","Ghi chú":"DN thanh lap moi tu 1-1-2026 den 28-2-2026","layer_id":369,"fid":33,"label":"CÔNG TY TNHH GIÀY DA CÁT TƯỜNG"}},{"type":"Feature","geometry":{"type":"Point","coordinates":[106.494611658,9.680237853]},"properties":{"Mã số DN Chuyển đổi số":"2100711709","Tên DN Chuyển đổi số":"CÔNG TY TNHH HOÀNG LỘC THỊNH PHÁT","Địa chỉ trụ sở chính":"Số 89, Tỉnh lộ 914, Ấp Cây Da, Xã Long Hữu, Tỉnh Vĩnh Long, Việt Nam","Điện thoại":"0972394239","Ngành nghề kinh doanh chính":"4722:Bán lẻ thực phẩm","Loại hình doanh nghiệp":"Cty 1TV","Ghi chú":"DN thanh lap moi tu 1-1-2026 den 28-2-2026","layer_id":369,"fid":47,"label":"CÔNG TY TNHH HOÀNG LỘC THỊNH PHÁT"}},{"type":"Feature","geometry":{"type":"Point","coordinates":[105.980885243,10.248070936]},"properties":{"Mã số DN Chuyển đổi số":"1501166287","Tên DN Chuyển đổi số":"CÔNG TY TNHH MTV XD TM TÂN THÀNH TÍN","Địa chỉ trụ sở chính":"Số 49/2, Đường Trần Phú, Khóm 5, Phường Phước Hậu, Tỉnh Vĩnh Long, Việt Nam","Điện thoại":"0907467113","Ngành nghề kinh doanh chính":"7110:Hoạt động kiến trúc và tư vấn kỹ thuật có liên quan","Loại hình doanh nghiệp":"Cty 1TV","Ghi chú":"DN thanh lap moi tu 1-1-2026 den 28-2-2026","layer_id":369,"fid":34,"label":"CÔNG TY TNHH MTV XD TM TÂN THÀNH TÍN"}},{"type":"Feature","geometry":{"type":"Point","coordinates":[106.333164712,9.985986801]},"properties":{"Mã số DN Chuyển đổi số":"2100711441","Tên DN Chuyển đổi số":"CÔNG TY TNHH MTV SX-TM-DV HOÀNG SANG","Địa chỉ trụ sở chính":"Số nhà 152, đường Vũ Đình Liệu, khóm Vĩnh Yên, Phường Long Đức, Tỉnh Vĩnh Long, Việt Nam","Điện thoại":"0985933355","Ngành nghề kinh doanh chính":"2395:Sản xuất bê tông và các sản phẩm từ bê tông, xi măng và thạch cao","Loại hình doanh nghiệp":"Cty 1TV","Ghi chú":"DN thanh lap moi tu 1-1-2026 den 28-2-2026","layer_id":369,"fid":35,"label":"CÔNG TY TNHH MTV SX-TM-DV HOÀNG SANG"}},{"type":"Feature","geometry":{"type":"Point","coordinates":[106.275822743,10.126088722]},"properties":{"Mã số DN Chuyển đổi số":"1301164363","Tên DN Chuyển đổi số":"CÔNG TY TNHH THƯƠNG MẠI DỊCH VỤ NÔNG SẢN PHƯƠNG TRANG","Địa chỉ trụ sở chính":"Thửa đất số 322, tờ bản đồ số 15, Ấp Vĩnh Trị, Xã Nhuận Phú Tân, Tỉnh Vĩnh Long, Việt Nam","Điện thoại":"0946098178","Ngành nghề kinh doanh chính":"4679:Bán buôn chuyên doanh khác chưa được phân vào đâu","Loại hình doanh nghiệp":"Cty 1TV","Ghi chú":"DN thanh lap moi tu 1-1-2026 den 28-2-2026","layer_id":369,"fid":36,"label":"CÔNG TY TNHH THƯƠNG MẠI DỊCH VỤ NÔNG SẢN PHƯƠNG TRANG"}},{"type":"Feature","geometry":{"type":"Point","coordinates":[106.3472768,10.239061387]},"properties":{"Mã số DN Chuyển đổi số":"1301164317","Tên DN Chuyển đổi số":"CÔNG TY TNHH TMDV CÔNG THANH BẾN TRE","Địa chỉ trụ sở chính":"Số 79B,  khu phố Bình Thành, Phường Bến Tre, Tỉnh Vĩnh Long, Việt Nam","Điện thoại":"0939953998","Ngành nghề kinh doanh chính":"4673:Bán buôn vật liệu, thiết bị lắp đặt khác trong xây dựng","Loại hình doanh nghiệp":"Cty 1TV","Ghi chú":"DN thanh lap moi tu 1-1-2026 den 28-2-2026","layer_id":369,"fid":37,"label":"CÔNG TY TNHH TMDV CÔNG THANH BẾN TRE"}},{"type":"Feature","geometry":{"type":"Point","coordinates":[106.31695972,10.106725969]},"properties":{"Mã số DN Chuyển đổi số":"1301164123","Tên DN Chuyển đổi số":"CÔNG TY TNHH PHÚC THỊNH BẾN TRE","Địa chỉ trụ sở chính":"Thửa đất số 294, tờ bản đồ số 15, Ấp Vĩnh Trị, Xã Nhuận Phú Tân, Tỉnh Vĩnh Long, Việt Nam","Điện thoại":"0962503179","Ngành nghề kinh doanh chính":"4679:Bán buôn chuyên doanh khác chưa được phân vào đâu","Loại hình doanh nghiệp":"Cty 1TV","Ghi chú":"DN thanh lap moi tu 1-1-2026 den 28-2-2026","layer_id":369,"fid":38,"label":"CÔNG TY TNHH PHÚC THỊNH BẾN TRE"}},{"type":"Feature","geometry":{"type":"Point","coordinates":[106.408764317,10.306673471]},"properties":{"Mã số DN Chuyển đổi số":"1301164116","Tên DN Chuyển đổi số":"CÔNG TY TNHH NÔNG SẢN DỪA TN","Địa chỉ trụ sở chính":"(Thửa Đất Số 111 Tờ Bản Đồ Số 12)  Ấp Phước Thành, Xã Giao Long, Tỉnh Vĩnh Long, Việt Nam","Điện thoại":"0909448768","Ngành nghề kinh doanh chính":"4620:Bán buôn nông, lâm sản nguyên liệu (trừ gỗ, tre, nứa) và động vật sống","Loại hình doanh nghiệp":"Cty 1TV","Ghi chú":"DN thanh lap moi tu 1-1-2026 den 28-2-2026","layer_id":369,"fid":39,"label":"CÔNG TY TNHH NÔNG SẢN DỪA TN"}},{"type":"Feature","geometry":{"type":"Point","coordinates":[106.343080825,9.874153911]},"properties":{"Mã số DN Chuyển đổi số":"2100711346","Tên DN Chuyển đổi số":"CÔNG TY TNHH TM - DVDL MINH CƯỜNG","Địa chỉ trụ sở chính":"Số 53, Đoàn Công Chánh, Phường Nguyệt Hóa, Tỉnh Vĩnh Long, Việt Nam","Điện thoại":"0399889963","Ngành nghề kinh doanh chính":"4932:Vận tải hành khách đường bộ khác","Loại hình doanh nghiệp":"Cty 1TV","Ghi chú":"DN thanh lap moi tu 1-1-2026 den 28-2-2026","layer_id":369,"fid":40,"label":"CÔNG TY TNHH TM - DVDL MINH CƯỜNG"}},{"type":"Feature","geometry":{"type":"Point","coordinates":[105.90858735,10.091302554]},"properties":{"Mã số DN Chuyển đổi số":"1501165117","Tên DN Chuyển đổi số":"CÔNG TY TNHH CƠ ĐIỆN LẠNH THUẬN TIẾN PHÁT","Địa chỉ trụ sở chính":"Số 13, tổ nhân dân tự quản 33, ấp phú Sơn A, Xã Song Phú, Tỉnh Vĩnh Long, Việt Nam","Điện thoại":"0836325725","Ngành nghề kinh doanh chính":"4322:Lắp đặt hệ thống cấp, thoát nước, hệ thống sưởi và điều hoà không khí","Loại hình doanh nghiệp":"Cty 1TV","Ghi chú":"DN thanh lap moi tu 1-1-2026 den 28-2-2026","layer_id":369,"fid":41,"label":"CÔNG TY TNHH CƠ ĐIỆN LẠNH THUẬN TIẾN PHÁT"}},{"type":"Feature","geometry":{"type":"Point","coordinates":[105.987737068,10.238727208]},"properties":{"Mã số DN Chuyển đổi số":"1501164995","Tên DN Chuyển đổi số":"CÔNG TY TNHH THƯƠNG MẠI DỊCH VỤ TUẤN AN VL","Địa chỉ trụ sở chính":"Số 286/2 Đường Trần Phú, Phường Phước Hậu, Tỉnh Vĩnh Long, Việt Nam","Điện thoại":"0921917584","Ngành nghề kinh doanh chính":"4679:Bán buôn chuyên doanh khác chưa được phân vào đâu","Loại hình doanh nghiệp":"Cty 1TV","Ghi chú":"DN thanh lap moi tu 1-1-2026 den 28-2-2026","layer_id":369,"fid":42,"label":"CÔNG TY TNHH THƯƠNG MẠI DỊCH VỤ TUẤN AN VL"}},{"type":"Feature","geometry":{"type":"Point","coordinates":[106.323823258,10.27836192]},"properties":{"Mã số DN Chuyển đổi số":"1301163112","Tên DN Chuyển đổi số":"CÔNG TY TNHH CƠ ĐIỆN ANH BA ","Địa chỉ trụ sở chính":"Số 368, khu phố Phước Thạnh, Phường Sơn Đông, Tỉnh Vĩnh Long, Việt Nam","Điện thoại":"0908479523","Ngành nghề kinh doanh chính":"4322:Lắp đặt hệ thống cấp, thoát nước, hệ thống sưởi và điều hoà không khí","Loại hình doanh nghiệp":"Cty 1TV","Ghi chú":"DN thanh lap moi tu 1-1-2026 den 28-2-2026","layer_id":369,"fid":43,"label":"CÔNG TY TNHH CƠ ĐIỆN ANH BA "}},{"type":"Feature","geometry":{"type":"Point","coordinates":[106.34117994,9.9347505]},"properties":{"Mã số DN Chuyển đổi số":"2100712526","Tên DN Chuyển đổi số":"CÔNG TY TNHH MTV CAFE VĨNH QUANG","Địa chỉ trụ sở chính":"Thửa đất số 02, Tờ bản đồ số 09, số nhà 123, Đường Phạm Hồng Thái, Khóm 7, Phường Trà Vinh, Tỉnh Vĩnh Long, Việt Nam","Điện thoại":"0919898939","Ngành nghề kinh doanh chính":"1077:Sản xuất cà phê","Loại hình doanh nghiệp":"Cty 1TV","Ghi chú":"DN thanh lap moi tu 1-1-2026 den 28-2-2026","layer_id":369,"fid":44,"label":"CÔNG TY TNHH MTV CAFE VĨNH QUANG"}},{"type":"Feature","geometry":{"type":"Point","coordinates":[106.184187997,10.000102936]},"properties":{"Mã số DN Chuyển đổi số":"2100712653","Tên DN Chuyển đổi số":"CÔNG TY TNHH MTV DỪA NHẬT TRƯỜNG","Địa chỉ trụ sở chính":"Số 67/32, Hương Lộ 37, ấp số 9, Xã Càng Long, Tỉnh Vĩnh Long, Việt Nam","Điện thoại":"0968217488","Ngành nghề kinh doanh chính":"4620:Bán buôn nông, lâm sản nguyên liệu (trừ gỗ, tre, nứa) và động vật sống","Loại hình doanh nghiệp":"Cty 1TV","Ghi chú":"DN thanh lap moi tu 1-1-2026 den 28-2-2026","layer_id":369,"fid":45,"label":"CÔNG TY TNHH MTV DỪA NHẬT TRƯỜNG"}},{"type":"Feature","geometry":{"type":"Point","coordinates":[106.45114189,9.797445045]},"properties":{"Mã số DN Chuyển đổi số":"2100712621","Tên DN Chuyển đổi số":"CÔNG TY TNHH TMDV TIẾN ANH TRẦN","Địa chỉ trụ sở chính":"Đương 30/4, Ấp Minh Thuận A, Xã Cầu Ngang, Tỉnh Vĩnh Long, Việt Nam","Điện thoại":"0973976116","Ngành nghề kinh doanh chính":"5229:Hoạt động dịch vụ hỗ trợ khác liên quan đến vận tải","Loại hình doanh nghiệp":"Cty 1TV","Ghi chú":"DN thanh lap moi tu 1-1-2026 den 28-2-2026","layer_id":369,"fid":46,"label":"CÔNG TY TNHH TMDV TIẾN ANH TRẦN"}},{"type":"Feature","geometry":{"type":"Point","coordinates":[106.378666721,10.236197483]},"properties":{"Mã số DN Chuyển đổi số":"1301164846","Tên DN Chuyển đổi số":"CÔNG TY TNHH KINH DOANH ĐIỆN GIA DỤNG THUẬN THÀNH","Địa chỉ trụ sở chính":"141B, Đường Nguyễn Đình Chiểu, Khu phố 2, Phường An Hội, Tỉnh Vĩnh Long, Việt Nam","Điện thoại":"02753822739","Ngành nghề kinh doanh chính":"4752:Bán lẻ đồ ngũ kim, sơn, kính, vật liệu và thiết bị lắp đặt khác trong xây dựng","Loại hình doanh nghiệp":"Cty 1TV","Ghi chú":"DN thanh lap moi tu 1-1-2026 den 28-2-2026","layer_id":369,"fid":48,"label":"CÔNG TY TNHH KINH DOANH ĐIỆN GIA DỤNG THUẬN THÀNH"}},{"type":"Feature","geometry":{"type":"Point","coordinates":[106.332378368,10.054191938]},"properties":{"Mã số DN Chuyển đổi số":"1301164148","Tên DN Chuyển đổi số":"CÔNG TY TNHH CÀ PHÊ CHÍ TÀI","Địa chỉ trụ sở chính":"Thửa đất số 2559-2820, tờ bản đồ số 2, Ấp Tân Điền, Xã Thành Thới, Tỉnh Vĩnh Long, Việt Nam","Điện thoại":"0919579588","Ngành nghề kinh doanh chính":"1077:Sản xuất cà phê","Loại hình doanh nghiệp":"Cty 1TV","Ghi chú":"DN thanh lap moi tu 1-1-2026 den 28-2-2026","layer_id":369,"fid":49,"label":"CÔNG TY TNHH CÀ PHÊ CHÍ TÀI"}},{"type":"Feature","geometry":{"type":"Point","coordinates":[106.465739801,9.906762499]},"properties":{"Mã số DN Chuyển đổi số":"2100711314","Tên DN Chuyển đổi số":"CÔNG TY TNHH TMDV TRƯỜNG CHÁNH","Địa chỉ trụ sở chính":"Thửa 50, tờ bản đồ số 11, Tổ 7, Ấp Đại Thôn A, Xã Hòa Minh, Tỉnh Vĩnh Long, Việt Nam","Điện thoại":"0934005939","Ngành nghề kinh doanh chính":"4711:Bán lẻ tổng hợp với lương thực, thực phẩm, đồ uống, thuốc lá, thuốc lào chiếm tỷ trọng lớn","Loại hình doanh nghiệp":"Cty 1TV","Ghi chú":"DN thanh lap moi tu 1-1-2026 den 28-2-2026","layer_id":369,"fid":50,"label":"CÔNG TY TNHH TMDV TRƯỜNG CHÁNH"}},{"type":"Feature","geometry":{"type":"Point","coordinates":[106.250940319,10.181642938]},"properties":{"Mã số DN Chuyển đổi số":"1301163715","Tên DN Chuyển đổi số":"CÔNG TY TNHH VẬT LIỆU XÂY DỰNG VÀ THI CÔNG PHÚC THỊNH","Địa chỉ trụ sở chính":"Số 26/29, ấp Thanh Xuân , Xã Hưng Khánh Trung, Tỉnh Vĩnh Long, Việt Nam","Điện thoại":"0963 449 649","Ngành nghề kinh doanh chính":"4673:Bán buôn vật liệu, thiết bị lắp đặt khác trong xây dựng","Loại hình doanh nghiệp":"Cty 1TV","Ghi chú":"DN thanh lap moi tu 1-1-2026 den 28-2-2026","layer_id":369,"fid":51,"label":"CÔNG TY TNHH VẬT LIỆU XÂY DỰNG VÀ THI CÔNG PHÚC THỊNH"}},{"type":"Feature","geometry":{"type":"Point","coordinates":[106.323617684,9.865830832]},"properties":{"Mã số DN Chuyển đổi số":"2100711113","Tên DN Chuyển đổi số":"CÔNG TY TNHH NÔNG GIA PHÚ VL","Địa chỉ trụ sở chính":"Thửa đất số 318, Tờ bản đồ số 37, QL 60, Ấp Sâm Bua, Xã Song Lộc, Tỉnh Vĩnh Long, Việt Nam","Điện thoại":"0839999151","Ngành nghề kinh doanh chính":"4620:Bán buôn nông, lâm sản nguyên liệu (trừ gỗ, tre, nứa) và động vật sống","Loại hình doanh nghiệp":"Cty 1TV","Ghi chú":"DN thanh lap moi tu 1-1-2026 den 28-2-2026","layer_id":369,"fid":52,"label":"CÔNG TY TNHH NÔNG GIA PHÚ VL"}},{"type":"Feature","geometry":{"type":"Point","coordinates":[105.973137055,10.256372276]},"properties":{"Mã số DN Chuyển đổi số":"1501166142","Tên DN Chuyển đổi số":"CÔNG TY TNHH GIÁO DỤC - Y TẾ CỬU LONG","Địa chỉ trụ sở chính":"Số nhà 12C, Khóm 1, Phường Long Châu, Tỉnh Vĩnh Long, Việt Nam","Điện thoại":"0523742014","Ngành nghề kinh doanh chính":"4931:Vận tải hành khách đường bộ trong nội thành, ngoại thành (trừ vận tải bằng xe buýt)","Loại hình doanh nghiệp":"Cty 1TV","Ghi chú":"DN thanh lap moi tu 1-1-2026 den 28-2-2026","layer_id":369,"fid":53,"label":"CÔNG TY TNHH GIÁO DỤC - Y TẾ CỬU LONG"}},{"type":"Feature","geometry":{"type":"Point","coordinates":[106.501385009,9.636825081]},"properties":{"Mã số DN Chuyển đổi số":"2100711353","Tên DN Chuyển đổi số":"CÔNG TY TNHH VÀNG BẠC TƯ CÓ GOLD","Địa chỉ trụ sở chính":"Số nhà 284, Đường 3 tháng 2, Ấp 3, Xã Trà Cú, Tỉnh Vĩnh Long, Việt Nam","Điện thoại":"0795822666","Ngành nghề kinh doanh chính":"4672:Bán buôn kim loại và quặng kim loại","Loại hình doanh nghiệp":"Cty 1TV","Ghi chú":"DN thanh lap moi tu 1-1-2026 den 28-2-2026","layer_id":369,"fid":54,"label":"CÔNG TY TNHH VÀNG BẠC TƯ CÓ GOLD"}},{"type":"Feature","geometry":{"type":"Point","coordinates":[106.527126658,10.04971005]},"properties":{"Mã số DN Chuyển đổi số":"1301165790","Tên DN Chuyển đổi số":"CÔNG TY TNHH VÀNG BẠC ĐÁ QUÝ NGỌC KHOA","Địa chỉ trụ sở chính":"Ấp Giồng Quéo (thửa đất số 183, tờ bản đồ số 11), Xã An Hiệp, Tỉnh Vĩnh Long, Việt Nam","Điện thoại":"0938520378","Ngành nghề kinh doanh chính":"4773:Bán lẻ hàng hóa khác mới (trừ ô tô, mô tô, xe máy và các bộ phận phụ trợ)","Loại hình doanh nghiệp":"Cty 1TV","Ghi chú":"DN thanh lap moi tu 1-1-2026 den 28-2-2026","layer_id":369,"fid":55,"label":"CÔNG TY TNHH VÀNG BẠC ĐÁ QUÝ NGỌC KHOA"}},{"type":"Feature","geometry":{"type":"Point","coordinates":[105.970463395,10.254017672]},"properties":{"Mã số DN Chuyển đổi số":"1501166784","Tên DN Chuyển đổi số":"CÔNG TY TNHH MTV MINH VŨ VĨNH LONG","Địa chỉ trụ sở chính":"Số 38 đường 3/2, Phường Long Châu, Tỉnh Vĩnh Long, Việt Nam","Điện thoại":"0979897897","Ngành nghề kinh doanh chính":"4752:Bán lẻ đồ ngũ kim, sơn, kính, vật liệu và thiết bị lắp đặt khác trong xây dựng","Loại hình doanh nghiệp":"Cty 1TV","Ghi chú":"DN thanh lap moi tu 1-1-2026 den 28-2-2026","layer_id":369,"fid":56,"label":"CÔNG TY TNHH MTV MINH VŨ VĨNH LONG"}},{"type":"Feature","geometry":{"type":"Point","coordinates":[106.331351702,10.05350499]},"properties":{"Mã số DN Chuyển đổi số":"1301165712","Tên DN Chuyển đổi số":"CÔNG TY TNHH THỨC ĂN CHĂN NUÔI PHẠM VĂN AN BẾN TRE","Địa chỉ trụ sở chính":"Số 318, Ấp An Thiện 2, Xã Thành Thới, Tỉnh Vĩnh Long, Việt Nam","Điện thoại":"0982848082","Ngành nghề kinh doanh chính":"4620:Bán buôn nông, lâm sản nguyên liệu (trừ gỗ, tre, nứa) và động vật sống","Loại hình doanh nghiệp":"Cty 1TV","Ghi chú":"DN thanh lap moi tu 1-1-2026 den 28-2-2026","layer_id":369,"fid":57,"label":"CÔNG TY TNHH THỨC ĂN CHĂN NUÔI PHẠM VĂN AN BẾN TRE"}},{"type":"Feature","geometry":{"type":"Point","coordinates":[106.185018811,10.278197381]},"properties":{"Mã số DN Chuyển đổi số":"1301165102","Tên DN Chuyển đổi số":"CÔNG TY TNHH LÊ NGHI GV","Địa chỉ trụ sở chính":"Số 53B Tân Đông, Xã Tân Phú, Tỉnh Vĩnh Long, Việt Nam","Điện thoại":"0777399545","Ngành nghề kinh doanh chính":"1079:Sản xuất thực phẩm khác chưa được phân vào đâu","Loại hình doanh nghiệp":"Cty 1TV","Ghi chú":"DN thanh lap moi tu 1-1-2026 den 28-2-2026","layer_id":369,"fid":58,"label":"CÔNG TY TNHH LÊ NGHI GV"}},{"type":"Feature","geometry":{"type":"Point","coordinates":[106.257185776,9.692181006]},"properties":{"Mã số DN Chuyển đổi số":"2100711850","Tên DN Chuyển đổi số":"CÔNG TY TNHH MỘT THÀNH VIÊN THÁI HÒA TV","Địa chỉ trụ sở chính":"Số 3 Cách Mạng Tháng 8, Ấp 5, Xã Trà Cú, Tỉnh Vĩnh Long, Việt Nam","Điện thoại":"0917 304 343","Ngành nghề kinh doanh chính":"4633:Bán buôn đồ uống","Loại hình doanh nghiệp":"Cty 1TV","Ghi chú":"DN thanh lap moi tu 1-1-2026 den 28-2-2026","layer_id":369,"fid":59,"label":"CÔNG TY TNHH MỘT THÀNH VIÊN THÁI HÒA TV"}},{"type":"Feature","geometry":{"type":"Point","coordinates":[106.338483959,10.275363207]},"properties":{"Mã số DN Chuyển đổi số":"1301165127","Tên DN Chuyển đổi số":"CÔNG TY TNHH HƯƠNG QUÊ BT","Địa chỉ trụ sở chính":"127A Khu phố Bình Khởi, Phường Sơn Đông, Tỉnh Vĩnh Long, Việt Nam","Điện thoại":"0912875127","Ngành nghề kinh doanh chính":"5510:Khách sạn và dịch vụ lưu trú tương tự","Loại hình doanh nghiệp":"Cty 1TV","Ghi chú":"DN thanh lap moi tu 1-1-2026 den 28-2-2026","layer_id":369,"fid":60,"label":"CÔNG TY TNHH HƯƠNG QUÊ BT"}},{"type":"Feature","geometry":{"type":"Point","coordinates":[106.29097902,10.109095974]},"properties":{"Mã số DN Chuyển đổi số":"1301164564","Tên DN Chuyển đổi số":"CÔNG TY TRÁCH NHIỆM HỮU HẠN SẢN XUẤT GIA CÔNG MAY MẶC TRANG NGUYỄN","Địa chỉ trụ sở chính":"Số 50 Ấp Thành Bắc, Xã Nhuận Phú Tân, Tỉnh Vĩnh Long, Việt Nam","Điện thoại":"0982870529","Ngành nghề kinh doanh chính":"1410:Sản xuất trang phục (trừ trang phục từ da lông thú)","Loại hình doanh nghiệp":"Cty 1TV","Ghi chú":"DN thanh lap moi tu 1-1-2026 den 28-2-2026","layer_id":369,"fid":61,"label":"CÔNG TY TRÁCH NHIỆM HỮU HẠN SẢN XUẤT GIA CÔNG MAY MẶC TRANG NGUYỄN"}},{"type":"Feature","geometry":{"type":"Point","coordinates":[106.694953738,10.124958448]},"properties":{"Mã số DN Chuyển đổi số":"1301164596","Tên DN Chuyển đổi số":"CÔNG TY TNHH MỘT THÀNH VIÊN TM - DV - XD THIÊN PHƯỚC","Địa chỉ trụ sở chính":"Số nhà 123, Ấp Tân Long, Xã Thạnh Phước, Tỉnh Vĩnh Long, Việt Nam","Điện thoại":"0336423798","Ngành nghề kinh doanh chính":"4101:Xây dựng nhà để ở","Loại hình doanh nghiệp":"Cty 1TV","Ghi chú":"DN thanh lap moi tu 1-1-2026 den 28-2-2026","layer_id":369,"fid":62,"label":"CÔNG TY TNHH MỘT THÀNH VIÊN TM - DV - XD THIÊN PHƯỚC"}},{"type":"Feature","geometry":{"type":"Point","coordinates":[106.467477907,10.236017236]},"properties":{"Mã số DN Chuyển đổi số":"1301164589","Tên DN Chuyển đổi số":"CÔNG TY TNHH THƯƠNG MẠI TỔNG HỢP BA VIỆT","Địa chỉ trụ sở chính":"Số 716 – ấp Kinh Cũ, Xã Lương Hòa, Tỉnh Vĩnh Long, Việt Nam","Điện thoại":"0355779199","Ngành nghề kinh doanh chính":"4759:Bán lẻ đồ điện gia dụng, giường, tủ, bàn, ghế và đồ nội thất tương tự, đèn và bộ đèn điện, đồ dùng gia đình khác chưa được phân vào đâu","Loại hình doanh nghiệp":"Cty 1TV","Ghi chú":"DN thanh lap moi tu 1-1-2026 den 28-2-2026","layer_id":369,"fid":63,"label":"CÔNG TY TNHH THƯƠNG MẠI TỔNG HỢP BA VIỆT"}},{"type":"Feature","geometry":{"type":"Point","coordinates":[106.356484875,10.299732922]},"properties":{"Mã số DN Chuyển đổi số":"1301164067","Tên DN Chuyển đổi số":"Cty 1TV PHÂN BÓN ÚT NGÒ III","Địa chỉ trụ sở chính":"Thửa đất số 462, Tờ bản đồ số 17, Ấp Phú Mỹ, Xã Phú Túc, Tỉnh Vĩnh Long, Việt Nam","Điện thoại":"0388814185","Ngành nghề kinh doanh chính":"4620:Bán buôn nông, lâm sản nguyên liệu (trừ gỗ, tre, nứa) và động vật sống","Loại hình doanh nghiệp":"Cty 1TV","Ghi chú":"DN thanh lap moi tu 1-1-2026 den 28-2-2026","layer_id":369,"fid":64,"label":"Cty 1TV PHÂN BÓN ÚT NGÒ III"}},{"type":"Feature","geometry":{"type":"Point","coordinates":[105.76117111,10.106012843]},"properties":{"Mã số DN Chuyển đổi số":"1501165639","Tên DN Chuyển đổi số":"CÔNG TY TNHH MTV XÂY DỰNG TIẾN PHÁT VĨNH LONG","Địa chỉ trụ sở chính":"Thửa đất số 420, tờ bản đồ số 14, Ấp Thành Quới, Xã Tân Quới, Tỉnh Vĩnh Long, Việt Nam","Điện thoại":"0846795979","Ngành nghề kinh doanh chính":"7110:Hoạt động kiến trúc và tư vấn kỹ thuật có liên quan","Loại hình doanh nghiệp":"Cty 1TV","Ghi chú":"DN thanh lap moi tu 1-1-2026 den 28-2-2026","layer_id":369,"fid":65,"label":"CÔNG TY TNHH MTV XÂY DỰNG TIẾN PHÁT VĨNH LONG"}},{"type":"Feature","geometry":{"type":"Point","coordinates":[106.350096027,10.246263634]},"properties":{"Mã số DN Chuyển đổi số":"1301164042","Tên DN Chuyển đổi số":"CÔNG TY TNHH DỪA HOÀNG THANH","Địa chỉ trụ sở chính":"Số 279A3, ấp Bình Thạnh, Phường Bến Tre, Tỉnh Vĩnh Long, Việt Nam","Điện thoại":"0916664423","Ngành nghề kinh doanh chính":"4620:Bán buôn nông, lâm sản nguyên liệu (trừ gỗ, tre, nứa) và động vật sống","Loại hình doanh nghiệp":"Cty 1TV","Ghi chú":"DN thanh lap moi tu 1-1-2026 den 28-2-2026","layer_id":369,"fid":66,"label":"CÔNG TY TNHH DỪA HOÀNG THANH"}},{"type":"Feature","geometry":{"type":"Point","coordinates":[106.336255767,9.912355295]},"properties":{"Mã số DN Chuyển đổi số":"2100711201","Tên DN Chuyển đổi số":"CÔNG TY TNHH TMDV MINH HƯNG TV","Địa chỉ trụ sở chính":"Số 189, QL 53, Khóm Bến Có, Phường Nguyệt Hóa, Tỉnh Vĩnh Long, Việt Nam","Điện thoại":"0795454299","Ngành nghề kinh doanh chính":"4632:Bán buôn thực phẩm","Loại hình doanh nghiệp":"Cty 1TV","Ghi chú":"DN thanh lap moi tu 1-1-2026 den 28-2-2026","layer_id":369,"fid":67,"label":"CÔNG TY TNHH TMDV MINH HƯNG TV"}},{"type":"Feature","geometry":{"type":"Point","coordinates":[106.449246478,9.795040817]},"properties":{"Mã số DN Chuyển đổi số":"2100711233","Tên DN Chuyển đổi số":"CÔNG TY TNHH TM DV VẬN TẢI THỦY BỘ HOÀI THƯƠNG","Địa chỉ trụ sở chính":"Số 17 , đường Trần Thành Đại, Ấp Mỹ Cẩm A, Xã Cầu Ngang, Tỉnh Vĩnh Long, Việt Nam","Điện thoại":"0985090943","Ngành nghề kinh doanh chính":"4312:Chuẩn bị mặt bằng","Loại hình doanh nghiệp":"Cty 1TV","Ghi chú":"DN thanh lap moi tu 1-1-2026 den 28-2-2026","layer_id":369,"fid":68,"label":"CÔNG TY TNHH TM DV VẬN TẢI THỦY BỘ HOÀI THƯƠNG"}},{"type":"Feature","geometry":{"type":"Point","coordinates":[106.05074444,10.237636041]},"properties":{"Mã số DN Chuyển đổi số":"1501165332","Tên DN Chuyển đổi số":"CÔNG TY TNHH NHÀ MÁY TOLE NĂM ĐÌNH","Địa chỉ trụ sở chính":"Số 6, tổ 20, ấp Mỹ Điền, Xã Nhơn Phú, Tỉnh Vĩnh Long, Việt Nam","Điện thoại":"0976879785","Ngành nghề kinh doanh chính":"1394:Sản xuất các loại dây bện và lưới","Loại hình doanh nghiệp":"Cty 1TV","Ghi chú":"DN thanh lap moi tu 1-1-2026 den 28-2-2026","layer_id":369,"fid":69,"label":"CÔNG TY TNHH NHÀ MÁY TOLE NĂM ĐÌNH"}},{"type":"Feature","geometry":{"type":"Point","coordinates":[106.380431563,10.251973891]},"properties":{"Mã số DN Chuyển đổi số":"1301163560","Tên DN Chuyển đổi số":"CÔNG TY TRÁCH NHIỆM HỮU HẠN  MỘT THÀNH VIÊN PHÂN PHỐI VÀ DỊCH VỤ TRƯỜNG THỊNH","Địa chỉ trụ sở chính":"Thửa đất số 235, tờ bản đồ số 84, Khu phố 9, Phường Phú Khương, Tỉnh Vĩnh Long, Việt Nam","Điện thoại":"0939892938","Ngành nghề kinh doanh chính":"4719:Bán lẻ tổng hợp khác","Loại hình doanh nghiệp":"Cty 1TV","Ghi chú":"DN thanh lap moi tu 1-1-2026 den 28-2-2026","layer_id":369,"fid":70,"label":"CÔNG TY TRÁCH NHIỆM HỮU HẠN  MỘT THÀNH VIÊN PHÂN PHỐI VÀ DỊCH VỤ TRƯỜNG THỊNH"}},{"type":"Feature","geometry":{"type":"Point","coordinates":[105.848598146,10.040403751]},"properties":{"Mã số DN Chuyển đổi số":"1501165082","Tên DN Chuyển đổi số":"CÔNG TY TNHH GỖ HẢI ĐĂNG","Địa chỉ trụ sở chính":"Số 2364, Tổ 4, Ấp Đông Hưng 1, Phường Đông Thành, Tỉnh Vĩnh Long, Việt Nam","Điện thoại":"0913705765","Ngành nghề kinh doanh chính":"4671:Bán buôn nhiên liệu rắn, lỏng, khí và các sản phẩm liên quan","Loại hình doanh nghiệp":"Cty 1TV","Ghi chú":"DN thanh lap moi tu 1-1-2026 den 28-2-2026","layer_id":369,"fid":71,"label":"CÔNG TY TNHH GỖ HẢI ĐĂNG"}},{"type":"Feature","geometry":{"type":"Point","coordinates":[106.012540107,9.875198702]},"properties":{"Mã số DN Chuyển đổi số":"2100710712","Tên DN Chuyển đổi số":"CÔNG TY TNHH SẢN XUẤT TM & DV QUẢNG CÁO BẢO LONG","Địa chỉ trụ sở chính":"Số 68, Ấp An Trại, Xã An Phú Tân, Tỉnh Vĩnh Long, Việt Nam","Điện thoại":"0901092055","Ngành nghề kinh doanh chính":"7310:Quảng cáo","Loại hình doanh nghiệp":"Cty 1TV","Ghi chú":"DN thanh lap moi tu 1-1-2026 den 28-2-2026","layer_id":369,"fid":72,"label":"CÔNG TY TNHH SẢN XUẤT TM & DV QUẢNG CÁO BẢO LONG"}},{"type":"Feature","geometry":{"type":"Point","coordinates":[106.351279489,10.234261056]},"properties":{"Mã số DN Chuyển đổi số":"1301163539","Tên DN Chuyển đổi số":"CÔNG TY TNHH TM DV MINH ĐẲNG","Địa chỉ trụ sở chính":"10A9, khu phố Bình Thành, Phường Bến Tre, Tỉnh Vĩnh Long, Việt Nam","Điện thoại":"0985514576","Ngành nghề kinh doanh chính":"7310:Quảng cáo","Loại hình doanh nghiệp":"Cty 1TV","Ghi chú":"DN thanh lap moi tu 1-1-2026 den 28-2-2026","layer_id":369,"fid":92,"label":"CÔNG TY TNHH TM DV MINH ĐẲNG"}},{"type":"Feature","geometry":{"type":"Point","coordinates":[106.320596206,10.19374066]},"properties":{"Mã số DN Chuyển đổi số":"1301163151","Tên DN Chuyển đổi số":"CÔNG TY TNHH DỪA VÂN ĐÔNG BẾN TRE","Địa chỉ trụ sở chính":"Thửa đất số 483, tờ bản đồ số 12, ấp Chợ Xếp, Xã Tân Thành Bình, Tỉnh Vĩnh Long, Việt Nam","Điện thoại":"0917255909","Ngành nghề kinh doanh chính":"4620:Bán buôn nông, lâm sản nguyên liệu (trừ gỗ, tre, nứa) và động vật sống","Loại hình doanh nghiệp":"Cty 1TV","Ghi chú":"DN thanh lap moi tu 1-1-2026 den 28-2-2026","layer_id":369,"fid":73,"label":"CÔNG TY TNHH DỪA VÂN ĐÔNG BẾN TRE"}},{"type":"Feature","geometry":{"type":"Point","coordinates":[106.584173061,9.889987663]},"properties":{"Mã số DN Chuyển đổi số":"1301166184","Tên DN Chuyển đổi số":"CÔNG TY TNHH THƯƠNG MẠI DỊCH VỤ VẬN TẢI THỦY SẢN LÊ ANH","Địa chỉ trụ sở chính":"9/1, ấp An Hòa, Xã An Qui, Tỉnh Vĩnh Long, Việt Nam","Điện thoại":"0375217946","Ngành nghề kinh doanh chính":"4632:Bán buôn thực phẩm","Loại hình doanh nghiệp":"Cty 1TV","Ghi chú":"DN thanh lap moi tu 1-1-2026 den 28-2-2026","layer_id":369,"fid":74,"label":"CÔNG TY TNHH THƯƠNG MẠI DỊCH VỤ VẬN TẢI THỦY SẢN LÊ ANH"}},{"type":"Feature","geometry":{"type":"Point","coordinates":[106.601244353,10.022531944]},"properties":{"Mã số DN Chuyển đổi số":"1301166177","Tên DN Chuyển đổi số":"CÔNG TY TRÁCH NHIỆM HỮU HẠN THỦY SẢN NĂM HOÀ PHÚ","Địa chỉ trụ sở chính":"Thửa đất 149, tờ bản đồ số 9, Ấp An Bình 1, Xã Tân Thủy, Tỉnh Vĩnh Long, Việt Nam","Điện thoại":"0937842242","Ngành nghề kinh doanh chính":"4632:Bán buôn thực phẩm","Loại hình doanh nghiệp":"Cty 1TV","Ghi chú":"DN thanh lap moi tu 1-1-2026 den 28-2-2026","layer_id":369,"fid":75,"label":"CÔNG TY TRÁCH NHIỆM HỮU HẠN THỦY SẢN NĂM HOÀ PHÚ"}},{"type":"Feature","geometry":{"type":"Point","coordinates":[106.347796958,9.880831499]},"properties":{"Mã số DN Chuyển đổi số":"2100712597","Tên DN Chuyển đổi số":"CÔNG TY TNHH THIÊN LONG TN","Địa chỉ trụ sở chính":"Số 77, ấp Thanh Nguyên B, Xã Châu Thành, Tỉnh Vĩnh Long, Việt Nam","Điện thoại":"0397213824","Ngành nghề kinh doanh chính":"4312:Chuẩn bị mặt bằng","Loại hình doanh nghiệp":"Cty 1TV","Ghi chú":"DN thanh lap moi tu 1-1-2026 den 28-2-2026","layer_id":369,"fid":76,"label":"CÔNG TY TNHH THIÊN LONG TN"}},{"type":"Feature","geometry":{"type":"Point","coordinates":[106.377711803,10.253420272]},"properties":{"Mã số DN Chuyển đổi số":"1301164162","Tên DN Chuyển đổi số":"Cty 1TV PHỤ TÙNG NGỌC MỸ","Địa chỉ trụ sở chính":"Số 148, Khu phố 5, Phường Phú Khương, Tỉnh Vĩnh Long, Việt Nam","Điện thoại":"0911533158","Ngành nghề kinh doanh chính":"4663:Bán buôn mô tô, xe máy, phụ tùng và các bộ phận phụ trợ của mô tô, xe máy","Loại hình doanh nghiệp":"Cty 1TV","Ghi chú":"DN thanh lap moi tu 1-1-2026 den 28-2-2026","layer_id":369,"fid":79,"label":"Cty 1TV PHỤ TÙNG NGỌC MỸ"}},{"type":"Feature","geometry":{"type":"Point","coordinates":[105.960839909,10.253291361]},"properties":{"Mã số DN Chuyển đổi số":"1501165614","Tên DN Chuyển đổi số":"CÔNG TY TNHH ANH HỒNG ÂN ","Địa chỉ trụ sở chính":"Số nhà 52/1/38c Đường Nguyễn Huệ, Phường Long Châu, Tỉnh Vĩnh Long, Việt Nam","Điện thoại":"0939324403","Ngành nghề kinh doanh chính":"4659:Bán buôn máy móc, thiết bị và phụ tùng máy khác","Loại hình doanh nghiệp":"Cty 1TV","Ghi chú":"DN thanh lap moi tu 1-1-2026 den 28-2-2026","layer_id":369,"fid":80,"label":"CÔNG TY TNHH ANH HỒNG ÂN "}},{"type":"Feature","geometry":{"type":"Point","coordinates":[106.360366646,10.231597674]},"properties":{"Mã số DN Chuyển đổi số":"1301164074","Tên DN Chuyển đổi số":"CÔNG TY TRÁCH NHIỆM HỮU HẠN NHÀ NGHỈ K.HOUSE BẾN TRE","Địa chỉ trụ sở chính":"Số nhà 40e, Đường Nguyễn Văn Tư, Khu phố Mỹ Tân, Phường Bến Tre, Tỉnh Vĩnh Long, Việt Nam","Điện thoại":"0394059619","Ngành nghề kinh doanh chính":"5520:Dịch vụ lưu trú ngắn ngày khác","Loại hình doanh nghiệp":"Cty 1TV","Ghi chú":"DN thanh lap moi tu 1-1-2026 den 28-2-2026","layer_id":369,"fid":81,"label":"CÔNG TY TRÁCH NHIỆM HỮU HẠN NHÀ NGHỈ K.HOUSE BẾN TRE"}},{"type":"Feature","geometry":{"type":"Point","coordinates":[105.995075112,10.044684154]},"properties":{"Mã số DN Chuyển đổi số":"1501166199","Tên DN Chuyển đổi số":"CÔNG TY TNHH MTV MAY BALO TÚI XÁCH LỘC PHÁT","Địa chỉ trụ sở chính":"Thửa đất số 107, Tờ bản đồ số 13, ấp Mỹ Phú 1, Xã Tam Bình, Tỉnh Vĩnh Long, Việt Nam","Điện thoại":"0939414899","Ngành nghề kinh doanh chính":"1512:Sản xuất vali, túi xách và các loại tương tự, sản xuất yên đệm","Loại hình doanh nghiệp":"Cty 1TV","Ghi chú":"DN thanh lap moi tu 1-1-2026 den 28-2-2026","layer_id":369,"fid":82,"label":"CÔNG TY TNHH MTV MAY BALO TÚI XÁCH LỘC PHÁT"}},{"type":"Feature","geometry":{"type":"Point","coordinates":[106.008632572,10.188317605]},"properties":{"Mã số DN Chuyển đổi số":"1501166181","Tên DN Chuyển đổi số":"CÔNG TY TNHH TƯ VẤN XÂY DỰNG CÔNG TRÌNH PHẠM NGOÃN","Địa chỉ trụ sở chính":"Số nhà 196, Tổ 14, Ấp Phước Trinh B, Xã Long Hồ, Tỉnh Vĩnh Long, Việt Nam","Điện thoại":"0908073130","Ngành nghề kinh doanh chính":"7110:Hoạt động kiến trúc và tư vấn kỹ thuật có liên quan","Loại hình doanh nghiệp":"Cty 1TV","Ghi chú":"DN thanh lap moi tu 1-1-2026 den 28-2-2026","layer_id":369,"fid":83,"label":"CÔNG TY TNHH TƯ VẤN XÂY DỰNG CÔNG TRÌNH PHẠM NGOÃN"}},{"type":"Feature","geometry":{"type":"Point","coordinates":[106.05903978,10.241730563]},"properties":{"Mã số DN Chuyển đổi số":"1501165646","Tên DN Chuyển đổi số":"CÔNG TY TNHH MTV TÂN SUNG","Địa chỉ trụ sở chính":"Thửa đất số 208, tờ bản đồ số 5, tổ 10, ấp An Hương 1, Xã Nhơn Phú, Tỉnh Vĩnh Long, Việt Nam","Điện thoại":"0972315559","Ngành nghề kinh doanh chính":"2392:Sản xuất vật liệu xây dựng từ đất sét","Loại hình doanh nghiệp":"Cty 1TV","Ghi chú":"DN thanh lap moi tu 1-1-2026 den 28-2-2026","layer_id":369,"fid":84,"label":"CÔNG TY TNHH MTV TÂN SUNG"}},{"type":"Feature","geometry":{"type":"Point","coordinates":[105.988619995,10.020507801]},"properties":{"Mã số DN Chuyển đổi số":"1501165420","Tên DN Chuyển đổi số":"CÔNG TY TNHH NGUYÊN TAM PHƯỢNG","Địa chỉ trụ sở chính":"Số 17, tổ 2, Ấp Tầm Vu, Xã Trà Côn, Tỉnh Vĩnh Long, Việt Nam","Điện thoại":"0919364422","Ngành nghề kinh doanh chính":"4631:Bán buôn gạo, lúa mỳ, sản phẩm từ ngũ cốc khác, bột mỳ","Loại hình doanh nghiệp":"Cty 1TV","Ghi chú":"DN thanh lap moi tu 1-1-2026 den 28-2-2026","layer_id":369,"fid":85,"label":"CÔNG TY TNHH NGUYÊN TAM PHƯỢNG"}},{"type":"Feature","geometry":{"type":"Point","coordinates":[106.051894414,10.241756079]},"properties":{"Mã số DN Chuyển đổi số":"1501165406","Tên DN Chuyển đổi số":"CÔNG TY TNHH CỬA HÀNG VẬT TƯ NÔNG NGHIỆP BẢY SƠN","Địa chỉ trụ sở chính":"Thửa đất số 558, tờ bản đồ số 6, Tổ 2, Ấp Hòa Long, Xã Nhơn Phú, Tỉnh Vĩnh Long, Việt Nam","Điện thoại":"02703849040","Ngành nghề kinh doanh chính":"4679:Bán buôn chuyên doanh khác chưa được phân vào đâu","Loại hình doanh nghiệp":"Cty 1TV","Ghi chú":"DN thanh lap moi tu 1-1-2026 den 28-2-2026","layer_id":369,"fid":86,"label":"CÔNG TY TNHH CỬA HÀNG VẬT TƯ NÔNG NGHIỆP BẢY SƠN"}},{"type":"Feature","geometry":{"type":"Point","coordinates":[106.010544986,9.954465497]},"properties":{"Mã số DN Chuyển đổi số":"1501165413","Tên DN Chuyển đổi số":"CÔNG TY TNHH BÁCH HÓA - THẾ GIỚI SỮA BẢO KHANG","Địa chỉ trụ sở chính":"Số 390, Ấp Vĩnh Trinh, Xã Vĩnh Xuân, Tỉnh Vĩnh Long, Việt Nam","Điện thoại":"0763908997","Ngành nghề kinh doanh chính":"4649:Bán buôn đồ dùng khác cho gia đình","Loại hình doanh nghiệp":"Cty 1TV","Ghi chú":"DN thanh lap moi tu 1-1-2026 den 28-2-2026","layer_id":369,"fid":87,"label":"CÔNG TY TNHH BÁCH HÓA - THẾ GIỚI SỮA BẢO KHANG"}},{"type":"Feature","geometry":{"type":"Point","coordinates":[106.383852617,10.259904838]},"properties":{"Mã số DN Chuyển đổi số":"1301163296","Tên DN Chuyển đổi số":"CÔNG TY TNHH ĐẮT SANG","Địa chỉ trụ sở chính":"453 Nguyễn Văn Cánh, Phường Phú Tân, Tỉnh Vĩnh Long, Việt Nam","Điện thoại":"0912335355","Ngành nghề kinh doanh chính":"4631:Bán buôn gạo, lúa mỳ, sản phẩm từ ngũ cốc khác, bột mỳ","Loại hình doanh nghiệp":"Cty 1TV","Ghi chú":"DN thanh lap moi tu 1-1-2026 den 28-2-2026","layer_id":369,"fid":88,"label":"CÔNG TY TNHH ĐẮT SANG"}},{"type":"Feature","geometry":{"type":"Point","coordinates":[106.163850089,9.764400735]},"properties":{"Mã số DN Chuyển đổi số":"2100710783","Tên DN Chuyển đổi số":"CÔNG TY TNHH XÂY DỰNG CÔNG TRÌNH CÁT LONG","Địa chỉ trụ sở chính":"Thửa đất số 218, tờ bản đồ số 0008, ấp Định Bình, Xã Tân Hòa, Tỉnh Vĩnh Long, Việt Nam","Điện thoại":"0934.078.385","Ngành nghề kinh doanh chính":"4221:Xây dựng công trình điện","Loại hình doanh nghiệp":"Cty 1TV","Ghi chú":"DN thanh lap moi tu 1-1-2026 den 28-2-2026","layer_id":369,"fid":89,"label":"CÔNG TY TNHH XÂY DỰNG CÔNG TRÌNH CÁT LONG"}},{"type":"Feature","geometry":{"type":"Point","coordinates":[106.122745669,9.84147638]},"properties":{"Mã số DN Chuyển đổi số":"2100711829","Tên DN Chuyển đổi số":"CÔNG TY TNHH VẬT TƯ NÔNG NGHIỆP MỘC","Địa chỉ trụ sở chính":"Số 153, Ấp 1, Xã Phong Thạnh, Tỉnh Vĩnh Long, Việt Nam","Điện thoại":"090 7257881","Ngành nghề kinh doanh chính":"4679:Bán buôn chuyên doanh khác chưa được phân vào đâu","Loại hình doanh nghiệp":"Cty 1TV","Ghi chú":"DN thanh lap moi tu 1-1-2026 den 28-2-2026","layer_id":369,"fid":90,"label":"CÔNG TY TNHH VẬT TƯ NÔNG NGHIỆP MỘC"}},{"type":"Feature","geometry":{"type":"Point","coordinates":[106.373214298,10.237933125]},"properties":{"Mã số DN Chuyển đổi số":"1301165046","Tên DN Chuyển đổi số":"CÔNG TY TNHH GIẤY Á LONG","Địa chỉ trụ sở chính":"Thửa đất số 210, 211 tờ bản đồ số 93, đường Tiểu Dự Án, Phường An Hội, Tỉnh Vĩnh Long, Việt Nam","Điện thoại":"0906862515","Ngành nghề kinh doanh chính":"4679:Bán buôn chuyên doanh khác chưa được phân vào đâu","Loại hình doanh nghiệp":"Cty 1TV","Ghi chú":"DN thanh lap moi tu 1-1-2026 den 28-2-2026","layer_id":369,"fid":91,"label":"CÔNG TY TNHH GIẤY Á LONG"}},{"type":"Feature","geometry":{"type":"Point","coordinates":[106.207503959,9.999567553]},"properties":{"Mã số DN Chuyển đổi số":"2100711219","Tên DN Chuyển đổi số":"CÔNG TY TNHH MTV MẸ VÀ BÉ ÂU CƠ","Địa chỉ trụ sở chính":"Số 303 Quốc Lộ 53, Ấp Chợ, Xã Càng Long, Tỉnh Vĩnh Long, Việt Nam","Điện thoại":"0788991146","Ngành nghề kinh doanh chính":"4649:Bán buôn đồ dùng khác cho gia đình","Loại hình doanh nghiệp":"Cty 1TV","Ghi chú":"DN thanh lap moi tu 1-1-2026 den 28-2-2026","layer_id":369,"fid":93,"label":"CÔNG TY TNHH MTV MẸ VÀ BÉ ÂU CƠ"}},{"type":"Feature","geometry":{"type":"Point","coordinates":[105.897703356,10.268036571]},"properties":{"Mã số DN Chuyển đổi số":"1501166745","Tên DN Chuyển đổi số":"CÔNG TY TNHH MUA BÁN NÔNG SẢN THT","Địa chỉ trụ sở chính":"Số 306D Quốc lộ 80 Khóm Tân An, Phường Tân Ngãi, Tỉnh Vĩnh Long, Việt Nam","Điện thoại":"0904356719","Ngành nghề kinh doanh chính":"4620:Bán buôn nông, lâm sản nguyên liệu (trừ gỗ, tre, nứa) và động vật sống","Loại hình doanh nghiệp":"Cty 1TV","Ghi chú":"DN thanh lap moi tu 1-1-2026 den 28-2-2026","layer_id":369,"fid":94,"label":"CÔNG TY TNHH MUA BÁN NÔNG SẢN THT"}},{"type":"Feature","geometry":{"type":"Point","coordinates":[105.925306361,10.15874875]},"properties":{"Mã số DN Chuyển đổi số":"1501166128","Tên DN Chuyển đổi số":"CÔNG TY TNHH TM - XD NGÔI NHÀ MƠ ƯỚC VL","Địa chỉ trụ sở chính":"Số 184, Tổ 13,  Ấp Lộc Hưng, Xã Phú Quới, Tỉnh Vĩnh Long, Việt Nam","Điện thoại":"0989 171 698","Ngành nghề kinh doanh chính":"4101:Xây dựng nhà để ở","Loại hình doanh nghiệp":"Cty 1TV","Ghi chú":"DN thanh lap moi tu 1-1-2026 den 28-2-2026","layer_id":369,"fid":95,"label":"CÔNG TY TNHH TM - XD NGÔI NHÀ MƠ ƯỚC VL"}},{"type":"Feature","geometry":{"type":"Point","coordinates":[106.331294024,9.928147513]},"properties":{"Mã số DN Chuyển đổi số":"2100711480","Tên DN Chuyển đổi số":"CÔNG TY TNHH MTV TM-DV THIÊN KIM TV","Địa chỉ trụ sở chính":"Số 252 Nguyễn Thị Minh Khai, Khóm 8, Phường Nguyệt Hóa, Tỉnh Vĩnh Long, Việt Nam","Điện thoại":"02943 864 453","Ngành nghề kinh doanh chính":"4761:Bán lẻ sách, báo, tạp chí, văn phòng phẩm","Loại hình doanh nghiệp":"Cty 1TV","Ghi chú":"DN thanh lap moi tu 1-1-2026 den 28-2-2026","layer_id":369,"fid":96,"label":"CÔNG TY TNHH MTV TM-DV THIÊN KIM TV"}},{"type":"Feature","geometry":{"type":"Point","coordinates":[106.338134209,10.130580871]},"properties":{"Mã số DN Chuyển đổi số":"1301164109","Tên DN Chuyển đổi số":"CÔNG TY TNHH DỪA THÚY NGÂN BẾN TRE","Địa chỉ trụ sở chính":"Thửa đất số 238, tờ bản đồ số 1, ấp Vĩnh Khánh, Xã Mỏ Cày, Tỉnh Vĩnh Long, Việt Nam","Điện thoại":"0356198834","Ngành nghề kinh doanh chính":"4620:Bán buôn nông, lâm sản nguyên liệu (trừ gỗ, tre, nứa) và động vật sống","Loại hình doanh nghiệp":"Cty 1TV","Ghi chú":"DN thanh lap moi tu 1-1-2026 den 28-2-2026","layer_id":369,"fid":97,"label":"CÔNG TY TNHH DỪA THÚY NGÂN BẾN TRE"}},{"type":"Feature","geometry":{"type":"Point","coordinates":[106.375191825,10.24411594]},"properties":{"Mã số DN Chuyển đổi số":"1301164010","Tên DN Chuyển đổi số":"CÔNG TY TNHH THƯƠNG MẠI DỊCH VỤ SẢN XUẤT NGỌC ĐIỂN BAKERY","Địa chỉ trụ sở chính":"282B Đại lộ Đồng Khởi, Phường Phú Khương, Tỉnh Vĩnh Long, Việt Nam","Điện thoại":"0369953983","Ngành nghề kinh doanh chính":"4632:Bán buôn thực phẩm","Loại hình doanh nghiệp":"Cty 1TV","Ghi chú":"DN thanh lap moi tu 1-1-2026 den 28-2-2026","layer_id":369,"fid":98,"label":"CÔNG TY TNHH THƯƠNG MẠI DỊCH VỤ SẢN XUẤT NGỌC ĐIỂN BAKERY"}},{"type":"Feature","geometry":{"type":"Point","coordinates":[106.629882963,10.084396821]},"properties":{"Mã số DN Chuyển đổi số":"1301164035","Tên DN Chuyển đổi số":"CÔNG TY TNHH MTV KHỔNG NHÂN ","Địa chỉ trụ sở chính":"số 572/PT2, ấp Phú Thạnh 2, Xã Tân Xuân, Tỉnh Vĩnh Long, Việt Nam","Điện thoại":"0918460053","Ngành nghề kinh doanh chính":"4631:Bán buôn gạo, lúa mỳ, sản phẩm từ ngũ cốc khác, bột mỳ","Loại hình doanh nghiệp":"Cty 1TV","Ghi chú":"DN thanh lap moi tu 1-1-2026 den 28-2-2026","layer_id":369,"fid":99,"label":"CÔNG TY TNHH MTV KHỔNG NHÂN "}},{"type":"Feature","geometry":{"type":"Point","coordinates":[106.693534194,10.189258872]},"properties":{"Mã số DN Chuyển đổi số":"1301164028","Tên DN Chuyển đổi số":"CÔNG TY TNHH THƯƠNG MẠI DỊCH VỤ THÚY DUY BEAUTY","Địa chỉ trụ sở chính":"Số nhà 107B, Ấp Bình Đại 2, Xã Bình Đại, Tỉnh Vĩnh Long, Việt Nam","Điện thoại":"0974622622","Ngành nghề kinh doanh chính":"9623:Dịch vụ spa và xông hơi","Loại hình doanh nghiệp":"Cty 1TV","Ghi chú":"DN thanh lap moi tu 1-1-2026 den 28-2-2026","layer_id":369,"fid":100,"label":"CÔNG TY TNHH THƯƠNG MẠI DỊCH VỤ THÚY DUY BEAUTY"}}]}
