{"type":"FeatureCollection","name":"Tuyến đường thư Cấp 2","metadata":{"source":"https://hatang.vinhlong.gov.vn/","downloaded_at":"2026-07-20T01:19:46+00:00","layer_id":370,"layer_name":"Tuyến đường thư Cấp 2","catalog_endpoints":["/map/publicLayers2?inputs=bcvt"],"requested_bbox":[104.0,8.0,108.0,12.0],"tile_size":0.0,"tile_count":1,"tile_errors":[],"feature_count":32,"coordinate_order":"x,y (thường là longitude,latitude theo cấu hình EPSG:4326 của WebGIS)"},"features":[{"type":"Feature","geometry":{"type":"Point","coordinates":[105.972797373,10.254947317]},"properties":{"Tên tuyến":"Đường thư cấp 2","Điểm bắt đầu":"Vĩnh Long","Điểm kết thúc":"Xã, phường","Tần suất":"1 chuyến/ ngày","Doanh nghiệp ":"Bưu điện tỉnh","layer_id":370,"fid":2,"label":"Đường thư cấp 2"}},{"type":"Feature","geometry":{"type":"Point","coordinates":[105.972879231,10.255392641]},"properties":{"Tên tuyến":"Đường thư cấp 2","Điểm bắt đầu":"Vĩnh Long","Điểm kết thúc":"Xã, phường","Tần suất":"1 chuyến/ ngày","Doanh nghiệp ":"Bưu điện tỉnh","layer_id":370,"fid":3,"label":"Đường thư cấp 2"}},{"type":"Feature","geometry":{"type":"Point","coordinates":[105.972399116,10.255540162]},"properties":{"Tên tuyến":"Đường thư cấp 2","Điểm bắt đầu":"Vĩnh Long","Điểm kết thúc":"Xã, phường","Tần suất":"1 chuyến/ ngày","Doanh nghiệp ":"Bưu điện tỉnh","layer_id":370,"fid":4,"label":"Đường thư cấp 2"}},{"type":"Feature","geometry":{"type":"Point","coordinates":[105.972924829,10.255879462]},"properties":{"Tên tuyến":"Đường thư cấp 2","Điểm bắt đầu":"Vĩnh Long","Điểm kết thúc":"Xã, phường","Tần suất":"1 chuyến/ ngày","Doanh nghiệp ":"Bưu điện tỉnh","layer_id":370,"fid":5,"label":"Đường thư cấp 2"}},{"type":"Feature","geometry":{"type":"Point","coordinates":[106.3421175,9.93754604]},"properties":{"Tên tuyến":"Đường thư cấp 2","Điểm bắt đầu":"Trà Vinh","Điểm kết thúc":"Xã, phường","Tần suất":"1 chuyến/ ngày","Doanh nghiệp ":"Bưu điện tỉnh","layer_id":370,"fid":6,"label":"Đường thư cấp 2"}},{"type":"Feature","geometry":{"type":"Point","coordinates":[106.342321336,9.938079268]},"properties":{"Tên tuyến":"Đường thư cấp 2","Điểm bắt đầu":"Trà Vinh","Điểm kết thúc":"Xã, phường","Tần suất":"1 chuyến/ ngày","Doanh nghiệp ":"Bưu điện tỉnh","layer_id":370,"fid":7,"label":"Đường thư cấp 2"}},{"type":"Feature","geometry":{"type":"Point","coordinates":[106.342589557,9.937773496]},"properties":{"Tên tuyến":"Đường thư cấp 2","Điểm bắt đầu":"Trà Vinh","Điểm kết thúc":"Xã, phường","Tần suất":"1 chuyến/ ngày","Doanh nghiệp ":"Bưu điện tỉnh","layer_id":370,"fid":8,"label":"Đường thư cấp 2"}},{"type":"Feature","geometry":{"type":"Point","coordinates":[106.342466176,9.937325567]},"properties":{"Tên tuyến":"Đường thư cấp 2","Điểm bắt đầu":"Trà Vinh","Điểm kết thúc":"Xã, phường","Tần suất":"1 chuyến/ ngày","Doanh nghiệp ":"Bưu điện tỉnh","layer_id":370,"fid":9,"label":"Đường thư cấp 2"}},{"type":"Feature","geometry":{"type":"Point","coordinates":[106.376081869,10.235850389]},"properties":{"Tên tuyến":"Đường thư cấp 2","Điểm bắt đầu":"Bến Tre","Điểm kết thúc":"Xã, phường","Tần suất":"1 chuyến/ ngày","Doanh nghiệp ":"Bưu điện tỉnh","layer_id":370,"fid":10,"label":"Đường thư cấp 2"}},{"type":"Feature","geometry":{"type":"Point","coordinates":[106.375433207,10.235634148]},"properties":{"Tên tuyến":"Đường thư cấp 2","Điểm bắt đầu":"Bến Tre","Điểm kết thúc":"Xã, phường","Tần suất":"1 chuyến/ ngày","Doanh nghiệp ":"Bưu điện tỉnh","layer_id":370,"fid":11,"label":"Đường thư cấp 2"}},{"type":"Feature","geometry":{"type":"Point","coordinates":[106.376168132,10.235183537]},"properties":{"Tên tuyến":"Đường thư cấp 2","Điểm bắt đầu":"Bến Tre","Điểm kết thúc":"Xã, phường","Tần suất":"1 chuyến/ ngày","Doanh nghiệp ":"Bưu điện tỉnh","layer_id":370,"fid":12,"label":"Đường thư cấp 2"}},{"type":"Feature","geometry":{"type":"Point","coordinates":[106.376007199,10.234625638]},"properties":{"Tên tuyến":"Đường thư cấp 2","Điểm bắt đầu":"Bến Tre","Điểm kết thúc":"Xã, phường","Tần suất":"1 chuyến/ ngày","Doanh nghiệp ":"Bưu điện tỉnh","layer_id":370,"fid":13,"label":"Đường thư cấp 2"}},{"type":"Feature","geometry":{"type":"Point","coordinates":[105.972994566,10.255589783]},"properties":{"Tên tuyến":"Đường thư cấp 2","Điểm bắt đầu":"Vĩnh Long","Điểm kết thúc":"Xã, phường","Tần suất":"1 chuyến/ ngày","Doanh nghiệp ":"Viettel Post CN VL","layer_id":370,"fid":14,"label":"Đường thư cấp 2"}},{"type":"Feature","geometry":{"type":"Point","coordinates":[105.973241329,10.255241096]},"properties":{"Tên tuyến":"Đường thư cấp 2","Điểm bắt đầu":"Vĩnh Long","Điểm kết thúc":"Xã, phường","Tần suất":"1 chuyến/ ngày","Doanh nghiệp ":"Viettel Post CN VL","layer_id":370,"fid":15,"label":"Đường thư cấp 2"}},{"type":"Feature","geometry":{"type":"Point","coordinates":[105.97350955,10.25557369]},"properties":{"Tên tuyến":"Đường thư cấp 2","Điểm bắt đầu":"Vĩnh Long","Điểm kết thúc":"Xã, phường","Tần suất":"1 chuyến/ ngày","Doanh nghiệp ":"Viettel Post CN VL","layer_id":370,"fid":16,"label":"Đường thư cấp 2"}},{"type":"Feature","geometry":{"type":"Point","coordinates":[105.972324014,10.255879462]},"properties":{"Tên tuyến":"Đường thư cấp 2","Điểm bắt đầu":"Vĩnh Long","Điểm kết thúc":"Xã, phường","Tần suất":"1 chuyến/ ngày","Doanh nghiệp ":"Viettel Post CN VL","layer_id":370,"fid":17,"label":"Đường thư cấp 2"}},{"type":"Feature","geometry":{"type":"Point","coordinates":[105.972747803,10.256040394]},"properties":{"Tên tuyến":"Đường thư cấp 2","Điểm bắt đầu":"Vĩnh Long","Điểm kết thúc":"Xã, phường","Tần suất":"1 chuyến/ ngày","Doanh nghiệp ":"Viettel Post CN VL","layer_id":370,"fid":18,"label":"Đường thư cấp 2"}},{"type":"Feature","geometry":{"type":"Point","coordinates":[105.972243547,10.255455673]},"properties":{"Tên tuyến":"Đường thư cấp 2","Điểm bắt đầu":"Vĩnh Long","Điểm kết thúc":"Xã, phường","Tần suất":"1 chuyến/ ngày","Doanh nghiệp ":"Viettel Post CN VL","layer_id":370,"fid":19,"label":"Đường thư cấp 2"}},{"type":"Feature","geometry":{"type":"Point","coordinates":[106.341465712,9.938295186]},"properties":{"Tên tuyến":"Đường thư cấp 2","Điểm bắt đầu":"Trà Vinh","Điểm kết thúc":"Xã, phường","Tần suất":"1 chuyến/ ngày","Doanh nghiệp ":"Viettel Post CN VL","layer_id":370,"fid":20,"label":"Đường thư cấp 2"}},{"type":"Feature","geometry":{"type":"Point","coordinates":[106.341336966,9.938032329]},"properties":{"Tên tuyến":"Đường thư cấp 2","Điểm bắt đầu":"Trà Vinh","Điểm kết thúc":"Xã, phường","Tần suất":"1 chuyến/ ngày","Doanh nghiệp ":"Viettel Post CN VL","layer_id":370,"fid":21,"label":"Đường thư cấp 2"}},{"type":"Feature","geometry":{"type":"Point","coordinates":[106.341363788,9.937683642]},"properties":{"Tên tuyến":"Đường thư cấp 2","Điểm bắt đầu":"Trà Vinh","Điểm kết thúc":"Xã, phường","Tần suất":"1 chuyến/ ngày","Doanh nghiệp ":"Viettel Post CN VL","layer_id":370,"fid":22,"label":"Đường thư cấp 2"}},{"type":"Feature","geometry":{"type":"Point","coordinates":[106.342061162,9.937082827]},"properties":{"Tên tuyến":"Đường thư cấp 2","Điểm bắt đầu":"Trà Vinh","Điểm kết thúc":"Xã, phường","Tần suất":"1 chuyến/ ngày","Doanh nghiệp ":"Viettel Post CN VL","layer_id":370,"fid":23,"label":"Đường thư cấp 2"}},{"type":"Feature","geometry":{"type":"Point","coordinates":[106.34198606,9.936696589]},"properties":{"Tên tuyến":"Đường thư cấp 2","Điểm bắt đầu":"Trà Vinh","Điểm kết thúc":"Xã, phường","Tần suất":"1 chuyến/ ngày","Doanh nghiệp ":"Viettel Post CN VL","layer_id":370,"fid":24,"label":"Đường thư cấp 2"}},{"type":"Feature","geometry":{"type":"Point","coordinates":[106.342898011,9.93696481]},"properties":{"Tên tuyến":"Đường thư cấp 2","Điểm bắt đầu":"Trà Vinh","Điểm kết thúc":"Xã, phường","Tần suất":"1 chuyến/ ngày","Doanh nghiệp ":"Viettel Post CN VL","layer_id":370,"fid":25,"label":"Đường thư cấp 2"}},{"type":"Feature","geometry":{"type":"Point","coordinates":[106.343010664,9.937281311]},"properties":{"Tên tuyến":"Đường thư cấp 2","Điểm bắt đầu":"Trà Vinh","Điểm kết thúc":"Xã, phường","Tần suất":"1 chuyến/ ngày","Doanh nghiệp ":"Viettel Post CN VL","layer_id":370,"fid":26,"label":"Đường thư cấp 2"}},{"type":"Feature","geometry":{"type":"Point","coordinates":[106.37540102,10.235145986]},"properties":{"Tên tuyến":"Đường thư cấp 2","Điểm bắt đầu":"Bến Tre","Điểm kết thúc":"Xã, phường","Tần suất":"1 chuyến/ ngày","Doanh nghiệp ":"Viettel Post CN VL","layer_id":370,"fid":27,"label":"Đường thư cấp 2"}},{"type":"Feature","geometry":{"type":"Point","coordinates":[106.37540102,10.234808028]},"properties":{"Tên tuyến":"Đường thư cấp 2","Điểm bắt đầu":"Bến Tre","Điểm kết thúc":"Xã, phường","Tần suất":"1 chuyến/ ngày","Doanh nghiệp ":"Viettel Post CN VL","layer_id":370,"fid":28,"label":"Đường thư cấp 2"}},{"type":"Feature","geometry":{"type":"Point","coordinates":[106.374848485,10.235945284]},"properties":{"Tên tuyến":"Đường thư cấp 2","Điểm bắt đầu":"Bến Tre","Điểm kết thúc":"Xã, phường","Tần suất":"1 chuyến/ ngày","Doanh nghiệp ":"Viettel Post CN VL","layer_id":370,"fid":29,"label":"Đường thư cấp 2"}},{"type":"Feature","geometry":{"type":"Point","coordinates":[106.37595892,10.236106217]},"properties":{"Tên tuyến":"Đường thư cấp 2","Điểm bắt đầu":"Bến Tre","Điểm kết thúc":"Xã, phường","Tần suất":"1 chuyến/ ngày","Doanh nghiệp ":"Viettel Post CN VL","layer_id":370,"fid":30,"label":"Đường thư cấp 2"}},{"type":"Feature","geometry":{"type":"Point","coordinates":[106.376661658,10.235784352]},"properties":{"Tên tuyến":"Đường thư cấp 2","Điểm bắt đầu":"Bến Tre","Điểm kết thúc":"Xã, phường","Tần suất":"1 chuyến/ ngày","Doanh nghiệp ":"Viettel Post CN VL","layer_id":370,"fid":31,"label":"Đường thư cấp 2"}},{"type":"Feature","geometry":{"type":"Point","coordinates":[106.376634836,10.235317647]},"properties":{"Tên tuyến":"Đường thư cấp 2","Điểm bắt đầu":"Bến Tre","Điểm kết thúc":"Xã, phường","Tần suất":"1 chuyến/ ngày","Doanh nghiệp ":"Viettel Post CN VL","layer_id":370,"fid":32,"label":"Đường thư cấp 2"}},{"type":"Feature","geometry":{"type":"Point","coordinates":[106.376597285,10.234985054]},"properties":{"Tên tuyến":"Đường thư cấp 2","Điểm bắt đầu":"Bến Tre","Điểm kết thúc":"Xã, phường","Tần suất":"1 chuyến/ ngày","Doanh nghiệp ":"Viettel Post CN VL","layer_id":370,"fid":33,"label":"Đường thư cấp 2"}}]}
