{"type":"FeatureCollection","name":"Tuyến đường thư Cấp 1","metadata":{"source":"https://hatang.vinhlong.gov.vn/","downloaded_at":"2026-07-20T01:19:54+00:00","layer_id":371,"layer_name":"Tuyến đường thư Cấp 1","catalog_endpoints":["/map/publicLayers2?inputs=bcvt"],"requested_bbox":[104.0,8.0,108.0,12.0],"tile_size":0.0,"tile_count":1,"tile_errors":[],"feature_count":8,"coordinate_order":"x,y (thường là longitude,latitude theo cấu hình EPSG:4326 của WebGIS)"},"features":[{"type":"Feature","geometry":{"type":"Point","coordinates":[106.376143347,10.235893603]},"properties":{"Tên tuyến":"Đường thư cấp 1","Điểm bắt đầu":"Bến Tre","Điểm kết thúc":"TPHCM","Tần suất":"1 chuyến/ ngày","Doanh nghiệp":"Bưu điện tỉnh","layer_id":371,"fid":1,"label":"Đường thư cấp 1"}},{"type":"Feature","geometry":{"type":"Point","coordinates":[105.824828655,10.069410888]},"properties":{"Tên tuyến":"Đường thư cấp 1","Điểm bắt đầu":"Hub Bình Minh","Điểm kết thúc":"Kho vận Tây Nam Bộ","Tần suất":"2 chuyến/ ngày","Doanh nghiệp":"Bưu điện tỉnh","layer_id":371,"fid":3,"label":"Đường thư cấp 1"}},{"type":"Feature","geometry":{"type":"Point","coordinates":[106.3757658,10.23556441]},"properties":{"Tên tuyến":"Đường thư cấp 1","Điểm bắt đầu":"Bến Tre","Điểm kết thúc":"TPHCM","Tần suất":"5 chuyến/ ngày","Doanh nghiệp":"Viettel Post CN VL","layer_id":371,"fid":4,"label":"Đường thư cấp 1"}},{"type":"Feature","geometry":{"type":"Point","coordinates":[106.375755072,10.23475036]},"properties":{"Tên tuyến":"Đường thư cấp 1","Điểm bắt đầu":"Bến Tre","Điểm kết thúc":"TPHCM","Tần suất":"2 chuyến/ ngày","Doanh nghiệp":"Viettel Post CN VL","layer_id":371,"fid":5,"label":"Đường thư cấp 1"}},{"type":"Feature","geometry":{"type":"Point","coordinates":[106.374864578,10.247122049]},"properties":{"Tên tuyến":"Đường thư cấp 1","Điểm bắt đầu":"Bến Tre","Điểm kết thúc":"Kho vận Tây Nam Bộ","Tần suất":"1 chuyến/ ngày","Doanh nghiệp":"Bưu điện tỉnh","layer_id":371,"fid":2,"label":"Đường thư cấp 1"}},{"type":"Feature","geometry":{"type":"Point","coordinates":[106.3421175,9.93754604]},"properties":{"Tên tuyến":"Đường thư cấp 1","Điểm bắt đầu":"Trà Vinh","Điểm kết thúc":"TPHCM","Tần suất":"1 chuyến/ ngày","Doanh nghiệp":"Viettel Post CN VL","layer_id":371,"fid":6,"label":"Đường thư cấp 1"}},{"type":"Feature","geometry":{"type":"Point","coordinates":[106.341964602,9.938043058]},"properties":{"Tên tuyến":"Đường thư cấp 1","Điểm bắt đầu":"Trà Vinh","Điểm kết thúc":"Cần Thơ","Tần suất":"1 chuyến/ ngày","Doanh nghiệp":"Viettel Post CN VL","layer_id":371,"fid":7,"label":"Đường thư cấp 1"}},{"type":"Feature","geometry":{"type":"Point","coordinates":[105.972797373,10.254947317]},"properties":{"Tên tuyến":"Đường thư cấp 1","Điểm bắt đầu":"Vĩnh Long","Điểm kết thúc":"Cần Thơ","Tần suất":"12 chuyến/ ngày","Doanh nghiệp":"Viettel Post CN VL","layer_id":371,"fid":8,"label":"Đường thư cấp 1"}}]}
