{"type":"FeatureCollection","name":"Đại lý internet","metadata":{"source":"https://hatang.vinhlong.gov.vn/","downloaded_at":"2026-07-20T01:10:16+00:00","layer_id":5,"layer_name":"Đại lý internet","catalog_endpoints":["/map/publicLayers2?inputs=bcvt"],"requested_bbox":[104.0,8.0,108.0,12.0],"tile_size":0.0,"tile_count":1,"tile_errors":[],"feature_count":49,"coordinate_order":"x,y (thường là longitude,latitude theo cấu hình EPSG:4326 của WebGIS)"},"features":[{"type":"Feature","geometry":{"type":"Point","coordinates":[105.827786,10.058564]},"properties":{"Doanh nghiệp":3,"Tên đại lý":"Đại Lý Internet Bảo","Địa chỉ":"Khóm Đông Bình A - Phường Đông Thuận - tỉnh Vĩnh Long","Xã/Phường":"Phường Đông Thuận","Số điện thoại":"0939670707","Phương thức kết nối":"FTTH","Tình trạng":"Đang hoạt động","Ngày hoạt động":"7/9/05 12:00:00 AM","layer_id":5,"fid":1131,"label":"Đại Lý Internet Bảo"}},{"type":"Feature","geometry":{"type":"Point","coordinates":[105.823966,10.069059]},"properties":{"Doanh nghiệp":3,"Tên đại lý":"Internet Phát Đạt 1","Địa chỉ":"Số 104, Phan Văn Năm, Tổ 39, Khóm 1, P. Cái Vồn, tỉnh Vĩnh Long","Xã/Phường":"Phường Cái Vồn","Số điện thoại":"0907808608","Phương thức kết nối":"FTTH","Tình trạng":"Đang hoạt động","Ngày hoạt động":"7/9/05 12:00:00 AM","layer_id":5,"fid":1132,"label":"Internet Phát Đạt 1"}},{"type":"Feature","geometry":{"type":"Point","coordinates":[105.816107,10.06882]},"properties":{"Doanh nghiệp":3,"Tên đại lý":"Internet Phát Đạt 2","Địa chỉ":"Tổ 2 khóm 2, Đường Lê Văn Di, P. Cái Vồn, tỉnh Vĩnh Long","Xã/Phường":"Phường Cái Vồn","Số điện thoại":"0939784384","Phương thức kết nối":"FTTH","Tình trạng":"Đang hoạt động","Ngày hoạt động":"7/10/05 12:00:00 AM","layer_id":5,"fid":1133,"label":"Internet Phát Đạt 2"}},{"type":"Feature","geometry":{"type":"Point","coordinates":[105.7046318,10.1489965]},"properties":{"Doanh nghiệp":3,"Tên đại lý":"Internet Ngọc Dư","Địa chỉ":"xã Tân Lược, tỉnh Vĩnh Long","Xã/Phường":"xã Tân Lược","Số điện thoại":"0379817343","Phương thức kết nối":"FTTH","Tình trạng":"Đang hoạt động","Ngày hoạt động":"12/12/19 12:00:00 AM","layer_id":5,"fid":1134,"label":"Internet Ngọc Dư"}},{"type":"Feature","geometry":{"type":"Point","coordinates":[105.926322,9.959311]},"properties":{"Doanh nghiệp":3,"Tên đại lý":"Thanh Bình","Địa chỉ":"84 Khu 10 A xã Trà Ôn, tỉnh Vĩnh Long","Xã/Phường":"xã Trà Ôn","Số điện thoại":"0919970577","Phương thức kết nối":"FTTH","Tình trạng":"Đang hoạt động","Ngày hoạt động":"9/1/17 12:00:00 AM","layer_id":5,"fid":1135,"label":"Thanh Bình"}},{"type":"Feature","geometry":{"type":"Point","coordinates":[106.008361,10.194778]},"properties":{"Doanh nghiệp":3,"Tên đại lý":"Thanh Ngân","Địa chỉ":"xã Long Hồ, Tỉnh Vĩnh Long","Xã/Phường":"xã Long Hồ","Số điện thoại":"0938383998","Phương thức kết nối":"FTTH","Tình trạng":"Đang hoạt động","Ngày hoạt động":"12/26/14 12:00:00 AM","layer_id":5,"fid":1136,"label":"Thanh Ngân"}},{"type":"Feature","geometry":{"type":"Point","coordinates":[105.926139,10.16675]},"properties":{"Doanh nghiệp":3,"Tên đại lý":"Siêu Tốc","Địa chỉ":"495/38 xã Phú Quới, tỉnh Vĩnh Long","Xã/Phường":"xã Phú Quới","Số điện thoại":"0396868169","Phương thức kết nối":"FTTH","Tình trạng":"Đang hoạt động","Ngày hoạt động":"1/1/24 12:00:00 AM","layer_id":5,"fid":1137,"label":"Siêu Tốc"}},{"type":"Feature","geometry":{"type":"Point","coordinates":[105.95387,10.234703]},"properties":{"Doanh nghiệp":3,"Tên đại lý":"Hộ Kinh Doanh X1 GAME ","Địa chỉ":"128L, Nguyễn Văn Lâu, Phường Tân Hạnh, tỉnh Vĩnh Long","Xã/Phường":"Phường Tân Hạnh","Số điện thoại":"0776856038","Phương thức kết nối":"FTTH","Tình trạng":"Đang hoạt động","Ngày hoạt động":"3/26/16 12:00:00 AM","layer_id":5,"fid":1138,"label":"Hộ Kinh Doanh X1 GAME "}},{"type":"Feature","geometry":{"type":"Point","coordinates":[105.965213,10.235273]},"properties":{"Doanh nghiệp":3,"Tên đại lý":"Hộ kinh doanh BO BO GAMING  ","Địa chỉ":"79/20, Đường Phó Cơ Điều, Phường Phước Hậu, tỉnh Vĩnh Long ","Xã/Phường":"Phường Phước Hậu","Số điện thoại":"0947449798","Phương thức kết nối":"FTTH","Tình trạng":"Đang hoạt động","Ngày hoạt động":"18/05/2017 ","layer_id":5,"fid":1139,"label":"Hộ kinh doanh BO BO GAMING  "}},{"type":"Feature","geometry":{"type":"Point","coordinates":[105.968767,10.247148]},"properties":{"Doanh nghiệp":3,"Tên đại lý":"Hộ Kinh Doanh ViVa Gaming","Địa chỉ":"Số 24/11, Phường Phước Hậu, tỉnh Vĩnh Long","Xã/Phường":"Phường Phước Hậu","Số điện thoại":"0986383811","Phương thức kết nối":"FTTH","Tình trạng":"Đang hoạt động","Ngày hoạt động":"03/05/2018 ","layer_id":5,"fid":1140,"label":"Hộ Kinh Doanh ViVa Gaming"}},{"type":"Feature","geometry":{"type":"Point","coordinates":[105.964294,10.236057]},"properties":{"Doanh nghiệp":3,"Tên đại lý":"HKD Internet BoBo Hà My","Địa chỉ":"79/20A Phó Cơ Điều, Phường Phước Hậu, tỉnh Vĩnh Long","Xã/Phường":"Phường Phước Hậu","Số điện thoại":"0939322030","Phương thức kết nối":"FTTH","Tình trạng":"Đang hoạt động","Ngày hoạt động":"18/01/2019 ","layer_id":5,"fid":1141,"label":"HKD Internet BoBo Hà My"}},{"type":"Feature","geometry":{"type":"Point","coordinates":[105.967774,10.247203]},"properties":{"Doanh nghiệp":3,"Tên đại lý":"Hộ Kinh Doanh BoBo Gaming2","Địa chỉ":"Số 24/22D, Đường Mậu Thân, Phường Phước Hậu, tỉnh Vĩnh Long","Xã/Phường":"Phường Phước Hậu","Số điện thoại":"0979299119","Phương thức kết nối":"FTTH","Tình trạng":"Đang hoạt động","Ngày hoạt động":"10/9/23 12:00:00 AM","layer_id":5,"fid":1142,"label":"Hộ Kinh Doanh BoBo Gaming2"}},{"type":"Feature","geometry":{"type":"Point","coordinates":[105.965158,10.238493]},"properties":{"Doanh nghiệp":3,"Tên đại lý":"Hộ Kinh Doanh TP Game","Địa chỉ":"61/152, Phường Phước Hậu, tỉnh Vĩnh Long","Xã/Phường":"Phường Phước Hậu","Số điện thoại":"0932837328","Phương thức kết nối":"FTTH","Tình trạng":"Đang hoạt động","Ngày hoạt động":"4/28/20 12:00:00 AM","layer_id":5,"fid":1143,"label":"Hộ Kinh Doanh TP Game"}},{"type":"Feature","geometry":{"type":"Point","coordinates":[105.966424,10.239577]},"properties":{"Doanh nghiệp":3,"Tên đại lý":"HKD PV Gaming Center","Địa chỉ":"75/10D phường Phước Hậu, tỉnh Vĩnh Long","Xã/Phường":"Phường Phước Hậu","Số điện thoại":"0961636464","Phương thức kết nối":"FTTH","Tình trạng":"Đang hoạt động","Ngày hoạt động":"8/16/24 12:00:00 AM","layer_id":5,"fid":1144,"label":"HKD PV Gaming Center"}},{"type":"Feature","geometry":{"type":"Point","coordinates":[105.958044,10.251135]},"properties":{"Doanh nghiệp":3,"Tên đại lý":"Hộ kinh doanh REROLL","Địa chỉ":"52E, Đường Võ Văn Kiệt, Phường Long Châu, tỉnh Vĩnh Long","Xã/Phường":"Phường Long Châu","Số điện thoại":"0912355912","Phương thức kết nối":"FTTH","Tình trạng":"Đang hoạt động","Ngày hoạt động":"4/29/25 12:00:00 AM","layer_id":5,"fid":1145,"label":"Hộ kinh doanh REROLL"}},{"type":"Feature","geometry":{"type":"Point","coordinates":[106.115361,10.085401]},"properties":{"Doanh nghiệp":3,"Tên đại lý":"Đại lý Internet Ngọc Ánh","Địa chỉ":"Ấp Hiếu Hiệp, Xã Hiếu Phụng, tỉnh Vĩnh Long","Xã/Phường":"Xã Hiếu Phụng","Số điện thoại":"0348800658","Phương thức kết nối":"FTTH","Tình trạng":"Đang hoạt động","Ngày hoạt động":"12/23/14 12:00:00 AM","layer_id":5,"fid":1146,"label":"Đại lý Internet Ngọc Ánh"}},{"type":"Feature","geometry":{"type":"Point","coordinates":[106.181166,10.093872]},"properties":{"Doanh nghiệp":3,"Tên đại lý":"Internet. MASTER GAME","Địa chỉ":"xã Trung Thành, tỉnh Vĩnh Long","Xã/Phường":"xã Trung Thành","Số điện thoại":"0764467553","Phương thức kết nối":"FTTH","Tình trạng":"Đang hoạt động","Ngày hoạt động":" 2019","layer_id":5,"fid":1147,"label":"Internet. MASTER GAME"}},{"type":"Feature","geometry":{"type":"Point","coordinates":[106.303003,9.636252]},"properties":{"Doanh nghiệp":2,"Tên đại lý":"Vĩnh Tường","Địa chỉ":"Ấp Chợ, xã Đại An, tỉnh Vĩnh Long","Xã/Phường":"Đại An","Số điện thoại":"0979196877","Phương thức kết nối":"FTTH","Tình trạng":"Đang hoạt động","Ngày hoạt động":" 2020","layer_id":5,"fid":1148,"label":"Vĩnh Tường"}},{"type":"Feature","geometry":{"type":"Point","coordinates":[105.99468,10.0442]},"properties":{"Doanh nghiệp":2,"Tên đại lý":"Tiệm nét Nguyễn Khánh Nguyên","Địa chỉ":"Khóm 3, xã Tam Bình, tỉnh Vĩnh Long","Xã/Phường":"xã Tam Bình","Số điện thoại":"0939295259","Phương thức kết nối":"FTTH","Tình trạng":"Đang hoạt động","Ngày hoạt động":" 2021","layer_id":5,"fid":1149,"label":"Tiệm nét Nguyễn Khánh Nguyên"}},{"type":"Feature","geometry":{"type":"Point","coordinates":[106.2491211,9.819368829]},"properties":{"Doanh nghiệp":2,"Tên đại lý":"Nét Hải Đăng","Địa chỉ":"Ấp ngãi trung, xã tập ngãi, tỉnh Vĩnh Long","Xã/Phường":"Xã Tập Ngãi","Số điện thoại":"0989880404","Phương thức kết nối":"FTTH","Tình trạng":"Đang hoạt động","Ngày hoạt động":"7/9/05 12:00:00 AM","layer_id":5,"fid":1152,"label":"Nét Hải Đăng"}},{"type":"Feature","geometry":{"type":"Point","coordinates":[106.01354,10.05111]},"properties":{"Doanh nghiệp":2,"Tên đại lý":"Tiệm nét Hoàng Liêm","Địa chỉ":"ấp 10-Hòa Hiệp Xã Hòa Hiệp Tỉnh Vĩnh Long","Xã/Phường":"xã Hòa Hiệp","Số điện thoại":"0985089959","Phương thức kết nối":"FTTH","Tình trạng":"Đang hoạt động","Ngày hoạt động":"7/10/05 12:00:00 AM","layer_id":5,"fid":1150,"label":"Tiệm nét Hoàng Liêm"}},{"type":"Feature","geometry":{"type":"Point","coordinates":[105.98838,10.05278]},"properties":{"Doanh nghiệp":2,"Tên đại lý":"Tiệm nét Quốc Khánh","Địa chỉ":"Mỹ Phú 1 Tường Lộc Tam Bình Vĩnh Long","Xã/Phường":"xã Tam Bình","Số điện thoại":"0939779197","Phương thức kết nối":"FTTH","Tình trạng":"Đang hoạt động","Ngày hoạt động":"7/8/05 12:00:00 AM","layer_id":5,"fid":1151,"label":"Tiệm nét Quốc Khánh"}},{"type":"Feature","geometry":{"type":"Point","coordinates":[106.505467,10.15344]},"properties":{"Doanh nghiệp":2,"Tên đại lý":"Internet 462","Địa chỉ":"462 Khu phố 3, xã Giồng Trôm, tỉnh Vĩnh Long","Xã/Phường":"Xã Giồng Trôm","Số điện thoại":"0987020219","Phương thức kết nối":"FTTH","Tình trạng":"Đang hoạt động","Ngày hoạt động":"7/12/05 12:00:00 AM","layer_id":5,"fid":1153,"label":"Internet 462"}},{"type":"Feature","geometry":{"type":"Point","coordinates":[106.342677,9.936464653]},"properties":{"Doanh nghiệp":2,"Tên đại lý":"NET GAME 36","Địa chỉ":"Số 36, Nguyễn Thị Út, Khóm 1, Phường Trà Vinh, Tỉnh Vĩnh Long","Xã/Phường":"Phường Trà Vinh","Số điện thoại":"0972337733","Phương thức kết nối":"FTTH","Tình trạng":"Đang hoạt động","Ngày hoạt động":"7/11/05 12:00:00 AM","layer_id":5,"fid":1155,"label":"NET GAME 36"}},{"type":"Feature","geometry":{"type":"Point","coordinates":[106.511476,10.158385]},"properties":{"Doanh nghiệp":2,"Tên đại lý":"Huỳnh Thanh Tân","Địa chỉ":"Số 300/3 Tổ NDTQ số 16, Xã Giồng Trôm Tỉnh Vĩnh Long","Xã/Phường":"Xã Giồng Trôm","Số điện thoại":"0968199967","Phương thức kết nối":"FTTH","Tình trạng":"Đang hoạt động","Ngày hoạt động":"7/10/05 12:00:00 AM","layer_id":5,"fid":1154,"label":"Huỳnh Thanh Tân"}},{"type":"Feature","geometry":{"type":"Point","coordinates":[106.69546,10.18712]},"properties":{"Doanh nghiệp":2,"Tên đại lý":"Hộ Kinh Doanh Ben Nguyễn","Địa chỉ":"kp3, xã Bình Đại, Vĩnh Long ","Xã/Phường":"xã Bình Đại ","Số điện thoại":"0909024131","Phương thức kết nối":"FTTH","Tình trạng":"Đang hoạt động","Ngày hoạt động":"7/11/05 12:00:00 AM","layer_id":5,"fid":1156,"label":"Hộ Kinh Doanh Ben Nguyễn"}},{"type":"Feature","geometry":{"type":"Point","coordinates":[106.691195,10.186405]},"properties":{"Doanh nghiệp":2,"Tên đại lý":"Internet Trần Lâm ","Địa chỉ":"ấp Bình Hòa Bình Đại Vĩnh Long","Xã/Phường":"xã Bình Đại ","Số điện thoại":"0939644699","Phương thức kết nối":"FTTH","Tình trạng":"Đang hoạt động","Ngày hoạt động":"7/8/05 12:00:00 AM","layer_id":5,"fid":1157,"label":"Internet Trần Lâm "}},{"type":"Feature","geometry":{"type":"Point","coordinates":[106.68948,10.195277]},"properties":{"Doanh nghiệp":2,"Tên đại lý":"Internet Bình Minh ","Địa chỉ":"73/2 ấp Bình Hòa Bình Đại Vĩnh Long","Xã/Phường":"xã Bình Đại ","Số điện thoại":"0919883055","Phương thức kết nối":"FTTH","Tình trạng":"Đang hoạt động","Ngày hoạt động":"7/9/05 12:00:00 AM","layer_id":5,"fid":1158,"label":"Internet Bình Minh "}},{"type":"Feature","geometry":{"type":"Point","coordinates":[106.513083,9.870076]},"properties":{"Doanh nghiệp":2,"Tên đại lý":"ĐẠI LÝ INTERNET BÉ SÁU","Địa chỉ":"Rạch Ngựa Long Hòa Vĩnh Long","Xã/Phường":"xã Long Hòa","Số điện thoại":"0966356465","Phương thức kết nối":"FTTH","Tình trạng":"Đang hoạt động","Ngày hoạt động":"7/11/05 12:00:00 AM","layer_id":5,"fid":1159,"label":"ĐẠI LÝ INTERNET BÉ SÁU"}},{"type":"Feature","geometry":{"type":"Point","coordinates":[106.283941,9.933455]},"properties":{"Doanh nghiệp":2,"Tên đại lý":"Đại Lý Intenet All Blue","Địa chỉ":"Ô Chích A, Song Lộc, Vĩnh Long ","Xã/Phường":"xã Song Lộc ","Số điện thoại":"0939325229","Phương thức kết nối":"FTTH","Tình trạng":"Đang hoạt động","Ngày hoạt động":"7/9/05 12:00:00 AM","layer_id":5,"fid":1160,"label":"Đại Lý Intenet All Blue"}},{"type":"Feature","geometry":{"type":"Point","coordinates":[106.377478,10.118728]},"properties":{"Doanh nghiệp":2,"Tên đại lý":"Song Nhi","Địa chỉ":"Ấp Phước Điền, Xã Đồng Khởi, Tỉnh Vĩnh Long","Xã/Phường":"xã Đồng Khởi","Số điện thoại":"0368800740","Phương thức kết nối":"FTTH","Tình trạng":"Đang hoạt động","Ngày hoạt động":"7/10/05 12:00:00 AM","layer_id":5,"fid":1161,"label":"Song Nhi"}},{"type":"Feature","geometry":{"type":"Point","coordinates":[106.33174,10.13054]},"properties":{"Doanh nghiệp":2,"Tên đại lý":"Internet Hiếu","Địa chỉ":"Ấp 2, Xã Mỏ Cày, Tỉnh Vĩnh Long","Xã/Phường":"xã Mỏ Cày","Số điện thoại":"0344868720","Phương thức kết nối":"FTTH","Tình trạng":"Đang hoạt động","Ngày hoạt động":"7/8/05 12:00:00 AM","layer_id":5,"fid":1162,"label":"Internet Hiếu"}},{"type":"Feature","geometry":{"type":"Point","coordinates":[106.288808,10.100456]},"properties":{"Doanh nghiệp":2,"Tên đại lý":"Thành Đạt","Địa chỉ":"Ấp An Lộc Thị, Xã Mỏ Cày, Tỉnh Vĩnh Long","Xã/Phường":"xã Mỏ Cày","Số điện thoại":"0366090261","Phương thức kết nối":"FTTH","Tình trạng":"Đang hoạt động","Ngày hoạt động":"7/11/05 12:00:00 AM","layer_id":5,"fid":1163,"label":"Thành Đạt"}},{"type":"Feature","geometry":{"type":"Point","coordinates":[106.393714,10.304773]},"properties":{"Doanh nghiệp":2,"Tên đại lý":"93 Gaming","Địa chỉ":"Quới Hưng, Giao Long, Vĩnh Long","Xã/Phường":"xã Giao Long","Số điện thoại":"0939798479","Phương thức kết nối":"FTTH","Tình trạng":"Đang hoạt động","Ngày hoạt động":"7/12/05 12:00:00 AM","layer_id":5,"fid":1164,"label":"93 Gaming"}},{"type":"Feature","geometry":{"type":"Point","coordinates":[106.3583045,10.3004835]},"properties":{"Doanh nghiệp":2,"Tên đại lý":"Net Minh Toàn","Địa chỉ":"Khu Phố 3, Phú Túc, Vĩnh Long","Xã/Phường":"xã Phú Túc","Số điện thoại":"0984341198","Phương thức kết nối":"FTTH","Tình trạng":"Đang hoạt động","Ngày hoạt động":"7/11/05 12:00:00 AM","layer_id":5,"fid":1165,"label":"Net Minh Toàn"}},{"type":"Feature","geometry":{"type":"Point","coordinates":[106.393714,10.304773]},"properties":{"Doanh nghiệp":2,"Tên đại lý":"93 Gaming","Địa chỉ":"Quới Hưng, Giao Long, Vĩnh Long","Xã/Phường":"xã Giao Long","Số điện thoại":"0939798479","Phương thức kết nối":"FTTH","Tình trạng":"Đang hoạt động","Ngày hoạt động":"7/10/05 12:00:00 AM","layer_id":5,"fid":1166,"label":"93 Gaming"}},{"type":"Feature","geometry":{"type":"Point","coordinates":[106.3583045,10.3004835]},"properties":{"Doanh nghiệp":2,"Tên đại lý":"Net Minh Toàn","Địa chỉ":"Khu Phố 3, Phú Túc, Vĩnh Long","Xã/Phường":"xã Phú Túc","Số điện thoại":"0984341198","Phương thức kết nối":"FTTH","Tình trạng":"Đang hoạt động","Ngày hoạt động":"7/9/05 12:00:00 AM","layer_id":5,"fid":1167,"label":"Net Minh Toàn"}},{"type":"Feature","geometry":{"type":"Point","coordinates":[106.097118314,9.986897444]},"properties":{"Doanh nghiệp":2,"Tên đại lý":"Hộ Kinh Doanh Chí Công","Địa chỉ":"xã Hiếu Thành, tỉnh Vĩnh Long","Xã/Phường":"xã Hiếu Thành","Số điện thoại":"0383707137","Phương thức kết nối":"FTTH","Tình trạng":"Đang hoạt động","Ngày hoạt động":"7/10/05 12:00:00 AM","layer_id":5,"fid":1168,"label":"Hộ Kinh Doanh Chí Công"}},{"type":"Feature","geometry":{"type":"Point","coordinates":[105.95849,10.24687]},"properties":{"Doanh nghiệp":2,"Tên đại lý":"HỘ KINH DOANH INTERNET TITAN","Địa chỉ":"Số 130/11/13A Nguyễn Huệ , Phường Long Châu, tỉnh Vĩnh Long","Xã/Phường":"xã Long Châu","Số điện thoại":"0907555337","Phương thức kết nối":"FTTH","Tình trạng":"Đang hoạt động","Ngày hoạt động":"7/11/05 12:00:00 AM","layer_id":5,"fid":1169,"label":"HỘ KINH DOANH INTERNET TITAN"}},{"type":"Feature","geometry":{"type":"Point","coordinates":[105.96011,10.24804]},"properties":{"Doanh nghiệp":2,"Tên đại lý":"Internet Hoa Mai","Địa chỉ":"Nguyễn Huệ, 108B Vĩnh Long, Phường Long Châu, tỉnh Vĩnh Long","Xã/Phường":"phường Long Châu","Số điện thoại":"0703830372","Phương thức kết nối":"FTTH","Tình trạng":"Đang hoạt động","Ngày hoạt động":"7/13/05 12:00:00 AM","layer_id":5,"fid":1170,"label":"Internet Hoa Mai"}},{"type":"Feature","geometry":{"type":"Point","coordinates":[105.92878,9.962393]},"properties":{"Doanh nghiệp":2,"Tên đại lý":"HỘ KINH DOANH DUY BẢO GAMING","Địa chỉ":"Số 44, Đường Thống Chế Điều Bát, Khu 2, Trà Ôn, Vĩnh Long","Xã/Phường":"xã Trà Ôn","Số điện thoại":"0987140390","Phương thức kết nối":"FTTH","Tình trạng":"Đang hoạt động","Ngày hoạt động":"7/8/05 12:00:00 AM","layer_id":5,"fid":1171,"label":"HỘ KINH DOANH DUY BẢO GAMING"}},{"type":"Feature","geometry":{"type":"Point","coordinates":[105.939,10.196]},"properties":{"Doanh nghiệp":2,"Tên đại lý":"Internet Tuấn Anh","Địa chỉ":"3/1, Phước Bình, Phú Qưới, Vĩnh Long","Xã/Phường":"xã Phú Qưới","Số điện thoại":"0382367339","Phương thức kết nối":"FTTH","Tình trạng":"Đang hoạt động","Ngày hoạt động":"7/10/05 12:00:00 AM","layer_id":5,"fid":1172,"label":"Internet Tuấn Anh"}},{"type":"Feature","geometry":{"type":"Point","coordinates":[105.979,10.251]},"properties":{"Doanh nghiệp":2,"Tên đại lý":"Internet Tú Như","Địa chỉ":"95, Đường 8/3, phường Thanh Đức, Vĩnh Long","Xã/Phường":"phường Thanh Đức","Số điện thoại":"0901991791","Phương thức kết nối":"FTTH","Tình trạng":"Đang hoạt động","Ngày hoạt động":"7/9/05 12:00:00 AM","layer_id":5,"fid":1173,"label":"Internet Tú Như"}},{"type":"Feature","geometry":{"type":"Point","coordinates":[105.757007,10.103947]},"properties":{"Doanh nghiệp":2,"Tên đại lý":"Hộ Kinh Doanh Trần Hoàng Khương","Địa chỉ":"Ấp Thành Quới Xã Tân Quới Tỉnh Vĩnh Long","Xã/Phường":"xã Tân Quới","Số điện thoại":"0766914848","Phương thức kết nối":"FTTH","Tình trạng":"Đang hoạt động","Ngày hoạt động":"7/9/05 12:00:00 AM","layer_id":5,"fid":1174,"label":"Hộ Kinh Doanh Trần Hoàng Khương"}},{"type":"Feature","geometry":{"type":"Point","coordinates":[105.720478,10.134491]},"properties":{"Doanh nghiệp":2,"Tên đại lý":"Hộ Kinh Doanh Bùi Anh Huy","Địa chỉ":"tổ 13 Ấp Tân Minh Xã Tân Lược Tỉnh Vĩnh Long","Xã/Phường":"xã Tân Lược","Số điện thoại":"0903094584","Phương thức kết nối":"FTTH","Tình trạng":"Đang hoạt động","Ngày hoạt động":"7/10/05 12:00:00 AM","layer_id":5,"fid":1175,"label":"Hộ Kinh Doanh Bùi Anh Huy"}},{"type":"Feature","geometry":{"type":"Point","coordinates":[105.814142,10.06774]},"properties":{"Doanh nghiệp":2,"Tên đại lý":"Mr.K Esport Stasium","Địa chỉ":"Khóm 2, Phường Cái Vồn, Vĩnh Long","Xã/Phường":"phường Cái vồn","Số điện thoại":"0939890789","Phương thức kết nối":"FTTH","Tình trạng":"Đang hoạt động","Ngày hoạt động":"7/9/05 12:00:00 AM","layer_id":5,"fid":1176,"label":"Mr.K Esport Stasium"}},{"type":"Feature","geometry":{"type":"Point","coordinates":[105.81598,10.06886]},"properties":{"Doanh nghiệp":2,"Tên đại lý":"Phát Đạt 2","Địa chỉ":"Khóm 2, Phường Cái Vồn, Vĩnh Long","Xã/Phường":"phường Cái vồn","Số điện thoại":"0939392119","Phương thức kết nối":"FTTH","Tình trạng":"Đang hoạt động","Ngày hoạt động":"7/11/05 12:00:00 AM","layer_id":5,"fid":1177,"label":"Phát Đạt 2"}},{"type":"Feature","geometry":{"type":"Point","coordinates":[105.823908,10.068975]},"properties":{"Doanh nghiệp":2,"Tên đại lý":"Phát Đạt 1","Địa chỉ":"Khóm 1, Phường Cái Vồn, Vĩnh Long","Xã/Phường":"phường Cái vồn","Số điện thoại":"0907808608","Phương thức kết nối":"FTTH","Tình trạng":"Đang hoạt động","Ngày hoạt động":"7/12/05 12:00:00 AM","layer_id":5,"fid":1178,"label":"Phát Đạt 1"}},{"type":"Feature","geometry":{"type":"Point","coordinates":[105.9624302,10.2369958]},"properties":{"Doanh nghiệp":5,"Tên đại lý":"Dương Minh Nhựt","Địa chỉ":"79/17 Phó Cơ Điều, phường Phước Hậu, tỉnh Vĩnh Long","Xã/Phường":"Phường Phước Hậu","Số điện thoại":"0979077537","Phương thức kết nối":"FTTH","Tình trạng":"Đang hoạt động","Ngày hoạt động":"7/11/05 12:00:00 AM","layer_id":5,"fid":1179,"label":"Dương Minh Nhựt"}}]}
