{"type":"FeatureCollection","name":"Điểm cung cấp dịch vụ viễn thông","metadata":{"source":"https://hatang.vinhlong.gov.vn/","downloaded_at":"2026-07-20T01:10:20+00:00","layer_id":6,"layer_name":"Điểm cung cấp dịch vụ viễn thông","catalog_endpoints":["/map/publicLayers2?inputs=bcvt"],"requested_bbox":[104.0,8.0,108.0,12.0],"tile_size":0.0,"tile_count":1,"tile_errors":[],"feature_count":75,"coordinate_order":"x,y (thường là longitude,latitude theo cấu hình EPSG:4326 của WebGIS)"},"features":[{"type":"Feature","geometry":{"type":"Point","coordinates":[105.949833,10.253722]},"properties":{"Điểm cung cấp dịch vụ":"Cửa hàng Vĩnh Long","Địa chỉ":"Số 9, Đường D5, Khóm 12,Phường Long Châu, Tỉnh Vĩnh Long.","Số điện thoại":"0782833767","Tình trạng hoạt động":"Hoạt động","layer_id":6,"fid":2133,"label":"Cửa hàng Vĩnh Long"}},{"type":"Feature","geometry":{"type":"Point","coordinates":[105.973028,10.255472]},"properties":{"Điểm cung cấp dịch vụ":"Điểm giao dịch Thành phố Vĩnh Long","Địa chỉ":"12c Đường Hoàng Thái Hiếu Phường Long Châu, Vĩnh Long","Số điện thoại":"0782833767","Tình trạng hoạt động":"Hoạt động","layer_id":6,"fid":2134,"label":"Điểm giao dịch Thành phố Vĩnh Long"}},{"type":"Feature","geometry":{"type":"Point","coordinates":[106.014673,10.19122]},"properties":{"Điểm cung cấp dịch vụ":"Điểm giao dịch Thị trấn Long Hồ","Địa chỉ":"số 7,Ấp Long An, xã Long Hồ, Vĩnh Long","Số điện thoại":"0787820575","Tình trạng hoạt động":"Hoạt động","layer_id":6,"fid":2135,"label":"Điểm giao dịch Thị trấn Long Hồ"}},{"type":"Feature","geometry":{"type":"Point","coordinates":[105.924504,10.161019]},"properties":{"Điểm cung cấp dịch vụ":"Điểm giao dịch Long Hồ","Địa chỉ":"232B/19 Ấp Phú Long A, Xã Phú Quới, Tỉnh Vĩnh Long","Số điện thoại":"0794237516","Tình trạng hoạt động":"Hoạt động","layer_id":6,"fid":2136,"label":"Điểm giao dịch Long Hồ"}},{"type":"Feature","geometry":{"type":"Point","coordinates":[106.112717,10.176237]},"properties":{"Điểm cung cấp dịch vụ":"Điểm giao dịch Mang Thít","Địa chỉ":"41, Khóm 4 Nguyễn Trãi, xã Cái Nhum, Tỉnh Vĩnh Long","Số điện thoại":"0794273155","Tình trạng hoạt động":"Hoạt động","layer_id":6,"fid":2137,"label":"Điểm giao dịch Mang Thít"}},{"type":"Feature","geometry":{"type":"Point","coordinates":[106.185455,10.095589]},"properties":{"Điểm cung cấp dịch vụ":"Điểm giao dịch Vũng Liêm","Địa chỉ":"Số 123, Đường Nam Kỳ Khởi Nghĩa, Khóm 1, xã Trung Thành, Tỉnh Vĩnh Long.","Số điện thoại":"0896654444","Tình trạng hoạt động":"Hoạt động","layer_id":6,"fid":2138,"label":"Điểm giao dịch Vũng Liêm"}},{"type":"Feature","geometry":{"type":"Point","coordinates":[105.82071,10.06874]},"properties":{"Điểm cung cấp dịch vụ":"Cửa hàng Bình Minh","Địa chỉ":"127/15, đường Ngô Quyền, khóm 1, Phường Cái Vồn, tỉnh Vĩnh Long","Số điện thoại":"02703742345","Tình trạng hoạt động":"Hoạt động","layer_id":6,"fid":2139,"label":"Cửa hàng Bình Minh"}},{"type":"Feature","geometry":{"type":"Point","coordinates":[105.74904,10.10538]},"properties":{"Điểm cung cấp dịch vụ":"Điểm giao dịch Bình Tân","Địa chỉ":"606, tổ 16, ấp Tân Thuận, xã Tân Quới, tỉnh Vĩnh Long","Số điện thoại":"0939316976","Tình trạng hoạt động":"Hoạt động","layer_id":6,"fid":2140,"label":"Điểm giao dịch Bình Tân"}},{"type":"Feature","geometry":{"type":"Point","coordinates":[105.92512,9.96396]},"properties":{"Điểm cung cấp dịch vụ":"Điểm giao dịch Trà Ôn","Địa chỉ":"130, khu 6, xã Trà Ôn, tỉnh Vĩnh Long","Số điện thoại":"0787250349","Tình trạng hoạt động":"Hoạt động","layer_id":6,"fid":2141,"label":"Điểm giao dịch Trà Ôn"}},{"type":"Feature","geometry":{"type":"Point","coordinates":[105.99982,10.04922]},"properties":{"Điểm cung cấp dịch vụ":"Điểm giao dịch Tam Bình","Địa chỉ":"Bưu điện Tam Bình, ấp 3, xã Tam Bình, tỉnh Vĩnh Long","Số điện thoại":"0794235337","Tình trạng hoạt động":"Hoạt động","layer_id":6,"fid":2142,"label":"Điểm giao dịch Tam Bình"}},{"type":"Feature","geometry":{"type":"Point","coordinates":[106.11029,10.03146]},"properties":{"Điểm cung cấp dịch vụ":"Cửa hàng liên kết Hiếu Nhơn","Địa chỉ":"Tổ 23, Ấp Hiếu Minh B, Xã Hiếu Thành, Tỉnh Vĩnh Long","Số điện thoại":"0932835888","Tình trạng hoạt động":"Hoạt động","layer_id":6,"fid":2143,"label":"Cửa hàng liên kết Hiếu Nhơn"}},{"type":"Feature","geometry":{"type":"Point","coordinates":[106.37574,10.23577]},"properties":{"Điểm cung cấp dịch vụ":"Điểm giao dịch Bến Tre","Địa chỉ":"Số 1, Cách mạng Tháng Tám, Phường An Hội, Tỉnh Vĩnh Long.","Số điện thoại":"02753839999","Tình trạng hoạt động":"Hoạt động","layer_id":6,"fid":2144,"label":"Điểm giao dịch Bến Tre"}},{"type":"Feature","geometry":{"type":"Point","coordinates":[106.36155,10.30959]},"properties":{"Điểm cung cấp dịch vụ":"Điểm giao dịch Châu Thành","Địa chỉ":"Số 549, Ấp 2, Xã Phú Túc, Tĩnh Vĩnh Long.","Số điện thoại":"02753860800","Tình trạng hoạt động":"Hoạt động","layer_id":6,"fid":2145,"label":"Điểm giao dịch Châu Thành"}},{"type":"Feature","geometry":{"type":"Point","coordinates":[106.33275,10.12925]},"properties":{"Điểm cung cấp dịch vụ":"Điểm giao dịch Mỏ Cày Nam","Địa chỉ":"Khu phố 2, Xã Mỏ Cày, Tĩnh Vĩnh Long.","Số điện thoại":"02753669999","Tình trạng hoạt động":"Hoạt động","layer_id":6,"fid":2146,"label":"Điểm giao dịch Mỏ Cày Nam"}},{"type":"Feature","geometry":{"type":"Point","coordinates":[106.51692,9.95149]},"properties":{"Điểm cung cấp dịch vụ":"Điểm giao dịch Thạnh Phú","Địa chỉ":"Số 26/4A, Đồng Văn Dẫn, Xã Thạnh Phú, Tĩnh Vĩnh Long.","Số điện thoại":"02753878989","Tình trạng hoạt động":"Hoạt động","layer_id":6,"fid":2147,"label":"Điểm giao dịch Thạnh Phú"}},{"type":"Feature","geometry":{"type":"Point","coordinates":[106.12095,10.25744]},"properties":{"Điểm cung cấp dịch vụ":"Điểm giao dịch Chợ Lách","Địa chỉ":"Ấp 1, xã Chợ Lách, Tỉnh Vĩnh Long","Số điện thoại":"02753710300","Tình trạng hoạt động":"Hoạt động","layer_id":6,"fid":2148,"label":"Điểm giao dịch Chợ Lách"}},{"type":"Feature","geometry":{"type":"Point","coordinates":[106.506,10.14984]},"properties":{"Điểm cung cấp dịch vụ":"Điểm giao dịch Giồng Trôm","Địa chỉ":"Số 01, Khu phố 1, Xã Giồng Trôm. Tĩnh Vĩnh Long.","Số điện thoại":"02753861499","Tình trạng hoạt động":"Hoạt động","layer_id":6,"fid":2149,"label":"Điểm giao dịch Giồng Trôm"}},{"type":"Feature","geometry":{"type":"Point","coordinates":[106.59177,10.04354]},"properties":{"Điểm cung cấp dịch vụ":"Điểm giao dịch Ba Tri","Địa chỉ":"Số 1A, Đường Trần Hưng Đạo, Khu phố 2, Xã Ba Tri, Tĩnh Vĩnh Long.","Số điện thoại":"02753763099","Tình trạng hoạt động":"Hoạt động","layer_id":6,"fid":2150,"label":"Điểm giao dịch Ba Tri"}},{"type":"Feature","geometry":{"type":"Point","coordinates":[106.69188,10.18942]},"properties":{"Điểm cung cấp dịch vụ":"Điểm giao dịch Bình Đại","Địa chỉ":"Số 1, Đường Huỳnh Tấn Phát, Xã Bình Đại, Tỉnh Vĩnh Long.","Số điện thoại":"02753851499","Tình trạng hoạt động":"Hoạt động","layer_id":6,"fid":2151,"label":"Điểm giao dịch Bình Đại"}},{"type":"Feature","geometry":{"type":"Point","coordinates":[106.27474,10.18455]},"properties":{"Điểm cung cấp dịch vụ":"Điểm giao dịch Mỏ Cày Bắc","Địa chỉ":"Khu phố Ba Vát, Xã Phước Mỹ Trung, Tỉnh Vĩnh Long","Số điện thoại":"02753669400","Tình trạng hoạt động":"Hoạt động","layer_id":6,"fid":2152,"label":"Điểm giao dịch Mỏ Cày Bắc"}},{"type":"Feature","geometry":{"type":"Point","coordinates":[105.97153,10.25356]},"properties":{"Điểm cung cấp dịch vụ":"Điểm giao dịch Long Châu","Địa chỉ":"Số 03, Trưng Nữ Vương, Phường Long Châu, Tỉnh Vĩnh Long","Số điện thoại":"02703822935","Tình trạng hoạt động":"Hoạt động","layer_id":6,"fid":2153,"label":"Điểm giao dịch Long Châu"}},{"type":"Feature","geometry":{"type":"Point","coordinates":[105.92737,10.26752]},"properties":{"Điểm cung cấp dịch vụ":"Điểm giao dịch Trường An","Địa chỉ":"Ấp Tân Vĩnh Thuận, Phường Tân Ngãi, Tỉnh Vĩnh Long.","Số điện thoại":"02703912789","Tình trạng hoạt động":"Hoạt động","layer_id":6,"fid":2154,"label":"Điểm giao dịch Trường An"}},{"type":"Feature","geometry":{"type":"Point","coordinates":[106.00923,10.19632]},"properties":{"Điểm cung cấp dịch vụ":"Điểm giao dịch Long Hồ","Địa chỉ":"Khóm 1, Xã Long Hồ, Tỉnh Vĩnh Long.","Số điện thoại":"02703943333","Tình trạng hoạt động":"Hoạt động","layer_id":6,"fid":2155,"label":"Điểm giao dịch Long Hồ"}},{"type":"Feature","geometry":{"type":"Point","coordinates":[105.91716,10.10863]},"properties":{"Điểm cung cấp dịch vụ":"Điểm giao dịch Phước Yên","Địa chỉ":"Ấp Phước Yên, xã Phú Quới, Tỉnh Vĩnh Long","Số điện thoại":"02703657777","Tình trạng hoạt động":"Hoạt động","layer_id":6,"fid":2156,"label":"Điểm giao dịch Phước Yên"}},{"type":"Feature","geometry":{"type":"Point","coordinates":[106.10973,10.1744]},"properties":{"Điểm cung cấp dịch vụ":"Điểm giao dịch Mang Thít","Địa chỉ":"Khóm 1, Xã Cái Nhum, Tĩnh Vĩnh Long.","Số điện thoại":"02703930999","Tình trạng hoạt động":"Hoạt động","layer_id":6,"fid":2157,"label":"Điểm giao dịch Mang Thít"}},{"type":"Feature","geometry":{"type":"Point","coordinates":[106.10496,10.08837]},"properties":{"Điểm cung cấp dịch vụ":"Điểm giao dịch Hiếu Phụng","Địa chỉ":"Ấp Nhơn Ngãi, Xã Hiếu Phụng, Tỉnh Vĩnh Long.","Số điện thoại":"02703985777","Tình trạng hoạt động":"Hoạt động","layer_id":6,"fid":2158,"label":"Điểm giao dịch Hiếu Phụng"}},{"type":"Feature","geometry":{"type":"Point","coordinates":[105.92056,9.96946]},"properties":{"Điểm cung cấp dịch vụ":"Điểm giao dịch Trà Ôn","Địa chỉ":"Số 77, Đường Đồ Chiểu, Ấp 2, Xã Trà Ôn, Tĩnh Vĩnh Long.","Số điện thoại":"02703772978","Tình trạng hoạt động":"Hoạt động","layer_id":6,"fid":2159,"label":"Điểm giao dịch Trà Ôn"}},{"type":"Feature","geometry":{"type":"Point","coordinates":[106.23456,10.10303]},"properties":{"Điểm cung cấp dịch vụ":"Điểm giao dịch Thanh Bình","Địa chỉ":"Tổ 15, Ấp Tân Thuận, Xã Tân Quới, Tĩnh Vĩnh Long.","Số điện thoại":"02703986777","Tình trạng hoạt động":"Hoạt động","layer_id":6,"fid":2160,"label":"Điểm giao dịch Thanh Bình"}},{"type":"Feature","geometry":{"type":"Point","coordinates":[106.2506,9.99925]},"properties":{"Điểm cung cấp dịch vụ":"Điểm giao dịch Càng Long","Địa chỉ":"Ấp Bờ Lộ mới, Xã Càng Long, Tỉnh Vĩnh Long","Số điện thoại":"0919895566","Tình trạng hoạt động":"Hoạt động","layer_id":6,"fid":2161,"label":"Điểm giao dịch Càng Long"}},{"type":"Feature","geometry":{"type":"Point","coordinates":[106.05598,9.87096]},"properties":{"Điểm cung cấp dịch vụ":"Điểm giao dịch Cầu kè","Địa chỉ":"Số 54, Đường 30/4, Ấp 5, Xã Cầu Kè, Tỉnh Vĩnh Long.","Số điện thoại":"0919895567","Tình trạng hoạt động":"Hoạt động","layer_id":6,"fid":2162,"label":"Điểm giao dịch Cầu kè"}},{"type":"Feature","geometry":{"type":"Point","coordinates":[106.18956,9.81269]},"properties":{"Điểm cung cấp dịch vụ":"Điểm giao dịch Tiểu Cần","Địa chỉ":"QL60, Ấp 1, Xã Tiểu Cần, Tỉnh Vĩnh Long","Số điện thoại":"0913188057","Tình trạng hoạt động":"Hoạt động","layer_id":6,"fid":2163,"label":"Điểm giao dịch Tiểu Cần"}},{"type":"Feature","geometry":{"type":"Point","coordinates":[106.25976,9.68927]},"properties":{"Điểm cung cấp dịch vụ":"Điểm giao dịch Trà Cú","Địa chỉ":"Ấp 4, Xã Trà Cú, Tĩnh Vĩnh Long.","Số điện thoại":"0913188058","Tình trạng hoạt động":"Hoạt động","layer_id":6,"fid":2164,"label":"Điểm giao dịch Trà Cú"}},{"type":"Feature","geometry":{"type":"Point","coordinates":[106.34882,9.87052]},"properties":{"Điểm cung cấp dịch vụ":"Điểm giao dịch  Châu Thành","Địa chỉ":"Số 21, Đường 3/2, Ấp 2, Xã Châu Thành, Tỉnh Vĩnh Long","Số điện thoại":"0945141919","Tình trạng hoạt động":"Hoạt động","layer_id":6,"fid":2165,"label":"Điểm giao dịch  Châu Thành"}},{"type":"Feature","geometry":{"type":"Point","coordinates":[106.45239,9.79598]},"properties":{"Điểm cung cấp dịch vụ":"Điểm giao dịch Cầu Ngang","Địa chỉ":"Số 293, Đường 3/2, Ấp Minh Thuận B, Xã Cầu Ngang, Tỉnh Vĩnh Long.","Số điện thoại":"0945141920","Tình trạng hoạt động":"Hoạt động","layer_id":6,"fid":2166,"label":"Điểm giao dịch Cầu Ngang"}},{"type":"Feature","geometry":{"type":"Point","coordinates":[106.49526,9.63246]},"properties":{"Điểm cung cấp dịch vụ":"Điểm giao dịch Duyên Hải","Địa chỉ":"Đường 3/2, Khóm 1, Phường Duyên Hải, tỉnh Vĩnh Long","Số điện thoại":"0914546468","Tình trạng hoạt động":"Hoạt động","layer_id":6,"fid":2167,"label":"Điểm giao dịch Duyên Hải"}},{"type":"Feature","geometry":{"type":"Point","coordinates":[106.34195,9.9378]},"properties":{"Điểm cung cấp dịch vụ":"Điểm giao dịch Trà Vinh","Địa chỉ":"Số 83, Đường Lê Lợi, Phường Long Đức, Tỉnh Vĩnh Long.","Số điện thoại":"0919897777","Tình trạng hoạt động":"Hoạt động","layer_id":6,"fid":2168,"label":"Điểm giao dịch Trà Vinh"}},{"type":"Feature","geometry":{"type":"Point","coordinates":[1063667190.0,102562360.0]},"properties":{"Điểm cung cấp dịch vụ":"CH Bến Tre","Địa chỉ":"Số 74A5, KP2, Đại Lộ Đồng Khởi, Phường Phú Tân, Tỉnh Vĩnh Long","Số điện thoại":"02753819555","Tình trạng hoạt động":"Hoạt động","layer_id":6,"fid":2169,"label":"CH Bến Tre"}},{"type":"Feature","geometry":{"type":"Point","coordinates":[106.593647,10.042863]},"properties":{"Điểm cung cấp dịch vụ":"ĐGD Ba Tri","Địa chỉ":"Số 29, đường Nguyễn Đình Chiểu, ấp 2, xã Ba Tri, tỉnh Vĩnh Long","Số điện thoại":"02753781999","Tình trạng hoạt động":"Hoạt động","layer_id":6,"fid":2170,"label":"ĐGD Ba Tri"}},{"type":"Feature","geometry":{"type":"Point","coordinates":[106.69127,10.19188]},"properties":{"Điểm cung cấp dịch vụ":"ĐGD Bình Đại","Địa chỉ":"Số 31/C, KP 3, Xã Bình Đại, tỉnh Vĩnh Long","Số điện thoại":"02753884999","Tình trạng hoạt động":"Hoạt động","layer_id":6,"fid":2171,"label":"ĐGD Bình Đại"}},{"type":"Feature","geometry":{"type":"Point","coordinates":[106.501843,10.161174]},"properties":{"Điểm cung cấp dịch vụ":"ĐGD Giồng Trôm","Địa chỉ":"Số 199, Ấp 6, Xã Giồng Trôm, tỉnh Vĩnh Long","Số điện thoại":"02753658999","Tình trạng hoạt động":"Hoạt động","layer_id":6,"fid":2172,"label":"ĐGD Giồng Trôm"}},{"type":"Feature","geometry":{"type":"Point","coordinates":[106.331754,10.13401]},"properties":{"Điểm cung cấp dịch vụ":"ĐGD Mỏ Cày Nam","Địa chỉ":"Số 78A, Ấp 7, Xã Mỏ Cày, tỉnh Vĩnh Long","Số điện thoại":"02753684999","Tình trạng hoạt động":"Hoạt động","layer_id":6,"fid":2173,"label":"ĐGD Mỏ Cày Nam"}},{"type":"Feature","geometry":{"type":"Point","coordinates":[106.360284,10.307937]},"properties":{"Điểm cung cấp dịch vụ":"ĐGD Châu Thành","Địa chỉ":"Số 122A/1, Ấp 4, Xã Phú Túc, tỉnh Vĩnh Long","Số điện thoại":"02753894999","Tình trạng hoạt động":"Hoạt động","layer_id":6,"fid":2174,"label":"ĐGD Châu Thành"}},{"type":"Feature","geometry":{"type":"Point","coordinates":[106.12144,10.26271]},"properties":{"Điểm cung cấp dịch vụ":"ĐGD Chợ Lách","Địa chỉ":"Thửa đất số 3, tờ bản đồ số 29 , đường Phan Thanh Giản, ấp 2, xã Chợ Lách, tỉnh Vĩnh Long","Số điện thoại":"02753874888","Tình trạng hoạt động":"Hoạt động","layer_id":6,"fid":2175,"label":"ĐGD Chợ Lách"}},{"type":"Feature","geometry":{"type":"Point","coordinates":[106.514969,9.94806]},"properties":{"Điểm cung cấp dịch vụ":"ĐGD Thạnh Phú","Địa chỉ":"Số 235/3, KP 3, Xã Thạnh Phú, tinh Vĩnh Long","Số điện thoại":"02753733999","Tình trạng hoạt động":"Hoạt động","layer_id":6,"fid":2176,"label":"ĐGD Thạnh Phú"}},{"type":"Feature","geometry":{"type":"Point","coordinates":[106.270806,10.195717]},"properties":{"Điểm cung cấp dịch vụ":"ĐGD Mỏ Cày Bắc","Địa chỉ":"Thửa đất số 209, tờ bản đồ số 8, ấp Phước Hậu, xã Phước Mỹ Trung, tỉnh Vĩnh Long","Số điện thoại":"02753685999","Tình trạng hoạt động":"Hoạt động","layer_id":6,"fid":2177,"label":"ĐGD Mỏ Cày Bắc"}},{"type":"Feature","geometry":{"type":"Point","coordinates":[106.4827541,10.2604515]},"properties":{"Điểm cung cấp dịch vụ":"CHLK Phú Thuận","Địa chỉ":"Thửa đất số 621, tờ bản đồ số 13, ấp Phú Thạnh, xã Phú Thuận, tỉnh Vĩnh Long","Số điện thoại":"0777067171","Tình trạng hoạt động":"Hoạt động","layer_id":6,"fid":2178,"label":"CHLK Phú Thuận"}},{"type":"Feature","geometry":{"type":"Point","coordinates":[106.239862,10.263429]},"properties":{"Điểm cung cấp dịch vụ":"CHLK Tiên Thủy","Địa chỉ":"Số 287A, ấp Chánh, xã Tiên Thủy, tỉnh Vĩnh Long","Số điện thoại":"0777057171","Tình trạng hoạt động":"Hoạt động","layer_id":6,"fid":2179,"label":"CHLK Tiên Thủy"}},{"type":"Feature","geometry":{"type":"Point","coordinates":[106.330624,9.925906]},"properties":{"Điểm cung cấp dịch vụ":"Cửa Hàng Trà Vinh (Trà Vinh)","Địa chỉ":"số 12-14-16 đường N8 Khu đô thị TNR AMALUNA Trà Vinh, Phường Nguyệt Hóa, tỉnh Vĩnh Long","Số điện thoại":"0795497999","Tình trạng hoạt động":"Hoạt động","layer_id":6,"fid":2180,"label":"Cửa Hàng Trà Vinh (Trà Vinh)"}},{"type":"Feature","geometry":{"type":"Point","coordinates":[106.471853,9.906668]},"properties":{"Điểm cung cấp dịch vụ":"Cửa Hàng Liên Kết MobiFone Hòa Minh (Trà Vinh)","Địa chỉ":"Ấp Đại Thôn B, Hoà Minh, tỉnh Vĩnh Long","Số điện thoại":"0906058090","Tình trạng hoạt động":"Tạm ngưng hoạt động","layer_id":6,"fid":2181,"label":"Cửa Hàng Liên Kết MobiFone Hòa Minh (Trà Vinh)"}},{"type":"Feature","geometry":{"type":"Point","coordinates":[106.154018,9.909878]},"properties":{"Điểm cung cấp dịch vụ":"Cửa Hàng Liên Kết MobiFone Tân An (Trà Vinh)","Địa chỉ":"Ấp Tân An Chợ, xã Tân An, tỉnh Vĩnh Long","Số điện thoại":"0907869777","Tình trạng hoạt động":"Hoạt động","layer_id":6,"fid":2182,"label":"Cửa Hàng Liên Kết MobiFone Tân An (Trà Vinh)"}},{"type":"Feature","geometry":{"type":"Point","coordinates":[106.452113,9.801025]},"properties":{"Điểm cung cấp dịch vụ":"Điểm Giao Dịch Cầu Ngang (Trà Vinh)","Địa chỉ":"Khóm Mỹ Cẩm A, Xã Cầu Ngang, tỉnh Vĩnh Long","Số điện thoại":"0788003575","Tình trạng hoạt động":"Hoạt động","layer_id":6,"fid":2183,"label":"Điểm Giao Dịch Cầu Ngang (Trà Vinh)"}},{"type":"Feature","geometry":{"type":"Point","coordinates":[106.348151,9.869475]},"properties":{"Điểm cung cấp dịch vụ":"Điểm Giao Dịch Châu Thành (Trà Vinh)","Địa chỉ":"khóm 2, xã Châu Thành, tỉnh Vĩnh Long","Số điện thoại":"0794947726","Tình trạng hoạt động":"Hoạt động","layer_id":6,"fid":2184,"label":"Điểm Giao Dịch Châu Thành (Trà Vinh)"}},{"type":"Feature","geometry":{"type":"Point","coordinates":[106.19208,9.81716]},"properties":{"Điểm cung cấp dịch vụ":"Điểm Giao Dịch Tiểu Cần (Trà Vinh)","Địa chỉ":"Khóm 2, Xã Tiểu Cần, tỉnh Vĩnh Long","Số điện thoại":"0932931131","Tình trạng hoạt động":"Hoạt động","layer_id":6,"fid":2185,"label":"Điểm Giao Dịch Tiểu Cần (Trà Vinh)"}},{"type":"Feature","geometry":{"type":"Point","coordinates":[106.26205,9.678]},"properties":{"Điểm cung cấp dịch vụ":"Điểm Giao Dịch Trà Cú (Trà Vinh)","Địa chỉ":"Khóm 2, xã Trà Cú, tỉnh Vĩnh Long","Số điện thoại":"0794983259","Tình trạng hoạt động":"Hoạt động","layer_id":6,"fid":2186,"label":"Điểm Giao Dịch Trà Cú (Trà Vinh)"}},{"type":"Feature","geometry":{"type":"Point","coordinates":[106.05444,9.8683]},"properties":{"Điểm cung cấp dịch vụ":"Điểm Giao Dịch Cầu Kè (Trà Vinh)","Địa chỉ":"Khóm 4, xã Cầu Kè, tỉnh Vĩnh Long","Số điện thoại":"0901041518","Tình trạng hoạt động":"Hoạt động","layer_id":6,"fid":2187,"label":"Điểm Giao Dịch Cầu Kè (Trà Vinh)"}},{"type":"Feature","geometry":{"type":"Point","coordinates":[106.20503,9.99448]},"properties":{"Điểm cung cấp dịch vụ":"Điểm Giao Dịch Càng Long (Trà Vinh)","Địa chỉ":"Khóm 5, xã Càng Long, tỉnh Vĩnh Long","Số điện thoại":"0907406699","Tình trạng hoạt động":"Hoạt động","layer_id":6,"fid":2188,"label":"Điểm Giao Dịch Càng Long (Trà Vinh)"}},{"type":"Feature","geometry":{"type":"Point","coordinates":[106.493963,9.634761]},"properties":{"Điểm cung cấp dịch vụ":"Điểm Giao Dịch Duyên Hải (Trà Vinh)","Địa chỉ":"Khóm 1, Phường Duyên Hải, Tỉnh Vĩnh long","Số điện thoại":"0937599102","Tình trạng hoạt động":"Hoạt động","layer_id":6,"fid":2189,"label":"Điểm Giao Dịch Duyên Hải (Trà Vinh)"}},{"type":"Feature","geometry":{"type":"Point","coordinates":[106.18895,9.84662]},"properties":{"Điểm cung cấp dịch vụ":"Điểm Giao Dịch Mỹ Phong (Trà Vinh)","Địa chỉ":"Ấp Phú Thọ 2, xã Tiểu Cần, tỉnh Vĩnh Long","Số điện thoại":"0799588298","Tình trạng hoạt động":"Hoạt động","layer_id":6,"fid":2190,"label":"Điểm Giao Dịch Mỹ Phong (Trà Vinh)"}},{"type":"Feature","geometry":{"type":"Point","coordinates":[106.585505,10.046483]},"properties":{"Điểm cung cấp dịch vụ":"CHTT Ba Tri VLG","Địa chỉ":"41/A1, Trần Hưng Đạo, Kp2. Xã Ba Tri , tỉnh Vĩnh Long","Số điện thoại":"0867622772","Tình trạng hoạt động":"Hoạt động","layer_id":6,"fid":2191,"label":"CHTT Ba Tri VLG"}},{"type":"Feature","geometry":{"type":"Point","coordinates":[106.356848,10.229092]},"properties":{"Điểm cung cấp dịch vụ":"CHTT Bến Tre VLG","Địa chỉ":"68C nguyễn văn tư, p. Bến Tre, Tỉnh Vĩnh Long","Số điện thoại":"0866315427","Tình trạng hoạt động":"Hoạt động","layer_id":6,"fid":2192,"label":"CHTT Bến Tre VLG"}},{"type":"Feature","geometry":{"type":"Point","coordinates":[105.82175,10.070787]},"properties":{"Điểm cung cấp dịch vụ":"CHTT Bình Minh VLG","Địa chỉ":"4107 QL1A, Cái Vồn, Bình Minh, Vĩnh Long","Số điện thoại":"0963486767","Tình trạng hoạt động":"Hoạt động","layer_id":6,"fid":2193,"label":"CHTT Bình Minh VLG"}},{"type":"Feature","geometry":{"type":"Point","coordinates":[106.203351,9.987441]},"properties":{"Điểm cung cấp dịch vụ":"CHTT Càng Long VLG","Địa chỉ":"Khóm 6, Xã Càng Long, tỉnh Vĩnh Long","Số điện thoại":"0967695695","Tình trạng hoạt động":"Hoạt động","layer_id":6,"fid":2194,"label":"CHTT Càng Long VLG"}},{"type":"Feature","geometry":{"type":"Point","coordinates":[106.451937,9.798869]},"properties":{"Điểm cung cấp dịch vụ":"CHTT Cầu Ngang VLG","Địa chỉ":"ấp Mỹ Cẩm A, Xã Cầu Ngang, Vĩnh Long","Số điện thoại":"0981809090","Tình trạng hoạt động":"Hoạt động","layer_id":6,"fid":2195,"label":"CHTT Cầu Ngang VLG"}},{"type":"Feature","geometry":{"type":"Point","coordinates":[106.358235,10.300524]},"properties":{"Điểm cung cấp dịch vụ":"CHTT Châu Thành 1 VLG","Địa chỉ":"Số 68 châu Thành xã Phú Túc Vĩnh Long","Số điện thoại":"0971840509","Tình trạng hoạt động":"Hoạt động","layer_id":6,"fid":2196,"label":"CHTT Châu Thành 1 VLG"}},{"type":"Feature","geometry":{"type":"Point","coordinates":[106.347622,9.870658]},"properties":{"Điểm cung cấp dịch vụ":"CHTT Châu Thành 2 VLG","Địa chỉ":"219 ấp 2 xã châu thành tỉnh vĩnh long","Số điện thoại":"0339419186","Tình trạng hoạt động":"Hoạt động","layer_id":6,"fid":2197,"label":"CHTT Châu Thành 2 VLG"}},{"type":"Feature","geometry":{"type":"Point","coordinates":[105.956068,10.232331]},"properties":{"Điểm cung cấp dịch vụ":"CHTT Đinh Tiên Hoàng VLG","Địa chỉ":"87, Đinh Tiên Hoàng, Phường Tân hạnh, tỉnh Vĩnh Long","Số điện thoại":"0346464139","Tình trạng hoạt động":"Hoạt động","layer_id":6,"fid":2198,"label":"CHTT Đinh Tiên Hoàng VLG"}},{"type":"Feature","geometry":{"type":"Point","coordinates":[106.5,10.165832]},"properties":{"Điểm cung cấp dịch vụ":"CHTT Giồng Trôm VLG","Địa chỉ":"68c ấp 5 xã giồng trôm Vĩnh Long","Số điện thoại":"0987108686","Tình trạng hoạt động":"Hoạt động","layer_id":6,"fid":2199,"label":"CHTT Giồng Trôm VLG"}},{"type":"Feature","geometry":{"type":"Point","coordinates":[105.930745,10.169593]},"properties":{"Điểm cung cấp dịch vụ":"CHTT Phú Quới VLG","Địa chỉ":"25k/1 Ấp Thạnh Hưng hoà phú xã phú quới tỉnh vĩnh long","Số điện thoại":"0963624567","Tình trạng hoạt động":"Hoạt động","layer_id":6,"fid":2200,"label":"CHTT Phú Quới VLG"}},{"type":"Feature","geometry":{"type":"Point","coordinates":[106.331601,9.927759]},"properties":{"Điểm cung cấp dịch vụ":"CHTT Thành Phố VLG","Địa chỉ":"Số 156, Nguyễn Đáng, Phường Nguyệt Hóa, Tỉnh Vĩnh Long","Số điện thoại":"0979921797","Tình trạng hoạt động":"Hoạt động","layer_id":6,"fid":2201,"label":"CHTT Thành Phố VLG"}},{"type":"Feature","geometry":{"type":"Point","coordinates":[106.513259,9.949647]},"properties":{"Điểm cung cấp dịch vụ":"CHTT Thạnh Phú VLG","Địa chỉ":"172/4 Thạnh Trị Hạ, Xã Thạnh Phú, Tỉnh Vĩnh Long","Số điện thoại":"0987197819","Tình trạng hoạt động":"Hoạt động","layer_id":6,"fid":2202,"label":"CHTT Thạnh Phú VLG"}},{"type":"Feature","geometry":{"type":"Point","coordinates":[106.191078,9.815957]},"properties":{"Điểm cung cấp dịch vụ":"CHTT Tiểu Cần VLG","Địa chỉ":"Ấp 2, xã Tiểu Cần, Vĩnh Long","Số điện thoại":"0967858808","Tình trạng hoạt động":"Hoạt động","layer_id":6,"fid":2203,"label":"CHTT Tiểu Cần VLG"}},{"type":"Feature","geometry":{"type":"Point","coordinates":[106.259809,9.69078]},"properties":{"Điểm cung cấp dịch vụ":"CHTT Trà Cú VLG","Địa chỉ":"Khóm 4, Xã Trà Cú, Tỉnh Vĩnh Long","Số điện thoại":"0383154682","Tình trạng hoạt động":"Hoạt động","layer_id":6,"fid":2204,"label":"CHTT Trà Cú VLG"}},{"type":"Feature","geometry":{"type":"Point","coordinates":[105.925353,9.96523]},"properties":{"Điểm cung cấp dịch vụ":"CHTT Trà Ôn VLG","Địa chỉ":"140 đường 30/4 khu 6 xã Trà Ôn Vĩnh Long\n","Số điện thoại":"0866315746","Tình trạng hoạt động":"Hoạt động","layer_id":6,"fid":2205,"label":"CHTT Trà Ôn VLG"}},{"type":"Feature","geometry":{"type":"Point","coordinates":[106.331774,10.129542]},"properties":{"Điểm cung cấp dịch vụ":"CHTT TT Mỏ Cày VLG","Địa chỉ":"190, Ấp 5 Xã Mỏ Cày, Vĩnh Long","Số điện thoại":"0866315431","Tình trạng hoạt động":"Hoạt động","layer_id":6,"fid":2206,"label":"CHTT TT Mỏ Cày VLG"}},{"type":"Feature","geometry":{"type":"Point","coordinates":[106.187459,10.091355]},"properties":{"Điểm cung cấp dịch vụ":"CHTT Vũng Liêm VLG","Địa chỉ":"Khóm 2,trung Thành ,vĩnh long.","Số điện thoại":"0325777724","Tình trạng hoạt động":"Hoạt động","layer_id":6,"fid":2207,"label":"CHTT Vũng Liêm VLG"}}]}
