{"type":"FeatureCollection","name":"Doanh nghiệp bưu chính","metadata":{"source":"https://hatang.vinhlong.gov.vn/","downloaded_at":"2026-07-20T01:10:25+00:00","layer_id":7,"layer_name":"Doanh nghiệp bưu chính","catalog_endpoints":["/map/publicLayers2?inputs=bcvt"],"requested_bbox":[104.0,8.0,108.0,12.0],"tile_size":0.0,"tile_count":1,"tile_errors":[],"feature_count":15,"coordinate_order":"x,y (thường là longitude,latitude theo cấu hình EPSG:4326 của WebGIS)"},"features":[{"type":"Feature","geometry":{"type":"Point","coordinates":[105.965486,10.238848]},"properties":{"Tên doanh nghiệp":"Chi nhánh Bưu chính Viettel Vĩnh Long","Người phụ trách":"Hồ Thụy Trúc Nhi","Chức vụ":"Nhân viên tổng hợp","Số điện thoại":"386190739","Địa chỉ":"Đường Mậu Thân 2,Phường Phước Hậu, Vĩnh Long","layer_id":7,"fid":94,"label":"Chi nhánh Bưu chính Viettel Vĩnh Long"}},{"type":"Feature","geometry":{"type":"Point","coordinates":[105.9556493,10.23173792]},"properties":{"Tên doanh nghiệp":"Chi nhánh Vĩnh Long Công Ty Cổ Phần Dịch Vụ CPN Phương Trang FUTA","Người phụ trách":"Đặng Nguyễn Khánh Vy","Chức vụ":"Nhân viên hỗ trợ kinh doanh","Số điện thoại":"398330617","Địa chỉ":"Số 1E Đinh Tiên Hoàng, Phường Tân Hạnh, Tỉnh Vĩnh Long","layer_id":7,"fid":95,"label":"Chi nhánh Vĩnh Long Công Ty Cổ Phần Dịch Vụ CPN Phương Trang FUTA"}},{"type":"Feature","geometry":{"type":"Point","coordinates":[105.9509455,10.24356126]},"properties":{"Tên doanh nghiệp":"Công ty Cổ phần Vận tải Sài Gòn chi nhánh Vĩnh Long","Người phụ trách":"Trần Đình Văn","Chức vụ":"Trưởng phòng HCNS","Số điện thoại":"389117032","Địa chỉ":"17D Phan Văn Đáng, Khóm 1, P.Tân Hạnh, Vĩnh Long","layer_id":7,"fid":96,"label":"Công ty Cổ phần Vận tải Sài Gòn chi nhánh Vĩnh Long"}},{"type":"Feature","geometry":{"type":"Point","coordinates":[105.958833,10.244694]},"properties":{"Tên doanh nghiệp":"Công ty TNHH MTV Chuyển phát nhanh Thuận Phong - Chi nhánh Cần Thơ","Người phụ trách":"Đoàn Thanh Ngân","Chức vụ":"Nhân viên pháp lý","Số điện thoại":"976090729","Địa chỉ":"Số 109/01-109/02 Đường Nguyễn Huệ, Khỏm 5, Phường Long Châu, Tinh Vĩnh Long","layer_id":7,"fid":97,"label":"Công ty TNHH MTV Chuyển phát nhanh Thuận Phong - Chi nhánh Cần Thơ"}},{"type":"Feature","geometry":{"type":"Point","coordinates":[106.088648,10.208444]},"properties":{"Tên doanh nghiệp":"Công Ty TNHH Vận Chuyển Gia Phú","Người phụ trách":"Trương Minh Nghê","Chức vụ":"Nviên tổng hợp","Số điện thoại":"795852650","Địa chỉ":"Số 8 tổ 3 ấp Phú Thạnh A, xã Nhơn Phú. Số 325/19, tổ 9, ấp Long Thuận, xã Long Hồ","layer_id":7,"fid":98,"label":"Công Ty TNHH Vận Chuyển Gia Phú"}},{"type":"Feature","geometry":{"type":"Point","coordinates":[106.2837,9.93487]},"properties":{"Tên doanh nghiệp":"công ty TNHH HOA ĐÔNG NGHI","Người phụ trách":"Lý Tuyết Hoa","Chức vụ":"Quản lý","Số điện thoại":"939801172","Địa chỉ":"Số 20 Quốc lộ 53, ấp Bến Có, Phường Nguyệt Hóa, tỉnh Vĩnh Long","layer_id":7,"fid":99,"label":"công ty TNHH HOA ĐÔNG NGHI"}},{"type":"Feature","geometry":{"type":"Point","coordinates":[105.9727974,10.25494732]},"properties":{"Tên doanh nghiệp":"Bưu điện tỉnh Vĩnh Long","Người phụ trách":"Hồ Diệu Chi","Chức vụ":"Chuyên viên Tổng họp","Số điện thoại":"939299645","Địa chỉ":"Số 14 đường Hoàng Thái Hiếu, phường  Long Châu, tỉnh Vĩnh Long","layer_id":7,"fid":100,"label":"Bưu điện tỉnh Vĩnh Long"}},{"type":"Feature","geometry":{"type":"Point","coordinates":[105.956361,10.2355]},"properties":{"Tên doanh nghiệp":"Công ty cổ phần Giao Hàng Tiết Kiệm - chi nhánh Vĩnh Long","Người phụ trách":"Phạm Thị Quỳnh Như","Chức vụ":"Pháp chế","Số điện thoại":"352295049","Địa chỉ":"Số 50H đường Đinh Tiên Hoàng, khóm 4, Phường 8, TP. Vĩnh Long, tỉnh Vĩnh Long","layer_id":7,"fid":101,"label":"Công ty cổ phần Giao Hàng Tiết Kiệm - chi nhánh Vĩnh Long"}},{"type":"Feature","geometry":{"type":"Point","coordinates":[105.9982968,10.25807745]},"properties":{"Tên doanh nghiệp":"Công Ty TNHH Vận Tải SuperShip Vĩnh Long","Người phụ trách":"Nguyễn Xuân Khánh","Chức vụ":"Giám đốc","Số điện thoại":"945627598","Địa chỉ":"38 Ấp Thanh Mỹ 1, Phường Thanh Đức, Vĩnh Long","layer_id":7,"fid":102,"label":"Công Ty TNHH Vận Tải SuperShip Vĩnh Long"}},{"type":"Feature","geometry":{"type":"Point","coordinates":[105.9498431,10.2414406]},"properties":{"Tên doanh nghiệp":"Công ty TNHH TMDV ĐT An Thịnh Mekong","Người phụ trách":"Trần Chính Thống","Chức vụ":"Giám đốc điều hành","Số điện thoại":"919324223","Địa chỉ":"17M, Nguyễn Văn Lâu , phường Tân Hạnh, tỉnh Vĩnh Long","layer_id":7,"fid":103,"label":"Công ty TNHH TMDV ĐT An Thịnh Mekong"}},{"type":"Feature","geometry":{"type":"Point","coordinates":[105.9472,10.25909]},"properties":{"Tên doanh nghiệp":"Công ty Cổ phần Hai Bốn Bảy","Người phụ trách":"Vũ Thị Ngọc Trâm","Chức vụ":"Trưởng phòng Kế hoạch - Chiến lược (Phòng Kinh Doanh)","Số điện thoại":"903515503","Địa chỉ":"110/2 Phạm Hùng, Phường Long Châu, Tỉnh Vĩnh Long","layer_id":7,"fid":104,"label":"Công ty Cổ phần Hai Bốn Bảy"}},{"type":"Feature","geometry":{"type":"Point","coordinates":[105.9445752,10.2118471]},"properties":{"Tên doanh nghiệp":"Công ty Cổ phần Đầu Tư Thương Mại Phát Triển Nhất Tín - Chi nhánh Vĩnh Long","Người phụ trách":"Bùi Thanh Phong","Chức vụ":"Quản lý Tỉnh","Số điện thoại":"906699276","Địa chỉ":"19/11 Âp Tân Hưng, Phường Tân Hạnh, Tỉnh Vĩnh Long ","layer_id":7,"fid":105,"label":"Công ty Cổ phần Đầu Tư Thương Mại Phát Triển Nhất Tín - Chi nhánh Vĩnh Long"}},{"type":"Feature","geometry":{"type":"Point","coordinates":[106.383386079,10.258133428]},"properties":{"Tên doanh nghiệp":"Công Ty Cổ Phần Dịch Vụ Giao Hàng Nhanh - Chi nhánh Vĩnh Long","Người phụ trách":"Nguyễn Ngọc Thanh Trà","Chức vụ":"Pháp chế","Số điện thoại":"385454430","Địa chỉ":"89, Nguyễn Thị Định, Phường Phú Tân","layer_id":7,"fid":106,"label":"Công Ty Cổ Phần Dịch Vụ Giao Hàng Nhanh - Chi nhánh Vĩnh Long"}},{"type":"Feature","geometry":{"type":"Point","coordinates":[106.33957,9.92192]},"properties":{"Tên doanh nghiệp":"Công ty TNHH Chuyển phát nhanh Ngọc Nhi ","Người phụ trách":"Ngô Kim Ánh","Chức vụ":"Giám đốc","Số điện thoại":"0917010072","Địa chỉ":"Số 49/22, K8, P8, phường Trà Vinh, tỉnh Vĩnh Long","layer_id":7,"fid":108,"label":"Công ty TNHH Chuyển phát nhanh Ngọc Nhi "}},{"type":"Feature","geometry":{"type":"Point","coordinates":[105.986097,10.237258]},"properties":{"Tên doanh nghiệp":"Công ty TNHH SPX Express","Người phụ trách":"Lê Văn Thành Trúc","Chức vụ":"CV đối ngoại","Số điện thoại":"0984000294","Địa chỉ":"17A Đường Lê Minh Hữu, khóm 5, phường Phước Hậu, tỉnh Vĩnh Long","layer_id":7,"fid":109,"label":"Công ty TNHH SPX Express"}}]}
