{"type":"FeatureCollection","name":"Doanh nghiệp viễn thông","metadata":{"source":"https://hatang.vinhlong.gov.vn/","downloaded_at":"2026-07-20T01:10:30+00:00","layer_id":8,"layer_name":"Doanh nghiệp viễn thông","catalog_endpoints":["/map/publicLayers2?inputs=bcvt"],"requested_bbox":[104.0,8.0,108.0,12.0],"tile_size":0.0,"tile_count":1,"tile_errors":[],"feature_count":5,"coordinate_order":"x,y (thường là longitude,latitude theo cấu hình EPSG:4326 của WebGIS)"},"features":[{"type":"Feature","geometry":{"type":"Point","coordinates":[105.9709875,10.25412102]},"properties":{"Mã số":90,"Doanh nghiệp":2,"Số thứ tự":0,"Tên doanh nghiệp":"Viettel Vĩnh Long - Tập đoàn Công nghiệp - Viễn thông quân đội","Mã doanh nghiệp":"VT02","Số điện thoại":"0981884848 - 0981030986","Địa chỉ":"Số 1C – Trưng Nữ Vương, Phường Long Châu, tỉnh Vĩnh Long","Xã/Phường/Thị trấn":"Phường Long Châu","Huyện/Thị xã/Thành phố":"","Ngày hoạt động":"2024-03-01T16:14:05.798523","Mô tả giấy phép kinh doanh":"Mạng cố định mặt đất; Mạng cố định vệ tinh; Mạng di động mặt đất","Số giấy phép kinh doanh":"231/GP-CVT; ","Ngày cấp phép kinh doanh":"2024-03-01T16:14:05.798655","Số giấy phép thiết lập mạng":"","Ngày cấp giấy phép thiết lập mạng":"2024-03-01T16:14:05.798754","Số giấy phép hoạt động":"","Cấp":"","Tọa độ X":105.970987500299,"Tọa độ Y":10.2541210198014,"layer_id":8,"fid":90,"label":"Viettel Vĩnh Long - Tập đoàn Công nghiệp - Viễn thông quân đội"}},{"type":"Feature","geometry":{"type":"Point","coordinates":[105.979147372,10.243867828]},"properties":{"Mã số":95,"Doanh nghiệp":5,"Số thứ tự":0,"Tên doanh nghiệp":" Chi nhánh Vĩnh Long – Công ty CP Viễn thông FPT; ","Mã doanh nghiệp":"VT09","Số điện thoại":null,"Địa chỉ":"Số 68/11A, đường phạm Thái Bường, phường Phước Hậu, tỉnh Vĩnh Long;","Xã/Phường/Thị trấn":"Phường Phước Hậu","Huyện/Thị xã/Thành phố":"","Ngày hoạt động":"2013-02-05T00:00:00","Mô tả giấy phép kinh doanh":"Cung cấp dịch viễn thông cố định mặt đất: Băng rộng cố định và truyền hình trả tiền","Số giấy phép kinh doanh":"146/GP-CVT","Ngày cấp phép kinh doanh":"2024-03-01T16:14:05.799886","Số giấy phép thiết lập mạng":"146/GP-CVT","Ngày cấp giấy phép thiết lập mạng":"2024-03-01T16:14:05.79997","Số giấy phép hoạt động":"","Cấp":"","Tọa độ X":105.979147372001,"Tọa độ Y":10.2438678278741,"layer_id":8,"fid":95,"label":" Chi nhánh Vĩnh Long – Công ty CP Viễn thông FPT; "}},{"type":"Feature","geometry":{"type":"Point","coordinates":[105.969184894,10.256258619]},"properties":{"Mã số":91,"Doanh nghiệp":3,"Số thứ tự":0,"Tên doanh nghiệp":"Viễn Thông Vĩnh Long","Mã doanh nghiệp":"VT01","Số điện thoại":"02703829999 - 02703811111 ","Địa chỉ":"Số 03, đường Trưng Nữ Vương, Phường Long Châu, tỉnh Vĩnh Long","Xã/Phường/Thị trấn":"Phường Long Châu","Huyện/Thị xã/Thành phố":"","Ngày hoạt động":"2024-03-01T16:14:05.798882","Mô tả giấy phép kinh doanh":"Viễn thông Vĩnh Long được thành lập theo quyết định số 697/QĐ-TCCB/HĐQT ngày 06 tháng 12 năm 2007, chính thức đi vào hoạt động ngày 01/01/2008, là đơn vị hạch toán phụ thuộc Tập đoàn Bưu chính Viễn thông Việt Nam; Hiện nay đơn vị có 06 phòng chức năng, 09 Trung tâm trực thuộc.","Số giấy phép kinh doanh":"468/GP-BTTTT; 19/GP-CVT; 797/GP-CVT","Ngày cấp phép kinh doanh":"2024-03-01T16:14:05.799009","Số giấy phép thiết lập mạng":"","Ngày cấp giấy phép thiết lập mạng":"2024-03-01T16:14:05.799084","Số giấy phép hoạt động":"","Cấp":"","Tọa độ X":105.969184894102,"Tọa độ Y":10.2562586192056,"layer_id":8,"fid":91,"label":"Viễn Thông Vĩnh Long"}},{"type":"Feature","geometry":{"type":"Point","coordinates":[105.959301975,10.246207297]},"properties":{"Mã số":96,"Doanh nghiệp":1,"Số thứ tự":0,"Tên doanh nghiệp":"Chi nhánh MobiFone tỉnh Vĩnh Long","Mã doanh nghiệp":"VT03","Số điện thoại":null,"Địa chỉ":"Số 9, đường D5, khóm 12","Xã/Phường/Thị trấn":"Phường Long Châu","Huyện/Thị xã/Thành phố":"","Ngày hoạt động":"2021-09-11T00:00:00","Mô tả giấy phép kinh doanh":"Mạng cố định mặt đất; Mạng di động mặt đất","Số giấy phép kinh doanh":"362/GP-CVT; 474/GP-BTTTT;","Ngày cấp phép kinh doanh":"2024-03-01T16:14:05.800103","Số giấy phép thiết lập mạng":"","Ngày cấp giấy phép thiết lập mạng":"2024-03-01T16:14:05.800173","Số giấy phép hoạt động":"","Cấp":"","Tọa độ X":105.959301974921,"Tọa độ Y":10.2462072968127,"layer_id":8,"fid":96,"label":"Chi nhánh MobiFone tỉnh Vĩnh Long"}},{"type":"Feature","geometry":{"type":"Point","coordinates":[105.97647847,10.246533236]},"properties":{"Mã số":94,"Doanh nghiệp":21,"Số thứ tự":0,"Tên doanh nghiệp":" Công ty TNHH truyền hình Phương Nam;","Mã doanh nghiệp":"VT08","Số điện thoại":null,"Địa chỉ":"Số 50, đường Phạm Thái Bường, phường Phước Hậu, tỉnh Vĩnh Long; ","Xã/Phường/Thị trấn":"Phường Phước Hậu","Huyện/Thị xã/Thành phố":"","Ngày hoạt động":"2017-05-07T00:00:00","Mô tả giấy phép kinh doanh":"Công ty TNHH Truyền hình Phương Nam (trước đây là Công ty TNHH MTV Truyền hình Cáp Vĩnh Long) là đơn vị trực thuộc Đài Phát thanh – Truyền hình tỉnh Vĩnh Long, có nhiệm vụ phục vụ nhu cầu thông tin, giải trí cho người dân trong tỉnh thông qua việc cung cấp dịch vụ truyền hình cáp, cung cấp các dịch vụ gia tăng trên mạng truyền hình cáp,… và cũng là đơn vị được giao nhiệm vụ thực hiện lộ trình số hóa truyền hình mặt đất khu vực Nam Bộ.","Số giấy phép kinh doanh":"389/GP-CVT","Ngày cấp phép kinh doanh":"2024-03-01T16:14:05.799735","Số giấy phép thiết lập mạng":"389/GP-CVT","Ngày cấp giấy phép thiết lập mạng":"2017-05-07T00:00:00","Số giấy phép hoạt động":"","Cấp":"","Tọa độ X":105.976478469643,"Tọa độ Y":10.2465332359659,"layer_id":8,"fid":94,"label":" Công ty TNHH truyền hình Phương Nam;"}}]}
