{"type":"FeatureCollection","name":"Cơ sở chăn nuôi heo","metadata":{"source":"https://hatang.vinhlong.gov.vn/","downloaded_at":"2026-07-20T01:10:57+00:00","layer_id":85,"layer_name":"Cơ sở chăn nuôi heo","catalog_endpoints":["/map/publicLayers2?inputs=thu_y"],"requested_bbox":[104.0,8.0,108.0,12.0],"tile_size":0.0,"tile_count":1,"tile_errors":[],"feature_count":274,"coordinate_order":"x,y (thường là longitude,latitude theo cấu hình EPSG:4326 của WebGIS)"},"features":[{"type":"Feature","id":781,"geometry":{"type":"Point","coordinates":[106.209861,10.047212]},"properties":{"Tên cơ sở":"Nguyễn Văn Tam","Địa chỉ":"Phú Nhuận, Xã Trung Ngãi, huyện Vũng Liêm","Tổng đàn ":"50","Heo thịt":"5","Heo sinh sản":"45","layer_id":85,"fid":781,"label":"Nguyễn Văn Tam"}},{"type":"Feature","id":782,"geometry":{"type":"Point","coordinates":[106.200538,10.047616]},"properties":{"Tên cơ sở":"Nguyễn Thanh Trị","Địa chỉ":"Phú Nhuận, Xã Trung Ngãi, huyện Vũng Liêm","Tổng đàn ":"80","Heo thịt":"10","Heo sinh sản":"70","layer_id":85,"fid":782,"label":"Nguyễn Thanh Trị"}},{"type":"Feature","id":783,"geometry":{"type":"Point","coordinates":[106.205555,10.039552]},"properties":{"Tên cơ sở":"Trương Minh Hiếu ","Địa chỉ":"Phú Tân, Xã Trung Nghĩa, huyện Vũng Liêm","Tổng đàn ":"300","Heo thịt":"40","Heo sinh sản":"260","layer_id":85,"fid":783,"label":"Trương Minh Hiếu "}},{"type":"Feature","id":784,"geometry":{"type":"Point","coordinates":[106.202815,10.035936]},"properties":{"Tên cơ sở":"Võ Công Luận","Địa chỉ":"Phú Tân, Xã Trung Nghĩa, huyện Vũng Liêm","Tổng đàn ":"100","Heo thịt":"100","Heo sinh sản":null,"layer_id":85,"fid":784,"label":"Võ Công Luận"}},{"type":"Feature","id":785,"geometry":{"type":"Point","coordinates":[106.209283,10.037866]},"properties":{"Tên cơ sở":"Nguyễn Văn Trí","Địa chỉ":"Phú Tân, Xã Trung Nghĩa, huyện Vũng Liêm","Tổng đàn ":"150","Heo thịt":null,"Heo sinh sản":"150","layer_id":85,"fid":785,"label":"Nguyễn Văn Trí"}},{"type":"Feature","id":786,"geometry":{"type":"Point","coordinates":[106.202815,10.035936]},"properties":{"Tên cơ sở":"Nguyễn Mỹ Hương","Địa chỉ":"Phú Tân, Xã Trung Nghĩa, huyện Vũng Liêm","Tổng đàn ":"100","Heo thịt":null,"Heo sinh sản":"100","layer_id":85,"fid":786,"label":"Nguyễn Mỹ Hương"}},{"type":"Feature","id":787,"geometry":{"type":"Point","coordinates":[106.175855,10.041899]},"properties":{"Tên cơ sở":"Trương Công Thật","Địa chỉ":"Xuân Lộc, Xã Trung Thành, huyện Vũng Liêm","Tổng đàn ":"110","Heo thịt":null,"Heo sinh sản":"110","layer_id":85,"fid":787,"label":"Trương Công Thật"}},{"type":"Feature","id":788,"geometry":{"type":"Point","coordinates":[106.187275,10.073159]},"properties":{"Tên cơ sở":"Nguyễn Văn Luận","Địa chỉ":"Xuân Minh 1, Xã Trung Thành, huyện Vũng Liêm","Tổng đàn ":"50","Heo thịt":null,"Heo sinh sản":"50","layer_id":85,"fid":788,"label":"Nguyễn Văn Luận"}},{"type":"Feature","id":789,"geometry":{"type":"Point","coordinates":[106.176189,10.081361]},"properties":{"Tên cơ sở":"Nguyễn Văn Việt Huyền","Địa chỉ":"Xuân Minh 1, Xã Trung Thành, huyện Vũng Liêm","Tổng đàn ":"80","Heo thịt":"10","Heo sinh sản":"70","layer_id":85,"fid":789,"label":"Nguyễn Văn Việt Huyền"}},{"type":"Feature","id":790,"geometry":{"type":"Point","coordinates":[106.199216,10.113452]},"properties":{"Tên cơ sở":"Trần Văn Hải","Địa chỉ":"Trung Hậu, Xã Trung Thành Tây, huyện Vũng Liêm","Tổng đàn ":"100","Heo thịt":"10","Heo sinh sản":"90","layer_id":85,"fid":790,"label":"Trần Văn Hải"}},{"type":"Feature","id":537,"geometry":{"type":"Point","coordinates":[105.878671,10.01774]},"properties":{"Tên cơ sở":"Châu Thị Lợt","Địa chỉ":"Ấp Hóa Thành 2","Tổng đàn ":"51","Heo thịt":"51","Heo sinh sản":"9","layer_id":85,"fid":537,"label":"Châu Thị Lợt"}},{"type":"Feature","id":534,"geometry":{"type":"Point","coordinates":[105.868623,10.003139]},"properties":{"Tên cơ sở":"Huỳnh Văn Non","Địa chỉ":"Ấp Đông Hòa 1, Xã Đông Thành, Thị xã Bình Minh","Tổng đàn ":"50","Heo thịt":"43","Heo sinh sản":"7","layer_id":85,"fid":534,"label":"Huỳnh Văn Non"}},{"type":"Feature","id":792,"geometry":{"type":"Point","coordinates":[105.836957,10.080579]},"properties":{"Tên cơ sở":"Phạm Văn Tiến","Địa chỉ":"Ấp Thuận Tiến C","Tổng đàn ":"53","Heo thịt":"53","Heo sinh sản":null,"layer_id":85,"fid":792,"label":"Phạm Văn Tiến"}},{"type":"Feature","id":535,"geometry":{"type":"Point","coordinates":[105.850996,10.018888]},"properties":{"Tên cơ sở":"Lê Hoàng Luân","Địa chỉ":"Ấp Đông Hưng 2, Xã Đông Thành, Thị xã Bình Minh","Tổng đàn ":"2300","Heo thịt":"2300","Heo sinh sản":null,"layer_id":85,"fid":535,"label":"Lê Hoàng Luân"}},{"type":"Feature","id":793,"geometry":{"type":"Point","coordinates":[106.000981,10.006953355]},"properties":{"Tên cơ sở":"Hồ Phước Khanh","Địa chỉ":"Tường Trí","Tổng đàn ":"70","Heo thịt":"","Heo sinh sản":null,"layer_id":85,"fid":793,"label":"Hồ Phước Khanh"}},{"type":"Feature","id":536,"geometry":{"type":"Point","coordinates":[105.867615,10.048327]},"properties":{"Tên cơ sở":"Phạm Văn Hậu","Địa chỉ":"Ấp Đông Thạnh , Xã Đông Thạnh, Thị xã Bình Minh","Tổng đàn ":"50","Heo thịt":"38","Heo sinh sản":"12","layer_id":85,"fid":536,"label":"Phạm Văn Hậu"}},{"type":"Feature","id":794,"geometry":{"type":"Point","coordinates":[106.026746,10.006847286]},"properties":{"Tên cơ sở":"Nguyễn Văn Hùng","Địa chỉ":"Nhơn Ngãi","Tổng đàn ":"120","Heo thịt":"","Heo sinh sản":null,"layer_id":85,"fid":794,"label":"Nguyễn Văn Hùng"}},{"type":"Feature","id":804,"geometry":{"type":"Point","coordinates":[106.061997,10.010637]},"properties":{"Tên cơ sở":"Nguyễn Thị Mỹ Châu ","Địa chỉ":"Tường Tín ","Tổng đàn ":"72","Heo thịt":"72","Heo sinh sản":null,"layer_id":85,"fid":804,"label":"Nguyễn Thị Mỹ Châu "}},{"type":"Feature","id":795,"geometry":{"type":"Point","coordinates":[105.9515,10.00681071]},"properties":{"Tên cơ sở":"Nguyễn Chí Tâm","Địa chỉ":"Sóc Ruộng","Tổng đàn ":"60","Heo thịt":"","Heo sinh sản":null,"layer_id":85,"fid":795,"label":"Nguyễn Chí Tâm"}},{"type":"Feature","id":538,"geometry":{"type":"Point","coordinates":[105.865152,10.053237]},"properties":{"Tên cơ sở":"Trần Thị Diệu","Địa chỉ":"Ấp Thạnh B, Xã Đông Thạnh, Thị xã Bình Minh","Tổng đàn ":"78","Heo thịt":"68","Heo sinh sản":"10","layer_id":85,"fid":538,"label":"Trần Thị Diệu"}},{"type":"Feature","id":796,"geometry":{"type":"Point","coordinates":[105.954174,10.006838751]},"properties":{"Tên cơ sở":"Võ Văn Trang","Địa chỉ":"Sóc Ruộng","Tổng đàn ":"55","Heo thịt":"","Heo sinh sản":null,"layer_id":85,"fid":796,"label":"Võ Văn Trang"}},{"type":"Feature","id":797,"geometry":{"type":"Point","coordinates":[105.9558,9.98053]},"properties":{"Tên cơ sở":"Phan Thành Thâm","Địa chỉ":"Sóc Ruộng","Tổng đàn ":"50","Heo thịt":"50","Heo sinh sản":null,"layer_id":85,"fid":797,"label":"Phan Thành Thâm"}},{"type":"Feature","id":798,"geometry":{"type":"Point","coordinates":[105.9621,9.99603]},"properties":{"Tên cơ sở":"Võ Văn Lức","Địa chỉ":"Mỹ An","Tổng đàn ":"50","Heo thịt":"50","Heo sinh sản":null,"layer_id":85,"fid":798,"label":"Võ Văn Lức"}},{"type":"Feature","id":799,"geometry":{"type":"Point","coordinates":[105.98698,10.11799834]},"properties":{"Tên cơ sở":"Trần Ngọc Lời","Địa chỉ":"Mỹ Phú","Tổng đàn ":"80","Heo thịt":"","Heo sinh sản":null,"layer_id":85,"fid":799,"label":"Trần Ngọc Lời"}},{"type":"Feature","id":800,"geometry":{"type":"Point","coordinates":[105.98698,10.01116]},"properties":{"Tên cơ sở":"Trần Ngọc Lời","Địa chỉ":"Mỹ Phú","Tổng đàn ":"80","Heo thịt":"80","Heo sinh sản":null,"layer_id":85,"fid":800,"label":"Trần Ngọc Lời"}},{"type":"Feature","id":801,"geometry":{"type":"Point","coordinates":[106.039452,9.99667]},"properties":{"Tên cơ sở":"Lê Thị Hằng","Địa chỉ":"Ninh Thuận","Tổng đàn ":"60","Heo thịt":"60","Heo sinh sản":null,"layer_id":85,"fid":801,"label":"Lê Thị Hằng"}},{"type":"Feature","id":802,"geometry":{"type":"Point","coordinates":[106.048333,9.9988287]},"properties":{"Tên cơ sở":"Lê Quang Xuyên","Địa chỉ":"Tường Tín","Tổng đàn ":"63","Heo thịt":"63","Heo sinh sản":null,"layer_id":85,"fid":802,"label":"Lê Quang Xuyên"}},{"type":"Feature","id":803,"geometry":{"type":"Point","coordinates":[106.048742,9.91361]},"properties":{"Tên cơ sở":"Nguyễn Văn Mười","Địa chỉ":"Ninh Thuận","Tổng đàn ":"110","Heo thịt":"110","Heo sinh sản":null,"layer_id":85,"fid":803,"label":"Nguyễn Văn Mười"}},{"type":"Feature","id":805,"geometry":{"type":"Point","coordinates":[106.06496,10.014453]},"properties":{"Tên cơ sở":"Nguyễn Chí Hiểu","Địa chỉ":"Tường Tín","Tổng đàn ":"65","Heo thịt":"65","Heo sinh sản":null,"layer_id":85,"fid":805,"label":"Nguyễn Chí Hiểu"}},{"type":"Feature","id":806,"geometry":{"type":"Point","coordinates":[106.065053,10.01454]},"properties":{"Tên cơ sở":"Lê văn Út","Địa chỉ":"Tường Tín","Tổng đàn ":"79","Heo thịt":"79","Heo sinh sản":null,"layer_id":85,"fid":806,"label":"Lê văn Út"}},{"type":"Feature","id":807,"geometry":{"type":"Point","coordinates":[106.06516,10.01338]},"properties":{"Tên cơ sở":"Nguyễn Văn Bé Mười","Địa chỉ":"Tường Tín","Tổng đàn ":"82","Heo thịt":"82","Heo sinh sản":null,"layer_id":85,"fid":807,"label":"Nguyễn Văn Bé Mười"}},{"type":"Feature","id":808,"geometry":{"type":"Point","coordinates":[106.066652,10.014945]},"properties":{"Tên cơ sở":"Võ Thanh Tuấn","Địa chỉ":"Tường Thọ","Tổng đàn ":"65","Heo thịt":"65","Heo sinh sản":null,"layer_id":85,"fid":808,"label":"Võ Thanh Tuấn"}},{"type":"Feature","id":809,"geometry":{"type":"Point","coordinates":[106.069928,9.998820166]},"properties":{"Tên cơ sở":"Nguyễn Phước Lộc","Địa chỉ":"Tường Thọ","Tổng đàn ":"95","Heo thịt":"95","Heo sinh sản":null,"layer_id":85,"fid":809,"label":"Nguyễn Phước Lộc"}},{"type":"Feature","id":810,"geometry":{"type":"Point","coordinates":[106.078055,10.010868]},"properties":{"Tên cơ sở":"Nguyễn Thị Ngọc Thắm","Địa chỉ":"Tường Thọ","Tổng đàn ":"65","Heo thịt":"65","Heo sinh sản":null,"layer_id":85,"fid":810,"label":"Nguyễn Thị Ngọc Thắm"}},{"type":"Feature","id":811,"geometry":{"type":"Point","coordinates":[106.078251,9.998801878]},"properties":{"Tên cơ sở":"Nguyễn Văn Tiến","Địa chỉ":"Tường Thọ","Tổng đàn ":"77","Heo thịt":"77","Heo sinh sản":null,"layer_id":85,"fid":811,"label":"Nguyễn Văn Tiến"}},{"type":"Feature","id":812,"geometry":{"type":"Point","coordinates":[106.05158,10.08223]},"properties":{"Tên cơ sở":"Lê Văn Sáu","Địa chỉ":"Hồi Tường","Tổng đàn ":"100","Heo thịt":"100","Heo sinh sản":null,"layer_id":85,"fid":812,"label":"Lê Văn Sáu"}},{"type":"Feature","id":813,"geometry":{"type":"Point","coordinates":[106.05158,10.079626587]},"properties":{"Tên cơ sở":"Lê Văn Sáu","Địa chỉ":"Hồi Tường","Tổng đàn ":"100","Heo thịt":"100","Heo sinh sản":null,"layer_id":85,"fid":813,"label":"Lê Văn Sáu"}},{"type":"Feature","id":814,"geometry":{"type":"Point","coordinates":[106.07058,10.08898]},"properties":{"Tên cơ sở":"Trương Văn Còn","Địa chỉ":"Hồi Lộc","Tổng đàn ":"60","Heo thịt":"60","Heo sinh sản":null,"layer_id":85,"fid":814,"label":"Trương Văn Còn"}},{"type":"Feature","id":815,"geometry":{"type":"Point","coordinates":[105.9515,9.98357]},"properties":{"Tên cơ sở":"Nguyễn Chí Tâm","Địa chỉ":"Sóc Ruộng","Tổng đàn ":"60","Heo thịt":"60","Heo sinh sản":null,"layer_id":85,"fid":815,"label":"Nguyễn Chí Tâm"}},{"type":"Feature","id":816,"geometry":{"type":"Point","coordinates":[105.954174,9.976195]},"properties":{"Tên cơ sở":"Võ Văn Trang","Địa chỉ":"Sóc Ruộng","Tổng đàn ":"55","Heo thịt":"55","Heo sinh sản":null,"layer_id":85,"fid":816,"label":"Võ Văn Trang"}},{"type":"Feature","id":539,"geometry":{"type":"Point","coordinates":[105.890325,10.030478]},"properties":{"Tên cơ sở":"Nguyễn Thanh Bình","Địa chỉ":"Ấp Thạnh Hòa, Xã Đông Thạnh, Thị xã Bình Minh","Tổng đàn ":"54","Heo thịt":"48","Heo sinh sản":"6","layer_id":85,"fid":539,"label":"Nguyễn Thanh Bình"}},{"type":"Feature","id":543,"geometry":{"type":"Point","coordinates":[105.835435,10.080223]},"properties":{"Tên cơ sở":"Lê Khoa Nam","Địa chỉ":"Ấp Thuận Tiến B","Tổng đàn ":"70","Heo thịt":"70","Heo sinh sản":"","layer_id":85,"fid":543,"label":"Lê Khoa Nam"}},{"type":"Feature","id":540,"geometry":{"type":"Point","coordinates":[105.867342,10.048063]},"properties":{"Tên cơ sở":"Trần Thị Bích Hận","Địa chỉ":"Ấp Đông Thạnh A, Xã Đông Thạnh, Thị xã Bình Minh","Tổng đàn ":"90","Heo thịt":"80","Heo sinh sản":"10","layer_id":85,"fid":540,"label":"Trần Thị Bích Hận"}},{"type":"Feature","id":817,"geometry":{"type":"Point","coordinates":[105.9558,9.976264008]},"properties":{"Tên cơ sở":"Phan Thành Thâm","Địa chỉ":"Sóc Ruộng","Tổng đàn ":"50","Heo thịt":"50","Heo sinh sản":null,"layer_id":85,"fid":817,"label":"Phan Thành Thâm"}},{"type":"Feature","id":541,"geometry":{"type":"Point","coordinates":[105.843123,10.005015]},"properties":{"Tên cơ sở":"Trương Thị Thắm","Địa chỉ":"Ấp Mỹ An, Xã Mỹ Hòa, Thị xã Bình Minh","Tổng đàn ":"53","Heo thịt":"44","Heo sinh sản":"9","layer_id":85,"fid":541,"label":"Trương Thị Thắm"}},{"type":"Feature","id":818,"geometry":{"type":"Point","coordinates":[105.9621,9.976135993]},"properties":{"Tên cơ sở":"Võ Văn Lức","Địa chỉ":"Mỹ An","Tổng đàn ":"50","Heo thịt":"50","Heo sinh sản":null,"layer_id":85,"fid":818,"label":"Võ Văn Lức"}},{"type":"Feature","id":542,"geometry":{"type":"Point","coordinates":[105.826146,10.016464]},"properties":{"Tên cơ sở":"Trần Phan Thoại","Địa chỉ":"Ấp Mỹ An, Xã Mỹ Hòa, Thị xã Bình Minh","Tổng đàn ":"100","Heo thịt":"100","Heo sinh sản":null,"layer_id":85,"fid":542,"label":"Trần Phan Thoại"}},{"type":"Feature","id":819,"geometry":{"type":"Point","coordinates":[105.98698,10.01116]},"properties":{"Tên cơ sở":"Trần Ngọc Lời","Địa chỉ":null,"Tổng đàn ":"80","Heo thịt":"80","Heo sinh sản":null,"layer_id":85,"fid":819,"label":"Trần Ngọc Lời"}},{"type":"Feature","id":820,"geometry":{"type":"Point","coordinates":[105.94033,9.96404]},"properties":{"Tên cơ sở":"Nguyễn Thành Trí","Địa chỉ":"Giồng Thanh Bạch","Tổng đàn ":"100","Heo thịt":"100","Heo sinh sản":null,"layer_id":85,"fid":820,"label":"Nguyễn Thành Trí"}},{"type":"Feature","id":544,"geometry":{"type":"Point","coordinates":[105.819519,10.088295]},"properties":{"Tên cơ sở":"Trịnh Tấn Phát","Địa chỉ":"Ấp Thuận Thành, Xã Thuận An, Thị xã Bình Minh","Tổng đàn ":"50","Heo thịt":"44","Heo sinh sản":"6","layer_id":85,"fid":544,"label":"Trịnh Tấn Phát"}},{"type":"Feature","id":821,"geometry":{"type":"Point","coordinates":[105.963245,9.966553]},"properties":{"Tên cơ sở":"Nguyễn Thanh Tuấn","Địa chỉ":"Cây Điệp","Tổng đàn ":"100","Heo thịt":"100","Heo sinh sản":null,"layer_id":85,"fid":821,"label":"Nguyễn Thanh Tuấn"}},{"type":"Feature","id":545,"geometry":{"type":"Point","coordinates":[105.81818,10.085302]},"properties":{"Tên cơ sở":"Nguyễn Văn Trắng","Địa chỉ":"Ấp Thuận Thới, Xã Thuận An, Thị xã Bình Minh","Tổng đàn ":"60","Heo thịt":"55","Heo sinh sản":"5","layer_id":85,"fid":545,"label":"Nguyễn Văn Trắng"}},{"type":"Feature","id":546,"geometry":{"type":"Point","coordinates":[105.836049,10.080143]},"properties":{"Tên cơ sở":"Phan Ỵ","Địa chỉ":"Ấp Thuận Tiến B, Xã Thuận An, Thị xã Bình Minh","Tổng đàn ":"70","Heo thịt":"70","Heo sinh sản":null,"layer_id":85,"fid":546,"label":"Phan Ỵ"}},{"type":"Feature","id":547,"geometry":{"type":"Point","coordinates":[105.853877,10.085552]},"properties":{"Tên cơ sở":"Nguyễn Văn Đoàn","Địa chỉ":"Ấp Thuận Tiến C, Xã Thuận An, Thị xã Bình Minh","Tổng đàn ":"150","Heo thịt":"138","Heo sinh sản":"12","layer_id":85,"fid":547,"label":"Nguyễn Văn Đoàn"}},{"type":"Feature","id":548,"geometry":{"type":"Point","coordinates":[105.843483,10.115989]},"properties":{"Tên cơ sở":"Nguyễn Kim Liễu","Địa chỉ":"Mỹ Thạnh A, Xã Mỹ Thuận, huyện Bình Tân","Tổng đàn ":"57","Heo thịt":"50","Heo sinh sản":"7","layer_id":85,"fid":548,"label":"Nguyễn Kim Liễu"}},{"type":"Feature","id":549,"geometry":{"type":"Point","coordinates":[105.825273,10.109672]},"properties":{"Tên cơ sở":"Phan Kim Kha","Địa chỉ":"Mỹ Thạnh B, Xã Mỹ Thuận, huyện Bình Tân","Tổng đàn ":"50","Heo thịt":"30","Heo sinh sản":"20","layer_id":85,"fid":549,"label":"Phan Kim Kha"}},{"type":"Feature","id":550,"geometry":{"type":"Point","coordinates":[105.826462,10.141089]},"properties":{"Tên cơ sở":"Trần Thị Diễm Thúy","Địa chỉ":"Hòa Thuận, Xã Nguyễn Văn Thảnh, huyện Bình Tân","Tổng đàn ":"90","Heo thịt":"80","Heo sinh sản":"10","layer_id":85,"fid":550,"label":"Trần Thị Diễm Thúy"}},{"type":"Feature","id":551,"geometry":{"type":"Point","coordinates":[105.826462,10.141089]},"properties":{"Tên cơ sở":"Nguyễn Anh Dũng","Địa chỉ":"Hòa Thuận, Xã Nguyễn Văn Thảnh, huyện Bình Tân","Tổng đàn ":"50","Heo thịt":"50","Heo sinh sản":"0","layer_id":85,"fid":551,"label":"Nguyễn Anh Dũng"}},{"type":"Feature","id":552,"geometry":{"type":"Point","coordinates":[105.70072,10.155605]},"properties":{"Tên cơ sở":"Trần Nguyễn Trãi","Địa chỉ":"An Thới, Xã Tân An Thạnh, huyện Bình Tân","Tổng đàn ":"150","Heo thịt":"120","Heo sinh sản":"30","layer_id":85,"fid":552,"label":"Trần Nguyễn Trãi"}},{"type":"Feature","id":554,"geometry":{"type":"Point","coordinates":[105.764111,10.150142]},"properties":{"Tên cơ sở":"Nguyễn Văn Quận","Địa chỉ":"Tân Dương, Xã Tân Thành, huyện Bình Tân","Tổng đàn ":"57","Heo thịt":"50","Heo sinh sản":"7","layer_id":85,"fid":554,"label":"Nguyễn Văn Quận"}},{"type":"Feature","id":555,"geometry":{"type":"Point","coordinates":[105.795457,10.149064]},"properties":{"Tên cơ sở":"Trần Thanh Tú","Địa chỉ":"Thành Thuận, Xã Thành Trung, huyện Bình Tân","Tổng đàn ":"2200","Heo thịt":"2200","Heo sinh sản":null,"layer_id":85,"fid":555,"label":"Trần Thanh Tú"}},{"type":"Feature","id":556,"geometry":{"type":"Point","coordinates":[105.978642,10.265214]},"properties":{"Tên cơ sở":"Lê Quốc Thắng","Địa chỉ":"An Thạnh, Xã An Bình, huyện Long Hồ","Tổng đàn ":"50","Heo thịt":"48","Heo sinh sản":"2","layer_id":85,"fid":556,"label":"Lê Quốc Thắng"}},{"type":"Feature","id":557,"geometry":{"type":"Point","coordinates":[105.979004,10.270719]},"properties":{"Tên cơ sở":"Lê Văn Tay","Địa chỉ":"An Thạnh, Xã An Bình, huyện Long Hồ","Tổng đàn ":"65","Heo thịt":"63","Heo sinh sản":"2","layer_id":85,"fid":557,"label":"Lê Văn Tay"}},{"type":"Feature","id":558,"geometry":{"type":"Point","coordinates":[105.979004,10.270719]},"properties":{"Tên cơ sở":"Lê Văn Thức","Địa chỉ":"An Thạnh, Xã An Bình, huyện Long Hồ","Tổng đàn ":"51","Heo thịt":"47","Heo sinh sản":"4","layer_id":85,"fid":558,"label":"Lê Văn Thức"}},{"type":"Feature","id":559,"geometry":{"type":"Point","coordinates":[106.000881,10.31447]},"properties":{"Tên cơ sở":"Đoàn Văn Năm","Địa chỉ":"Phú Mỹ 1, Xã Đồng Phú, huyện Long Hồ","Tổng đàn ":"90","Heo thịt":"85","Heo sinh sản":"5","layer_id":85,"fid":559,"label":"Đoàn Văn Năm"}},{"type":"Feature","id":560,"geometry":{"type":"Point","coordinates":[105.996414,10.318248]},"properties":{"Tên cơ sở":"Trương Văn Giàu","Địa chỉ":"Phú Mỹ 1, Xã Đồng Phú, huyện Long Hồ","Tổng đàn ":"72","Heo thịt":"67","Heo sinh sản":"5","layer_id":85,"fid":560,"label":"Trương Văn Giàu"}},{"type":"Feature","id":561,"geometry":{"type":"Point","coordinates":[105.998444,10.296176]},"properties":{"Tên cơ sở":"Nguyễn Thanh Vũ","Địa chỉ":"Phú Thạnh 1, Xã Đồng Phú, huyện Long Hồ","Tổng đàn ":"110","Heo thịt":"100","Heo sinh sản":"10","layer_id":85,"fid":561,"label":"Nguyễn Thanh Vũ"}},{"type":"Feature","id":562,"geometry":{"type":"Point","coordinates":[106.015461,10.298129]},"properties":{"Tên cơ sở":"Lê Thị Diễm","Địa chỉ":"Phú Thạnh 3, Xã Đồng Phú, huyện Long Hồ","Tổng đàn ":"140","Heo thịt":"130","Heo sinh sản":"10","layer_id":85,"fid":562,"label":"Lê Thị Diễm"}},{"type":"Feature","id":563,"geometry":{"type":"Point","coordinates":[106.013994,10.296615]},"properties":{"Tên cơ sở":"Huỳnh Văn Cường","Địa chỉ":"Phú Thạnh 3, Xã Đồng Phú, huyện Long Hồ","Tổng đàn ":"80","Heo thịt":"70","Heo sinh sản":"10","layer_id":85,"fid":563,"label":"Huỳnh Văn Cường"}},{"type":"Feature","id":564,"geometry":{"type":"Point","coordinates":[106.006252,10.313476]},"properties":{"Tên cơ sở":"Trần Hải Đăng ","Địa chỉ":"Phú Thạnh 4, Xã Đồng Phú, huyện Long Hồ","Tổng đàn ":"120","Heo thịt":"110","Heo sinh sản":"10","layer_id":85,"fid":564,"label":"Trần Hải Đăng "}},{"type":"Feature","id":565,"geometry":{"type":"Point","coordinates":[105.933632,10.145293]},"properties":{"Tên cơ sở":"Nguyễn Văn Ái","Địa chỉ":"Phú Hưng, Xã Hòa Phú, huyện Long Hồ","Tổng đàn ":"60","Heo thịt":"50","Heo sinh sản":"10","layer_id":85,"fid":565,"label":"Nguyễn Văn Ái"}},{"type":"Feature","id":566,"geometry":{"type":"Point","coordinates":[105.964248,10.164341]},"properties":{"Tên cơ sở":"Võ Văn Tám","Địa chỉ":"Thạnh Phú, Xã Hòa Phú, huyện Long Hồ","Tổng đàn ":"105","Heo thịt":"100","Heo sinh sản":"5","layer_id":85,"fid":566,"label":"Võ Văn Tám"}},{"type":"Feature","id":567,"geometry":{"type":"Point","coordinates":[106.019697,10.168158]},"properties":{"Tên cơ sở":"Phạm Hồng Chính","Địa chỉ":"An Phú A, Xã Long An, huyện Long Hồ","Tổng đàn ":"189","Heo thịt":"180","Heo sinh sản":"9","layer_id":85,"fid":567,"label":"Phạm Hồng Chính"}},{"type":"Feature","id":568,"geometry":{"type":"Point","coordinates":[106.008135,10.171894]},"properties":{"Tên cơ sở":"Nguyễn Văn Tài Hai","Địa chỉ":"Bà Lang, Xã Long An, huyện Long Hồ","Tổng đàn ":"65","Heo thịt":"60","Heo sinh sản":"5","layer_id":85,"fid":568,"label":"Nguyễn Văn Tài Hai"}},{"type":"Feature","id":569,"geometry":{"type":"Point","coordinates":[105.987991,10.163725]},"properties":{"Tên cơ sở":"Phạm Hải Bền","Địa chỉ":"An Hoà, Xã Phú Đức, huyện Long Hồ","Tổng đàn ":"63","Heo thịt":"60","Heo sinh sản":"3","layer_id":85,"fid":569,"label":"Phạm Hải Bền"}},{"type":"Feature","id":570,"geometry":{"type":"Point","coordinates":[105.988255,10.170899]},"properties":{"Tên cơ sở":"Nguyễn Thanh Phong","Địa chỉ":"An Hoà, Xã Phú Đức, huyện Long Hồ","Tổng đàn ":"65","Heo thịt":"60","Heo sinh sản":"5","layer_id":85,"fid":570,"label":"Nguyễn Thanh Phong"}},{"type":"Feature","id":571,"geometry":{"type":"Point","coordinates":[105.980413,10.169369]},"properties":{"Tên cơ sở":"Lê Thanh Dũng","Địa chỉ":"An Hoà, Xã Phú Đức, huyện Long Hồ","Tổng đàn ":"70","Heo thịt":"65","Heo sinh sản":"5","layer_id":85,"fid":571,"label":"Lê Thanh Dũng"}},{"type":"Feature","id":572,"geometry":{"type":"Point","coordinates":[105.977475,10.169268]},"properties":{"Tên cơ sở":"Trần Ba Tố","Địa chỉ":"An Thành, Xã Phú Đức, huyện Long Hồ","Tổng đàn ":"80","Heo thịt":"70","Heo sinh sản":"10","layer_id":85,"fid":572,"label":"Trần Ba Tố"}},{"type":"Feature","id":573,"geometry":{"type":"Point","coordinates":[105.997642,10.200107]},"properties":{"Tên cơ sở":"Huỳnh Văn Lực","Địa chỉ":"An Thạnh, Xã Thị trấn Long Hồ, huyện Long Hồ","Tổng đàn ":"73","Heo thịt":"65","Heo sinh sản":"8","layer_id":85,"fid":573,"label":"Huỳnh Văn Lực"}},{"type":"Feature","id":574,"geometry":{"type":"Point","coordinates":[105.99215,10.181305]},"properties":{"Tên cơ sở":"Lư Văn Quốc","Địa chỉ":"An Thuận, Xã Phú Đức, huyện Long Hồ","Tổng đàn ":"220","Heo thịt":"200","Heo sinh sản":"20","layer_id":85,"fid":574,"label":"Lư Văn Quốc"}},{"type":"Feature","id":575,"geometry":{"type":"Point","coordinates":[105.991912,10.184343]},"properties":{"Tên cơ sở":"Trần Ngọc Hiền","Địa chỉ":"An Thuận, Xã Phú Đức, huyện Long Hồ","Tổng đàn ":"54","Heo thịt":"50","Heo sinh sản":"4","layer_id":85,"fid":575,"label":"Trần Ngọc Hiền"}},{"type":"Feature","id":576,"geometry":{"type":"Point","coordinates":[105.987724,10.170959]},"properties":{"Tên cơ sở":"Nguyễn Văn Nhơn","Địa chỉ":"An Thuận, Xã Phú Đức, huyện Long Hồ","Tổng đàn ":"69","Heo thịt":"65","Heo sinh sản":"4","layer_id":85,"fid":576,"label":"Nguyễn Văn Nhơn"}},{"type":"Feature","id":577,"geometry":{"type":"Point","coordinates":[106.00526,10.183755]},"properties":{"Tên cơ sở":"Trần Trọng Tài","Địa chỉ":"Phú An, Xã Phú Đức, huyện Long Hồ","Tổng đàn ":"270","Heo thịt":"250","Heo sinh sản":"20","layer_id":85,"fid":577,"label":"Trần Trọng Tài"}},{"type":"Feature","id":578,"geometry":{"type":"Point","coordinates":[105.984736,10.180006]},"properties":{"Tên cơ sở":"Huỳnh Văn Cảnh","Địa chỉ":"Phú Thạnh, Xã Phú Đức, huyện Long Hồ","Tổng đàn ":"62","Heo thịt":"60","Heo sinh sản":"2","layer_id":85,"fid":578,"label":"Huỳnh Văn Cảnh"}},{"type":"Feature","id":579,"geometry":{"type":"Point","coordinates":[105.985695,10.180709]},"properties":{"Tên cơ sở":"Trần Văn Trung","Địa chỉ":"Phú Thạnh, Xã Phú Đức, huyện Long Hồ","Tổng đàn ":"65","Heo thịt":"60","Heo sinh sản":"5","layer_id":85,"fid":579,"label":"Trần Văn Trung"}},{"type":"Feature","id":580,"geometry":{"type":"Point","coordinates":[105.988768,10.159106]},"properties":{"Tên cơ sở":"Nguyễn Minh Quang","Địa chỉ":"Thông Quan, Xã Phú Đức, huyện Long Hồ","Tổng đàn ":"55","Heo thịt":"50","Heo sinh sản":"5","layer_id":85,"fid":580,"label":"Nguyễn Minh Quang"}},{"type":"Feature","id":584,"geometry":{"type":"Point","coordinates":[105.911743,10.187589]},"properties":{"Tên cơ sở":"Mai Hoàng Anh","Địa chỉ":"Phước Bình B, Xã Phú Quới","Tổng đàn ":"58","Heo thịt":"50","Heo sinh sản":"8","layer_id":85,"fid":584,"label":"Mai Hoàng Anh"}},{"type":"Feature","id":581,"geometry":{"type":"Point","coordinates":[105.920199,10.159967]},"properties":{"Tên cơ sở":"Phan Thành Trung","Địa chỉ":"Phú Long A, Xã Phú Quới, huyện Long Hồ","Tổng đàn ":"60","Heo thịt":"50","Heo sinh sản":"10","layer_id":85,"fid":581,"label":"Phan Thành Trung"}},{"type":"Feature","id":582,"geometry":{"type":"Point","coordinates":[105.918596,10.180481]},"properties":{"Tên cơ sở":"Lê Bé Mười","Địa chỉ":"Phước Bình A, Xã Phú Quới, huyện Long Hồ","Tổng đàn ":"57","Heo thịt":"50","Heo sinh sản":"7","layer_id":85,"fid":582,"label":"Lê Bé Mười"}},{"type":"Feature","id":583,"geometry":{"type":"Point","coordinates":[105.918793,10.180702]},"properties":{"Tên cơ sở":"Lê Xuân Vũ","Địa chỉ":"Phước Bình A, Xã Phú Quới, huyện Long Hồ","Tổng đàn ":"58","Heo thịt":"50","Heo sinh sản":"8","layer_id":85,"fid":583,"label":"Lê Xuân Vũ"}},{"type":"Feature","id":585,"geometry":{"type":"Point","coordinates":[105.972902,10.227555]},"properties":{"Tên cơ sở":"Nguyễn Thành Toàn ","Địa chỉ":"Phước Lợi A, Xã Phước Hậu, huyện Long Hồ","Tổng đàn ":"1100","Heo thịt":"300","Heo sinh sản":"800","layer_id":85,"fid":585,"label":"Nguyễn Thành Toàn "}},{"type":"Feature","id":586,"geometry":{"type":"Point","coordinates":[105.934304,10.215386]},"properties":{"Tên cơ sở":"Nguyễn Văn Út","Địa chỉ":"Tân Hiệp, Xã Tân Hạnh, huyện Long Hồ","Tổng đàn ":"72","Heo thịt":"66","Heo sinh sản":"6","layer_id":85,"fid":586,"label":"Nguyễn Văn Út"}},{"type":"Feature","id":587,"geometry":{"type":"Point","coordinates":[105.923283,10.206117]},"properties":{"Tên cơ sở":"Nguyễn Văn Thới","Địa chỉ":"Tân Hoà , Xã Tân Hạnh, huyện Long Hồ","Tổng đàn ":"55","Heo thịt":"50","Heo sinh sản":"5","layer_id":85,"fid":587,"label":"Nguyễn Văn Thới"}},{"type":"Feature","id":588,"geometry":{"type":"Point","coordinates":[105.921509,10.220545]},"properties":{"Tên cơ sở":"Nguyễn Văn Cường","Địa chỉ":"Tân Nhơn, Xã Tân Hạnh, huyện Long Hồ","Tổng đàn ":"73","Heo thịt":"66","Heo sinh sản":"7","layer_id":85,"fid":588,"label":"Nguyễn Văn Cường"}},{"type":"Feature","id":589,"geometry":{"type":"Point","coordinates":[105.91868,10.227686]},"properties":{"Tên cơ sở":"Nguyễn Văn Tài ","Địa chỉ":"Tân Nhơn, Xã Tân Hạnh, huyện Long Hồ","Tổng đàn ":"97","Heo thịt":"89","Heo sinh sản":"8","layer_id":85,"fid":589,"label":"Nguyễn Văn Tài "}},{"type":"Feature","id":590,"geometry":{"type":"Point","coordinates":[105.92313,10.206308]},"properties":{"Tên cơ sở":"Trương Văn Phương","Địa chỉ":"Tân Thạnh, Xã Tân Hạnh, huyện Long Hồ","Tổng đàn ":"90","Heo thịt":"83","Heo sinh sản":"7","layer_id":85,"fid":590,"label":"Trương Văn Phương"}},{"type":"Feature","id":591,"geometry":{"type":"Point","coordinates":[105.944966,10.223678]},"properties":{"Tên cơ sở":"Trần Văn Dậu","Địa chỉ":"Tân Thới , Xã Tân Hạnh, huyện Long Hồ","Tổng đàn ":"50","Heo thịt":"45","Heo sinh sản":"5","layer_id":85,"fid":591,"label":"Trần Văn Dậu"}},{"type":"Feature","id":592,"geometry":{"type":"Point","coordinates":[105.940671,10.220406]},"properties":{"Tên cơ sở":"Hà Hồng Nhung","Địa chỉ":"Tân Thới , Xã Tân Hạnh, huyện Long Hồ","Tổng đàn ":"78","Heo thịt":"72","Heo sinh sản":"6","layer_id":85,"fid":592,"label":"Hà Hồng Nhung"}},{"type":"Feature","id":593,"geometry":{"type":"Point","coordinates":[105.941133,10.21832]},"properties":{"Tên cơ sở":"Hồ Văn Lộc","Địa chỉ":"Tân Thới , Xã Tân Hạnh, huyện Long Hồ","Tổng đàn ":"82","Heo thịt":"72","Heo sinh sản":"10","layer_id":85,"fid":593,"label":"Hồ Văn Lộc"}},{"type":"Feature","id":594,"geometry":{"type":"Point","coordinates":[105.930478,10.232043]},"properties":{"Tên cơ sở":"Mai Văn Phim","Địa chỉ":"Tân Thuận , Xã Tân Hạnh, huyện Long Hồ","Tổng đàn ":"63","Heo thịt":"58","Heo sinh sản":"5","layer_id":85,"fid":594,"label":"Mai Văn Phim"}},{"type":"Feature","id":595,"geometry":{"type":"Point","coordinates":[106.01581,10.243029]},"properties":{"Tên cơ sở":"Lê Thị Ba","Địa chỉ":"Cái Sơn Lớn, Xã Thanh Đức, huyện Long Hồ","Tổng đàn ":"50","Heo thịt":"48","Heo sinh sản":"2","layer_id":85,"fid":595,"label":"Lê Thị Ba"}},{"type":"Feature","id":596,"geometry":{"type":"Point","coordinates":[106.004618,10.240176]},"properties":{"Tên cơ sở":"Ngô Thị Mai","Địa chỉ":"Thanh Hưng, Xã Thanh Đức, huyện Long Hồ","Tổng đàn ":"92","Heo thịt":"80","Heo sinh sản":"12","layer_id":85,"fid":596,"label":"Ngô Thị Mai"}},{"type":"Feature","id":597,"geometry":{"type":"Point","coordinates":[106.005898,10.238338]},"properties":{"Tên cơ sở":"Trần Văn Đi","Địa chỉ":"Thanh Hưng, Xã Thanh Đức, huyện Long Hồ","Tổng đàn ":"65","Heo thịt":"60","Heo sinh sản":"5","layer_id":85,"fid":597,"label":"Trần Văn Đi"}},{"type":"Feature","id":598,"geometry":{"type":"Point","coordinates":[105.998685,10.241337]},"properties":{"Tên cơ sở":"Lê Văn Trí","Địa chỉ":"Thanh Hưng, Xã Thanh Đức, huyện Long Hồ","Tổng đàn ":"52","Heo thịt":"50","Heo sinh sản":"2","layer_id":85,"fid":598,"label":"Lê Văn Trí"}},{"type":"Feature","id":599,"geometry":{"type":"Point","coordinates":[106.008151,10.236483]},"properties":{"Tên cơ sở":"Lê Văn Sơn","Địa chỉ":"Thanh Hưng, Xã Thanh Đức, huyện Long Hồ","Tổng đàn ":"120","Heo thịt":"100","Heo sinh sản":"20","layer_id":85,"fid":599,"label":"Lê Văn Sơn"}},{"type":"Feature","id":600,"geometry":{"type":"Point","coordinates":[105.992188,10.242606]},"properties":{"Tên cơ sở":"Lê Văn Thể","Địa chỉ":"Thanh Hưng, Xã Thanh Đức, huyện Long Hồ","Tổng đàn ":"54","Heo thịt":"50","Heo sinh sản":"4","layer_id":85,"fid":600,"label":"Lê Văn Thể"}},{"type":"Feature","id":601,"geometry":{"type":"Point","coordinates":[106.003454,10.253339]},"properties":{"Tên cơ sở":"Hà Hữu Tòng","Địa chỉ":"Thanh Mỹ 2, Xã Thanh Đức, huyện Long Hồ","Tổng đàn ":"55","Heo thịt":"50","Heo sinh sản":"5","layer_id":85,"fid":601,"label":"Hà Hữu Tòng"}},{"type":"Feature","id":602,"geometry":{"type":"Point","coordinates":[106.001668,10.251881]},"properties":{"Tên cơ sở":"Nguyễn Văn Minh","Địa chỉ":"Thanh Mỹ 2, Xã Thanh Đức, huyện Long Hồ","Tổng đàn ":"70","Heo thịt":"60","Heo sinh sản":"10","layer_id":85,"fid":602,"label":"Nguyễn Văn Minh"}},{"type":"Feature","id":603,"geometry":{"type":"Point","coordinates":[106.007542,10.250535]},"properties":{"Tên cơ sở":"Nguyễn Văn Bé","Địa chỉ":"Thanh Sơn, Xã Thanh Đức, huyện Long Hồ","Tổng đàn ":"60","Heo thịt":"54","Heo sinh sản":"6","layer_id":85,"fid":603,"label":"Nguyễn Văn Bé"}},{"type":"Feature","id":604,"geometry":{"type":"Point","coordinates":[106.113319,10.226189]},"properties":{"Tên cơ sở":"Trần Đức Hoa Cương","Địa chỉ":"Định Thới A, Xã An Phước, huyện Mang Thít","Tổng đàn ":"7100","Heo thịt":"7100","Heo sinh sản":null,"layer_id":85,"fid":604,"label":"Trần Đức Hoa Cương"}},{"type":"Feature","id":605,"geometry":{"type":"Point","coordinates":[106.105721,10.222471]},"properties":{"Tên cơ sở":"Huỳnh Thiện Khiêm","Địa chỉ":"Định Thới B, Xã An Phước, huyện Mang Thít","Tổng đàn ":"70","Heo thịt":"70","Heo sinh sản":null,"layer_id":85,"fid":605,"label":"Huỳnh Thiện Khiêm"}},{"type":"Feature","id":606,"geometry":{"type":"Point","coordinates":[106.139842,10.188719]},"properties":{"Tên cơ sở":"Lê Văn Sĩ","Địa chỉ":"Hòa Phú, Xã An Phước, huyện Mang Thít","Tổng đàn ":"1600","Heo thịt":"1600","Heo sinh sản":null,"layer_id":85,"fid":606,"label":"Lê Văn Sĩ"}},{"type":"Feature","id":607,"geometry":{"type":"Point","coordinates":[106.139206,10.191524]},"properties":{"Tên cơ sở":"Nguyễn Tấn Phước","Địa chỉ":"Hòa Phú, A, Xã An Phước, huyện Mang Thít","Tổng đàn ":"600","Heo thịt":"600","Heo sinh sản":null,"layer_id":85,"fid":607,"label":"Nguyễn Tấn Phước"}},{"type":"Feature","id":608,"geometry":{"type":"Point","coordinates":[106.144413,10.189746]},"properties":{"Tên cơ sở":"Lê Văn Luận","Địa chỉ":"Phú An, Xã An Phước, huyện Mang Thít","Tổng đàn ":"53","Heo thịt":"53","Heo sinh sản":null,"layer_id":85,"fid":608,"label":"Lê Văn Luận"}},{"type":"Feature","id":609,"geometry":{"type":"Point","coordinates":[106.030083,10.176312]},"properties":{"Tên cơ sở":"Võ Văn Mười Một","Địa chỉ":"Phước Lộc Thọ, Xã Bình Phước, huyện Mang Thít","Tổng đàn ":"60","Heo thịt":"60","Heo sinh sản":"10","layer_id":85,"fid":609,"label":"Võ Văn Mười Một"}},{"type":"Feature","id":610,"geometry":{"type":"Point","coordinates":[106.043106,10.192177]},"properties":{"Tên cơ sở":"Lê Tấn Sĩ","Địa chỉ":"Phước Thượng, Xã Bình Phước, huyện Mang Thít","Tổng đàn ":"60","Heo thịt":"60","Heo sinh sản":null,"layer_id":85,"fid":610,"label":"Lê Tấn Sĩ"}},{"type":"Feature","id":611,"geometry":{"type":"Point","coordinates":[106.043115,10.192228]},"properties":{"Tên cơ sở":"Lê Ngọc Ẩn","Địa chỉ":"Phước Thượng, Xã Bình Phước, huyện Mang Thít","Tổng đàn ":"65","Heo thịt":"65","Heo sinh sản":null,"layer_id":85,"fid":611,"label":"Lê Ngọc Ẩn"}},{"type":"Feature","id":612,"geometry":{"type":"Point","coordinates":[106.056098,10.177389]},"properties":{"Tên cơ sở":"Đặng Ngọc Anh","Địa chỉ":"Phước Thượng, Xã Bình Phước, huyện Mang Thít","Tổng đàn ":"55","Heo thịt":"55","Heo sinh sản":null,"layer_id":85,"fid":612,"label":"Đặng Ngọc Anh"}},{"type":"Feature","id":613,"geometry":{"type":"Point","coordinates":[106.043144,10.192385]},"properties":{"Tên cơ sở":"Lê Tuấn Kiệt","Địa chỉ":"Phước Thượng, Xã Bình Phước, huyện Mang Thít","Tổng đàn ":"70","Heo thịt":"70","Heo sinh sản":null,"layer_id":85,"fid":613,"label":"Lê Tuấn Kiệt"}},{"type":"Feature","id":614,"geometry":{"type":"Point","coordinates":[106.043365,10.191895]},"properties":{"Tên cơ sở":"Nguyễn Văn Lành","Địa chỉ":"Phước Thượng, Xã Bình Phước, huyện Mang Thít","Tổng đàn ":"60","Heo thịt":"60","Heo sinh sản":null,"layer_id":85,"fid":614,"label":"Nguyễn Văn Lành"}},{"type":"Feature","id":615,"geometry":{"type":"Point","coordinates":[106.018649,10.217015]},"properties":{"Tên cơ sở":"Lê Minh Trường","Địa chỉ":"Bình Tịnh A, Xã Long Mỹ, huyện Mang Thít","Tổng đàn ":"110","Heo thịt":"100","Heo sinh sản":"10","layer_id":85,"fid":615,"label":"Lê Minh Trường"}},{"type":"Feature","id":616,"geometry":{"type":"Point","coordinates":[106.078483,10.238141]},"properties":{"Tên cơ sở":"Lê Kim sơn","Địa chỉ":"Cái Tranh, Xã Mỹ Phước, huyện Mang Thít","Tổng đàn ":"55","Heo thịt":"50","Heo sinh sản":"5","layer_id":85,"fid":616,"label":"Lê Kim sơn"}},{"type":"Feature","id":617,"geometry":{"type":"Point","coordinates":[106.071886,10.231689]},"properties":{"Tên cơ sở":"Trần Hồng Tú","Địa chỉ":"Mỹ Điền, Xã Mỹ Phước, huyện Mang Thít","Tổng đàn ":"102","Heo thịt":"90","Heo sinh sản":"12","layer_id":85,"fid":617,"label":"Trần Hồng Tú"}},{"type":"Feature","id":618,"geometry":{"type":"Point","coordinates":[106.0719832,10.1944165]},"properties":{"Tên cơ sở":"Nguyễn Thành Nhơn","Địa chỉ":"Phú Thạnh A, Xã Nhơn Phú, huyện Mang Thít","Tổng đàn ":"102","Heo thịt":"102","Heo sinh sản":"12","layer_id":85,"fid":618,"label":"Nguyễn Thành Nhơn"}},{"type":"Feature","id":619,"geometry":{"type":"Point","coordinates":[106.0784322,10.200403]},"properties":{"Tên cơ sở":"Trần Văn Tính","Địa chỉ":"Phú Thạnh A, Xã Nhơn Phú, huyện Mang Thít","Tổng đàn ":"51","Heo thịt":"46","Heo sinh sản":"5","layer_id":85,"fid":619,"label":"Trần Văn Tính"}},{"type":"Feature","id":620,"geometry":{"type":"Point","coordinates":[106.0833775,10.19917994]},"properties":{"Tên cơ sở":"Nguyễn Văn Quang","Địa chỉ":"Phú Thanh B, Xã Nhơn Phú, huyện Mang Thít","Tổng đàn ":"61","Heo thịt":"54","Heo sinh sản":"7","layer_id":85,"fid":620,"label":"Nguyễn Văn Quang"}},{"type":"Feature","id":621,"geometry":{"type":"Point","coordinates":[106.095025,10.164372]},"properties":{"Tên cơ sở":"Phạm Văn Phương","Địa chỉ":"An Hội, Xã Tân An Hội, huyện Mang Thít","Tổng đàn ":"61","Heo thịt":"56","Heo sinh sản":"5","layer_id":85,"fid":621,"label":"Phạm Văn Phương"}},{"type":"Feature","id":622,"geometry":{"type":"Point","coordinates":[106.093341,10.129267]},"properties":{"Tên cơ sở":"Nguyễn Tân Xuân","Địa chỉ":"Tân Hội, Xã Tân An Hội, huyện Mang Thít","Tổng đàn ":"51","Heo thịt":"48","Heo sinh sản":"3","layer_id":85,"fid":622,"label":"Nguyễn Tân Xuân"}},{"type":"Feature","id":623,"geometry":{"type":"Point","coordinates":[106.089437,10.131056]},"properties":{"Tên cơ sở":"Nguyễn Văn Bé Sáu","Địa chỉ":"Tân Hội, Xã Tân An Hội, huyện Mang Thít","Tổng đàn ":"75","Heo thịt":"70","Heo sinh sản":"5","layer_id":85,"fid":623,"label":"Nguyễn Văn Bé Sáu"}},{"type":"Feature","id":624,"geometry":{"type":"Point","coordinates":[106.089471,10.131003]},"properties":{"Tên cơ sở":"Nguyễn Văn Bảy","Địa chỉ":"Tân Hội, Xã Tân An Hội, huyện Mang Thít","Tổng đàn ":"160","Heo thịt":"150","Heo sinh sản":"10","layer_id":85,"fid":624,"label":"Nguyễn Văn Bảy"}},{"type":"Feature","id":625,"geometry":{"type":"Point","coordinates":[106.088099,10.137224]},"properties":{"Tên cơ sở":"Võ Văn Kheo","Địa chỉ":"Tân Hội, Xã Tân An Hội, huyện Mang Thít","Tổng đàn ":"60","Heo thịt":"60","Heo sinh sản":null,"layer_id":85,"fid":625,"label":"Võ Văn Kheo"}},{"type":"Feature","id":626,"geometry":{"type":"Point","coordinates":[106.084749,10.130474]},"properties":{"Tên cơ sở":"Nguyễn Thị Diễm","Địa chỉ":"Tân Hội, Xã Tân An Hội, huyện Mang Thít","Tổng đàn ":"54","Heo thịt":"48","Heo sinh sản":"6","layer_id":85,"fid":626,"label":"Nguyễn Thị Diễm"}},{"type":"Feature","id":627,"geometry":{"type":"Point","coordinates":[106.083066,10.157872]},"properties":{"Tên cơ sở":"Nguyễn Thị Chuyên","Địa chỉ":"Tân Quy, Xã Tân An Hội, huyện Mang Thít","Tổng đàn ":"2600","Heo thịt":"2600","Heo sinh sản":null,"layer_id":85,"fid":627,"label":"Nguyễn Thị Chuyên"}},{"type":"Feature","id":628,"geometry":{"type":"Point","coordinates":[106.062096,10.160933]},"properties":{"Tên cơ sở":"Huỳnh Văn Thật","Địa chỉ":"Thanh Bình, Xã Tân Long, huyện Mang Thít","Tổng đàn ":"50","Heo thịt":"50","Heo sinh sản":null,"layer_id":85,"fid":628,"label":"Huỳnh Văn Thật"}},{"type":"Feature","id":629,"geometry":{"type":"Point","coordinates":[106.029938,10.168398]},"properties":{"Tên cơ sở":"Lê Thanh Tùng","Địa chỉ":"Thanh Bình, Xã Tân Long, huyện Mang Thít","Tổng đàn ":"50","Heo thịt":"50","Heo sinh sản":null,"layer_id":85,"fid":629,"label":"Lê Thanh Tùng"}},{"type":"Feature","id":630,"geometry":{"type":"Point","coordinates":[106.060745,10.123099]},"properties":{"Tên cơ sở":"Huỳnh Văn Nhơn","Địa chỉ":"Cầu Ván, Xã Tân Long Hội, huyện Mang Thít","Tổng đàn ":"53","Heo thịt":"53","Heo sinh sản":null,"layer_id":85,"fid":630,"label":"Huỳnh Văn Nhơn"}},{"type":"Feature","id":631,"geometry":{"type":"Point","coordinates":[106.066025,10.130559]},"properties":{"Tên cơ sở":"Phước Văn Ni","Địa chỉ":"Gò Nhum, Xã Tân Long Hội, huyện Mang Thít","Tổng đàn ":"68","Heo thịt":"60","Heo sinh sản":"8","layer_id":85,"fid":631,"label":"Phước Văn Ni"}},{"type":"Feature","id":632,"geometry":{"type":"Point","coordinates":[106.072891,10.123515]},"properties":{"Tên cơ sở":"Tống Thanh Hải","Địa chỉ":"Tân Phong, Xã Tân Long Hội, huyện Mang Thít","Tổng đàn ":"800","Heo thịt":"800","Heo sinh sản":null,"layer_id":85,"fid":632,"label":"Tống Thanh Hải"}},{"type":"Feature","id":633,"geometry":{"type":"Point","coordinates":[106.06239,10.136322]},"properties":{"Tên cơ sở":"Trần Vĩnh Phương","Địa chỉ":"Tân Phong 2, Xã Tân Long Hội, huyện Mang Thít","Tổng đàn ":"1700","Heo thịt":"1700","Heo sinh sản":null,"layer_id":85,"fid":633,"label":"Trần Vĩnh Phương"}},{"type":"Feature","id":634,"geometry":{"type":"Point","coordinates":[106.077667,10.139306]},"properties":{"Tên cơ sở":"Huỳnh Văn Huỳnh","Địa chỉ":"Tân Qui, Xã Tân Long Hội, huyện Mang Thít","Tổng đàn ":"54","Heo thịt":"50","Heo sinh sản":"4","layer_id":85,"fid":634,"label":"Huỳnh Văn Huỳnh"}},{"type":"Feature","id":635,"geometry":{"type":"Point","coordinates":[106.077899,10.126471]},"properties":{"Tên cơ sở":"Nguyễn Anh Kiệt","Địa chỉ":"Thanh Phong, Xã Tân Long Hội, huyện Mang Thít","Tổng đàn ":"700","Heo thịt":"700","Heo sinh sản":null,"layer_id":85,"fid":635,"label":"Nguyễn Anh Kiệt"}},{"type":"Feature","id":636,"geometry":{"type":"Point","coordinates":[106.067879,10.117634]},"properties":{"Tên cơ sở":"Nguyễn Văn Thanh","Địa chỉ":"Thanh Phong, Xã Tân Long Hội, huyện Mang Thít","Tổng đàn ":"54","Heo thịt":"50","Heo sinh sản":"4","layer_id":85,"fid":636,"label":"Nguyễn Văn Thanh"}},{"type":"Feature","id":637,"geometry":{"type":"Point","coordinates":[106.011278,10.096913]},"properties":{"Tên cơ sở":"Nguyễn Ngọc Quý","Địa chỉ":"ấp 2, Xã Hòa Lộc, huyện Tam Bình","Tổng đàn ":"125","Heo thịt":"110","Heo sinh sản":"15","layer_id":85,"fid":637,"label":"Nguyễn Ngọc Quý"}},{"type":"Feature","id":638,"geometry":{"type":"Point","coordinates":[106.019878,10.095321]},"properties":{"Tên cơ sở":"Trần Văn Diệu","Địa chỉ":"Cái Cui, Xã Hòa Lộc, huyện Tam Bình","Tổng đàn ":"65","Heo thịt":"55","Heo sinh sản":"10","layer_id":85,"fid":638,"label":"Trần Văn Diệu"}},{"type":"Feature","id":639,"geometry":{"type":"Point","coordinates":[106.001758,10.109534]},"properties":{"Tên cơ sở":"Đoàn Văn Dũng","Địa chỉ":"Hòa Thuận, Xã Hòa Lộc, huyện Tam Bình","Tổng đàn ":"75","Heo thịt":"63","Heo sinh sản":"12","layer_id":85,"fid":639,"label":"Đoàn Văn Dũng"}},{"type":"Feature","id":640,"geometry":{"type":"Point","coordinates":[105.905216,10.04028]},"properties":{"Tên cơ sở":"Đặng Văn Nguyên","Địa chỉ":"Bình Quí, Xã Ngãi Tứ, huyện Tam Bình","Tổng đàn ":"56","Heo thịt":"50","Heo sinh sản":"6","layer_id":85,"fid":640,"label":"Đặng Văn Nguyên"}},{"type":"Feature","id":641,"geometry":{"type":"Point","coordinates":[105.903396,10.039656]},"properties":{"Tên cơ sở":"Đặng Văn Toàn","Địa chỉ":"Bình Quí, Xã Ngãi Tứ, huyện Tam Bình","Tổng đàn ":"50","Heo thịt":"45","Heo sinh sản":"5","layer_id":85,"fid":641,"label":"Đặng Văn Toàn"}},{"type":"Feature","id":642,"geometry":{"type":"Point","coordinates":[105.905216,10.04028]},"properties":{"Tên cơ sở":"Đặng Văn Nhiều","Địa chỉ":"Bình Quí, Xã Ngãi Tứ, huyện Tam Bình","Tổng đàn ":"65","Heo thịt":"60","Heo sinh sản":"5","layer_id":85,"fid":642,"label":"Đặng Văn Nhiều"}},{"type":"Feature","id":643,"geometry":{"type":"Point","coordinates":[105.891825,9.985073]},"properties":{"Tên cơ sở":"Lê Văn Cường","Địa chỉ":"Đông Phú, Xã Ngãi Tứ, huyện Tam Bình","Tổng đàn ":"25","Heo thịt":null,"Heo sinh sản":"25","layer_id":85,"fid":643,"label":"Lê Văn Cường"}},{"type":"Feature","id":644,"geometry":{"type":"Point","coordinates":[105.998048,10.038762]},"properties":{"Tên cơ sở":"Phan Văn Mẹo","Địa chỉ":"Tường Trí, Xã Tường Lộc, huyện Tam Bình","Tổng đàn ":"115","Heo thịt":"100","Heo sinh sản":"15","layer_id":85,"fid":644,"label":"Phan Văn Mẹo"}},{"type":"Feature","id":645,"geometry":{"type":"Point","coordinates":[105.87533,10.100726]},"properties":{"Tên cơ sở":"Đặng Hoàng Tuấn","Địa chỉ":"Phú Hữu Tây, Xã Phú Thịnh, huyện Tam Bình","Tổng đàn ":"60","Heo thịt":"60","Heo sinh sản":"0","layer_id":85,"fid":645,"label":"Đặng Hoàng Tuấn"}},{"type":"Feature","id":646,"geometry":{"type":"Point","coordinates":[105.890502,10.124387]},"properties":{"Tên cơ sở":"Nguyễn Hoàng Duy","Địa chỉ":"Phú Hữu Đông, Xã Phú Thịnh, huyện Tam Bình","Tổng đàn ":"70","Heo thịt":"70","Heo sinh sản":"0","layer_id":85,"fid":646,"label":"Nguyễn Hoàng Duy"}},{"type":"Feature","id":647,"geometry":{"type":"Point","coordinates":[105.93703,10.12402]},"properties":{"Tên cơ sở":"Nguyễn Thanh Nhàn","Địa chỉ":"Phú Tân, Xã Phú Lộc, huyện Tam Bình","Tổng đàn ":"72","Heo thịt":"60","Heo sinh sản":"12","layer_id":85,"fid":647,"label":"Nguyễn Thanh Nhàn"}},{"type":"Feature","id":648,"geometry":{"type":"Point","coordinates":[105.939698,10.089574]},"properties":{"Tên cơ sở":"Phan Văn Qui","Địa chỉ":"ấp 6 A, Xã Mỹ Lộc, huyện Tam Bình","Tổng đàn ":"70","Heo thịt":"60","Heo sinh sản":"10","layer_id":85,"fid":648,"label":"Phan Văn Qui"}},{"type":"Feature","id":649,"geometry":{"type":"Point","coordinates":[105.938122,9.994543]},"properties":{"Tên cơ sở":"Nguyễn Thị Hường","Địa chỉ":"An Thạnh A, Xã Bình Ninh, huyện Tam Bình","Tổng đàn ":"55","Heo thịt":"50","Heo sinh sản":"5","layer_id":85,"fid":649,"label":"Nguyễn Thị Hường"}},{"type":"Feature","id":650,"geometry":{"type":"Point","coordinates":[105.92527,10.004357]},"properties":{"Tên cơ sở":"Lê Hoàng Linh","Địa chỉ":"An Phú, Xã Bình Ninh, huyện Tam Bình","Tổng đàn ":"105","Heo thịt":"95","Heo sinh sản":"10","layer_id":85,"fid":650,"label":"Lê Hoàng Linh"}},{"type":"Feature","id":651,"geometry":{"type":"Point","coordinates":[106.055976,10.126817]},"properties":{"Tên cơ sở":"Nguyễn Trung TRực","Địa chỉ":"Thạnh Trí, Xã Hòa Thạnh, huyện Tam Bình","Tổng đàn ":"82","Heo thịt":"70","Heo sinh sản":"12","layer_id":85,"fid":651,"label":"Nguyễn Trung TRực"}},{"type":"Feature","id":652,"geometry":{"type":"Point","coordinates":[106.02883,10.08833]},"properties":{"Tên cơ sở":"Trần Văn Hòa","Địa chỉ":"ấp 10, Xã Hòa Hiệp, huyện Tam Bình","Tổng đàn ":"52","Heo thịt":"50","Heo sinh sản":"2","layer_id":85,"fid":652,"label":"Trần Văn Hòa"}},{"type":"Feature","id":653,"geometry":{"type":"Point","coordinates":[106.037527,10.087418]},"properties":{"Tên cơ sở":"Trần Văn Ân","Địa chỉ":"ấp 7, Xã Hòa Hiệp, huyện Tam Bình","Tổng đàn ":"92","Heo thịt":"90","Heo sinh sản":"2","layer_id":85,"fid":653,"label":"Trần Văn Ân"}},{"type":"Feature","id":654,"geometry":{"type":"Point","coordinates":[106.060513,10.096182]},"properties":{"Tên cơ sở":"Trần Thị Ánh Hồng","Địa chỉ":"ấp 6, Xã Hòa Hiệp, huyện Tam Bình","Tổng đàn ":"128","Heo thịt":"120","Heo sinh sản":"8","layer_id":85,"fid":654,"label":"Trần Thị Ánh Hồng"}},{"type":"Feature","id":655,"geometry":{"type":"Point","coordinates":[105.892789,10.066979]},"properties":{"Tên cơ sở":"Phan Hoàng Khánh","Địa chỉ":"Phú Thạnh, Xã Long Phú, huyện Tam Bình","Tổng đàn ":"100","Heo thịt":"90","Heo sinh sản":"10","layer_id":85,"fid":655,"label":"Phan Hoàng Khánh"}},{"type":"Feature","id":656,"geometry":{"type":"Point","coordinates":[105.903404,10.060741]},"properties":{"Tên cơ sở":"Nguyễn Thanh Sơn","Địa chỉ":"Phú Sơn B, Xã Long Phú, huyện Tam Bình","Tổng đàn ":"70","Heo thịt":"60","Heo sinh sản":"10","layer_id":85,"fid":656,"label":"Nguyễn Thanh Sơn"}},{"type":"Feature","id":657,"geometry":{"type":"Point","coordinates":[105.906234,10.085338]},"properties":{"Tên cơ sở":"Nguyễn Văn Tính","Địa chỉ":"Phú Sơn A, Xã Long Phú, huyện Tam Bình","Tổng đàn ":"70","Heo thịt":"55","Heo sinh sản":"15","layer_id":85,"fid":657,"label":"Nguyễn Văn Tính"}},{"type":"Feature","id":658,"geometry":{"type":"Point","coordinates":[105.922541,10.082717]},"properties":{"Tên cơ sở":"Trần Văn Thái","Địa chỉ":"ấp 6 B, Xã Long Phú, huyện Tam Bình","Tổng đàn ":"60","Heo thịt":"50","Heo sinh sản":"10","layer_id":85,"fid":658,"label":"Trần Văn Thái"}},{"type":"Feature","id":659,"geometry":{"type":"Point","coordinates":[105.925011,10.083379]},"properties":{"Tên cơ sở":"Nguyễn VĂn Hơn","Địa chỉ":"ấp 6 B, Xã Long Phú, huyện Tam Bình","Tổng đàn ":"70","Heo thịt":"60","Heo sinh sản":"10","layer_id":85,"fid":659,"label":"Nguyễn VĂn Hơn"}},{"type":"Feature","id":660,"geometry":{"type":"Point","coordinates":[105.931233,10.109627]},"properties":{"Tên cơ sở":"Nguyễn THị Diễm","Địa chỉ":"Phú Điền, Xã Song Phú, huyện Tam Bình","Tổng đàn ":"145","Heo thịt":"145","Heo sinh sản":null,"layer_id":85,"fid":660,"label":"Nguyễn THị Diễm"}},{"type":"Feature","id":661,"geometry":{"type":"Point","coordinates":[105.928046,10.127783]},"properties":{"Tên cơ sở":"Phạm Hoài Phong","Địa chỉ":"Phú Điền, Xã Song Phú, huyện Tam Bình","Tổng đàn ":"90","Heo thịt":"90","Heo sinh sản":"0","layer_id":85,"fid":661,"label":"Phạm Hoài Phong"}},{"type":"Feature","id":662,"geometry":{"type":"Point","coordinates":[105.92755,10.24852]},"properties":{"Tên cơ sở":"Nguyễn Duy Phương","Địa chỉ":"64A Tân Quới Tây, Phường Trường An, Thành phố Thành phố Vĩnh Long","Tổng đàn ":"52","Heo thịt":"50","Heo sinh sản":"2","layer_id":85,"fid":662,"label":"Nguyễn Duy Phương"}},{"type":"Feature","id":663,"geometry":{"type":"Point","coordinates":[105.9484,10.225784]},"properties":{"Tên cơ sở":"Nguyễn Thị Đúm","Địa chỉ":"227A khóm 3, Phường 8, Thành phố Thành phố Vĩnh Long","Tổng đàn ":"100","Heo thịt":"100","Heo sinh sản":null,"layer_id":85,"fid":663,"label":"Nguyễn Thị Đúm"}},{"type":"Feature","id":664,"geometry":{"type":"Point","coordinates":[106.046219,10.040859]},"properties":{"Tên cơ sở":"Mai Chí Hiếu","Địa chỉ":"Hiệp Hòa, Xã Hòa Bình, huyện Trà Ôn","Tổng đàn ":"500","Heo thịt":"500","Heo sinh sản":null,"layer_id":85,"fid":664,"label":"Mai Chí Hiếu"}},{"type":"Feature","id":666,"geometry":{"type":"Point","coordinates":[106.08152,10.056538]},"properties":{"Tên cơ sở":"Nguyễn Thanh Sang","Địa chỉ":"Hiệp Lợi","Tổng đàn ":"100","Heo thịt":"83","Heo sinh sản":"17","layer_id":85,"fid":666,"label":"Nguyễn Thanh Sang"}},{"type":"Feature","id":665,"geometry":{"type":"Point","coordinates":[106.073535,10.050079]},"properties":{"Tên cơ sở":"Nguyễn Hữu Nghĩa","Địa chỉ":"Hiệp Hòa, Xã Hòa Bình, huyện Trà Ôn","Tổng đàn ":"87","Heo thịt":"80","Heo sinh sản":"7","layer_id":85,"fid":665,"label":"Nguyễn Hữu Nghĩa"}},{"type":"Feature","id":667,"geometry":{"type":"Point","coordinates":[106.051801,10.036142]},"properties":{"Tên cơ sở":"Trần Minh Hải","Địa chỉ":"Hiệp Thuận, Xã Hòa Bình, huyện Trà Ôn","Tổng đàn ":"125","Heo thịt":"100","Heo sinh sản":"25","layer_id":85,"fid":667,"label":"Trần Minh Hải"}},{"type":"Feature","id":668,"geometry":{"type":"Point","coordinates":[106.060786,10.029556]},"properties":{"Tên cơ sở":"Mai Văn Non","Địa chỉ":"Hiệp Thuận, Xã Hòa Bình, huyện Trà Ôn","Tổng đàn ":"68","Heo thịt":"60","Heo sinh sản":"8","layer_id":85,"fid":668,"label":"Mai Văn Non"}},{"type":"Feature","id":669,"geometry":{"type":"Point","coordinates":[106.083142,10.032859]},"properties":{"Tên cơ sở":"Lý Văn Tài","Địa chỉ":"Kinh Mới, Xã Hòa Bình, huyện Trà Ôn","Tổng đàn ":"100","Heo thịt":"100","Heo sinh sản":null,"layer_id":85,"fid":669,"label":"Lý Văn Tài"}},{"type":"Feature","id":670,"geometry":{"type":"Point","coordinates":[106.044676,10.059525]},"properties":{"Tên cơ sở":"Trần Thanh Thảo","Địa chỉ":"Ngãi Hòa, Xã Hòa Bình, huyện Trà Ôn","Tổng đàn ":"70","Heo thịt":"70","Heo sinh sản":null,"layer_id":85,"fid":670,"label":"Trần Thanh Thảo"}},{"type":"Feature","id":671,"geometry":{"type":"Point","coordinates":[106.046782,10.039972]},"properties":{"Tên cơ sở":"Nguyễn Thanh Nghị","Địa chỉ":"Ngãi Hòa, Xã Hòa Bình, huyện Trà Ôn","Tổng đàn ":"420","Heo thịt":"420","Heo sinh sản":null,"layer_id":85,"fid":671,"label":"Nguyễn Thanh Nghị"}},{"type":"Feature","id":672,"geometry":{"type":"Point","coordinates":[106.059329,10.050565]},"properties":{"Tên cơ sở":"Trần Văn Phước","Địa chỉ":"Ngãi Hòa, Xã Hòa Bình, huyện Trà Ôn","Tổng đàn ":"60","Heo thịt":"60","Heo sinh sản":null,"layer_id":85,"fid":672,"label":"Trần Văn Phước"}},{"type":"Feature","id":673,"geometry":{"type":"Point","coordinates":[106.047089,10.027308]},"properties":{"Tên cơ sở":"Phạm Văn Lỗi","Địa chỉ":"Tân Thuận, Xã Hòa Bình, huyện Trà Ôn","Tổng đàn ":"70","Heo thịt":"60","Heo sinh sản":"10","layer_id":85,"fid":673,"label":"Phạm Văn Lỗi"}},{"type":"Feature","id":674,"geometry":{"type":"Point","coordinates":[106.025539,10.00278]},"properties":{"Tên cơ sở":"Lê Văn Quân Em","Địa chỉ":"Trà Sơn, Xã Hựu Thành, huyện Trà Ôn","Tổng đàn ":"80","Heo thịt":"71","Heo sinh sản":"9","layer_id":85,"fid":674,"label":"Lê Văn Quân Em"}},{"type":"Feature","id":675,"geometry":{"type":"Point","coordinates":[106.036578,9.999701]},"properties":{"Tên cơ sở":"Huỳnh Quang Hải","Địa chỉ":"Trà Sơn, Xã Hựu Thành, huyện Trà Ôn","Tổng đàn ":"61","Heo thịt":"56","Heo sinh sản":"5","layer_id":85,"fid":675,"label":"Huỳnh Quang Hải"}},{"type":"Feature","id":676,"geometry":{"type":"Point","coordinates":[105.937281,9.935612]},"properties":{"Tên cơ sở":"Lê Văn Danh","Địa chỉ":"Mỹ Thạnh, Xã Lục Sỹ Thành, huyện Trà Ôn","Tổng đàn ":"50","Heo thịt":"20","Heo sinh sản":"30","layer_id":85,"fid":676,"label":"Lê Văn Danh"}},{"type":"Feature","id":677,"geometry":{"type":"Point","coordinates":[106.023279,10.047456]},"properties":{"Tên cơ sở":"Phan Văn Chính","Địa chỉ":"Nhơn Ngãi, Xã Nhơn Bình, huyện Trà Ôn","Tổng đàn ":"90","Heo thịt":"60","Heo sinh sản":"30","layer_id":85,"fid":677,"label":"Phan Văn Chính"}},{"type":"Feature","id":678,"geometry":{"type":"Point","coordinates":[106.031703,10.050635]},"properties":{"Tên cơ sở":"Lê Việt Hiếu","Địa chỉ":"Nhơn Ngãi, Xã Nhơn Bình, huyện Trà Ôn","Tổng đàn ":"55","Heo thịt":"50","Heo sinh sản":"5","layer_id":85,"fid":678,"label":"Lê Việt Hiếu"}},{"type":"Feature","id":679,"geometry":{"type":"Point","coordinates":[105.967926,9.994917]},"properties":{"Tên cơ sở":"Nguyễn Văn Thủy","Địa chỉ":"Cần Thay, Xã Tân Mỹ, huyện Trà Ôn","Tổng đàn ":"60","Heo thịt":"60","Heo sinh sản":null,"layer_id":85,"fid":679,"label":"Nguyễn Văn Thủy"}},{"type":"Feature","id":680,"geometry":{"type":"Point","coordinates":[105.968202,9.995156]},"properties":{"Tên cơ sở":"Võ Thành Lâm","Địa chỉ":"Cần Thay, Xã Tân Mỹ, huyện Trà Ôn","Tổng đàn ":"81","Heo thịt":"78","Heo sinh sản":"3","layer_id":85,"fid":680,"label":"Võ Thành Lâm"}},{"type":"Feature","id":681,"geometry":{"type":"Point","coordinates":[105.979419,9.964542]},"properties":{"Tên cơ sở":"Dương Hoàng An","Địa chỉ":"Gia Kiết, Xã Tân Mỹ, huyện Trà Ôn","Tổng đàn ":"137","Heo thịt":"125","Heo sinh sản":"12","layer_id":85,"fid":681,"label":"Dương Hoàng An"}},{"type":"Feature","id":682,"geometry":{"type":"Point","coordinates":[105.979884,9.963713]},"properties":{"Tên cơ sở":"Lê Văn Quới","Địa chỉ":"Gia Kiết, Xã Tân Mỹ, huyện Trà Ôn","Tổng đàn ":"67","Heo thịt":"63","Heo sinh sản":"4","layer_id":85,"fid":682,"label":"Lê Văn Quới"}},{"type":"Feature","id":683,"geometry":{"type":"Point","coordinates":[105.96659,9.99452]},"properties":{"Tên cơ sở":"Võ Văn Phúc","Địa chỉ":"Mỹ An, Xã Tân Mỹ, huyện Trà Ôn","Tổng đàn ":"82","Heo thịt":"82","Heo sinh sản":null,"layer_id":85,"fid":683,"label":"Võ Văn Phúc"}},{"type":"Feature","id":684,"geometry":{"type":"Point","coordinates":[105.981901,10.0062]},"properties":{"Tên cơ sở":"Phạm Vũ Phương","Địa chỉ":"Mỹ Định, Xã Tân Mỹ, huyện Trà Ôn","Tổng đàn ":"79","Heo thịt":"71","Heo sinh sản":"8","layer_id":85,"fid":684,"label":"Phạm Vũ Phương"}},{"type":"Feature","id":685,"geometry":{"type":"Point","coordinates":[105.964967,10.005894]},"properties":{"Tên cơ sở":"Trương Văn Thạnh","Địa chỉ":"Mỹ Định, Xã Tân Mỹ, huyện Trà Ôn","Tổng đàn ":"63","Heo thịt":"53","Heo sinh sản":"10","layer_id":85,"fid":685,"label":"Trương Văn Thạnh"}},{"type":"Feature","id":686,"geometry":{"type":"Point","coordinates":[105.986871,10.013541]},"properties":{"Tên cơ sở":"Lê Bích Phượng","Địa chỉ":"Mỹ Phú, Xã Tân Mỹ, huyện Trà Ôn","Tổng đàn ":"191","Heo thịt":"141","Heo sinh sản":"50","layer_id":85,"fid":686,"label":"Lê Bích Phượng"}},{"type":"Feature","id":687,"geometry":{"type":"Point","coordinates":[105.986798,10.012325]},"properties":{"Tên cơ sở":"Võ Thanh Tú Bé","Địa chỉ":"Mỹ Phú, Xã Tân Mỹ, huyện Trà Ôn","Tổng đàn ":"75","Heo thịt":"64","Heo sinh sản":"11","layer_id":85,"fid":687,"label":"Võ Thanh Tú Bé"}},{"type":"Feature","id":690,"geometry":{"type":"Point","coordinates":[106.039452,9.998822]},"properties":{"Tên cơ sở":"Lê Thị Hằng","Địa chỉ":"Ninh Hòa, Xã Thới Hòa, huyện Trà Ôn","Tổng đàn ":"60","Heo thịt":"60","Heo sinh sản":"15","layer_id":85,"fid":690,"label":"Lê Thị Hằng"}},{"type":"Feature","id":691,"geometry":{"type":"Point","coordinates":[106.074238,9.997098]},"properties":{"Tên cơ sở":"Lê Văn Tông","Địa chỉ":"Ninh Hòa, Xã Thới Hòa, huyện Trà Ôn","Tổng đàn ":"60","Heo thịt":"60","Heo sinh sản":null,"layer_id":85,"fid":691,"label":"Lê Văn Tông"}},{"type":"Feature","id":692,"geometry":{"type":"Point","coordinates":[106.073238,9.997885]},"properties":{"Tên cơ sở":"Nguyễn Hồng Cưng","Địa chỉ":"Ninh Hòa, Xã Thới Hòa, huyện Trà Ôn","Tổng đàn ":"59","Heo thịt":"39","Heo sinh sản":"20","layer_id":85,"fid":692,"label":"Nguyễn Hồng Cưng"}},{"type":"Feature","id":693,"geometry":{"type":"Point","coordinates":[106.037512,10.002446]},"properties":{"Tên cơ sở":"Nguyễn Hoàng Anh","Địa chỉ":"Tường Hưng, Xã Thới Hòa, huyện Trà Ôn","Tổng đàn ":"55","Heo thịt":"50","Heo sinh sản":"5","layer_id":85,"fid":693,"label":"Nguyễn Hoàng Anh"}},{"type":"Feature","id":694,"geometry":{"type":"Point","coordinates":[106.037725,10.002293]},"properties":{"Tên cơ sở":"Trần Bảo Ngân","Địa chỉ":"Tường Hưng, Xã Thới Hòa, huyện Trà Ôn","Tổng đàn ":"120","Heo thịt":"110","Heo sinh sản":"10","layer_id":85,"fid":694,"label":"Trần Bảo Ngân"}},{"type":"Feature","id":697,"geometry":{"type":"Point","coordinates":[106.046524,10.005264]},"properties":{"Tên cơ sở":"Nguyễn Việt Hiếu","Địa chỉ":"Tường Tín, Xã Thới Hòa, huyện Trà Ôn","Tổng đàn ":"56","Heo thịt":"50","Heo sinh sản":"6","layer_id":85,"fid":697,"label":"Nguyễn Việt Hiếu"}},{"type":"Feature","id":698,"geometry":{"type":"Point","coordinates":[106.05439,10.003566]},"properties":{"Tên cơ sở":"Võ Thị Hừng","Địa chỉ":"Tường Tín, Xã Thới Hòa, huyện Trà Ôn","Tổng đàn ":"94","Heo thịt":"94","Heo sinh sản":null,"layer_id":85,"fid":698,"label":"Võ Thị Hừng"}},{"type":"Feature","id":699,"geometry":{"type":"Point","coordinates":[106.058563,10.005275]},"properties":{"Tên cơ sở":"Nguyễn Văn Mãng","Địa chỉ":"Tường Tín, Xã Thới Hòa, huyện Trà Ôn","Tổng đàn ":"94","Heo thịt":"85","Heo sinh sản":"9","layer_id":85,"fid":699,"label":"Nguyễn Văn Mãng"}},{"type":"Feature","id":701,"geometry":{"type":"Point","coordinates":[106.053959,9.943442]},"properties":{"Tên cơ sở":"Nguyễn Huy Hiệu","Địa chỉ":"Cống Đá, Xã Thuận Thới, huyện Trà Ôn","Tổng đàn ":"254","Heo thịt":"220","Heo sinh sản":"34","layer_id":85,"fid":701,"label":"Nguyễn Huy Hiệu"}},{"type":"Feature","id":705,"geometry":{"type":"Point","coordinates":[106.004519,9.988538]},"properties":{"Tên cơ sở":"Võ Văn Phến","Địa chỉ":"Bang Chang, Xã Trà Côn, huyện Trà Ôn","Tổng đàn ":"70","Heo thịt":"70","Heo sinh sản":null,"layer_id":85,"fid":705,"label":"Võ Văn Phến"}},{"type":"Feature","id":706,"geometry":{"type":"Point","coordinates":[106.029019,10.016624]},"properties":{"Tên cơ sở":"Nguyễn Phú Lộc","Địa chỉ":"Ngãi Lộ B, Xã Trà Côn, huyện Trà Ôn","Tổng đàn ":"90","Heo thịt":"80","Heo sinh sản":"10","layer_id":85,"fid":706,"label":"Nguyễn Phú Lộc"}},{"type":"Feature","id":708,"geometry":{"type":"Point","coordinates":[105.996117,10.003436]},"properties":{"Tên cơ sở":"Nguyễn Thị Thu Trinh","Địa chỉ":"Phạm Thị Mến, Xã Trà Côn, huyện Trà Ôn","Tổng đàn ":"55","Heo thịt":"50","Heo sinh sản":"5","layer_id":85,"fid":708,"label":"Nguyễn Thị Thu Trinh"}},{"type":"Feature","id":709,"geometry":{"type":"Point","coordinates":[106.014458,9.994703]},"properties":{"Tên cơ sở":"Nguyễn Văn Hoàng","Địa chỉ":"Phạm Thị Mến, Xã Trà Côn, huyện Trà Ôn","Tổng đàn ":"86","Heo thịt":"80","Heo sinh sản":"6","layer_id":85,"fid":709,"label":"Nguyễn Văn Hoàng"}},{"type":"Feature","id":710,"geometry":{"type":"Point","coordinates":[105.989419,10.003243]},"properties":{"Tên cơ sở":"Hàn Phương Thanh","Địa chỉ":"Tầm Vu, Xã Trà Côn, huyện Trà Ôn","Tổng đàn ":"90","Heo thịt":"80","Heo sinh sản":"10","layer_id":85,"fid":710,"label":"Hàn Phương Thanh"}},{"type":"Feature","id":713,"geometry":{"type":"Point","coordinates":[106.0158,9.97186]},"properties":{"Tên cơ sở":"Nguyễn Thị Kiều Phương","Địa chỉ":"Vĩnh Khánh I, Xã Vĩnh Xuân, huyện Trà Ôn","Tổng đàn ":"134","Heo thịt":"126","Heo sinh sản":"8","layer_id":85,"fid":713,"label":"Nguyễn Thị Kiều Phương"}},{"type":"Feature","id":715,"geometry":{"type":"Point","coordinates":[106.0158,9.97186]},"properties":{"Tên cơ sở":"Đặng Văn Nhanh","Địa chỉ":"Vĩnh Lợi ","Tổng đàn ":"134","Heo thịt":"126","Heo sinh sản":"8","layer_id":85,"fid":715,"label":"Đặng Văn Nhanh"}},{"type":"Feature","id":717,"geometry":{"type":"Point","coordinates":[106.049218,10.079589]},"properties":{"Tên cơ sở":"Lê Thị Út","Địa chỉ":"Hồi Thạnh, Xã Xuân Hiệp, huyện Trà Ôn","Tổng đàn ":"50","Heo thịt":"50","Heo sinh sản":null,"layer_id":85,"fid":717,"label":"Lê Thị Út"}},{"type":"Feature","id":718,"geometry":{"type":"Point","coordinates":[106.089604,10.055695]},"properties":{"Tên cơ sở":"Nguyễn Út Tín","Địa chỉ":"Hồi Thọ, Xã Xuân Hiệp, huyện Trà Ôn","Tổng đàn ":"60","Heo thịt":"60","Heo sinh sản":null,"layer_id":85,"fid":718,"label":"Nguyễn Út Tín"}},{"type":"Feature","id":719,"geometry":{"type":"Point","coordinates":[106.109494,9.945716]},"properties":{"Tên cơ sở":"Nguyễn Văn Mười","Địa chỉ":"Hiếu Hậu, Xã Hiếu Nghĩa, huyện Vũng Liêm","Tổng đàn ":"80","Heo thịt":"10","Heo sinh sản":"70","layer_id":85,"fid":719,"label":"Nguyễn Văn Mười"}},{"type":"Feature","id":720,"geometry":{"type":"Point","coordinates":[106.099671,9.95426]},"properties":{"Tên cơ sở":"Nguyễn Phi Yến","Địa chỉ":"Hiếu Tính, Xã Hiếu Nghĩa, huyện Vũng Liêm","Tổng đàn ":"50","Heo thịt":"8","Heo sinh sản":"42","layer_id":85,"fid":720,"label":"Nguyễn Phi Yến"}},{"type":"Feature","id":721,"geometry":{"type":"Point","coordinates":[106.070465,9.974871]},"properties":{"Tên cơ sở":"Nguyễn Văn Vũ","Địa chỉ":"Hiếu Trung, Xã Hiếu Nghĩa, huyện Vũng Liêm","Tổng đàn ":"50","Heo thịt":"10","Heo sinh sản":"40","layer_id":85,"fid":721,"label":"Nguyễn Văn Vũ"}},{"type":"Feature","id":722,"geometry":{"type":"Point","coordinates":[106.091264,9.974318]},"properties":{"Tên cơ sở":"Nguyễn Thị Thanh Vân","Địa chỉ":"Hiếu Văn, Xã Hiếu Nghĩa, huyện Vũng Liêm","Tổng đàn ":"80","Heo thịt":"20","Heo sinh sản":"60","layer_id":85,"fid":722,"label":"Nguyễn Thị Thanh Vân"}},{"type":"Feature","id":723,"geometry":{"type":"Point","coordinates":[106.132299,10.006177]},"properties":{"Tên cơ sở":"Bùi Văn Minh","Địa chỉ":"Hiếu Minh A, Xã Hiếu Nhơn, huyện Vũng Liêm","Tổng đàn ":"70","Heo thịt":null,"Heo sinh sản":"70","layer_id":85,"fid":723,"label":"Bùi Văn Minh"}},{"type":"Feature","id":724,"geometry":{"type":"Point","coordinates":[106.130621,9.99945]},"properties":{"Tên cơ sở":"Dương Thanh Hùng","Địa chỉ":"Ngã Hậu, Xã Hiếu Nhơn, huyện Vũng Liêm","Tổng đàn ":"100","Heo thịt":null,"Heo sinh sản":"100","layer_id":85,"fid":724,"label":"Dương Thanh Hùng"}},{"type":"Feature","id":725,"geometry":{"type":"Point","coordinates":[106.130695,10.000363]},"properties":{"Tên cơ sở":"Nguyễn Văn Một","Địa chỉ":"Ngã Hậu, Xã Hiếu Nhơn, huyện Vũng Liêm","Tổng đàn ":"140","Heo thịt":"10","Heo sinh sản":"130","layer_id":85,"fid":725,"label":"Nguyễn Văn Một"}},{"type":"Feature","id":726,"geometry":{"type":"Point","coordinates":[106.118316,10.090224]},"properties":{"Tên cơ sở":"Lê Văn Đức","Địa chỉ":"Nhơn Ngãi, Xã Hiếu Phụng, huyện Vũng Liêm","Tổng đàn ":"60","Heo thịt":null,"Heo sinh sản":"60","layer_id":85,"fid":726,"label":"Lê Văn Đức"}},{"type":"Feature","id":727,"geometry":{"type":"Point","coordinates":[106.118328,10.097575]},"properties":{"Tên cơ sở":"Nguyễn Văn Quý","Địa chỉ":"Nhơn Nghĩa, Xã Hiếu Phụng, huyện Vũng Liêm","Tổng đàn ":"50","Heo thịt":null,"Heo sinh sản":"50","layer_id":85,"fid":727,"label":"Nguyễn Văn Quý"}},{"type":"Feature","id":728,"geometry":{"type":"Point","coordinates":[106.124933,10.081754]},"properties":{"Tên cơ sở":"Trần Văn Huấn","Địa chỉ":"Tân Quang, Xã Hiếu Phụng, huyện Vũng Liêm","Tổng đàn ":"50","Heo thịt":null,"Heo sinh sản":"50","layer_id":85,"fid":728,"label":"Trần Văn Huấn"}},{"type":"Feature","id":729,"geometry":{"type":"Point","coordinates":[106.082643,9.965041]},"properties":{"Tên cơ sở":"Nguyễn Văn Hùng","Địa chỉ":"Hiếu Liên, Xã Hiếu Nghĩa, huyện Vũng Liêm","Tổng đàn ":"70","Heo thịt":"15","Heo sinh sản":"55","layer_id":85,"fid":729,"label":"Nguyễn Văn Hùng"}},{"type":"Feature","id":730,"geometry":{"type":"Point","coordinates":[106.096643,10.002053]},"properties":{"Tên cơ sở":"Nguyễn Văn Tổng","Địa chỉ":"Hiếu Thọ, Xã Hiếu Thành, huyện Vũng Liêm","Tổng đàn ":"50","Heo thịt":"20","Heo sinh sản":"30","layer_id":85,"fid":730,"label":"Nguyễn Văn Tổng"}},{"type":"Feature","id":731,"geometry":{"type":"Point","coordinates":[106.093225,9.979892]},"properties":{"Tên cơ sở":"Võ Văn Vui","Địa chỉ":"Hiếu Xuân Tây, Xã Hiếu Thành, huyện Vũng Liêm","Tổng đàn ":"60","Heo thịt":"10","Heo sinh sản":"50","layer_id":85,"fid":731,"label":"Võ Văn Vui"}},{"type":"Feature","id":732,"geometry":{"type":"Point","coordinates":[106.110042,10.040365]},"properties":{"Tên cơ sở":"Nguyễn Long Phi","Địa chỉ":"Ngãi Thạnh, Xã Hiếu Thuận, huyện Vũng Liêm","Tổng đàn ":"270","Heo thịt":"20","Heo sinh sản":"250","layer_id":85,"fid":732,"label":"Nguyễn Long Phi"}},{"type":"Feature","id":733,"geometry":{"type":"Point","coordinates":[106.112417,10.041344]},"properties":{"Tên cơ sở":"Nguyễn Thị Luôn","Địa chỉ":"Phú cường, Xã Hiếu Thuận, huyện Vũng Liêm","Tổng đàn ":"120","Heo thịt":"20","Heo sinh sản":"100","layer_id":85,"fid":733,"label":"Nguyễn Thị Luôn"}},{"type":"Feature","id":734,"geometry":{"type":"Point","coordinates":[106.1123,10.042129]},"properties":{"Tên cơ sở":"Huỳnh Thị Phượng","Địa chỉ":"Phú ĐIền, Xã Hiếu Thuận, huyện Vũng Liêm","Tổng đàn ":"120","Heo thịt":"20","Heo sinh sản":"100","layer_id":85,"fid":734,"label":"Huỳnh Thị Phượng"}},{"type":"Feature","id":735,"geometry":{"type":"Point","coordinates":[106.155893,10.121267]},"properties":{"Tên cơ sở":"Nguyễn Văn Cơ","Địa chỉ":"Quang Hòa, Xã Quới An, huyện Vũng Liêm","Tổng đàn ":"55","Heo thịt":"48","Heo sinh sản":"7","layer_id":85,"fid":735,"label":"Nguyễn Văn Cơ"}},{"type":"Feature","id":736,"geometry":{"type":"Point","coordinates":[106.161995,10.128739]},"properties":{"Tên cơ sở":"Bùi Văn Điểm","Địa chỉ":"Quang Hòa, Xã Quới An, huyện Vũng Liêm","Tổng đàn ":"50","Heo thịt":"50","Heo sinh sản":null,"layer_id":85,"fid":736,"label":"Bùi Văn Điểm"}},{"type":"Feature","id":737,"geometry":{"type":"Point","coordinates":[106.161743,10.130882]},"properties":{"Tên cơ sở":"Lê Minh Tuấn","Địa chỉ":"Quang Hòa, Xã Quới An, huyện Vũng Liêm","Tổng đàn ":"60","Heo thịt":"53","Heo sinh sản":"7","layer_id":85,"fid":737,"label":"Lê Minh Tuấn"}},{"type":"Feature","id":738,"geometry":{"type":"Point","coordinates":[106.106678,10.134236]},"properties":{"Tên cơ sở":"Nguyễn Văn Chín Út","Địa chỉ":"Ấp 3, Xã Tân An Luông, huyện Vũng Liêm","Tổng đàn ":"80","Heo thịt":null,"Heo sinh sản":"80","layer_id":85,"fid":738,"label":"Nguyễn Văn Chín Út"}},{"type":"Feature","id":739,"geometry":{"type":"Point","coordinates":[106.090716,10.111952]},"properties":{"Tên cơ sở":"Từ Văn Ngọc","Địa chỉ":"Gò Ân, Xã Tân An Luông, huyện Vũng Liêm","Tổng đàn ":"250","Heo thịt":null,"Heo sinh sản":"250","layer_id":85,"fid":739,"label":"Từ Văn Ngọc"}},{"type":"Feature","id":740,"geometry":{"type":"Point","coordinates":[106.105657,10.164118]},"properties":{"Tên cơ sở":"Nguyễn Hữu Khanh","Địa chỉ":"Tân Quới, Xã Tân Quới Trung, huyện Vũng Liêm","Tổng đàn ":"60","Heo thịt":null,"Heo sinh sản":"60","layer_id":85,"fid":740,"label":"Nguyễn Hữu Khanh"}},{"type":"Feature","id":741,"geometry":{"type":"Point","coordinates":[106.254073,10.084135]},"properties":{"Tên cơ sở":"Nguyễn Khương Khang","Địa chỉ":"Bình Thủy, Xã Thanh Bình, huyện Vũng Liêm","Tổng đàn ":"53","Heo thịt":"3","Heo sinh sản":"50","layer_id":85,"fid":741,"label":"Nguyễn Khương Khang"}},{"type":"Feature","id":742,"geometry":{"type":"Point","coordinates":[106.257872,10.082005]},"properties":{"Tên cơ sở":"Ngô Thị Phấn","Địa chỉ":"Bình Thủy, Xã Thanh Bình, huyện Vũng Liêm","Tổng đàn ":"65","Heo thịt":"5","Heo sinh sản":"60","layer_id":85,"fid":742,"label":"Ngô Thị Phấn"}},{"type":"Feature","id":743,"geometry":{"type":"Point","coordinates":[106.250195,10.088747]},"properties":{"Tên cơ sở":"Nguyễn Khương Tư","Địa chỉ":"Bình Thủy, Xã Thanh Bình, huyện Vũng Liêm","Tổng đàn ":"115","Heo thịt":"15","Heo sinh sản":"100","layer_id":85,"fid":743,"label":"Nguyễn Khương Tư"}},{"type":"Feature","id":744,"geometry":{"type":"Point","coordinates":[106.246298,10.085535]},"properties":{"Tên cơ sở":"Đào Hữu Quới","Địa chỉ":"Cái Dứa, Xã Thanh Bình, huyện Vũng Liêm","Tổng đàn ":"56","Heo thịt":"6","Heo sinh sản":"50","layer_id":85,"fid":744,"label":"Đào Hữu Quới"}},{"type":"Feature","id":745,"geometry":{"type":"Point","coordinates":[106.247587,10.08458]},"properties":{"Tên cơ sở":"Nguyễn Văn Kỷ","Địa chỉ":"Cái Dứa, Xã Thanh Bình, huyện Vũng Liêm","Tổng đàn ":"200","Heo thịt":null,"Heo sinh sản":"200","layer_id":85,"fid":745,"label":"Nguyễn Văn Kỷ"}},{"type":"Feature","id":746,"geometry":{"type":"Point","coordinates":[106.222589,10.105979]},"properties":{"Tên cơ sở":"Đoàn Văn Dũng","Địa chỉ":"Lăng, Xã Thanh Bình, huyện Vũng Liêm","Tổng đàn ":"395","Heo thịt":"45","Heo sinh sản":"350","layer_id":85,"fid":746,"label":"Đoàn Văn Dũng"}},{"type":"Feature","id":747,"geometry":{"type":"Point","coordinates":[106.218804,10.127891]},"properties":{"Tên cơ sở":"Lê Văn Sâm","Địa chỉ":"Tân Bình, Xã Thanh Bình, huyện Vũng Liêm","Tổng đàn ":"150","Heo thịt":null,"Heo sinh sản":"150","layer_id":85,"fid":747,"label":"Lê Văn Sâm"}},{"type":"Feature","id":748,"geometry":{"type":"Point","coordinates":[106.235755,10.104011]},"properties":{"Tên cơ sở":"Nguyễn Văn Việt","Địa chỉ":"Thái Bình, Xã Thanh Bình, huyện Vũng Liêm","Tổng đàn ":"150","Heo thịt":null,"Heo sinh sản":"150","layer_id":85,"fid":748,"label":"Nguyễn Văn Việt"}},{"type":"Feature","id":749,"geometry":{"type":"Point","coordinates":[106.232133,10.117492]},"properties":{"Tên cơ sở":"Dương Minh Thái","Địa chỉ":"Thanh Bình, Xã Thanh Bình, huyện Vũng Liêm","Tổng đàn ":"280","Heo thịt":"30","Heo sinh sản":"250","layer_id":85,"fid":749,"label":"Dương Minh Thái"}},{"type":"Feature","id":750,"geometry":{"type":"Point","coordinates":[106.225948,10.106708]},"properties":{"Tên cơ sở":"Nguyễn Thanh Cường","Địa chỉ":"Thanh Lương, Xã Thanh Bình, huyện Vũng Liêm","Tổng đàn ":"65","Heo thịt":"5","Heo sinh sản":"60","layer_id":85,"fid":750,"label":"Nguyễn Thanh Cường"}},{"type":"Feature","id":751,"geometry":{"type":"Point","coordinates":[106.220949,10.117193]},"properties":{"Tên cơ sở":"Bùi Văn Thanh Cường","Địa chỉ":"Thanh Lương, Xã Thanh Bình, huyện Vũng Liêm","Tổng đàn ":"100","Heo thịt":null,"Heo sinh sản":"100","layer_id":85,"fid":751,"label":"Bùi Văn Thanh Cường"}},{"type":"Feature","id":752,"geometry":{"type":"Point","coordinates":[106.255035,10.094017]},"properties":{"Tên cơ sở":"Dương Văn Diệu","Địa chỉ":"Thanh Phong, Xã Thanh Bình, huyện Vũng Liêm","Tổng đàn ":"66","Heo thịt":"6","Heo sinh sản":"60","layer_id":85,"fid":752,"label":"Dương Văn Diệu"}},{"type":"Feature","id":753,"geometry":{"type":"Point","coordinates":[106.253745,10.095167]},"properties":{"Tên cơ sở":"Lê Văn Đèo","Địa chỉ":"Thanh Phong, Xã Thanh Bình, huyện Vũng Liêm","Tổng đàn ":"55","Heo thịt":"5","Heo sinh sản":"50","layer_id":85,"fid":753,"label":"Lê Văn Đèo"}},{"type":"Feature","id":754,"geometry":{"type":"Point","coordinates":[106.268505,10.076351]},"properties":{"Tên cơ sở":"Trương Văn Tính","Địa chỉ":"Thông Lưu, Xã Thanh Bình, huyện Vũng Liêm","Tổng đàn ":"53","Heo thịt":"3","Heo sinh sản":"50","layer_id":85,"fid":754,"label":"Trương Văn Tính"}},{"type":"Feature","id":755,"geometry":{"type":"Point","coordinates":[106.267657,10.077864]},"properties":{"Tên cơ sở":"Võ Thanh Xía","Địa chỉ":"Thông Lưu, Xã Thanh Bình, huyện Vũng Liêm","Tổng đàn ":"350","Heo thịt":"50","Heo sinh sản":"300","layer_id":85,"fid":755,"label":"Võ Thanh Xía"}},{"type":"Feature","id":756,"geometry":{"type":"Point","coordinates":[106.266654,10.079652]},"properties":{"Tên cơ sở":"Nguyễn Hoàng Ân","Địa chỉ":"Thông Lưu, Xã Thanh Bình, huyện Vũng Liêm","Tổng đàn ":"65","Heo thịt":"5","Heo sinh sản":"60","layer_id":85,"fid":756,"label":"Nguyễn Hoàng Ân"}},{"type":"Feature","id":757,"geometry":{"type":"Point","coordinates":[106.2661,10.080678]},"properties":{"Tên cơ sở":"Nguyễn Văn Trường","Địa chỉ":"Thông Lưu, Xã Thanh Bình, huyện Vũng Liêm","Tổng đàn ":"100","Heo thịt":"10","Heo sinh sản":"90","layer_id":85,"fid":757,"label":"Nguyễn Văn Trường"}},{"type":"Feature","id":758,"geometry":{"type":"Point","coordinates":[106.26153,10.086955]},"properties":{"Tên cơ sở":"Lê Minh Tấn","Địa chỉ":"Thông Lưu, Xã Thanh Bình, huyện Vũng Liêm","Tổng đàn ":"115","Heo thịt":"15","Heo sinh sản":"100","layer_id":85,"fid":758,"label":"Lê Minh Tấn"}},{"type":"Feature","id":759,"geometry":{"type":"Point","coordinates":[106.265096,10.082463]},"properties":{"Tên cơ sở":"Võ Văn Việt","Địa chỉ":"Thông Lưu, Xã Thanh Bình, huyện Vũng Liêm","Tổng đàn ":"150","Heo thịt":null,"Heo sinh sản":"150","layer_id":85,"fid":759,"label":"Võ Văn Việt"}},{"type":"Feature","id":760,"geometry":{"type":"Point","coordinates":[106.263776,10.080198]},"properties":{"Tên cơ sở":"Võ Văn Chóng","Địa chỉ":"Thông Lưu, Xã Thanh Bình, huyện Vũng Liêm","Tổng đàn ":"53","Heo thịt":"3","Heo sinh sản":"50","layer_id":85,"fid":760,"label":"Võ Văn Chóng"}},{"type":"Feature","id":761,"geometry":{"type":"Point","coordinates":[106.264496,10.078986]},"properties":{"Tên cơ sở":"Ngô Văn Khen","Địa chỉ":"Thông Lưu, Xã Thanh Bình, huyện Vũng Liêm","Tổng đàn ":"410","Heo thịt":"60","Heo sinh sản":"350","layer_id":85,"fid":761,"label":"Ngô Văn Khen"}},{"type":"Feature","id":762,"geometry":{"type":"Point","coordinates":[106.264659,10.077781]},"properties":{"Tên cơ sở":"Ngô Văn Trung","Địa chỉ":"Thông Lưu, Xã Thanh Bình, huyện Vũng Liêm","Tổng đàn ":"200","Heo thịt":null,"Heo sinh sản":"200","layer_id":85,"fid":762,"label":"Ngô Văn Trung"}},{"type":"Feature","id":763,"geometry":{"type":"Point","coordinates":[106.135075,10.026626]},"properties":{"Tên cơ sở":"Trương Văn Buôl","Địa chỉ":"An Lạc 2, Xã Trung An, huyện Vũng Liêm","Tổng đàn ":"60","Heo thịt":"10","Heo sinh sản":"50","layer_id":85,"fid":763,"label":"Trương Văn Buôl"}},{"type":"Feature","id":764,"geometry":{"type":"Point","coordinates":[106.127654,10.114203]},"properties":{"Tên cơ sở":"Phạm Văn Đông","Địa chỉ":"Rạch Chim, Xã Trung Chánh, huyện Vũng Liêm","Tổng đàn ":"50","Heo thịt":"8","Heo sinh sản":"42","layer_id":85,"fid":764,"label":"Phạm Văn Đông"}},{"type":"Feature","id":765,"geometry":{"type":"Point","coordinates":[106.12913,10.120117]},"properties":{"Tên cơ sở":"Trương Văn Đành","Địa chỉ":"Rạch Chim, Xã Trung Chánh, huyện Vũng Liêm","Tổng đàn ":"120","Heo thịt":"14","Heo sinh sản":"106","layer_id":85,"fid":765,"label":"Trương Văn Đành"}},{"type":"Feature","id":766,"geometry":{"type":"Point","coordinates":[106.129351,10.120326]},"properties":{"Tên cơ sở":"Trần Thanh Nguyên","Địa chỉ":"Rạch Chim, Xã Trung Chánh, huyện Vũng Liêm","Tổng đàn ":"80","Heo thịt":"4","Heo sinh sản":"76","layer_id":85,"fid":766,"label":"Trần Thanh Nguyên"}},{"type":"Feature","id":767,"geometry":{"type":"Point","coordinates":[106.146515,10.093398]},"properties":{"Tên cơ sở":"Phạm Văn Tài","Địa chỉ":"Bình Phụng, Xã Trung Hiệp, huyện Vũng Liêm","Tổng đàn ":"400","Heo thịt":"100","Heo sinh sản":"300","layer_id":85,"fid":767,"label":"Phạm Văn Tài"}},{"type":"Feature","id":768,"geometry":{"type":"Point","coordinates":[106.139218,10.089608]},"properties":{"Tên cơ sở":"Nguyễn Văn Tuấn","Địa chỉ":"Mướp Sát, Xã Trung Hiệp, huyện Vũng Liêm","Tổng đàn ":"95","Heo thịt":"5","Heo sinh sản":"90","layer_id":85,"fid":768,"label":"Nguyễn Văn Tuấn"}},{"type":"Feature","id":769,"geometry":{"type":"Point","coordinates":[106.137326,10.102318]},"properties":{"Tên cơ sở":"Đồng Văn Thương","Địa chỉ":"Mướp Sát, Xã Trung Hiệp, huyện Vũng Liêm","Tổng đàn ":"60","Heo thịt":null,"Heo sinh sản":"60","layer_id":85,"fid":769,"label":"Đồng Văn Thương"}},{"type":"Feature","id":770,"geometry":{"type":"Point","coordinates":[106.137326,10.102318]},"properties":{"Tên cơ sở":"Nguyễn Thị Thuệ","Địa chỉ":"Mướp Sát, Xã Trung Hiệp, huyện Vũng Liêm","Tổng đàn ":"80","Heo thịt":null,"Heo sinh sản":"80","layer_id":85,"fid":770,"label":"Nguyễn Thị Thuệ"}},{"type":"Feature","id":771,"geometry":{"type":"Point","coordinates":[106.110131,10.106723]},"properties":{"Tên cơ sở":"Trương Văn Tú ","Địa chỉ":"Rạch Ngay, Xã Trung Chánh, huyện Vũng Liêm","Tổng đàn ":"56","Heo thịt":"6","Heo sinh sản":"50","layer_id":85,"fid":771,"label":"Trương Văn Tú "}},{"type":"Feature","id":772,"geometry":{"type":"Point","coordinates":[106.170223,10.104623]},"properties":{"Tên cơ sở":"Hồ Ngọc Khải","Địa chỉ":"Rạch Nưng, Xã Trung Hiệp, huyện Vũng Liêm","Tổng đàn ":"87","Heo thịt":"7","Heo sinh sản":"80","layer_id":85,"fid":772,"label":"Hồ Ngọc Khải"}},{"type":"Feature","id":773,"geometry":{"type":"Point","coordinates":[106.165467,10.099936]},"properties":{"Tên cơ sở":"Hà Thị Mận","Địa chỉ":"Rạch Nưng, Xã Trung Hiệp, huyện Vũng Liêm","Tổng đàn ":"94","Heo thịt":"14","Heo sinh sản":"80","layer_id":85,"fid":773,"label":"Hà Thị Mận"}},{"type":"Feature","id":774,"geometry":{"type":"Point","coordinates":[106.159564,10.106119]},"properties":{"Tên cơ sở":"Đỗ Song Nhiên","Địa chỉ":"Ruột Ngựa, Xã Trung Hiệp, huyện Vũng Liêm","Tổng đàn ":"54","Heo thịt":"7","Heo sinh sản":"47","layer_id":85,"fid":774,"label":"Đỗ Song Nhiên"}},{"type":"Feature","id":775,"geometry":{"type":"Point","coordinates":[106.137268,10.102736]},"properties":{"Tên cơ sở":"Nguyễn Văn Phúc","Địa chỉ":"Trung Hưng, Xã Trung Hiệp, huyện Vũng Liêm","Tổng đàn ":"90","Heo thịt":"8","Heo sinh sản":"82","layer_id":85,"fid":775,"label":"Nguyễn Văn Phúc"}},{"type":"Feature","id":776,"geometry":{"type":"Point","coordinates":[106.137717,10.066782]},"properties":{"Tên cơ sở":"Lê Văn Thuận","Địa chỉ":"An Thành Đông, Xã Trung Hiếu, huyện Vũng Liêm","Tổng đàn ":"60","Heo thịt":"5","Heo sinh sản":"55","layer_id":85,"fid":776,"label":"Lê Văn Thuận"}},{"type":"Feature","id":777,"geometry":{"type":"Point","coordinates":[106.140491,10.081872]},"properties":{"Tên cơ sở":"Nguyễn Thị Tuyết","Địa chỉ":"An Thành Đông, Xã Trung Hiếu, huyện Vũng Liêm","Tổng đàn ":"70","Heo thịt":"5","Heo sinh sản":"65","layer_id":85,"fid":777,"label":"Nguyễn Thị Tuyết"}},{"type":"Feature","id":778,"geometry":{"type":"Point","coordinates":[106.134209,10.059509]},"properties":{"Tên cơ sở":"Tạ Thị Thơm","Địa chỉ":"An Thành Tây, Xã Trung Hiếu, huyện Vũng Liêm","Tổng đàn ":"100","Heo thịt":"5","Heo sinh sản":"95","layer_id":85,"fid":778,"label":"Tạ Thị Thơm"}},{"type":"Feature","id":779,"geometry":{"type":"Point","coordinates":[106.139532,10.057201]},"properties":{"Tên cơ sở":"Nguyễn Ngọc Nhi","Địa chỉ":"An Thành Tây, Xã Trung Hiếu, huyện Vũng Liêm","Tổng đàn ":"70","Heo thịt":"6","Heo sinh sản":"64","layer_id":85,"fid":779,"label":"Nguyễn Ngọc Nhi"}},{"type":"Feature","id":780,"geometry":{"type":"Point","coordinates":[106.153326,10.070113]},"properties":{"Tên cơ sở":"Nguyễn Thị Loan","Địa chỉ":"Bình Thành, Xã Trung Hiếu, huyện Vũng Liêm","Tổng đàn ":"300","Heo thịt":"5","Heo sinh sản":"295","layer_id":85,"fid":780,"label":"Nguyễn Thị Loan"}},{"type":"Feature","id":791,"geometry":{"type":"Point","coordinates":[106.184521,10.112278]},"properties":{"Tên cơ sở":"Nguyễn Tấn Lộc","Địa chỉ":"Trường Thọ, Xã Trung Thành Tây, huyện Vũng Liêm","Tổng đàn ":"100","Heo thịt":"8","Heo sinh sản":"92","layer_id":85,"fid":791,"label":"Nguyễn Tấn Lộc"}}]}
