{"type":"FeatureCollection","name":"Cơ sở chăn nuôi gà","metadata":{"source":"https://hatang.vinhlong.gov.vn/","downloaded_at":"2026-07-20T01:11:01+00:00","layer_id":86,"layer_name":"Cơ sở chăn nuôi gà","catalog_endpoints":["/map/publicLayers2?inputs=thu_y"],"requested_bbox":[104.0,8.0,108.0,12.0],"tile_size":0.0,"tile_count":1,"tile_errors":[],"feature_count":219,"coordinate_order":"x,y (thường là longitude,latitude theo cấu hình EPSG:4326 của WebGIS)"},"features":[{"type":"Feature","id":582,"geometry":{"type":"Point","coordinates":[105.83327,10.11523]},"properties":{"Tên cơ sở":"Trần Văn Phú","Địa chỉ":"Mỹ Thạnh A, Xã Mỹ Thuận, Bình Tân","Tổng đàn":"10000","Gà thịt":null,"Gà đẻ":"10000","layer_id":86,"fid":582,"label":"Trần Văn Phú"}},{"type":"Feature","id":583,"geometry":{"type":"Point","coordinates":[105.845754,10.149801]},"properties":{"Tên cơ sở":"Nguyễn Văn Nê","Địa chỉ":"Hòa Thuận, Xã Nguyễn Văn Thảnh, Bình Tân","Tổng đàn":"14000","Gà thịt":"14000","Gà đẻ":null,"layer_id":86,"fid":583,"label":"Nguyễn Văn Nê"}},{"type":"Feature","id":584,"geometry":{"type":"Point","coordinates":[105.845754,10.149801]},"properties":{"Tên cơ sở":"Nguyễn Hoàng Hải","Địa chỉ":"Hòa Thuận, Xã Nguyễn Văn Thảnh, Bình Tân","Tổng đàn":"14000","Gà thịt":"14000","Gà đẻ":null,"layer_id":86,"fid":584,"label":"Nguyễn Hoàng Hải"}},{"type":"Feature","id":585,"geometry":{"type":"Point","coordinates":[105.731382,10.133788]},"properties":{"Tên cơ sở":"Phạm Chung Đỉnh","Địa chỉ":"Tân Lộc, Xã Tân Lược, Bình Tân","Tổng đàn":"10000","Gà thịt":"10000","Gà đẻ":null,"layer_id":86,"fid":585,"label":"Phạm Chung Đỉnh"}},{"type":"Feature","id":586,"geometry":{"type":"Point","coordinates":[106.002301,10.153805]},"properties":{"Tên cơ sở":"Trần Minh Luân","Địa chỉ":"Hậu Thành, Xã Long An, Long Hồ","Tổng đàn":"15000","Gà thịt":"15000","Gà đẻ":null,"layer_id":86,"fid":586,"label":"Trần Minh Luân"}},{"type":"Feature","id":587,"geometry":{"type":"Point","coordinates":[105.997926,10.252564]},"properties":{"Tên cơ sở":"Nguyễn Văn Tươi","Địa chỉ":"Thanh Mỹ 1, Xã Thanh Đức, Long Hồ","Tổng đàn":"15000","Gà thịt":"15000","Gà đẻ":null,"layer_id":86,"fid":587,"label":"Nguyễn Văn Tươi"}},{"type":"Feature","id":588,"geometry":{"type":"Point","coordinates":[106.006922,10.255358]},"properties":{"Tên cơ sở":"Trần Văn Bảy","Địa chỉ":"Thanh Mỹ 2, Xã Thanh Đức, Long Hồ","Tổng đàn":"30000","Gà thịt":"30000","Gà đẻ":null,"layer_id":86,"fid":588,"label":"Trần Văn Bảy"}},{"type":"Feature","id":589,"geometry":{"type":"Point","coordinates":[106.007573,10.250622]},"properties":{"Tên cơ sở":"Trần Minh Phong ","Địa chỉ":"Thanh Sơn, Xã Thanh Đức, Long Hồ","Tổng đàn":"30000","Gà thịt":"30000","Gà đẻ":null,"layer_id":86,"fid":589,"label":"Trần Minh Phong "}},{"type":"Feature","id":590,"geometry":{"type":"Point","coordinates":[106.117617,10.215871]},"properties":{"Tên cơ sở":"Nguyễn Văn Nhỏ ","Địa chỉ":"Định Thới A, Xã An Phước, Mang Thít","Tổng đàn":"96000","Gà thịt":"96000","Gà đẻ":null,"layer_id":86,"fid":590,"label":"Nguyễn Văn Nhỏ "}},{"type":"Feature","id":591,"geometry":{"type":"Point","coordinates":[106.111673,10.229507]},"properties":{"Tên cơ sở":"Phạm Thành Đức","Địa chỉ":"Định Thới A, Xã An Phước, Mang Thít","Tổng đàn":"12000","Gà thịt":"12000","Gà đẻ":null,"layer_id":86,"fid":591,"label":"Phạm Thành Đức"}},{"type":"Feature","id":592,"geometry":{"type":"Point","coordinates":[106.110653,10.229926]},"properties":{"Tên cơ sở":"Võ Thị Phiếm ","Địa chỉ":"Định Thới A, Xã An Phước, Mang Thít","Tổng đàn":"80000","Gà thịt":"80000","Gà đẻ":null,"layer_id":86,"fid":592,"label":"Võ Thị Phiếm "}},{"type":"Feature","id":593,"geometry":{"type":"Point","coordinates":[106.120461,10.222934]},"properties":{"Tên cơ sở":"Trần Văn Trong","Địa chỉ":"Định Thới A, Xã An Phước, Mang Thít","Tổng đàn":"28000","Gà thịt":"28000","Gà đẻ":null,"layer_id":86,"fid":593,"label":"Trần Văn Trong"}},{"type":"Feature","id":594,"geometry":{"type":"Point","coordinates":[106.108778,10.22504]},"properties":{"Tên cơ sở":"Đặng Quang Vinh","Địa chỉ":"Định Thới A, Xã An Phước, Mang Thít","Tổng đàn":"16000","Gà thịt":"16000","Gà đẻ":null,"layer_id":86,"fid":594,"label":"Đặng Quang Vinh"}},{"type":"Feature","id":595,"geometry":{"type":"Point","coordinates":[106.117895,10.223005]},"properties":{"Tên cơ sở":"Nguyễn Văn Huấn ","Địa chỉ":"Định Thới A, Xã An Phước, Mang Thít","Tổng đàn":"16000","Gà thịt":"16000","Gà đẻ":null,"layer_id":86,"fid":595,"label":"Nguyễn Văn Huấn "}},{"type":"Feature","id":596,"geometry":{"type":"Point","coordinates":[106.117731,10.222999]},"properties":{"Tên cơ sở":"Võ Văn Phước","Địa chỉ":"Định Thới A, Xã An Phước, Mang Thít","Tổng đàn":"13000","Gà thịt":"13000","Gà đẻ":null,"layer_id":86,"fid":596,"label":"Võ Văn Phước"}},{"type":"Feature","id":597,"geometry":{"type":"Point","coordinates":[106.120535,10.222854]},"properties":{"Tên cơ sở":"Võ Văn Gia","Địa chỉ":"Định Thới A, Xã An Phước, Mang Thít","Tổng đàn":"14000","Gà thịt":"14000","Gà đẻ":null,"layer_id":86,"fid":597,"label":"Võ Văn Gia"}},{"type":"Feature","id":598,"geometry":{"type":"Point","coordinates":[106.111748,10.22916]},"properties":{"Tên cơ sở":"Trương Ngọc Khởi ","Địa chỉ":"Định Thới A, Xã An Phước, Mang Thít","Tổng đàn":"41000","Gà thịt":"41000","Gà đẻ":null,"layer_id":86,"fid":598,"label":"Trương Ngọc Khởi "}},{"type":"Feature","id":599,"geometry":{"type":"Point","coordinates":[106.116293,10.226637]},"properties":{"Tên cơ sở":"Nguyễn Văn Phúc ","Địa chỉ":"Định Thới A, Xã An Phước, Mang Thít","Tổng đàn":"28000","Gà thịt":"28000","Gà đẻ":null,"layer_id":86,"fid":599,"label":"Nguyễn Văn Phúc "}},{"type":"Feature","id":600,"geometry":{"type":"Point","coordinates":[106.119989,10.220763]},"properties":{"Tên cơ sở":"Võ Thị Kim Ngân","Địa chỉ":"Định Thới A, Xã An Phước, Mang Thít","Tổng đàn":"28000","Gà thịt":"28000","Gà đẻ":null,"layer_id":86,"fid":600,"label":"Võ Thị Kim Ngân"}},{"type":"Feature","id":601,"geometry":{"type":"Point","coordinates":[106.120524,10.222875]},"properties":{"Tên cơ sở":"Võ Văn Mưu ","Địa chỉ":"Định Thới A, Xã An Phước, Mang Thít","Tổng đàn":"55000","Gà thịt":"55000","Gà đẻ":null,"layer_id":86,"fid":601,"label":"Võ Văn Mưu "}},{"type":"Feature","id":602,"geometry":{"type":"Point","coordinates":[106.125566,10.216724]},"properties":{"Tên cơ sở":"Trần Văn PhướcViên","Địa chỉ":"Định Thới A, Xã An Phước, Mang Thít","Tổng đàn":"37000","Gà thịt":"37000","Gà đẻ":null,"layer_id":86,"fid":602,"label":"Trần Văn PhướcViên"}},{"type":"Feature","id":603,"geometry":{"type":"Point","coordinates":[106.120582,10.21851]},"properties":{"Tên cơ sở":"Nguyễn Văn Dững","Địa chỉ":"Định Thới A, Xã An Phước, Mang Thít","Tổng đàn":"22000","Gà thịt":"22000","Gà đẻ":null,"layer_id":86,"fid":603,"label":"Nguyễn Văn Dững"}},{"type":"Feature","id":604,"geometry":{"type":"Point","coordinates":[106.123728,10.218512]},"properties":{"Tên cơ sở":"Phạm Công Quẩn","Địa chỉ":"Định Thới A, Xã An Phước, Mang Thít","Tổng đàn":"55000","Gà thịt":"55000","Gà đẻ":null,"layer_id":86,"fid":604,"label":"Phạm Công Quẩn"}},{"type":"Feature","id":605,"geometry":{"type":"Point","coordinates":[106.118351,10.221243]},"properties":{"Tên cơ sở":"Phạm công Xả","Địa chỉ":"Định Thới A, Xã An Phước, Mang Thít","Tổng đàn":"17000","Gà thịt":"17000","Gà đẻ":null,"layer_id":86,"fid":605,"label":"Phạm công Xả"}},{"type":"Feature","id":606,"geometry":{"type":"Point","coordinates":[106.113423,10.225719]},"properties":{"Tên cơ sở":"Trần Đức Hoa Cương    ","Địa chỉ":"Định Thới A , Xã An Phước, Mang Thít","Tổng đàn":"96000","Gà thịt":"96000","Gà đẻ":null,"layer_id":86,"fid":606,"label":"Trần Đức Hoa Cương    "}},{"type":"Feature","id":607,"geometry":{"type":"Point","coordinates":[106.151194,10.187778]},"properties":{"Tên cơ sở":"Trương Thu Hương","Địa chỉ":"Hòa Phú, Xã An Phước, Mang Thít","Tổng đàn":"18000","Gà thịt":"18000","Gà đẻ":null,"layer_id":86,"fid":607,"label":"Trương Thu Hương"}},{"type":"Feature","id":608,"geometry":{"type":"Point","coordinates":[106.144186,10.194095]},"properties":{"Tên cơ sở":"Cao Thị Tuyết ","Địa chỉ":"Hòa Phú, Xã An Phước, Mang Thít","Tổng đàn":"25000","Gà thịt":"25000","Gà đẻ":null,"layer_id":86,"fid":608,"label":"Cao Thị Tuyết "}},{"type":"Feature","id":609,"geometry":{"type":"Point","coordinates":[106.141844,10.196625]},"properties":{"Tên cơ sở":"Nguyễn Minh Tánh","Địa chỉ":"Hòa Phú, Xã An Phước, Mang Thít","Tổng đàn":"11000","Gà thịt":"11000","Gà đẻ":null,"layer_id":86,"fid":609,"label":"Nguyễn Minh Tánh"}},{"type":"Feature","id":610,"geometry":{"type":"Point","coordinates":[106.145884,10.193986]},"properties":{"Tên cơ sở":"Phạm Mộng Thi ","Địa chỉ":"Hòa Phú , Xã An Phước, Mang Thít","Tổng đàn":"36000","Gà thịt":"36000","Gà đẻ":null,"layer_id":86,"fid":610,"label":"Phạm Mộng Thi "}},{"type":"Feature","id":611,"geometry":{"type":"Point","coordinates":[106.140697,10.191974]},"properties":{"Tên cơ sở":"Phạm Lê Tâm","Địa chỉ":"Hòa Phú , Xã An Phước, Mang Thít","Tổng đàn":"80000","Gà thịt":"80000","Gà đẻ":null,"layer_id":86,"fid":611,"label":"Phạm Lê Tâm"}},{"type":"Feature","id":612,"geometry":{"type":"Point","coordinates":[106.117436,10.200078]},"properties":{"Tên cơ sở":"Phạm Công Quẩn","Địa chỉ":"Phú An, Xã An Phước, Mang Thít","Tổng đàn":"66000","Gà thịt":"66000","Gà đẻ":null,"layer_id":86,"fid":612,"label":"Phạm Công Quẩn"}},{"type":"Feature","id":613,"geometry":{"type":"Point","coordinates":[106.107773,10.21072]},"properties":{"Tên cơ sở":"Trần Văn Tám","Địa chỉ":"Phú Bình, Xã An Phước, Mang Thít","Tổng đàn":"18000","Gà thịt":"18000","Gà đẻ":null,"layer_id":86,"fid":613,"label":"Trần Văn Tám"}},{"type":"Feature","id":614,"geometry":{"type":"Point","coordinates":[106.106879,10.211394]},"properties":{"Tên cơ sở":"Trần Hữu Nghĩa","Địa chỉ":"Phú Bình, Xã An Phước, Mang Thít","Tổng đàn":"86000","Gà thịt":"86000","Gà đẻ":null,"layer_id":86,"fid":614,"label":"Trần Hữu Nghĩa"}},{"type":"Feature","id":615,"geometry":{"type":"Point","coordinates":[106.139842,10.204225]},"properties":{"Tên cơ sở":"Nguyễn Thành Ký","Địa chỉ":"Thanh Thủy, Xã An Phước, Mang Thít","Tổng đàn":"10000","Gà thịt":"10000","Gà đẻ":null,"layer_id":86,"fid":615,"label":"Nguyễn Thành Ký"}},{"type":"Feature","id":616,"geometry":{"type":"Point","coordinates":[106.123232,10.21944]},"properties":{"Tên cơ sở":"Hồ Văn Tiếp ","Địa chỉ":"Thủy Thuận, Xã An Phước, Mang Thít","Tổng đàn":"45000","Gà thịt":"45000","Gà đẻ":null,"layer_id":86,"fid":616,"label":"Hồ Văn Tiếp "}},{"type":"Feature","id":617,"geometry":{"type":"Point","coordinates":[106.127939,10.215871]},"properties":{"Tên cơ sở":"Lê Thị Kim Chi","Địa chỉ":"Thủy Thuận, Xã An Phước, Mang Thít","Tổng đàn":"72000","Gà thịt":"72000","Gà đẻ":null,"layer_id":86,"fid":617,"label":"Lê Thị Kim Chi"}},{"type":"Feature","id":618,"geometry":{"type":"Point","coordinates":[106.129542,10.213303]},"properties":{"Tên cơ sở":"Trần Thị Kim Lan ","Địa chỉ":"Thủy Thuận, Xã An Phước, Mang Thít","Tổng đàn":"60000","Gà thịt":"60000","Gà đẻ":null,"layer_id":86,"fid":618,"label":"Trần Thị Kim Lan "}},{"type":"Feature","id":619,"geometry":{"type":"Point","coordinates":[106.124541,10.220199]},"properties":{"Tên cơ sở":"Trần Văn Mừng","Địa chỉ":"Thủy Thuận, Xã An Phước, Mang Thít","Tổng đàn":"114000","Gà thịt":"114000","Gà đẻ":null,"layer_id":86,"fid":619,"label":"Trần Văn Mừng"}},{"type":"Feature","id":620,"geometry":{"type":"Point","coordinates":[106.1297,10.213339]},"properties":{"Tên cơ sở":"Nguyễn Văn Chủng","Địa chỉ":"Thủy Thuận, Xã An Phước, Mang Thít","Tổng đàn":"25000","Gà thịt":"25000","Gà đẻ":null,"layer_id":86,"fid":620,"label":"Nguyễn Văn Chủng"}},{"type":"Feature","id":621,"geometry":{"type":"Point","coordinates":[106.132065,10.208674]},"properties":{"Tên cơ sở":"Trần Văn Sáu","Địa chỉ":"Thủy Thuận, Xã An Phước, Mang Thít","Tổng đàn":"34000","Gà thịt":"34000","Gà đẻ":null,"layer_id":86,"fid":621,"label":"Trần Văn Sáu"}},{"type":"Feature","id":622,"geometry":{"type":"Point","coordinates":[106.120245,10.216859]},"properties":{"Tên cơ sở":"Lê Thành Thái","Địa chỉ":"Thủy Thuận, Xã An Phước, Mang Thít","Tổng đàn":"56000","Gà thịt":"56000","Gà đẻ":null,"layer_id":86,"fid":622,"label":"Lê Thành Thái"}},{"type":"Feature","id":623,"geometry":{"type":"Point","coordinates":[106.120246,10.216803]},"properties":{"Tên cơ sở":"Hồ Thanh Liêm","Địa chỉ":"Thủy Thuận, Xã An Phước, Mang Thít","Tổng đàn":"35000","Gà thịt":"35000","Gà đẻ":null,"layer_id":86,"fid":623,"label":"Hồ Thanh Liêm"}},{"type":"Feature","id":624,"geometry":{"type":"Point","coordinates":[106.072309,10.170322]},"properties":{"Tên cơ sở":"Nguyễn Văn Bộ","Địa chỉ":"Phước Thới C, Xã Bình Phước, Mang Thít","Tổng đàn":"27000","Gà thịt":"27000","Gà đẻ":null,"layer_id":86,"fid":624,"label":"Nguyễn Văn Bộ"}},{"type":"Feature","id":625,"geometry":{"type":"Point","coordinates":[106.066038,10.165151]},"properties":{"Tên cơ sở":"Lê Thanh Diện","Địa chỉ":"Phước Thới C, Xã Bình Phước, Mang Thít","Tổng đàn":"48000","Gà thịt":"48000","Gà đẻ":null,"layer_id":86,"fid":625,"label":"Lê Thanh Diện"}},{"type":"Feature","id":626,"geometry":{"type":"Point","coordinates":[106.145492,10.173629]},"properties":{"Tên cơ sở":"Trần Văn Quốc Khánh","Địa chỉ":"Tân Mỹ , Xã Chánh An, Mang Thít","Tổng đàn":"22000","Gà thịt":"22000","Gà đẻ":null,"layer_id":86,"fid":626,"label":"Trần Văn Quốc Khánh"}},{"type":"Feature","id":627,"geometry":{"type":"Point","coordinates":[106.015037,10.196913]},"properties":{"Tên cơ sở":"Nguyễn Phúc Giang ","Địa chỉ":"Bình Tịnh A  , Xã Hòa Tịnh, Mang Thít","Tổng đàn":"14000","Gà thịt":"14000","Gà đẻ":null,"layer_id":86,"fid":627,"label":"Nguyễn Phúc Giang "}},{"type":"Feature","id":628,"geometry":{"type":"Point","coordinates":[106.084328,10.235355]},"properties":{"Tên cơ sở":"Trần Thị Kim Lan ","Địa chỉ":"Cái Tranh, Xã Mỹ Phước, Mang Thít","Tổng đàn":"80000","Gà thịt":"80000","Gà đẻ":null,"layer_id":86,"fid":628,"label":"Trần Thị Kim Lan "}},{"type":"Feature","id":629,"geometry":{"type":"Point","coordinates":[106.086524,10.238649]},"properties":{"Tên cơ sở":"Tô Minh Tiến","Địa chỉ":"Cái Tranh, Xã Mỹ Phước, Mang Thít","Tổng đàn":"26000","Gà thịt":null,"Gà đẻ":"26000","layer_id":86,"fid":629,"label":"Tô Minh Tiến"}},{"type":"Feature","id":630,"geometry":{"type":"Point","coordinates":[106.07031,10.228815]},"properties":{"Tên cơ sở":"Bùi Thanh Tâm","Địa chỉ":"Mỹ Điền , Xã Mỹ Phước, Mang Thít","Tổng đàn":"35000","Gà thịt":"35000","Gà đẻ":null,"layer_id":86,"fid":630,"label":"Bùi Thanh Tâm"}},{"type":"Feature","id":631,"geometry":{"type":"Point","coordinates":[106.091189,10.234622]},"properties":{"Tên cơ sở":"Cù Thanh Trai","Địa chỉ":"Mỹ Thanh, Xã Mỹ Phước, Mang Thít","Tổng đàn":"18000","Gà thịt":"18000","Gà đẻ":null,"layer_id":86,"fid":631,"label":"Cù Thanh Trai"}},{"type":"Feature","id":632,"geometry":{"type":"Point","coordinates":[106.073176,10.221231]},"properties":{"Tên cơ sở":"Đặng Quang Vinh","Địa chỉ":"Phú Hòa, Xã Nhơn Phú, Mang Thít","Tổng đàn":"15000","Gà thịt":"15000","Gà đẻ":null,"layer_id":86,"fid":632,"label":"Đặng Quang Vinh"}},{"type":"Feature","id":633,"geometry":{"type":"Point","coordinates":[106.090355,10.204199]},"properties":{"Tên cơ sở":"Lê Văn Tâm","Địa chỉ":"Phú Thạnh B, Xã Nhơn Phú, Mang Thít","Tổng đàn":"19000","Gà thịt":"19000","Gà đẻ":null,"layer_id":86,"fid":633,"label":"Lê Văn Tâm"}},{"type":"Feature","id":634,"geometry":{"type":"Point","coordinates":[106.089698,10.130671]},"properties":{"Tên cơ sở":"Nguyễn Văn  Viết","Địa chỉ":"An Hội , Xã Tân An Hội, Mang Thít","Tổng đàn":"35000","Gà thịt":"35000","Gà đẻ":null,"layer_id":86,"fid":634,"label":"Nguyễn Văn  Viết"}},{"type":"Feature","id":635,"geometry":{"type":"Point","coordinates":[106.081943,10.165946]},"properties":{"Tên cơ sở":"Phạm Văn Tỏa ","Địa chỉ":"An Hội 2, Xã Tân An Hội, Mang Thít","Tổng đàn":"27000","Gà thịt":"27000","Gà đẻ":null,"layer_id":86,"fid":635,"label":"Phạm Văn Tỏa "}},{"type":"Feature","id":636,"geometry":{"type":"Point","coordinates":[106.099975,10.129933]},"properties":{"Tên cơ sở":"Đặng Quang Hiển","Địa chỉ":"Tân An, Xã Tân An Hội, Mang Thít","Tổng đàn":"40000","Gà thịt":"40000","Gà đẻ":null,"layer_id":86,"fid":636,"label":"Đặng Quang Hiển"}},{"type":"Feature","id":637,"geometry":{"type":"Point","coordinates":[106.118351,10.221243]},"properties":{"Tên cơ sở":"Nguyễn Văn Tuân","Địa chỉ":"Tân Phong 2, Xã An Phước, Mang Thít","Tổng đàn":"19000","Gà thịt":"19000","Gà đẻ":null,"layer_id":86,"fid":637,"label":"Nguyễn Văn Tuân"}},{"type":"Feature","id":638,"geometry":{"type":"Point","coordinates":[106.062087,10.136026]},"properties":{"Tên cơ sở":"Trần Anh Tuyển","Địa chỉ":"Tân Phong 2, Xã Tân Long Hội, Mang Thít","Tổng đàn":"10000","Gà thịt":"10000","Gà đẻ":null,"layer_id":86,"fid":638,"label":"Trần Anh Tuyển"}},{"type":"Feature","id":639,"geometry":{"type":"Point","coordinates":[106.079483,10.163698]},"properties":{"Tên cơ sở":"Đặng Thái Bình","Địa chỉ":"Tân Qui, Xã Tân An Hội, Mang Thít","Tổng đàn":"14000","Gà thịt":"14000","Gà đẻ":null,"layer_id":86,"fid":639,"label":"Đặng Thái Bình"}},{"type":"Feature","id":640,"geometry":{"type":"Point","coordinates":[106.091464,10.169796]},"properties":{"Tên cơ sở":"Nguyễn Thị Mai Hương","Địa chỉ":"Tân Qui 1, Xã Tân An Hội, Mang Thít","Tổng đàn":"12000","Gà thịt":"12000","Gà đẻ":null,"layer_id":86,"fid":640,"label":"Nguyễn Thị Mai Hương"}},{"type":"Feature","id":641,"geometry":{"type":"Point","coordinates":[106.076693,10.166312]},"properties":{"Tên cơ sở":"Nguyễn Văn Giữ ","Địa chỉ":"Tân Qui 1, Xã Bình Phước, Mang Thít","Tổng đàn":"19000","Gà thịt":"19000","Gà đẻ":null,"layer_id":86,"fid":641,"label":"Nguyễn Văn Giữ "}},{"type":"Feature","id":642,"geometry":{"type":"Point","coordinates":[106.077627,10.165395]},"properties":{"Tên cơ sở":"Nguyễn Thị Xoan","Địa chỉ":"Tân Qui 1, Xã Tân An Hội, Mang Thít","Tổng đàn":"19000","Gà thịt":"19000","Gà đẻ":null,"layer_id":86,"fid":642,"label":"Nguyễn Thị Xoan"}},{"type":"Feature","id":643,"geometry":{"type":"Point","coordinates":[106.07947,10.164172]},"properties":{"Tên cơ sở":"Hồ Thanh Liêm","Địa chỉ":"Tân Qui 1, Xã Tân An Hội, Mang Thít","Tổng đàn":"50000","Gà thịt":"50000","Gà đẻ":null,"layer_id":86,"fid":643,"label":"Hồ Thanh Liêm"}},{"type":"Feature","id":644,"geometry":{"type":"Point","coordinates":[106.079164,10.159983]},"properties":{"Tên cơ sở":"Trần Văn Nên","Địa chỉ":"Tân Qui 1, Xã Tân An Hội, Mang Thít","Tổng đàn":"11000","Gà thịt":"11000","Gà đẻ":null,"layer_id":86,"fid":644,"label":"Trần Văn Nên"}},{"type":"Feature","id":645,"geometry":{"type":"Point","coordinates":[106.082481,10.150341]},"properties":{"Tên cơ sở":"Nguyễn Văn Toàn","Địa chỉ":"Tân Thắng , Xã Tân An Hội, Mang Thít","Tổng đàn":"12000","Gà thịt":"12000","Gà đẻ":null,"layer_id":86,"fid":645,"label":"Nguyễn Văn Toàn"}},{"type":"Feature","id":646,"geometry":{"type":"Point","coordinates":[106.096413,10.150388]},"properties":{"Tên cơ sở":"Nguyễn Văn Phước","Địa chỉ":"Tân Thuyền , Xã Tân An Hội, Mang Thít","Tổng đàn":"11000","Gà thịt":"11000","Gà đẻ":null,"layer_id":86,"fid":646,"label":"Nguyễn Văn Phước"}},{"type":"Feature","id":647,"geometry":{"type":"Point","coordinates":[106.078418,10.13935]},"properties":{"Tên cơ sở":"Nguyễn Văn Thành","Địa chỉ":"Tân Qui , Xã Tân Long Hội, Mang Thít","Tổng đàn":"20000","Gà thịt":"20000","Gà đẻ":null,"layer_id":86,"fid":647,"label":"Nguyễn Văn Thành"}},{"type":"Feature","id":648,"geometry":{"type":"Point","coordinates":[106.0827,10.158273]},"properties":{"Tên cơ sở":"Võ Hồng Trinh","Địa chỉ":"Tân Qui , Xã Tân An Hội, Mang Thít","Tổng đàn":"19000","Gà thịt":"19000","Gà đẻ":null,"layer_id":86,"fid":648,"label":"Võ Hồng Trinh"}},{"type":"Feature","id":649,"geometry":{"type":"Point","coordinates":[106.082265,10.167812]},"properties":{"Tên cơ sở":"Nguyễn Văn Toàn","Địa chỉ":"Khóm 3, Xã Chánh Hội, Mang Thít","Tổng đàn":"10000","Gà thịt":"10000","Gà đẻ":null,"layer_id":86,"fid":649,"label":"Nguyễn Văn Toàn"}},{"type":"Feature","id":650,"geometry":{"type":"Point","coordinates":[106.077547,10.171469]},"properties":{"Tên cơ sở":"Huỳnh Văn Hồng Thạnh","Địa chỉ":"Khóm 3, Xã Chánh Hội, Mang Thít","Tổng đàn":"12000","Gà thịt":"12000","Gà đẻ":null,"layer_id":86,"fid":650,"label":"Huỳnh Văn Hồng Thạnh"}},{"type":"Feature","id":651,"geometry":{"type":"Point","coordinates":[106.077552,10.171281]},"properties":{"Tên cơ sở":"Phạm Hải Đăng","Địa chỉ":"Khóm 3, Xã Chánh Hội, Mang Thít","Tổng đàn":"24000","Gà thịt":"24000","Gà đẻ":null,"layer_id":86,"fid":651,"label":"Phạm Hải Đăng"}},{"type":"Feature","id":652,"geometry":{"type":"Point","coordinates":[105.927111,9.982319]},"properties":{"Tên cơ sở":"Nguyễn Thanh Phong","Địa chỉ":"Mỹ An, Xã Bình Ninh, Tam Bình","Tổng đàn":"15000","Gà thịt":"15000","Gà đẻ":null,"layer_id":86,"fid":652,"label":"Nguyễn Thanh Phong"}},{"type":"Feature","id":653,"geometry":{"type":"Point","coordinates":[105.928597,9.981881]},"properties":{"Tên cơ sở":"Phạm Quốc Thanh","Địa chỉ":"Mỹ An, Xã Bình Ninh, Tam Bình","Tổng đàn":"2000","Gà thịt":null,"Gà đẻ":"2000","layer_id":86,"fid":653,"label":"Phạm Quốc Thanh"}},{"type":"Feature","id":654,"geometry":{"type":"Point","coordinates":[105.952934,9.999446]},"properties":{"Tên cơ sở":"Nguyễn Hữu Tài","Địa chỉ":"Đại Thọ, Xã Loan Mỹ, Tam Bình","Tổng đàn":"2000","Gà thịt":null,"Gà đẻ":"2000","layer_id":86,"fid":654,"label":"Nguyễn Hữu Tài"}},{"type":"Feature","id":655,"geometry":{"type":"Point","coordinates":[105.940963,10.094056]},"properties":{"Tên cơ sở":"Nguyễn Hoàng Anh","Địa chỉ":"Ấp 6 A, Xã Mỹ Lộc, Tam Bình","Tổng đàn":"10000","Gà thịt":"10000","Gà đẻ":null,"layer_id":86,"fid":655,"label":"Nguyễn Hoàng Anh"}},{"type":"Feature","id":656,"geometry":{"type":"Point","coordinates":[105.90078,10.148964]},"properties":{"Tên cơ sở":"Phạm Hải Đăng","Địa chỉ":"Phú Bình, Xã Phú Thịnh, Tam Bình","Tổng đàn":"42000","Gà thịt":"42000","Gà đẻ":null,"layer_id":86,"fid":656,"label":"Phạm Hải Đăng"}},{"type":"Feature","id":657,"geometry":{"type":"Point","coordinates":[105.890487,10.089216]},"properties":{"Tên cơ sở":"Trương Hữu Nghi","Địa chỉ":"Phú Thọ, Xã Tân Phú, Tam Bình","Tổng đàn":"56000","Gà thịt":"56000","Gà đẻ":null,"layer_id":86,"fid":657,"label":"Trương Hữu Nghi"}},{"type":"Feature","id":658,"geometry":{"type":"Point","coordinates":[105.842507,10.072321]},"properties":{"Tên cơ sở":"Võ Văn Bảy","Địa chỉ":"Ấp Đông Bình B, Xã Đông Bình, Thị xã Bình Minh","Tổng đàn":"7000","Gà thịt":"7000","Gà đẻ":null,"layer_id":86,"fid":658,"label":"Võ Văn Bảy"}},{"type":"Feature","id":659,"geometry":{"type":"Point","coordinates":[105.852075,10.066654]},"properties":{"Tên cơ sở":"Trần Thị Liễu","Địa chỉ":"Ấp Đông Bình B, Xã Đông Bình, Thị xã Bình Minh","Tổng đàn":"2500","Gà thịt":null,"Gà đẻ":"2500","layer_id":86,"fid":659,"label":"Trần Thị Liễu"}},{"type":"Feature","id":660,"geometry":{"type":"Point","coordinates":[105.84463,10.095711]},"properties":{"Tên cơ sở":"Phan Thế Tường","Địa chỉ":"Ấp Thuận Phú B, Xã Thuận An, Thị xã Bình Minh","Tổng đàn":"2000","Gà thịt":"2000","Gà đẻ":null,"layer_id":86,"fid":660,"label":"Phan Thế Tường"}},{"type":"Feature","id":661,"geometry":{"type":"Point","coordinates":[105.847719,10.102685]},"properties":{"Tên cơ sở":"Phan Văn Thắng","Địa chỉ":"Ấp Thuận Phú B, Xã Thuận An, Thị xã Bình Minh","Tổng đàn":"3000","Gà thịt":"3000","Gà đẻ":null,"layer_id":86,"fid":661,"label":"Phan Văn Thắng"}},{"type":"Feature","id":662,"geometry":{"type":"Point","coordinates":[105.912447,10.267095]},"properties":{"Tên cơ sở":"Lê Thành Bi","Địa chỉ":"22 Tân Quới, Phường Tân Hòa, TPVL","Tổng đàn":"2000","Gà thịt":"2000","Gà đẻ":null,"layer_id":86,"fid":662,"label":"Lê Thành Bi"}},{"type":"Feature","id":663,"geometry":{"type":"Point","coordinates":[106.079296,10.026861]},"properties":{"Tên cơ sở":"Phùng Văn Cảnh","Địa chỉ":"Kinh Mới, Xã Hòa Bình, Trà Ôn","Tổng đàn":"3000","Gà thịt":"3000","Gà đẻ":null,"layer_id":86,"fid":663,"label":"Phùng Văn Cảnh"}},{"type":"Feature","id":664,"geometry":{"type":"Point","coordinates":[106.033921,9.998226]},"properties":{"Tên cơ sở":"Nguyễn Ngọc Biển","Địa chỉ":"Trà Sơn, Xã Hựu Thành, Trà Ôn","Tổng đàn":"19000","Gà thịt":"19000","Gà đẻ":null,"layer_id":86,"fid":664,"label":"Nguyễn Ngọc Biển"}},{"type":"Feature","id":665,"geometry":{"type":"Point","coordinates":[105.973216,9.962924]},"properties":{"Tên cơ sở":"Nguyễn Thị Kim Châu","Địa chỉ":"Cây Điệp, Xã Thiện Mỹ, Trà Ôn","Tổng đàn":"22000","Gà thịt":"22000","Gà đẻ":null,"layer_id":86,"fid":665,"label":"Nguyễn Thị Kim Châu"}},{"type":"Feature","id":666,"geometry":{"type":"Point","coordinates":[105.974578,9.961488]},"properties":{"Tên cơ sở":"Nguyễn Văn Lệ ","Địa chỉ":"Cây Điệp, Xã Thiện Mỹ, Trà Ôn","Tổng đàn":"60000","Gà thịt":"60000","Gà đẻ":null,"layer_id":86,"fid":666,"label":"Nguyễn Văn Lệ "}},{"type":"Feature","id":667,"geometry":{"type":"Point","coordinates":[105.945642,9.965685]},"properties":{"Tên cơ sở":"Nguyễn Văn Khoa","Địa chỉ":"Mỹ Hòa, Xã Thiện Mỹ, Trà Ôn","Tổng đàn":"60000","Gà thịt":"60000","Gà đẻ":null,"layer_id":86,"fid":667,"label":"Nguyễn Văn Khoa"}},{"type":"Feature","id":668,"geometry":{"type":"Point","coordinates":[105.987412,9.926935]},"properties":{"Tên cơ sở":"Nguyễn Thị Út Em","Địa chỉ":"Cây Gòn, Xã Tích Thiện, Trà Ôn","Tổng đàn":"19000","Gà thịt":"19000","Gà đẻ":null,"layer_id":86,"fid":668,"label":"Nguyễn Thị Út Em"}},{"type":"Feature","id":669,"geometry":{"type":"Point","coordinates":[105.994613,9.936978]},"properties":{"Tên cơ sở":"Bùi Thị Ngọc ","Địa chỉ":"Cây Gòn, Xã Tích Thiện, Trà Ôn","Tổng đàn":"10000","Gà thịt":"10000","Gà đẻ":null,"layer_id":86,"fid":669,"label":"Bùi Thị Ngọc "}},{"type":"Feature","id":670,"geometry":{"type":"Point","coordinates":[105.989876,9.927481]},"properties":{"Tên cơ sở":"Nguyễn Thị Nguyệt","Địa chỉ":"Cây Gòn, Xã Tích Thiện, Trà Ôn","Tổng đàn":"7000","Gà thịt":"7000","Gà đẻ":null,"layer_id":86,"fid":670,"label":"Nguyễn Thị Nguyệt"}},{"type":"Feature","id":671,"geometry":{"type":"Point","coordinates":[105.987006,9.92589]},"properties":{"Tên cơ sở":"Phan Thế Bảo","Địa chỉ":"Cây Gòn, Xã Tích Thiện, Trà Ôn","Tổng đàn":"19000","Gà thịt":"19000","Gà đẻ":null,"layer_id":86,"fid":671,"label":"Phan Thế Bảo"}},{"type":"Feature","id":672,"geometry":{"type":"Point","coordinates":[105.998069,9.932136]},"properties":{"Tên cơ sở":"Hồ Tấn Toàn","Địa chỉ":"Cây Gòn, Xã Tích Thiện, Trà Ôn","Tổng đàn":"19000","Gà thịt":"19000","Gà đẻ":null,"layer_id":86,"fid":672,"label":"Hồ Tấn Toàn"}},{"type":"Feature","id":673,"geometry":{"type":"Point","coordinates":[105.989068,9.92776]},"properties":{"Tên cơ sở":"Nguyễn Trường Giang","Địa chỉ":"Cây Gòn, Xã Tích Thiện, Trà Ôn","Tổng đàn":"19000","Gà thịt":"19000","Gà đẻ":null,"layer_id":86,"fid":673,"label":"Nguyễn Trường Giang"}},{"type":"Feature","id":674,"geometry":{"type":"Point","coordinates":[105.973758,9.934249]},"properties":{"Tên cơ sở":"Huỳnh Thị Hồng Tươi ","Địa chỉ":"Mương Điều, Xã Tích Thiện, Trà Ôn","Tổng đàn":"18000","Gà thịt":"18000","Gà đẻ":null,"layer_id":86,"fid":674,"label":"Huỳnh Thị Hồng Tươi "}},{"type":"Feature","id":675,"geometry":{"type":"Point","coordinates":[105.983,9.921]},"properties":{"Tên cơ sở":"Phạm Trường Giang","Địa chỉ":"Tích Lộc, Xã Tích Thiện, Trà Ôn","Tổng đàn":"19000","Gà thịt":"19000","Gà đẻ":null,"layer_id":86,"fid":675,"label":"Phạm Trường Giang"}},{"type":"Feature","id":676,"geometry":{"type":"Point","coordinates":[105.983566,9.922448]},"properties":{"Tên cơ sở":"Phạm Văn Điền","Địa chỉ":"Tích Lộc, Xã Tích Thiện, Trà Ôn","Tổng đàn":"18000","Gà thịt":"18000","Gà đẻ":null,"layer_id":86,"fid":676,"label":"Phạm Văn Điền"}},{"type":"Feature","id":677,"geometry":{"type":"Point","coordinates":[105.983566,9.922448]},"properties":{"Tên cơ sở":"Phạm Văn Quang","Địa chỉ":"Tích Lộc, Xã Tích Thiện, Trà Ôn","Tổng đàn":"21000","Gà thịt":"21000","Gà đẻ":null,"layer_id":86,"fid":677,"label":"Phạm Văn Quang"}},{"type":"Feature","id":678,"geometry":{"type":"Point","coordinates":[105.989597,9.927229]},"properties":{"Tên cơ sở":"Hồ Văn Út","Địa chỉ":"Tích Lộc, Xã Tích Thiện, Trà Ôn","Tổng đàn":"10000","Gà thịt":"10000","Gà đẻ":null,"layer_id":86,"fid":678,"label":"Hồ Văn Út"}},{"type":"Feature","id":679,"geometry":{"type":"Point","coordinates":[105.987414,9.92694]},"properties":{"Tên cơ sở":"Phạm Thành Nguyện","Địa chỉ":"Tích Lộc, Xã Tích Thiện, Trà Ôn","Tổng đàn":"19000","Gà thịt":"19000","Gà đẻ":null,"layer_id":86,"fid":679,"label":"Phạm Thành Nguyện"}},{"type":"Feature","id":680,"geometry":{"type":"Point","coordinates":[105.982327,9.90801]},"properties":{"Tên cơ sở":"Nguyễn Văn E ","Địa chỉ":"Tích Lộc, Xã Tích Thiện, Trà Ôn","Tổng đàn":"10000","Gà thịt":"10000","Gà đẻ":null,"layer_id":86,"fid":680,"label":"Nguyễn Văn E "}},{"type":"Feature","id":681,"geometry":{"type":"Point","coordinates":[105.981555,9.915173]},"properties":{"Tên cơ sở":"Nguyễn Thị Ánh  ","Địa chỉ":"Tích Lộc, Xã Tích Thiện, Trà Ôn","Tổng đàn":"19500","Gà thịt":"19500","Gà đẻ":null,"layer_id":86,"fid":681,"label":"Nguyễn Thị Ánh  "}},{"type":"Feature","id":682,"geometry":{"type":"Point","coordinates":[105.998853,9.910286]},"properties":{"Tên cơ sở":"Hứa Văn Phúc","Địa chỉ":"Tích Phú, Xã Tích Thiện, Trà Ôn","Tổng đàn":"12500","Gà thịt":"12500","Gà đẻ":null,"layer_id":86,"fid":682,"label":"Hứa Văn Phúc"}},{"type":"Feature","id":683,"geometry":{"type":"Point","coordinates":[105.971679,9.930252]},"properties":{"Tên cơ sở":"Nguyễn Văn Niếu ","Địa chỉ":"Tích Phước, Xã Tích Thiện, Trà Ôn","Tổng đàn":"10000","Gà thịt":"10000","Gà đẻ":null,"layer_id":86,"fid":683,"label":"Nguyễn Văn Niếu "}},{"type":"Feature","id":684,"geometry":{"type":"Point","coordinates":[105.967355,9.92509]},"properties":{"Tên cơ sở":"Trần Minh Dư","Địa chỉ":"Tích Phước, Xã Tích Thiện, Trà Ôn","Tổng đàn":"12500","Gà thịt":"12500","Gà đẻ":null,"layer_id":86,"fid":684,"label":"Trần Minh Dư"}},{"type":"Feature","id":685,"geometry":{"type":"Point","coordinates":[105.97551,9.934262]},"properties":{"Tên cơ sở":"Huỳnh Tấn Dũng","Địa chỉ":"Tích Phước, Xã Tích Thiện, Trà Ôn","Tổng đàn":"16000","Gà thịt":"16000","Gà đẻ":null,"layer_id":86,"fid":685,"label":"Huỳnh Tấn Dũng"}},{"type":"Feature","id":686,"geometry":{"type":"Point","coordinates":[105.962568,9.92855]},"properties":{"Tên cơ sở":"Nguyễn Minh Nhựt","Địa chỉ":"Tích Phước, Xã Tích Thiện, Trà Ôn","Tổng đàn":"11000","Gà thịt":"11000","Gà đẻ":null,"layer_id":86,"fid":686,"label":"Nguyễn Minh Nhựt"}},{"type":"Feature","id":687,"geometry":{"type":"Point","coordinates":[105.975312,9.918518]},"properties":{"Tên cơ sở":"Nguyễn Văn Xum ","Địa chỉ":"Tích Quới, Xã Tích Thiện, Trà Ôn","Tổng đàn":"15000","Gà thịt":"15000","Gà đẻ":null,"layer_id":86,"fid":687,"label":"Nguyễn Văn Xum "}},{"type":"Feature","id":688,"geometry":{"type":"Point","coordinates":[106.013464,10.006071]},"properties":{"Tên cơ sở":"Huỳnh Minh Trung","Địa chỉ":"Phạm Thị Mến, Xã Trà Côn, Trà Ôn","Tổng đàn":"5000","Gà thịt":"5000","Gà đẻ":null,"layer_id":86,"fid":688,"label":"Huỳnh Minh Trung"}},{"type":"Feature","id":689,"geometry":{"type":"Point","coordinates":[106.012923,10.007582]},"properties":{"Tên cơ sở":"Huỳnh Văn Ngãi","Địa chỉ":"Phạm Thị Mến, Xã Trà Côn, Trà Ôn","Tổng đàn":"3000","Gà thịt":"3000","Gà đẻ":null,"layer_id":86,"fid":689,"label":"Huỳnh Văn Ngãi"}},{"type":"Feature","id":690,"geometry":{"type":"Point","coordinates":[106.012923,10.00758]},"properties":{"Tên cơ sở":"Nguyễn Thanh Quang","Địa chỉ":"Phạm Thị Mến, Xã Trà Côn, Trà Ôn","Tổng đàn":"3000","Gà thịt":"3000","Gà đẻ":null,"layer_id":86,"fid":690,"label":"Nguyễn Thanh Quang"}},{"type":"Feature","id":691,"geometry":{"type":"Point","coordinates":[106.000656,10.012298]},"properties":{"Tên cơ sở":"Nguyễn Văn Hoãnh","Địa chỉ":"Trà Ngoa, Xã Trà Côn, Trà Ôn","Tổng đàn":"19000","Gà thịt":"19000","Gà đẻ":null,"layer_id":86,"fid":691,"label":"Nguyễn Văn Hoãnh"}},{"type":"Feature","id":692,"geometry":{"type":"Point","coordinates":[105.983826,9.94253]},"properties":{"Tên cơ sở":"Nguyễn Văn Út","Địa chỉ":"Vĩnh Khánh I, Xã Vĩnh Xuân, Trà Ôn","Tổng đàn":"2000","Gà thịt":"2000","Gà đẻ":null,"layer_id":86,"fid":692,"label":"Nguyễn Văn Út"}},{"type":"Feature","id":693,"geometry":{"type":"Point","coordinates":[106.019471,9.944172]},"properties":{"Tên cơ sở":"Bùi Quốc Cường","Địa chỉ":"Vĩnh Khánh II, Xã Vĩnh Xuân, Trà Ôn","Tổng đàn":"2000","Gà thịt":"2000","Gà đẻ":null,"layer_id":86,"fid":693,"label":"Bùi Quốc Cường"}},{"type":"Feature","id":694,"geometry":{"type":"Point","coordinates":[106.13053,10.024999]},"properties":{"Tên cơ sở":"Từ Văn Sĩ","Địa chỉ":"Hiếu Minh B, Xã Hiếu Nhơn, Vũng Liêm","Tổng đàn":"5000","Gà thịt":"5000","Gà đẻ":null,"layer_id":86,"fid":694,"label":"Từ Văn Sĩ"}},{"type":"Feature","id":695,"geometry":{"type":"Point","coordinates":[106.112801,10.081514]},"properties":{"Tên cơ sở":"Võ Văn Tám","Địa chỉ":"Quang Huy, Xã Hiếu Phụng, Vũng Liêm","Tổng đàn":"2000","Gà thịt":"2000","Gà đẻ":null,"layer_id":86,"fid":695,"label":"Võ Văn Tám"}},{"type":"Feature","id":696,"geometry":{"type":"Point","coordinates":[106.112801,10.081514]},"properties":{"Tên cơ sở":"Huỳnh Văn Mua","Địa chỉ":"Quang Huy, Xã Hiếu Phụng, Vũng Liêm","Tổng đàn":"2000","Gà thịt":"2000","Gà đẻ":null,"layer_id":86,"fid":696,"label":"Huỳnh Văn Mua"}},{"type":"Feature","id":697,"geometry":{"type":"Point","coordinates":[106.113419,10.096089]},"properties":{"Tên cơ sở":"Nguyễn Văn Chặc","Địa chỉ":"Tân Khánh, Xã Hiếu Phụng, Vũng Liêm","Tổng đàn":"2000","Gà thịt":"2000","Gà đẻ":null,"layer_id":86,"fid":697,"label":"Nguyễn Văn Chặc"}},{"type":"Feature","id":698,"geometry":{"type":"Point","coordinates":[106.129608,9.994788]},"properties":{"Tên cơ sở":"Nguyễn Văn Bé Tư","Địa chỉ":"Kinh A, Xã Hiếu Thành, Vũng Liêm","Tổng đàn":"2000","Gà thịt":"2000","Gà đẻ":null,"layer_id":86,"fid":698,"label":"Nguyễn Văn Bé Tư"}},{"type":"Feature","id":699,"geometry":{"type":"Point","coordinates":[106.16176,10.113492]},"properties":{"Tên cơ sở":"Huỳnh Văn Trạng","Địa chỉ":"Quang Hòa, Xã Quới An, Vũng Liêm","Tổng đàn":"6000","Gà thịt":"6000","Gà đẻ":null,"layer_id":86,"fid":699,"label":"Huỳnh Văn Trạng"}},{"type":"Feature","id":700,"geometry":{"type":"Point","coordinates":[106.161737,10.112023]},"properties":{"Tên cơ sở":"Nguyễn Minh Huấn","Địa chỉ":"Quang Minh, Xã Quới An, Vũng Liêm","Tổng đàn":"2000","Gà thịt":"2000","Gà đẻ":null,"layer_id":86,"fid":700,"label":"Nguyễn Minh Huấn"}},{"type":"Feature","id":701,"geometry":{"type":"Point","coordinates":[106.107576,10.137158]},"properties":{"Tên cơ sở":"Nguyễn Tấn Tài","Địa chỉ":"Ấp 3, Xã Tân An Luông, Vũng Liêm","Tổng đàn":"19000","Gà thịt":"19000","Gà đẻ":null,"layer_id":86,"fid":701,"label":"Nguyễn Tấn Tài"}},{"type":"Feature","id":702,"geometry":{"type":"Point","coordinates":[106.107768,10.134794]},"properties":{"Tên cơ sở":"Đặng Hải Quang","Địa chỉ":"Ấp 3, Xã Tân An Luông, Vũng Liêm","Tổng đàn":"20500","Gà thịt":"20500","Gà đẻ":null,"layer_id":86,"fid":702,"label":"Đặng Hải Quang"}},{"type":"Feature","id":703,"geometry":{"type":"Point","coordinates":[106.106099,10.13292]},"properties":{"Tên cơ sở":"Trần Thị Huyền Trang","Địa chỉ":"Ấp 3, Xã Tân An Luông, Vũng Liêm","Tổng đàn":"30000","Gà thịt":"30000","Gà đẻ":null,"layer_id":86,"fid":703,"label":"Trần Thị Huyền Trang"}},{"type":"Feature","id":704,"geometry":{"type":"Point","coordinates":[106.091148,10.123103]},"properties":{"Tên cơ sở":"Trần Thanh Phong","Địa chỉ":"Ấp Rạch Cốc, Xã Tân An Luông, Vũng Liêm","Tổng đàn":"20000","Gà thịt":"20000","Gà đẻ":null,"layer_id":86,"fid":704,"label":"Trần Thanh Phong"}},{"type":"Feature","id":705,"geometry":{"type":"Point","coordinates":[106.089354,10.123866]},"properties":{"Tên cơ sở":"Trần Thanh Nhẹ","Địa chỉ":"Ấp Rạch Cốc, Xã Tân An Luông, Vũng Liêm","Tổng đàn":"40000","Gà thịt":"40000","Gà đẻ":null,"layer_id":86,"fid":705,"label":"Trần Thanh Nhẹ"}},{"type":"Feature","id":706,"geometry":{"type":"Point","coordinates":[106.102364,10.150841]},"properties":{"Tên cơ sở":"Nguyễn Ngọc Thảo","Địa chỉ":"Đập Thủ, Xã Tân Quới Trung, Vũng Liêm","Tổng đàn":"19500","Gà thịt":"19500","Gà đẻ":null,"layer_id":86,"fid":706,"label":"Nguyễn Ngọc Thảo"}},{"type":"Feature","id":707,"geometry":{"type":"Point","coordinates":[106.10249,10.145442]},"properties":{"Tên cơ sở":"Lê Đăng Khoa","Địa chỉ":"Đập Thủ, Xã Tân Quới Trung, Vũng Liêm","Tổng đàn":"34000","Gà thịt":"34000","Gà đẻ":null,"layer_id":86,"fid":707,"label":"Lê Đăng Khoa"}},{"type":"Feature","id":708,"geometry":{"type":"Point","coordinates":[106.254073,10.084135]},"properties":{"Tên cơ sở":"Nguyễn Khương Khang","Địa chỉ":"Bình Thủy, Xã Thanh Bình, Vũng Liêm","Tổng đàn":"5000","Gà thịt":"3000","Gà đẻ":"2000","layer_id":86,"fid":708,"label":"Nguyễn Khương Khang"}},{"type":"Feature","id":709,"geometry":{"type":"Point","coordinates":[106.266654,10.079652]},"properties":{"Tên cơ sở":"Nguyễn Hoàng Ân","Địa chỉ":"Thông Lưu, Xã Thanh Bình, Vũng Liêm","Tổng đàn":"5000","Gà thịt":"3000","Gà đẻ":"2000","layer_id":86,"fid":709,"label":"Nguyễn Hoàng Ân"}},{"type":"Feature","id":710,"geometry":{"type":"Point","coordinates":[106.121891,10.047928]},"properties":{"Tên cơ sở":"Lê Thanh Phong","Địa chỉ":"An Hậu, Xã Hiếu Thuận, Vũng Liêm","Tổng đàn":"2000","Gà thịt":null,"Gà đẻ":"2000","layer_id":86,"fid":710,"label":"Lê Thanh Phong"}},{"type":"Feature","id":711,"geometry":{"type":"Point","coordinates":[106.124807,10.130369]},"properties":{"Tên cơ sở":"Trần Thị Nương","Địa chỉ":"Bà Phận, Xã Trung Chánh, Vũng Liêm","Tổng đàn":"2000","Gà thịt":"2000","Gà đẻ":null,"layer_id":86,"fid":711,"label":"Trần Thị Nương"}},{"type":"Feature","id":712,"geometry":{"type":"Point","coordinates":[106.129359,10.133133]},"properties":{"Tên cơ sở":"Đặng Văn Lộc","Địa chỉ":"Bà Phận, Xã Trung Chánh, Vũng Liêm","Tổng đàn":"3000","Gà thịt":"3000","Gà đẻ":null,"layer_id":86,"fid":712,"label":"Đặng Văn Lộc"}},{"type":"Feature","id":713,"geometry":{"type":"Point","coordinates":[106.125933,10.129973]},"properties":{"Tên cơ sở":"Nguyễn Quốc Hùng","Địa chỉ":"Bà Phận, Xã Trung Chánh, Vũng Liêm","Tổng đàn":"2000","Gà thịt":"2000","Gà đẻ":null,"layer_id":86,"fid":713,"label":"Nguyễn Quốc Hùng"}},{"type":"Feature","id":714,"geometry":{"type":"Point","coordinates":[106.129373,10.133256]},"properties":{"Tên cơ sở":"Nguyễn Thành Nhân","Địa chỉ":"Bà Phận, Xã Trung Chánh, Vũng Liêm","Tổng đàn":"3000","Gà thịt":"3000","Gà đẻ":null,"layer_id":86,"fid":714,"label":"Nguyễn Thành Nhân"}},{"type":"Feature","id":715,"geometry":{"type":"Point","coordinates":[106.131446,10.139179]},"properties":{"Tên cơ sở":"Nguyễn Văn Khích","Địa chỉ":"Bà Phận, Xã Trung Chánh, Vũng Liêm","Tổng đàn":"2000","Gà thịt":"2000","Gà đẻ":null,"layer_id":86,"fid":715,"label":"Nguyễn Văn Khích"}},{"type":"Feature","id":716,"geometry":{"type":"Point","coordinates":[106.125389,10.112904]},"properties":{"Tên cơ sở":"Âu Văn Bình","Địa chỉ":"Chợ Mới, Xã Trung Chánh, Vũng Liêm","Tổng đàn":"2000","Gà thịt":"2000","Gà đẻ":null,"layer_id":86,"fid":716,"label":"Âu Văn Bình"}},{"type":"Feature","id":717,"geometry":{"type":"Point","coordinates":[106.116083,10.109308]},"properties":{"Tên cơ sở":"Lâm Minh Thảo","Địa chỉ":"Chợ Mới, Xã Trung Chánh, Vũng Liêm","Tổng đàn":"2000","Gà thịt":"2000","Gà đẻ":null,"layer_id":86,"fid":717,"label":"Lâm Minh Thảo"}},{"type":"Feature","id":718,"geometry":{"type":"Point","coordinates":[106.121447,10.111172]},"properties":{"Tên cơ sở":"Phạm Tuấn Cảnh","Địa chỉ":"Chợ Mới, Xã Trung Chánh, Vũng Liêm","Tổng đàn":"3000","Gà thịt":"3000","Gà đẻ":null,"layer_id":86,"fid":718,"label":"Phạm Tuấn Cảnh"}},{"type":"Feature","id":719,"geometry":{"type":"Point","coordinates":[106.125933,10.129973]},"properties":{"Tên cơ sở":"Trương Văn Út","Địa chỉ":"Quang Đức, Xã Trung Chánh, Vũng Liêm","Tổng đàn":"2000","Gà thịt":"2000","Gà đẻ":null,"layer_id":86,"fid":719,"label":"Trương Văn Út"}},{"type":"Feature","id":720,"geometry":{"type":"Point","coordinates":[106.145158,10.119513]},"properties":{"Tên cơ sở":"Nguyễn Thị Thơm","Địa chỉ":"Quang Đức, Xã Trung Chánh, Vũng Liêm","Tổng đàn":"2000","Gà thịt":"2000","Gà đẻ":null,"layer_id":86,"fid":720,"label":"Nguyễn Thị Thơm"}},{"type":"Feature","id":721,"geometry":{"type":"Point","coordinates":[106.145158,10.119513]},"properties":{"Tên cơ sở":"Phạm Văn Thân","Địa chỉ":"Quang Đức, Xã Trung Chánh, Vũng Liêm","Tổng đàn":"2000","Gà thịt":"2000","Gà đẻ":null,"layer_id":86,"fid":721,"label":"Phạm Văn Thân"}},{"type":"Feature","id":722,"geometry":{"type":"Point","coordinates":[106.138097,10.119519]},"properties":{"Tên cơ sở":"Phạm Văn Tân","Địa chỉ":"Quang Đức, Xã Trung Chánh, Vũng Liêm","Tổng đàn":"2000","Gà thịt":"2000","Gà đẻ":null,"layer_id":86,"fid":722,"label":"Phạm Văn Tân"}},{"type":"Feature","id":723,"geometry":{"type":"Point","coordinates":[106.138097,10.119519]},"properties":{"Tên cơ sở":"Lâm Văn Hiệp","Địa chỉ":"Quang Đức, Xã Trung Chánh, Vũng Liêm","Tổng đàn":"2000","Gà thịt":"2000","Gà đẻ":null,"layer_id":86,"fid":723,"label":"Lâm Văn Hiệp"}},{"type":"Feature","id":724,"geometry":{"type":"Point","coordinates":[106.122656,10.132108]},"properties":{"Tên cơ sở":"Lê Văn Vinh","Địa chỉ":"Rạch Rô, Xã Trung Chánh, Vũng Liêm","Tổng đàn":"2000","Gà thịt":"2000","Gà đẻ":null,"layer_id":86,"fid":724,"label":"Lê Văn Vinh"}},{"type":"Feature","id":725,"geometry":{"type":"Point","coordinates":[106.11845,10.127821]},"properties":{"Tên cơ sở":"Cao Thái Ngân","Địa chỉ":"Rạch Rô, Xã Trung Chánh, Vũng Liêm","Tổng đàn":"2000","Gà thịt":"2000","Gà đẻ":null,"layer_id":86,"fid":725,"label":"Cao Thái Ngân"}},{"type":"Feature","id":726,"geometry":{"type":"Point","coordinates":[106.11845,10.127821]},"properties":{"Tên cơ sở":"Nguyễn Văn Trà","Địa chỉ":"Rạch Rô, Xã Trung Chánh, Vũng Liêm","Tổng đàn":"2000","Gà thịt":"2000","Gà đẻ":null,"layer_id":86,"fid":726,"label":"Nguyễn Văn Trà"}},{"type":"Feature","id":727,"geometry":{"type":"Point","coordinates":[106.121647,10.128506]},"properties":{"Tên cơ sở":"Huỳnh Thanh Thúy","Địa chỉ":"Rạch Rô, Xã Trung Chánh, Vũng Liêm","Tổng đàn":"2000","Gà thịt":"2000","Gà đẻ":null,"layer_id":86,"fid":727,"label":"Huỳnh Thanh Thúy"}},{"type":"Feature","id":728,"geometry":{"type":"Point","coordinates":[106.121647,10.128506]},"properties":{"Tên cơ sở":"Huỳnh Trọng Nghĩa","Địa chỉ":"Rạch Rô, Xã Trung Chánh, Vũng Liêm","Tổng đàn":"2000","Gà thịt":"2000","Gà đẻ":null,"layer_id":86,"fid":728,"label":"Huỳnh Trọng Nghĩa"}},{"type":"Feature","id":729,"geometry":{"type":"Point","coordinates":[106.122154,10.132184]},"properties":{"Tên cơ sở":"Ngô Văn Tuấn","Địa chỉ":"Rạch Rô, Xã Trung Chánh, Vũng Liêm","Tổng đàn":"4000","Gà thịt":"4000","Gà đẻ":null,"layer_id":86,"fid":729,"label":"Ngô Văn Tuấn"}},{"type":"Feature","id":730,"geometry":{"type":"Point","coordinates":[106.121647,10.128506]},"properties":{"Tên cơ sở":"Huỳnh Thị Bé Hai","Địa chỉ":"Rạch Rô, Xã Trung Chánh, Vũng Liêm","Tổng đàn":"2000","Gà thịt":"2000","Gà đẻ":null,"layer_id":86,"fid":730,"label":"Huỳnh Thị Bé Hai"}},{"type":"Feature","id":731,"geometry":{"type":"Point","coordinates":[106.120053,10.130606]},"properties":{"Tên cơ sở":"Lê Văn Nghĩa","Địa chỉ":"Rạch Rô, Xã Trung Chánh, Vũng Liêm","Tổng đàn":"2000","Gà thịt":"2000","Gà đẻ":null,"layer_id":86,"fid":731,"label":"Lê Văn Nghĩa"}},{"type":"Feature","id":732,"geometry":{"type":"Point","coordinates":[106.122154,10.132184]},"properties":{"Tên cơ sở":"Lê Văn Tuấn","Địa chỉ":"Rạch Rô, Xã Trung Chánh, Vũng Liêm","Tổng đàn":"4000","Gà thịt":"4000","Gà đẻ":null,"layer_id":86,"fid":732,"label":"Lê Văn Tuấn"}},{"type":"Feature","id":733,"geometry":{"type":"Point","coordinates":[106.11845,10.127821]},"properties":{"Tên cơ sở":"Nguyễn Văn Tình","Địa chỉ":"Rạch Rô, Xã Trung Chánh, Vũng Liêm","Tổng đàn":"2000","Gà thịt":"2000","Gà đẻ":null,"layer_id":86,"fid":733,"label":"Nguyễn Văn Tình"}},{"type":"Feature","id":734,"geometry":{"type":"Point","coordinates":[106.122154,10.132184]},"properties":{"Tên cơ sở":"Ngô Văn Tuấn","Địa chỉ":"Rạch Rô, Xã Trung Chánh, Vũng Liêm","Tổng đàn":"4000","Gà thịt":"4000","Gà đẻ":null,"layer_id":86,"fid":734,"label":"Ngô Văn Tuấn"}},{"type":"Feature","id":735,"geometry":{"type":"Point","coordinates":[106.157233,10.107574]},"properties":{"Tên cơ sở":"Đặng Văn Cảnh","Địa chỉ":"Bình Phụng, Xã Trung Hiệp, Vũng Liêm","Tổng đàn":"2000","Gà thịt":"2000","Gà đẻ":null,"layer_id":86,"fid":735,"label":"Đặng Văn Cảnh"}},{"type":"Feature","id":736,"geometry":{"type":"Point","coordinates":[106.14685,10.097912]},"properties":{"Tên cơ sở":"Lê Hoàng Việt","Địa chỉ":"Bình Phụng, Xã Trung Hiệp, Vũng Liêm","Tổng đàn":"2000","Gà thịt":"2000","Gà đẻ":null,"layer_id":86,"fid":736,"label":"Lê Hoàng Việt"}},{"type":"Feature","id":737,"geometry":{"type":"Point","coordinates":[106.146515,10.093398]},"properties":{"Tên cơ sở":"Phạm Minh Thi","Địa chỉ":"Bình Phụng, Xã Trung Hiệp, Vũng Liêm","Tổng đàn":"2000","Gà thịt":"2000","Gà đẻ":null,"layer_id":86,"fid":737,"label":"Phạm Minh Thi"}},{"type":"Feature","id":738,"geometry":{"type":"Point","coordinates":[106.140205,10.086769]},"properties":{"Tên cơ sở":"Nguyễn Minh Triết","Địa chỉ":"Bình Phụng, Xã Trung Hiệp, Vũng Liêm","Tổng đàn":"6000","Gà thịt":"6000","Gà đẻ":null,"layer_id":86,"fid":738,"label":"Nguyễn Minh Triết"}},{"type":"Feature","id":739,"geometry":{"type":"Point","coordinates":[106.147904,10.09216]},"properties":{"Tên cơ sở":"Lê Duy Khang","Địa chỉ":"Bình Phụng, Xã Trung Hiệp, Vũng Liêm","Tổng đàn":"2000","Gà thịt":"2000","Gà đẻ":null,"layer_id":86,"fid":739,"label":"Lê Duy Khang"}},{"type":"Feature","id":740,"geometry":{"type":"Point","coordinates":[106.147904,10.09216]},"properties":{"Tên cơ sở":"Lê Quốc Khang","Địa chỉ":"Bình Phụng, Xã Trung Hiệp, Vũng Liêm","Tổng đàn":"2000","Gà thịt":"2000","Gà đẻ":null,"layer_id":86,"fid":740,"label":"Lê Quốc Khang"}},{"type":"Feature","id":741,"geometry":{"type":"Point","coordinates":[106.146939,10.093299]},"properties":{"Tên cơ sở":"Phạm Thị Nhanh","Địa chỉ":"Bình Phụng, Xã Trung Hiệp, Vũng Liêm","Tổng đàn":"2000","Gà thịt":"2000","Gà đẻ":null,"layer_id":86,"fid":741,"label":"Phạm Thị Nhanh"}},{"type":"Feature","id":742,"geometry":{"type":"Point","coordinates":[106.147463,10.091693]},"properties":{"Tên cơ sở":"Nguyễn Thị Lan","Địa chỉ":"Bình Phụng, Xã Trung Hiệp, Vũng Liêm","Tổng đàn":"2000","Gà thịt":"2000","Gà đẻ":null,"layer_id":86,"fid":742,"label":"Nguyễn Thị Lan"}},{"type":"Feature","id":743,"geometry":{"type":"Point","coordinates":[106.145415,10.08386]},"properties":{"Tên cơ sở":"Hồ Văn Chinh","Địa chỉ":"Bình Phụng, Xã Trung Hiếu, Vũng Liêm","Tổng đàn":"2000","Gà thịt":"2000","Gà đẻ":null,"layer_id":86,"fid":743,"label":"Hồ Văn Chinh"}},{"type":"Feature","id":744,"geometry":{"type":"Point","coordinates":[106.14578,10.094788]},"properties":{"Tên cơ sở":"Hồ Văn Tình","Địa chỉ":"Bình Phụng, Xã Trung Hiệp, Vũng Liêm","Tổng đàn":"3000","Gà thịt":"3000","Gà đẻ":null,"layer_id":86,"fid":744,"label":"Hồ Văn Tình"}},{"type":"Feature","id":745,"geometry":{"type":"Point","coordinates":[106.148127,10.092186]},"properties":{"Tên cơ sở":"Lê Văn Phúc","Địa chỉ":"Bình Phụng, Xã Trung Hiệp, Vũng Liêm","Tổng đàn":"2000","Gà thịt":"2000","Gà đẻ":null,"layer_id":86,"fid":745,"label":"Lê Văn Phúc"}},{"type":"Feature","id":746,"geometry":{"type":"Point","coordinates":[106.148127,10.092186]},"properties":{"Tên cơ sở":"Phạm Văn Sáu","Địa chỉ":"Bình Phụng, Xã Trung Hiệp, Vũng Liêm","Tổng đàn":"2000","Gà thịt":"2000","Gà đẻ":null,"layer_id":86,"fid":746,"label":"Phạm Văn Sáu"}},{"type":"Feature","id":747,"geometry":{"type":"Point","coordinates":[106.134436,10.104561]},"properties":{"Tên cơ sở":"Phạm Văn Út Lớn","Địa chỉ":"Mướp Sát, Xã Trung Hiệp, Vũng Liêm","Tổng đàn":"2000","Gà thịt":"2000","Gà đẻ":null,"layer_id":86,"fid":747,"label":"Phạm Văn Út Lớn"}},{"type":"Feature","id":748,"geometry":{"type":"Point","coordinates":[106.134019,10.109593]},"properties":{"Tên cơ sở":"Lê Văn Béo","Địa chỉ":"Mướp Sát, Xã Trung Hiệp, Vũng Liêm","Tổng đàn":"2000","Gà thịt":"2000","Gà đẻ":null,"layer_id":86,"fid":748,"label":"Lê Văn Béo"}},{"type":"Feature","id":749,"geometry":{"type":"Point","coordinates":[106.134019,10.109593]},"properties":{"Tên cơ sở":"Phạm Thành Ngãi","Địa chỉ":"Mướp Sát, Xã Trung Hiệp, Vũng Liêm","Tổng đàn":"2000","Gà thịt":"2000","Gà đẻ":null,"layer_id":86,"fid":749,"label":"Phạm Thành Ngãi"}},{"type":"Feature","id":750,"geometry":{"type":"Point","coordinates":[106.110131,10.106723]},"properties":{"Tên cơ sở":"Thạch Văn No","Địa chỉ":"Rạch Ngay, Xã Trung Chánh, Vũng Liêm","Tổng đàn":"3000","Gà thịt":"3000","Gà đẻ":null,"layer_id":86,"fid":750,"label":"Thạch Văn No"}},{"type":"Feature","id":751,"geometry":{"type":"Point","coordinates":[106.111968,10.088352]},"properties":{"Tên cơ sở":"Trần Văn Tư","Địa chỉ":"Rạch Ngay, Xã Hiếu Phụng, Vũng Liêm","Tổng đàn":"3000","Gà thịt":"3000","Gà đẻ":null,"layer_id":86,"fid":751,"label":"Trần Văn Tư"}},{"type":"Feature","id":752,"geometry":{"type":"Point","coordinates":[106.119058,10.105772]},"properties":{"Tên cơ sở":"Dương Hoàng Phong","Địa chỉ":"Rạch Ngay, Xã Trung Hiệp, Vũng Liêm","Tổng đàn":"3000","Gà thịt":"3000","Gà đẻ":null,"layer_id":86,"fid":752,"label":"Dương Hoàng Phong"}},{"type":"Feature","id":753,"geometry":{"type":"Point","coordinates":[106.127036,10.110619]},"properties":{"Tên cơ sở":"Nguyễn Văn Thương","Địa chỉ":"Rạch Ngay, Xã Trung Hiệp, Vũng Liêm","Tổng đàn":"4000","Gà thịt":"4000","Gà đẻ":null,"layer_id":86,"fid":753,"label":"Nguyễn Văn Thương"}},{"type":"Feature","id":754,"geometry":{"type":"Point","coordinates":[106.12025,10.106072]},"properties":{"Tên cơ sở":"Trần Văn Năm Nhỏ","Địa chỉ":"Rạch Ngay, Xã Trung Hiệp, Vũng Liêm","Tổng đàn":"2000","Gà thịt":"2000","Gà đẻ":null,"layer_id":86,"fid":754,"label":"Trần Văn Năm Nhỏ"}},{"type":"Feature","id":755,"geometry":{"type":"Point","coordinates":[106.120344,10.106234]},"properties":{"Tên cơ sở":"Lâm Văn Nhanh","Địa chỉ":"Rạch Ngay, Xã Trung Hiệp, Vũng Liêm","Tổng đàn":"2000","Gà thịt":"2000","Gà đẻ":null,"layer_id":86,"fid":755,"label":"Lâm Văn Nhanh"}},{"type":"Feature","id":756,"geometry":{"type":"Point","coordinates":[106.121639,10.106406]},"properties":{"Tên cơ sở":"Lâm Văn Út","Địa chỉ":"Rạch Ngay, Xã Trung Hiệp, Vũng Liêm","Tổng đàn":"3000","Gà thịt":"3000","Gà đẻ":null,"layer_id":86,"fid":756,"label":"Lâm Văn Út"}},{"type":"Feature","id":757,"geometry":{"type":"Point","coordinates":[106.131022,10.110653]},"properties":{"Tên cơ sở":"Lê Anh Quốc","Địa chỉ":"Rạch Ngay, Xã Trung Hiệp, Vũng Liêm","Tổng đàn":"5000","Gà thịt":"3000","Gà đẻ":"2000","layer_id":86,"fid":757,"label":"Lê Anh Quốc"}},{"type":"Feature","id":758,"geometry":{"type":"Point","coordinates":[106.131508,10.110607]},"properties":{"Tên cơ sở":"Lê Anh Phương","Địa chỉ":"Rạch Ngay, Xã Trung Hiệp, Vũng Liêm","Tổng đàn":"2000","Gà thịt":"2000","Gà đẻ":null,"layer_id":86,"fid":758,"label":"Lê Anh Phương"}},{"type":"Feature","id":759,"geometry":{"type":"Point","coordinates":[106.131022,10.110653]},"properties":{"Tên cơ sở":"Lê Văn Thơm","Địa chỉ":"Rạch Ngay, Xã Trung Hiệp, Vũng Liêm","Tổng đàn":"4000","Gà thịt":"1000","Gà đẻ":"3000","layer_id":86,"fid":759,"label":"Lê Văn Thơm"}},{"type":"Feature","id":760,"geometry":{"type":"Point","coordinates":[106.132643,10.111561]},"properties":{"Tên cơ sở":"Lê Văn Húp","Địa chỉ":"Rạch Ngay, Xã Trung Hiệp, Vũng Liêm","Tổng đàn":"2000","Gà thịt":"2000","Gà đẻ":null,"layer_id":86,"fid":760,"label":"Lê Văn Húp"}},{"type":"Feature","id":761,"geometry":{"type":"Point","coordinates":[106.129777,10.109958]},"properties":{"Tên cơ sở":"Lê Văn Chờ","Địa chỉ":"Rạch Ngay, Xã Trung Hiệp, Vũng Liêm","Tổng đàn":"2000","Gà thịt":"2000","Gà đẻ":null,"layer_id":86,"fid":761,"label":"Lê Văn Chờ"}},{"type":"Feature","id":762,"geometry":{"type":"Point","coordinates":[106.110131,10.106723]},"properties":{"Tên cơ sở":"Cao Thành Vinh","Địa chỉ":"Rạch Ngay, Xã Trung Chánh, Vũng Liêm","Tổng đàn":"4000","Gà thịt":"4000","Gà đẻ":null,"layer_id":86,"fid":762,"label":"Cao Thành Vinh"}},{"type":"Feature","id":763,"geometry":{"type":"Point","coordinates":[106.128135,10.109326]},"properties":{"Tên cơ sở":"Đặng Minh Quang","Địa chỉ":"Rạch Ngay, Xã Trung Hiệp, Vũng Liêm","Tổng đàn":"2000","Gà thịt":"2000","Gà đẻ":null,"layer_id":86,"fid":763,"label":"Đặng Minh Quang"}},{"type":"Feature","id":764,"geometry":{"type":"Point","coordinates":[106.128959,10.109427]},"properties":{"Tên cơ sở":"Lê Văn Phước","Địa chỉ":"Rạch Ngay, Xã Trung Hiệp, Vũng Liêm","Tổng đàn":"2000","Gà thịt":"2000","Gà đẻ":null,"layer_id":86,"fid":764,"label":"Lê Văn Phước"}},{"type":"Feature","id":765,"geometry":{"type":"Point","coordinates":[106.128128,10.109283]},"properties":{"Tên cơ sở":"Lê Văn Đen","Địa chỉ":"Rạch Ngay, Xã Trung Hiệp, Vũng Liêm","Tổng đàn":"2000","Gà thịt":"2000","Gà đẻ":null,"layer_id":86,"fid":765,"label":"Lê Văn Đen"}},{"type":"Feature","id":766,"geometry":{"type":"Point","coordinates":[106.113438,10.107235]},"properties":{"Tên cơ sở":"Dương Hoàng Giang","Địa chỉ":"Rạch Ngay, Xã Trung Chánh, Vũng Liêm","Tổng đàn":"2000","Gà thịt":"2000","Gà đẻ":null,"layer_id":86,"fid":766,"label":"Dương Hoàng Giang"}},{"type":"Feature","id":767,"geometry":{"type":"Point","coordinates":[106.126964,10.108588]},"properties":{"Tên cơ sở":"Lê Thị Thanh Liêm","Địa chỉ":"Rạch Ngay, Xã Trung Hiệp, Vũng Liêm","Tổng đàn":"4000","Gà thịt":"4000","Gà đẻ":null,"layer_id":86,"fid":767,"label":"Lê Thị Thanh Liêm"}},{"type":"Feature","id":768,"geometry":{"type":"Point","coordinates":[106.148358,10.115517]},"properties":{"Tên cơ sở":"Đoàn Văn Mới","Địa chỉ":"Trung Hưng, Xã Trung Hiệp, Vũng Liêm","Tổng đàn":"2000","Gà thịt":"2000","Gà đẻ":null,"layer_id":86,"fid":768,"label":"Đoàn Văn Mới"}},{"type":"Feature","id":769,"geometry":{"type":"Point","coordinates":[106.138329,10.116395]},"properties":{"Tên cơ sở":"Nguyễn Thị Bé","Địa chỉ":"Trung Hưng, Xã Trung Hiệp, Vũng Liêm","Tổng đàn":"4000","Gà thịt":"4000","Gà đẻ":null,"layer_id":86,"fid":769,"label":"Nguyễn Thị Bé"}},{"type":"Feature","id":770,"geometry":{"type":"Point","coordinates":[106.150194,10.114647]},"properties":{"Tên cơ sở":"Nguyễn Văn Nhớ","Địa chỉ":"Trung Hưng, Xã Trung Hiệp, Vũng Liêm","Tổng đàn":"2000","Gà thịt":"2000","Gà đẻ":null,"layer_id":86,"fid":770,"label":"Nguyễn Văn Nhớ"}},{"type":"Feature","id":771,"geometry":{"type":"Point","coordinates":[106.152988,10.112845]},"properties":{"Tên cơ sở":"Lê Hoài Ân","Địa chỉ":"Trung Hưng, Xã Trung Hiệp, Vũng Liêm","Tổng đàn":"3000","Gà thịt":"3000","Gà đẻ":null,"layer_id":86,"fid":771,"label":"Lê Hoài Ân"}},{"type":"Feature","id":772,"geometry":{"type":"Point","coordinates":[106.152984,10.112847]},"properties":{"Tên cơ sở":"Lê Văn Dũng","Địa chỉ":"Trung Hưng, Xã Trung Hiệp, Vũng Liêm","Tổng đàn":"2000","Gà thịt":"2000","Gà đẻ":null,"layer_id":86,"fid":772,"label":"Lê Văn Dũng"}},{"type":"Feature","id":773,"geometry":{"type":"Point","coordinates":[106.15514,10.111245]},"properties":{"Tên cơ sở":"Nguyễn Văn Phu","Địa chỉ":"Trung Hưng, Xã Trung Hiệp, Vũng Liêm","Tổng đàn":"2000","Gà thịt":"2000","Gà đẻ":null,"layer_id":86,"fid":773,"label":"Nguyễn Văn Phu"}},{"type":"Feature","id":774,"geometry":{"type":"Point","coordinates":[106.153178,10.112083]},"properties":{"Tên cơ sở":"Lê Thị Hồng Sương","Địa chỉ":"Trung Hưng, Xã Trung Hiệp, Vũng Liêm","Tổng đàn":"3000","Gà thịt":"3000","Gà đẻ":null,"layer_id":86,"fid":774,"label":"Lê Thị Hồng Sương"}},{"type":"Feature","id":775,"geometry":{"type":"Point","coordinates":[106.151739,10.112933]},"properties":{"Tên cơ sở":"Nguyễn Thi Thu Trang","Địa chỉ":"Trung Hưng, Xã Trung Hiệp, Vũng Liêm","Tổng đàn":"3000","Gà thịt":"3000","Gà đẻ":null,"layer_id":86,"fid":775,"label":"Nguyễn Thi Thu Trang"}},{"type":"Feature","id":776,"geometry":{"type":"Point","coordinates":[106.157418,10.110115]},"properties":{"Tên cơ sở":"Trần Văn Lên","Địa chỉ":"Trung Hưng, Xã Trung Hiệp, Vũng Liêm","Tổng đàn":"2000","Gà thịt":"2000","Gà đẻ":null,"layer_id":86,"fid":776,"label":"Trần Văn Lên"}},{"type":"Feature","id":777,"geometry":{"type":"Point","coordinates":[106.153892,10.111726]},"properties":{"Tên cơ sở":"Trần Kim Sang ","Địa chỉ":"Trung Hưng, Xã Trung Hiệp, Vũng Liêm","Tổng đàn":"2000","Gà thịt":"2000","Gà đẻ":null,"layer_id":86,"fid":777,"label":"Trần Kim Sang "}},{"type":"Feature","id":778,"geometry":{"type":"Point","coordinates":[106.152732,10.112849]},"properties":{"Tên cơ sở":"Trần Ngọc Lợi","Địa chỉ":"Trung Hưng, Xã Trung Hiệp, Vũng Liêm","Tổng đàn":"3000","Gà thịt":"3000","Gà đẻ":null,"layer_id":86,"fid":778,"label":"Trần Ngọc Lợi"}},{"type":"Feature","id":779,"geometry":{"type":"Point","coordinates":[106.15523,10.111225]},"properties":{"Tên cơ sở":"Nguyễn Minh Thành","Địa chỉ":"Trung Hưng, Xã Trung Hiệp, Vũng Liêm","Tổng đàn":"5000","Gà thịt":"5000","Gà đẻ":null,"layer_id":86,"fid":779,"label":"Nguyễn Minh Thành"}},{"type":"Feature","id":780,"geometry":{"type":"Point","coordinates":[106.155231,10.111213]},"properties":{"Tên cơ sở":"Nguyễn Hồng Oanh","Địa chỉ":"Trung Hưng, Xã Trung Hiệp, Vũng Liêm","Tổng đàn":"3000","Gà thịt":"3000","Gà đẻ":null,"layer_id":86,"fid":780,"label":"Nguyễn Hồng Oanh"}},{"type":"Feature","id":781,"geometry":{"type":"Point","coordinates":[106.153259,10.111985]},"properties":{"Tên cơ sở":"Huỳnh Văn Hảo","Địa chỉ":"Trung Hưng, Xã Trung Hiệp, Vũng Liêm","Tổng đàn":"2000","Gà thịt":"2000","Gà đẻ":null,"layer_id":86,"fid":781,"label":"Huỳnh Văn Hảo"}},{"type":"Feature","id":782,"geometry":{"type":"Point","coordinates":[106.199541,10.051418]},"properties":{"Tên cơ sở":"Ngô Văn Hải","Địa chỉ":"Ấp Một, Xã Trung Ngãi, Vũng Liêm","Tổng đàn":"2000","Gà thịt":"2000","Gà đẻ":null,"layer_id":86,"fid":782,"label":"Ngô Văn Hải"}},{"type":"Feature","id":783,"geometry":{"type":"Point","coordinates":[106.199876,10.050484]},"properties":{"Tên cơ sở":"Nguyễn Thanh Hải","Địa chỉ":"Ấp Một, Xã Trung Ngãi, Vũng Liêm","Tổng đàn":"3000","Gà thịt":"3000","Gà đẻ":null,"layer_id":86,"fid":783,"label":"Nguyễn Thanh Hải"}},{"type":"Feature","id":784,"geometry":{"type":"Point","coordinates":[106.193807,10.047479]},"properties":{"Tên cơ sở":"Nguyễn Thanh Vũ","Địa chỉ":"Ấp Một, Xã Trung Ngãi, Vũng Liêm","Tổng đàn":"2000","Gà thịt":"2000","Gà đẻ":null,"layer_id":86,"fid":784,"label":"Nguyễn Thanh Vũ"}},{"type":"Feature","id":785,"geometry":{"type":"Point","coordinates":[106.194535,10.04735]},"properties":{"Tên cơ sở":"Nguyễn Thanh Phong","Địa chỉ":"Ấp Một, Xã Trung Ngãi, Vũng Liêm","Tổng đàn":"3000","Gà thịt":"3000","Gà đẻ":null,"layer_id":86,"fid":785,"label":"Nguyễn Thanh Phong"}},{"type":"Feature","id":786,"geometry":{"type":"Point","coordinates":[106.196618,10.048455]},"properties":{"Tên cơ sở":"Huỳnh Văn Cường","Địa chỉ":"Ấp Một, Xã Trung Ngãi, Vũng Liêm","Tổng đàn":"2000","Gà thịt":"2000","Gà đẻ":null,"layer_id":86,"fid":786,"label":"Huỳnh Văn Cường"}},{"type":"Feature","id":787,"geometry":{"type":"Point","coordinates":[106.184262,10.037476]},"properties":{"Tên cơ sở":"Nguyễn Văn Tư","Địa chỉ":"Ấp Hai, Xã Trung Ngãi, Vũng Liêm","Tổng đàn":"3000","Gà thịt":"3000","Gà đẻ":null,"layer_id":86,"fid":787,"label":"Nguyễn Văn Tư"}},{"type":"Feature","id":788,"geometry":{"type":"Point","coordinates":[106.177692,10.037021]},"properties":{"Tên cơ sở":"Lê Thị Thanh Xuân","Địa chỉ":"Ấp Hai, Xã Trung Thành, Vũng Liêm","Tổng đàn":"6000","Gà thịt":"6000","Gà đẻ":null,"layer_id":86,"fid":788,"label":"Lê Thị Thanh Xuân"}},{"type":"Feature","id":789,"geometry":{"type":"Point","coordinates":[106.181467,10.026648]},"properties":{"Tên cơ sở":"Nguyễn Văn Tâm","Địa chỉ":"Ấp Hai, Xã Trung Ngãi, Vũng Liêm","Tổng đàn":"3000","Gà thịt":"3000","Gà đẻ":null,"layer_id":86,"fid":789,"label":"Nguyễn Văn Tâm"}},{"type":"Feature","id":790,"geometry":{"type":"Point","coordinates":[106.182949,10.039163]},"properties":{"Tên cơ sở":"Phạm Thanh Nam","Địa chỉ":"Ấp Hai, Xã Trung Ngãi, Vũng Liêm","Tổng đàn":"7000","Gà thịt":"7000","Gà đẻ":null,"layer_id":86,"fid":790,"label":"Phạm Thanh Nam"}},{"type":"Feature","id":791,"geometry":{"type":"Point","coordinates":[106.175924,10.031676]},"properties":{"Tên cơ sở":"Lê Thanh Mộng","Địa chỉ":"Ấp Kinh, Xã Trung Ngãi, Vũng Liêm","Tổng đàn":"3000","Gà thịt":"3000","Gà đẻ":null,"layer_id":86,"fid":791,"label":"Lê Thanh Mộng"}},{"type":"Feature","id":792,"geometry":{"type":"Point","coordinates":[106.176335,10.030242]},"properties":{"Tên cơ sở":"Nguyễn Văn Thình","Địa chỉ":"Ấp Kinh, Xã Trung Ngãi, Vũng Liêm","Tổng đàn":"6000","Gà thịt":"6000","Gà đẻ":null,"layer_id":86,"fid":792,"label":"Nguyễn Văn Thình"}},{"type":"Feature","id":793,"geometry":{"type":"Point","coordinates":[106.205555,10.039552]},"properties":{"Tên cơ sở":"Trương Minh Hiếu ","Địa chỉ":"Phú Tân, Xã Trung Nghĩa, Vũng Liêm","Tổng đàn":"20000","Gà thịt":"20000","Gà đẻ":null,"layer_id":86,"fid":793,"label":"Trương Minh Hiếu "}},{"type":"Feature","id":794,"geometry":{"type":"Point","coordinates":[106.205555,10.039552]},"properties":{"Tên cơ sở":"Trương Minh Hiếu","Địa chỉ":"Phú Tân, Xã Trung Nghĩa, Vũng Liêm","Tổng đàn":"10000","Gà thịt":"10000","Gà đẻ":null,"layer_id":86,"fid":794,"label":"Trương Minh Hiếu"}},{"type":"Feature","id":795,"geometry":{"type":"Point","coordinates":[106.209727,10.083014]},"properties":{"Tên cơ sở":"Nguyễn Văn Út","Địa chỉ":"Phú Nông, Xã Trung Thành Đông, Vũng Liêm","Tổng đàn":"2200","Gà thịt":"2200","Gà đẻ":null,"layer_id":86,"fid":795,"label":"Nguyễn Văn Út"}},{"type":"Feature","id":796,"geometry":{"type":"Point","coordinates":[106.173791,10.126438]},"properties":{"Tên cơ sở":"Lê Văn Mãi","Địa chỉ":"Quới Hiệp, Xã Trung Thành Tây, Vũng Liêm","Tổng đàn":"3000","Gà thịt":"3000","Gà đẻ":null,"layer_id":86,"fid":796,"label":"Lê Văn Mãi"}},{"type":"Feature","id":797,"geometry":{"type":"Point","coordinates":[106.19696,10.109867]},"properties":{"Tên cơ sở":"Tăng Thành Diễn","Địa chỉ":"Trung Hậu, Xã Trung Thành Tây, Vũng Liêm","Tổng đàn":"6000","Gà thịt":"6000","Gà đẻ":null,"layer_id":86,"fid":797,"label":"Tăng Thành Diễn"}},{"type":"Feature","id":798,"geometry":{"type":"Point","coordinates":[106.203199,10.10895]},"properties":{"Tên cơ sở":"Lê Quang Dinh","Địa chỉ":"Trung Hậu, Xã Trung Thành Tây, Vũng Liêm","Tổng đàn":"3000","Gà thịt":"3000","Gà đẻ":null,"layer_id":86,"fid":798,"label":"Lê Quang Dinh"}},{"type":"Feature","id":799,"geometry":{"type":"Point","coordinates":[106.197373,10.111811]},"properties":{"Tên cơ sở":"Nguyền Thị Thùy Trang","Địa chỉ":"Trung Hậu, Xã Trung Thành Tây, Vũng Liêm","Tổng đàn":"6000","Gà thịt":"6000","Gà đẻ":null,"layer_id":86,"fid":799,"label":"Nguyền Thị Thùy Trang"}},{"type":"Feature","id":800,"geometry":{"type":"Point","coordinates":[106.19696,10.109867]},"properties":{"Tên cơ sở":"Nguyễn Công Tình","Địa chỉ":"Trung Hậu, Xã Trung Thành Tây, Vũng Liêm","Tổng đàn":"3000","Gà thịt":"3000","Gà đẻ":null,"layer_id":86,"fid":800,"label":"Nguyễn Công Tình"}}]}
